{
"type": "FeatureCollection",
"name": "1718808",
"crs": { "type": "name", "properties": { "name": "urn:ogc:def:crs:EPSG::5880" } },
"features": [
{ "type": "Feature", "properties": { "lv_id": "LOC_079233", "id": 42366.0, "CD_SETOR": "171880805000002", "SITUACAO": "Urbana", "CD_SIT": "1", "CD_TIPO": "0", "AREA_KM2": 0.23082734932857699, "CD_REGIAO": "1", "NM_REGIAO": "Norte", "CD_UF": "17", "NM_UF": "Tocantins", "CD_MUN": "1718808", "NM_MUN": "Sampaio", "CD_DIST": "171880805", "NM_DIST": "Sampaio", "CD_SUBDIST": "17188080500", "NM_SUBDIST": null, "CD_BAIRRO": null, "NM_BAIRRO": null, "CD_NU": null, "NM_NU": null, "CD_FCU": null, "NM_FCU": null, "CD_AGLOM": null, "NM_AGLOM": null, "CD_RGINT": "1702", "NM_RGINT": "Araguaína", "CD_RGI": "170009", "NM_RGI": "Araguatins", "CD_CONCURB": null, "NM_CONCURB": null, "mun_code_x": "1718808", "index_right": 91926, "dist_m": 389.20717648297745, "local_id": 818822, "ano": 2022, "cod_localidade_ibge": 1718808, "NR_ZONA": "21", "nr_cep": 77980000.0, "nm_localidade": "SAMPAIO", "nm_locvot": "COLÉGIO ESTADUAL SAMPAIO", "ds_endereco": "RUA MANOEL MATOS - QUADRA 28 - LOTE 01", "ds_bairro": "CENTRO", "pred_long": -47.877505, "pred_lat": -5.350852, "pred_dist": 0.0, "tse_long": -47.87762, "tse_lat": -5.35090667, "long": -47.87762, "lat": -5.35090667, "ID_UNICO": "LOC_079233", "SG_UF": "TO", "CD_MUNICIPIO": "92541", "NR_LOCAL_VOTACAO": "1015", "QT_SECOES_AGREGADAS": 0, "QT_ELEITORES_TRANSFERIDOS": 2, "CIRO GOMES (PDT) (NÃO ELEITO) 1T": 32.0, "CONSTITUINTE EYMAEL (DC) (NÃO ELEITO) 1T": 0.0, "FELIPE D AVILA (NOVO) (NÃO ELEITO) 1T": 0.0, "JAIR BOLSONARO (PL) (2º TURNO) 1T": 467.0, "LULA (PT) (2º TURNO) 1T": 1109.0, "LÉO PÉRICLES (UP) (NÃO ELEITO) 1T": 0.0, "PADRE KELMON (PTB) (NÃO ELEITO) 1T": 0.0, "SIMONE TEBET (MDB) (NÃO ELEITO) 1T": 30.0, "SOFIA MANZANO (PCB) (NÃO ELEITO) 1T": 0.0, "SORAYA THRONICKE (UNIÃO) (NÃO ELEITO) 1T": 4.0, "VERA (PSTU) (NÃO ELEITO) 1T": 0.0, "Total_Votos_Validos 1T": 1642.0, "Votos_Brancos 1T": 7.0, "Votos_Nulos 1T": 46.0, "Abstenções 1T": 504.0, "Eleitores_Aptos 1T": 2199.0, "JAIR BOLSONARO (PL) (NÃO ELEITO) 2T": 488.0, "LULA (PT) (ELEITO) 2T": 1093.0, "Total_Votos_Validos 2T": 1581.0, "Votos_Brancos 2T": 14.0, "Votos_Nulos 2T": 33.0, "Abstenções 2T": 571.0, "Eleitores_Aptos 2T": 2199.0, "mun_code_y": "1718808", "mun_code": "1718808" }, "geometry": { "type": "Polygon", "coordinates": [ [ [ 5679626.178640498779714, 9407513.0632891561836 ], [ 5679771.185085355304182, 9406593.76599527336657 ], [ 5679749.187366358935833, 9406280.862828448414803 ], [ 5679679.286966091953218, 9406090.057829532772303 ], [ 5679695.578709825873375, 9405817.858838956803083 ], [ 5679933.088742845691741, 9405291.557930495589972 ], [ 5680412.081698251888156, 9404480.655085595324636 ], [ 5680858.186827685683966, 9403852.549957426264882 ], [ 5682303.386114693246782, 9402077.653674956411123 ], [ 5682931.19382597412914, 9401801.747458852827549 ], [ 5683648.596396805718541, 9401191.548998737707734 ], [ 5683689.603430975228548, 9401164.895739655941725 ], [ 5683882.778425673022866, 9401039.323145223781466 ], [ 5684088.72568919043988, 9400905.444604212418199 ], [ 5684069.089133635163307, 9400891.539231138303876 ], [ 5684052.846262597478926, 9400880.03547634743154 ], [ 5679380.271987630054355, 9397569.715588390827179 ], [ 5679016.151122162118554, 9397668.030228242278099 ], [ 5674698.601974135264754, 9398833.451761893928051 ], [ 5674696.718109867535532, 9398833.48174237832427 ], [ 5674679.722055704332888, 9398831.839122466742992 ], [ 5674675.067750634625554, 9398831.90795760974288 ], [ 5674662.75597323384136, 9398832.086811261251569 ], [ 5674645.790001788176596, 9398832.345615869387984 ], [ 5674623.172215282917023, 9398832.672111447900534 ], [ 5674608.10119010694325, 9398832.900817073881626 ], [ 5674589.270240624435246, 9398835.080005891621113 ], [ 5674574.248069074004889, 9398839.089432768523693 ], [ 5674555.4882449535653, 9398845.060235677286983 ], [ 5674540.466068600304425, 9398849.069650441408157 ], [ 5674527.376827723346651, 9398856.852051520720124 ], [ 5674509.598388226702809, 9398865.648920664563775 ], [ 5674491.819942864589393, 9398874.445780016481876 ], [ 5674476.906750624068081, 9398886.038745284080505 ], [ 5674467.675223778933287, 9398899.443211577832699 ], [ 5674454.627003219909966, 9398909.11577302031219 ], [ 5674441.5377331757918, 9398916.898133540526032 ], [ 5674428.45954136364162, 9398924.680377289652824 ], [ 5674413.51624586712569, 9398934.37187972292304 ], [ 5674397.561707462184131, 9398939.358103612437844 ], [ 5674381.618137514218688, 9398944.333090221509337 ], [ 5674362.877133742906153, 9398952.194202240556479 ], [ 5674347.88498461060226, 9398958.104957699775696 ], [ 5674332.881750071421266, 9398964.015817804262042 ], [ 5674329.421894599683583, 9398964.940122736617923 ], [ 5674317.859526650048792, 9398968.025139465928078 ], [ 5674300.983500303700566, 9398973.965841837227345 ], [ 5674286.040278972126544, 9398983.668403841555119 ], [ 5674271.078068152070045, 9398991.469427023082972 ], [ 5674257.988750698044896, 9398999.251710928976536 ], [ 5674242.996577556245029, 9399005.162421513348818 ], [ 5674229.918223723769188, 9399012.933462569490075 ], [ 5674215.005040758289397, 9399024.537406135350466 ], [ 5674202.956986289471388, 9399038.926342179998755 ], [ 5674190.920116477645934, 9399053.326279532164335 ], [ 5674181.748594861477613, 9399070.533451929688454 ], [ 5674172.576952632516623, 9399087.72949774004519 ], [ 5674170.693081093020737, 9399087.759455639868975 ], [ 5674159.60749748069793, 9399103.0840347353369 ], [ 5674150.375940719619393, 9399116.499473951756954 ], [ 5674141.144266316667199, 9399129.903787728399038 ], [ 5674131.912585249170661, 9399143.308096123859286 ], [ 5674120.797134978696704, 9399156.753473501652479 ], [ 5674111.6064672768116, 9399172.047954555600882 ], [ 5674108.056554259732366, 9399187.274921672418714 ], [ 5674106.39039958268404, 9399202.460814254358411 ], [ 5674100.967683035880327, 9399217.717618977651 ], [ 5674095.533766919746995, 9399232.963411217555404 ], [ 5674084.557010885328054, 9399255.871458861976862 ], [ 5674077.239201480522752, 9399271.147191610187292 ], [ 5674066.123690544627607, 9399284.59252392500639 ], [ 5674055.019143532961607, 9399298.026618666946888 ], [ 5674041.989579503424466, 9399309.589351918548346 ], [ 5674028.900133088231087, 9399317.371492996811867 ], [ 5674015.821654046885669, 9399325.142397446557879 ], [ 5673998.964442629367113, 9399332.984417740255594 ], [ 5673983.972140476107597, 9399338.894963068887591 ], [ 5673970.893649414181709, 9399346.665848487988114 ], [ 5673955.95023852866143, 9399356.368192447349429 ], [ 5673948.602429592050612, 9399369.753576477989554 ], [ 5673945.063390402123332, 9399384.969250816851854 ], [ 5673941.513263422064483, 9399400.185033828020096 ], [ 5673939.858204987831414, 9399415.381882907822728 ], [ 5673938.192059611901641, 9399430.578841745853424 ], [ 5673937.660563639365137, 9399432.852857511490583 ], [ 5673934.641917014494538, 9399445.794619791209698 ], [ 5673927.305045481771231, 9399459.168754879385233 ], [ 5673912.38220227137208, 9399469.82726320438087 ], [ 5673897.448159306310117, 9399480.474753696471453 ], [ 5673899.332042001187801, 9399480.444815661758184 ], [ 5673884.429580464959145, 9399492.037276266142726 ], [ 5673869.456173916347325, 9399499.849263759329915 ], [ 5673854.493734395131469, 9399507.650013430044055 ], [ 5673835.782477864995599, 9399517.412143494933844 ], [ 5673820.760066224262118, 9399521.421185350045562 ], [ 5673807.670526224188507, 9399529.203209454193711 ], [ 5673794.59195371158421, 9399536.973997050896287 ], [ 5673781.532329579815269, 9399546.64629409648478 ], [ 5673770.397701364010572, 9399558.189946038648486 ], [ 5673759.251984807662666, 9399569.733702529221773 ], [ 5673750.020069628022611, 9399583.137805903330445 ], [ 5673740.799230124801397, 9399596.541793236508965 ], [ 5673731.567412445321679, 9399609.957005796954036 ], [ 5673722.335477284155786, 9399623.361092999577522 ], [ 5673714.987533408217132, 9399636.746366754174232 ], [ 5673713.332247165031731, 9399651.932025825604796 ], [ 5673706.153048942796886, 9399676.692457601428032 ], [ 5673702.613860839046538, 9399691.908038983121514 ], [ 5673697.179695763625205, 9399707.153654320165515 ], [ 5673695.513414250686765, 9399722.350536813959479 ], [ 5673691.97420968580991, 9399737.566112076863647 ], [ 5673690.307918477803469, 9399752.762992160394788 ], [ 5673686.757621005177498, 9399767.978674529120326 ], [ 5673683.218400412239134, 9399783.194244267418981 ], [ 5673677.784311017021537, 9399798.450964502990246 ], [ 5673670.496124671772122, 9399815.616764096543193 ], [ 5673663.20804045163095, 9399832.793678628280759 ], [ 5673655.949858346953988, 9399851.860868951305747 ], [ 5673646.747730889357626, 9399867.155171787366271 ], [ 5673635.601882711984217, 9399878.698826538398862 ], [ 5673624.467110904864967, 9399890.24236461892724 ], [ 5673611.437245314009488, 9399901.804804148152471 ], [ 5673586.696797127835453, 9399918.288358349353075 ], [ 5673561.956332439556718, 9399934.771890079602599 ], [ 5673537.226933658123016, 9399951.255288813263178 ], [ 5673512.486435987986624, 9399967.738775633275509 ], [ 5673497.403959953226149, 9399967.955941323190928 ], [ 5673482.321594560518861, 9399968.184223528951406 ], [ 5673467.329045034013689, 9399974.094447091221809 ], [ 5673452.366393368691206, 9399981.894938951358199 ], [ 5673437.392654874362051, 9399989.695534203201532 ], [ 5673422.430105041712523, 9399997.507131706923246 ], [ 5673409.340255284681916, 9400005.277804667130113 ], [ 5673396.261594628915191, 9400013.059481147676706 ], [ 5673385.11565198097378, 9400024.603020131587982 ], [ 5673370.12307614274323, 9400030.513198964297771 ], [ 5673353.246598649770021, 9400036.453277144581079 ], [ 5673336.310104466043413, 9400038.590566283091903 ], [ 5673323.002899658866227, 9400031.205458208918571 ], [ 5673307.811798704788089, 9400023.850255496799946 ], [ 5673290.845411660149693, 9400024.097265930846334 ], [ 5673273.879135187715292, 9400024.355391934514046 ], [ 5673258.886549995280802, 9400030.265535796061158 ], [ 5673245.837757764384151, 9400039.937427034601569 ], [ 5673228.920180574059486, 9400043.97618299163878 ], [ 5673213.848880113102496, 9400044.204276069998741 ], [ 5673198.766386528499424, 9400044.421356365084648 ], [ 5673181.691399456933141, 9400037.096038924530149 ], [ 5673168.354209608398378, 9400027.809534732252359 ], [ 5673154.968210485763848, 9400014.731271091848612 ], [ 5673141.552321910858154, 9399999.762745717540383 ], [ 5673133.271093174815178, 9399994.00679531507194 ], [ 5673128.215249769389629, 9399990.487367939203978 ], [ 5673113.054065896198153, 9399985.022420283406973 ], [ 5673088.231890222989023, 9399987.738704413175583 ], [ 5673063.420794926583767, 9399990.454866917803884 ], [ 5673054.994840769097209, 9400003.572597078979015 ], [ 5673046.568991089239717, 9400016.701442342251539 ], [ 5673036.702422520145774, 9400029.844641832634807 ], [ 5673025.366595117375255, 9400040.133276861160994 ], [ 5673004.019190589897335, 9400053.446484794840217 ], [ 5672989.73673233948648, 9400059.43842682801187 ], [ 5672974.050100782886147, 9400066.890076164156199 ], [ 5672958.352382477372885, 9400074.341828484088182 ], [ 5672942.810602500103414, 9400091.900936400517821 ], [ 5672927.294378761202097, 9400110.916617140173912 ], [ 5672916.063412647694349, 9400128.410508187487721 ], [ 5672906.924323269166052, 9400142.269252967089415 ], [ 5672897.796309372410178, 9400156.12788188830018 ], [ 5672896.355704495683312, 9400156.15335469506681 ], [ 5672882.109633499756455, 9400163.579473681747913 ], [ 5672867.89241636916995, 9400173.907855300232768 ], [ 5672853.620991354808211, 9400179.899616587907076 ], [ 5672836.442786514759064, 9400184.485730471089482 ], [ 5672820.690812377259135, 9400187.60079357214272 ], [ 5672806.393924756906927, 9400192.147074384614825 ], [ 5672792.097034906037152, 9400196.69335008226335 ], [ 5672766.438654819503427, 9400210.071554787456989 ], [ 5672752.181579960510135, 9400217.508848341181874 ], [ 5672740.859905209392309, 9400229.231804268434644 ], [ 5672729.523855180479586, 9400239.509182559326291 ], [ 5672719.64288605004549, 9400251.217779207974672 ], [ 5672709.761800699867308, 9400262.915250804275274 ], [ 5672698.414652128703892, 9400273.192722640931606 ], [ 5672684.182998391799629, 9400282.075438655912876 ], [ 5672668.470805659890175, 9400288.081463085487485 ], [ 5672654.199327996000648, 9400294.073136245831847 ], [ 5672639.942102441564202, 9400301.499253051355481 ], [ 5672625.750243770889938, 9400313.272969095036387 ], [ 5672611.493008741177619, 9400320.699071967974305 ], [ 5672600.156908298842609, 9400330.976389605551958 ], [ 5672591.730858376249671, 9400344.105033623054624 ], [ 5672586.24019280821085, 9400361.519343610852957 ], [ 5672585.034931457601488, 9400377.423039963468909 ], [ 5672583.840858231298625, 9400393.33774502389133 ], [ 5672583.880554730072618, 9400396.21765068359673 ], [ 5672584.116003873758018, 9400412.10700523853302 ], [ 5672588.636865269392729, 9400426.485753074288368 ], [ 5672598.85841997154057, 9400437.894098265096545 ], [ 5672607.664698095060885, 9400450.762243784964085 ], [ 5672612.185557713732123, 9400465.140998415648937 ], [ 5672612.446328081190586, 9400482.464698733761907 ], [ 5672605.253549033775926, 9400493.668263420462608 ], [ 5672604.020228293724358, 9400495.593325216323137 ], [ 5672592.698427079245448, 9400507.316175067797303 ], [ 5672591.278396524488926, 9400508.297821568325162 ], [ 5672579.896205980330706, 9400516.173450861126184 ], [ 5672567.119421483017504, 9400526.476177670061588 ], [ 5672554.328273128718138, 9400535.333330579102039 ], [ 5672537.226141749881208, 9400544.244495429098606 ], [ 5672524.44934072624892, 9400554.547201042994857 ], [ 5672514.557146237231791, 9400566.255786316469312 ], [ 5672504.675918116234243, 9400577.953136304393411 ], [ 5672494.820122451521456, 9400591.095936462283134 ], [ 5672482.057653253898025, 9400602.844182373955846 ], [ 5672469.291905307210982, 9400613.146745573729277 ], [ 5672456.514958816580474, 9400623.438292553648353 ], [ 5672440.842533068731427, 9400632.346291590481997 ], [ 5672426.610606958158314, 9400641.217711485922337 ], [ 5672415.288722491823137, 9400652.940470097586513 ], [ 5672401.86389731336385, 9400668.309526089578867 ], [ 5672388.450034238398075, 9400683.667342644184828 ], [ 5672377.153560939244926, 9400696.835532186552882 ], [ 5672358.675939908251166, 9400710.108496194705367 ], [ 5672344.444085755385458, 9400718.990988316014409 ], [ 5672328.778673278167844, 9400728.610581576824188 ], [ 5672313.124337369576097, 9400738.230056080967188 ], [ 5672293.206065675243735, 9400751.528421893715858 ], [ 5672280.403723775409162, 9400760.385545982047915 ], [ 5672267.61245977692306, 9400769.242553740739822 ], [ 5672252.030364732258022, 9400783.910113681107759 ], [ 5672243.618437224067748, 9400798.484134504571557 ], [ 5672239.528360119089484, 9400812.981820829212666 ], [ 5672236.893352017737925, 9400828.91074139252305 ], [ 5672232.792292042635381, 9400843.419653374701738 ], [ 5672228.691226775757968, 9400857.92856309749186 ], [ 5672223.185933568514884, 9400873.897131161764264 ], [ 5672214.759513886645436, 9400887.01444991864264 ], [ 5672203.43750389944762, 9400898.737085893750191 ], [ 5672192.101256519556046, 9400909.025276785716414 ], [ 5672177.883540324866772, 9400919.342101281508803 ], [ 5672169.468289176933467, 9400932.470407709479332 ], [ 5672162.496911416761577, 9400947.018938977271318 ], [ 5672158.395689393393695, 9400961.516700519248843 ], [ 5672154.305654952302575, 9400976.025469325482845 ], [ 5672151.65949440561235, 9400991.95446646399796 ], [ 5672146.128715598024428, 9401006.477547977119684 ], [ 5672140.637688891962171, 9401023.891630696132779 ], [ 5672130.75635081063956, 9401035.599898207932711 ], [ 5672119.419935815036297, 9401045.876919081434608 ], [ 5672098.046397228725255, 9401057.743842396885157 ], [ 5672083.788966914638877, 9401065.180714098736644 ], [ 5672068.127297591418028, 9401074.077228344976902 ], [ 5672055.3248180905357, 9401082.934208685532212 ], [ 5672045.468751524575055, 9401096.076762868091464 ], [ 5672039.93791626393795, 9401110.599800435826182 ], [ 5672027.345134041272104, 9401133.900528751313686 ], [ 5672027.370549229905009, 9401135.345973195508122 ], [ 5672020.39907084684819, 9401149.89443170838058 ], [ 5672014.868212755769491, 9401164.417456107214093 ], [ 5672006.467177089303732, 9401178.991226306185126 ], [ 5671999.495679119601846, 9401193.53967247158289 ], [ 5671989.639561403542757, 9401206.682188123464584 ], [ 5671983.92972195148468, 9401216.569627203047276 ], [ 5671981.227311974391341, 9401221.244933560490608 ], [ 5671972.826248216442764, 9401235.818683438003063 ], [ 5671960.139564393088222, 9401251.891802281141281 ], [ 5671950.272335193119943, 9401265.034404087811708 ], [ 5671940.40520950499922, 9401278.188119793310761 ], [ 5671930.54904951620847, 9401291.330600071698427 ], [ 5671919.252252977341413, 9401304.498499281704426 ], [ 5671914.31151779089123, 9401310.352573057636619 ], [ 5671909.370670991018414, 9401316.195525886490941 ], [ 5671898.02304511051625, 9401326.472529489547014 ], [ 5671885.231541377492249, 9401335.329289346933365 ], [ 5671869.59839235059917, 9401347.116760313510895 ], [ 5671859.742303775623441, 9401360.270323246717453 ], [ 5671840.989573358558118, 9401378.260737773030996 ], [ 5671822.236827643588185, 9401396.251135962083936 ], [ 5671803.484066627919674, 9401414.241517826914787 ], [ 5671796.029020305722952, 9401421.388277746737003 ], [ 5671784.731290321797132, 9401432.231883365660906 ], [ 5671788.463108744472265, 9401416.225520869717002 ], [ 5671790.85189591255039, 9401398.90912296064198 ], [ 5671790.59203876927495, 9401381.630134053528309 ], [ 5671790.356479695998132, 9401365.685388002544641 ], [ 5671790.131999095901847, 9401349.740531982854009 ], [ 5671788.566517222672701, 9401333.808987494558096 ], [ 5671788.553406395018101, 9401332.485754329711199 ], [ 5671786.129275869578123, 9401302.606255933642387 ], [ 5671783.705242665484548, 9401272.737879192456603 ], [ 5671778.183472784236073, 9401256.867855954915285 ], [ 5671777.947883647866547, 9401240.923113036900759 ], [ 5671786.829258687794209, 9401215.535345487296581 ], [ 5671795.908802614547312, 9401203.434840455651283 ], [ 5671803.62111805472523, 9401188.701178452000022 ], [ 5671811.357623871415854, 9401175.290635408833623 ], [ 5671821.755978431552649, 9401163.177020290866494 ], [ 5671829.481499674730003, 9401149.777697507292032 ], [ 5671832.053124831989408, 9401145.32611845061183 ], [ 5671841.086283851414919, 9401129.66742048971355 ], [ 5671847.479735368862748, 9401114.9468300845474 ], [ 5671849.868409344926476, 9401097.630399834364653 ], [ 5671852.281387500464916, 9401081.648212186992168 ], [ 5671852.045624447986484, 9401065.692330243065953 ], [ 5671851.809967467561364, 9401049.747567964717746 ], [ 5671850.255590580403805, 9401033.827024534344673 ], [ 5671850.19384896196425, 9401029.835301786661148 ], [ 5671835.80007581692189, 9401010.1055569332093 ], [ 5671821.417497317306697, 9400990.386827897280455 ], [ 5671807.023727853782475, 9400970.657095601782203 ], [ 5671801.526208724826574, 9400956.121337315067649 ], [ 5671794.698781674727798, 9400941.598791375756264 ], [ 5671785.271248636767268, 9400929.77104396186769 ], [ 5671770.619303990155458, 9400922.009766625240445 ], [ 5671755.943159716203809, 9400912.925367476418614 ], [ 5671741.31553203240037, 9400906.49833345040679 ], [ 5671726.689943050034344, 9400901.394641414284706 ], [ 5671712.038007634691894, 9400893.633365981280804 ], [ 5671698.691668464802206, 9400884.524640845134854 ], [ 5671686.639842643402517, 9400874.068577129393816 ], [ 5671681.131251027807593, 9400859.532956637442112 ], [ 5671670.371791400946677, 9400846.395097535103559 ], [ 5671657.03868936188519, 9400838.62073090299964 ], [ 5671643.705589381046593, 9400830.846365109086037 ], [ 5671626.367622966878116, 9400820.465059282258153 ], [ 5671622.965238551609218, 9400817.140411205589771 ], [ 5671614.291606990620494, 9400808.685888612642884 ], [ 5671604.864097599871457, 9400796.858172126114368 ], [ 5671596.742180824279785, 9400783.683009630069137 ], [ 5671596.506509167142212, 9400767.738313542678952 ], [ 5671596.270833352580667, 9400751.793617503717542 ], [ 5671599.716907205991447, 9400743.874832393601537 ], [ 5671602.664208698086441, 9400737.073067743331194 ], [ 5671610.400600834749639, 9400723.662532201036811 ], [ 5671620.69975524675101, 9400704.910851277410984 ], [ 5671622.0184645075351, 9400704.886629784479737 ], [ 5671642.852226325310767, 9400683.305711647495627 ], [ 5671663.686077440157533, 9400661.73589182458818 ], [ 5671679.445180935785174, 9400654.851295342668891 ], [ 5671695.266038260422647, 9400651.958404397591949 ], [ 5671712.330829074606299, 9400643.737457955256104 ], [ 5671722.729011719115078, 9400631.623784324154258 ], [ 5671730.44102630764246, 9400616.878953354433179 ], [ 5671735.515619480982423, 9400602.182569688186049 ], [ 5671726.088186756707728, 9400590.365997087210417 ], [ 5671710.243029586039484, 9400591.924671668559313 ], [ 5671686.474326294846833, 9400593.606564374640584 ], [ 5671670.677802572026849, 9400597.833708396181464 ], [ 5671656.213108188472688, 9400603.35985260643065 ], [ 5671641.598647498525679, 9400598.256112448871136 ], [ 5671640.044209484010935, 9400582.335629099979997 ], [ 5671639.808364169672132, 9400566.379802020266652 ], [ 5671638.253918776288629, 9400550.459319777786732 ], [ 5671635.380653672851622, 9400534.5519441626966 ], [ 5671627.247621772810817, 9400521.376922935247421 ], [ 5671613.914546055719256, 9400513.602624405175447 ], [ 5671599.300100238062441, 9400508.498900400474668 ], [ 5671582.123021016828716, 9400508.747440716251731 ], [ 5671566.363958649337292, 9400515.632042272016406 ], [ 5671547.918737099505961, 9400519.885490147396922 ], [ 5671532.023030485957861, 9400517.463445102795959 ], [ 5671526.733759046532214, 9400513.868426132947206 ], [ 5671518.665649604983628, 9400508.35490438900888 ], [ 5671510.543830576352775, 9400495.190907688811421 ], [ 5671506.365002301521599, 9400480.63101408444345 ], [ 5671508.766680817119777, 9400464.637892233207822 ], [ 5671512.498250889591873, 9400448.631553435698152 ], [ 5671517.572836942970753, 9400433.935223856940866 ], [ 5671517.337091442197561, 9400417.990548100322485 ], [ 5671517.101341784931719, 9400402.045872379094362 ], [ 5671517.063896846026182, 9400399.388408076018095 ], [ 5671503.481851832941175, 9400374.335110122337937 ], [ 5671503.246093891561031, 9400358.390437979251146 ], [ 5671508.309570476412773, 9400343.694213528186083 ], [ 5671518.707571923732758, 9400331.569439247250557 ], [ 5671534.466685372404754, 9400324.695925248786807 ], [ 5671552.812509048730135, 9400313.782133238390088 ], [ 5671559.50992967095226, 9400309.612035265192389 ], [ 5671565.909888273105025, 9400305.622823230922222 ], [ 5671577.650889473035932, 9400294.808030646294355 ], [ 5671581.382388394325972, 9400278.801658648997545 ], [ 5671574.554911432787776, 9400264.279217343777418 ], [ 5671574.075828553177416, 9400264.028204713016748 ], [ 5671559.903158340603113, 9400256.529201559722424 ], [ 5671545.264427236281335, 9400250.091294908896089 ], [ 5671533.236949090845883, 9400240.969592565670609 ], [ 5671536.981681689620018, 9400226.297578595578671 ], [ 5671548.722659333609045, 9400215.482780462130904 ], [ 5671561.819896278902888, 9400207.312330717220902 ], [ 5671577.640632409602404, 9400204.419354939833283 ], [ 5671593.498823734000325, 9400204.183841673657298 ], [ 5671609.343882758170366, 9400202.625095173716545 ], [ 5671610.705366837792099, 9400202.444748124107718 ], [ 5671631.769415097311139, 9400199.633070722222328 ], [ 5671650.265114077366889, 9400199.36019704118371 ], [ 5671666.11017067823559, 9400197.801434790715575 ], [ 5671681.906573294661939, 9400193.574187219142914 ], [ 5671696.371140396222472, 9400188.047936664894223 ], [ 5671710.811377176083624, 9400181.187439374625683 ], [ 5671725.251610279083252, 9400174.326935773715377 ], [ 5671739.680757282301784, 9400167.466536087915301 ], [ 5671751.421792543493211, 9400156.66277527436614 ], [ 5671760.562670646235347, 9400148.542716784402728 ], [ 5671780.705295167863369, 9400134.419254940003157 ], [ 5671800.859100848436356, 9400120.306787138804793 ], [ 5671811.804714937694371, 9400109.766684088855982 ], [ 5671832.312559090554714, 9400102.289736110717058 ], [ 5671848.197707702405751, 9400103.655251506716013 ], [ 5671862.540842464193702, 9400108.22775080986321 ], [ 5671876.883978836238384, 9400112.800249284133315 ], [ 5671891.227116818539798, 9400117.372746946290135 ], [ 5671906.341207999736071, 9400120.336189154535532 ], [ 5671934.055440677329898, 9400117.536061871796846 ], [ 5671946.60485244449228, 9400107.780650079250336 ], [ 5671955.938890636898577, 9400095.67738583125174 ], [ 5671962.874522147700191, 9400082.018835619091988 ], [ 5671964.242177080363035, 9400066.836539311334491 ], [ 5671962.429507371038198, 9400051.719250198453665 ], [ 5671960.627806596457958, 9400036.590731957927346 ], [ 5671959.61295348778367, 9400021.454384608194232 ], [ 5671960.969510076567531, 9400006.272197831422091 ], [ 5671965.514552917331457, 9399991.847852533683181 ], [ 5671972.442305704578757, 9399977.399792302399874 ], [ 5671981.760388653725386, 9399963.69527012296021 ], [ 5671988.80842047650367, 9399958.009150329977274 ], [ 5672008.454362664371729, 9399945.22493614256382 ], [ 5672028.089212378486991, 9399932.440818322822452 ], [ 5672047.735134396702051, 9399919.656576251611114 ], [ 5672062.698772193863988, 9399913.057587958872318 ], [ 5672077.743162540718913, 9399911.239716483280063 ], [ 5672092.822389412671328, 9399911.812458254396915 ], [ 5672115.073179912753403, 9399914.671407068148255 ], [ 5672130.90430832374841, 9399912.834570059552789 ], [ 5672145.948696945793927, 9399911.016681620851159 ], [ 5672160.144511619582772, 9399905.225999262183905 ], [ 5672169.478443026542664, 9399893.122631436213851 ], [ 5672178.017673538997769, 9399880.23759557120502 ], [ 5672185.740038061514497, 9399866.571112824603915 ], [ 5672195.058037526905537, 9399852.866496007889509 ], [ 5672205.197833281010389, 9399841.555780062451959 ], [ 5672218.518043452873826, 9399830.191146939992905 ], [ 5672231.040426848456264, 9399818.845571922138333 ], [ 5672241.985983429476619, 9399808.316389927640557 ], [ 5672254.4924375731498, 9399795.369565775617957 ], [ 5672266.174064225517213, 9399780.840674757957458 ], [ 5672277.855682349763811, 9399766.311776086688042 ], [ 5672284.764138778671622, 9399751.05195546336472 ], [ 5672290.885851386934519, 9399735.811087716370821 ], [ 5672297.805376330390573, 9399720.551148481667042 ], [ 5672301.54448030423373, 9399705.345127463340759 ], [ 5672301.308358115144074, 9399689.400247188284993 ], [ 5672301.080081957392395, 9399674.244865814223886 ], [ 5672300.835990676656365, 9399657.499367073178291 ], [ 5672300.599855998530984, 9399641.554486941546202 ], [ 5672293.885416692122817, 9399616.132498184219003 ], [ 5672286.520431816577911, 9399601.081582367420197 ], [ 5672282.336075820028782, 9399585.99898106791079 ], [ 5672282.317031763494015, 9399585.19847315736115 ], [ 5672268.171611904166639, 9399567.067930445075035 ], [ 5672254.026083517819643, 9399548.9262735247612 ], [ 5672250.832013297826052, 9399545.377200398594141 ], [ 5672237.507170685566962, 9399530.630335960537195 ], [ 5672224.193301975727081, 9399515.872245272621512 ], [ 5672219.229950435459614, 9399501.58699874766171 ], [ 5672211.873038444668055, 9399487.34784409403801 ], [ 5672211.655813789926469, 9399472.192374289035797 ], [ 5672217.77744616381824, 9399456.951501987874508 ], [ 5672227.111214549280703, 9399444.848044054582715 ], [ 5672233.240686612203717, 9399430.396661588922143 ], [ 5672235.406138272956014, 9399415.217442728579044 ], [ 5672231.919719672761858, 9399394.534149231389165 ], [ 5672228.514104954898357, 9399378.631992937996984 ], [ 5672221.176110538654029, 9399365.182238953188062 ], [ 5672212.272394299507141, 9399352.548787895590067 ], [ 5672212.245494588278234, 9399350.95878316834569 ], [ 5672197.977591733448207, 9399333.885995974764228 ], [ 5672183.720884095877409, 9399316.824223034083843 ], [ 5672169.452985865995288, 9399299.75144587084651 ], [ 5672158.980436009354889, 9399288.73503578081727 ], [ 5672149.278911598958075, 9399276.120672570541501 ], [ 5672139.577388130128384, 9399263.506312003359199 ], [ 5672133.018275098875165, 9399249.248123517259955 ], [ 5672130.391528918407857, 9399232.537537388503551 ], [ 5672134.044856006279588, 9399210.949064118787646 ], [ 5672142.564812141470611, 9399197.263435229659081 ], [ 5672153.510172055102885, 9399186.734168246388435 ], [ 5672169.255548416636884, 9399178.525775218382478 ], [ 5672184.23001132439822, 9399171.926452029496431 ], [ 5672198.406547689810395, 9399165.335076577961445 ], [ 5672213.415874823927879, 9399161.126362804323435 ], [ 5672228.467927916906774, 9399160.097764452919364 ], [ 5672245.883617639541626, 9399158.244900699704885 ], [ 5672260.90090708155185, 9399154.83678961545229 ], [ 5672275.937133882194757, 9399152.218061650171876 ], [ 5672290.132705162279308, 9399146.427160669118166 ], [ 5672302.670645397156477, 9399136.671532906591892 ], [ 5672314.378895682282746, 9399123.732499457895756 ], [ 5672323.723615575581789, 9399111.628845991566777 ], [ 5672333.836229192093015, 9399098.727952430024743 ], [ 5672343.161885753273964, 9399085.823779810220003 ], [ 5672351.700807084329426, 9399072.938568379729986 ], [ 5672359.433831058442593, 9399059.260690361261368 ], [ 5672364.757365827448666, 9399044.027681864798069 ], [ 5672366.105703491717577, 9399028.055859366431832 ], [ 5672366.078791635110974, 9399026.465850653126836 ], [ 5672368.015636074356735, 9398996.131179623305798 ], [ 5672365.380799807608128, 9398978.619927778840065 ], [ 5672362.769872710108757, 9398963.510535592213273 ], [ 5672360.948781426995993, 9398947.581446381285787 ], [ 5672358.336973842233419, 9398931.271016709506512 ], [ 5672355.714080824516714, 9398914.960698818787932 ], [ 5672352.316304612904787, 9398899.859160179272294 ], [ 5672346.388439603149891, 9398874.429382296279073 ], [ 5672342.990546490997076, 9398859.31672790274024 ], [ 5672339.576927913352847, 9398842.625076109543443 ], [ 5672336.179140566848218, 9398827.523544460535049 ], [ 5672332.781350902281702, 9398812.422014258801937 ], [ 5672330.979285291396081, 9398797.293444484472275 ], [ 5672330.960230270400643, 9398796.492936005815864 ], [ 5672328.732284779660404, 9398779.778339721262455 ], [ 5672326.504335686564445, 9398763.063744515180588 ], [ 5672326.259984930977225, 9398746.318238040432334 ], [ 5672326.031466128304601, 9398731.162849875167012 ], [ 5672329.735363222658634, 9398713.566127818077803 ], [ 5672334.264090358279645, 9398697.551449168473482 ], [ 5672338.808649164624512, 9398683.12688635289669 ], [ 5672344.151008798740804, 9398668.68323877453804 ], [ 5672348.67661021836102, 9398653.469281665980816 ], [ 5672352.866627910174429, 9398640.171451712027192 ], [ 5672353.232234492897987, 9398639.044600360095501 ], [ 5672356.970990005880594, 9398623.838490702211857 ], [ 5672357.540349851362407, 9398608.675131386145949 ], [ 5672357.311789449304342, 9398593.519735394045711 ], [ 5672356.296502279117703, 9398578.383312426507473 ], [ 5672349.737245557829738, 9398564.125164931640029 ], [ 5672348.925925432704389, 9398562.787643682211637 ], [ 5672341.612297533079982, 9398550.683345980942249 ], [ 5672331.883764055557549, 9398536.479078223928809 ], [ 5672331.077872308902442, 9398535.686423283070326 ], [ 5672315.923770533874631, 9398511.994655726477504 ], [ 5672300.769559165462852, 9398488.291776845231652 ], [ 5672285.615348998457193, 9398464.588906349614263 ], [ 5672286.963538199663162, 9398448.617090690881014 ], [ 5672289.861454993486404, 9398430.227709833532572 ], [ 5672291.228692873381078, 9398415.056399969384074 ], [ 5672294.16150114685297, 9398399.057641318067908 ], [ 5672296.315560981631279, 9398383.878474352881312 ], [ 5672296.884871210902929, 9398368.715127425268292 ], [ 5672296.667346186935902, 9398353.559635641053319 ], [ 5672295.632954473607242, 9398337.622721945866942 ], [ 5672295.590068969875574, 9398334.431477792561054 ], [ 5672289.012843751348555, 9398305.027002427726984 ], [ 5672282.424416769295931, 9398275.61152352578938 ], [ 5672275.847063086926937, 9398246.195939498022199 ], [ 5672269.269811416976154, 9398216.791480692103505 ], [ 5672266.658630819059908, 9398201.671018712222576 ], [ 5672264.856551758944988, 9398186.553598951548338 ], [ 5672262.245365621522069, 9398171.433139085769653 ], [ 5672259.645369755104184, 9398156.323689386248589 ], [ 5672254.681783841922879, 9398142.038542952388525 ], [ 5672249.70711450278759, 9398127.753509126603603 ], [ 5672242.368968524038792, 9398114.303899565711617 ], [ 5672228.700182158499956, 9398101.751576244831085 ], [ 5672227.894291011616588, 9398100.958927135914564 ], [ 5672214.961459401994944, 9398084.406891325488687 ], [ 5672202.028518687933683, 9398067.84374038875103 ], [ 5672189.095690558664501, 9398051.291713716462255 ], [ 5672184.113149621523917, 9398036.217200223356485 ], [ 5672180.707251374609768, 9398020.31512432731688 ], [ 5672178.89395734667778, 9398005.186719397082925 ], [ 5672176.29383341781795, 9397990.066174108535051 ], [ 5672171.206533255986869, 9397967.819805484265089 ], [ 5672167.021778935566545, 9397952.726212084293365 ], [ 5672162.020160865038633, 9397936.851203963160515 ], [ 5672156.258650889620185, 9397922.574060836806893 ], [ 5672149.699342835694551, 9397908.316009854897857 ], [ 5672142.337353993207216, 9397892.475707335397601 ], [ 5672135.778044590726495, 9397878.217661457136273 ], [ 5672129.218734541907907, 9397863.959617972373962 ], [ 5672123.449348102323711, 9397848.892989739775658 ], [ 5672119.253499608486891, 9397833.799523770809174 ], [ 5672115.068731198087335, 9397818.705948855727911 ], [ 5672107.730575766414404, 9397805.256391171365976 ], [ 5672098.815783465281129, 9397792.634403439238667 ], [ 5672089.133122105151415, 9397780.809664387255907 ], [ 5672077.765850744210184, 9397763.430250655859709 ], [ 5672068.843077042140067, 9397750.00765560567379 ], [ 5672068.835093355737627, 9397749.207039896398783 ], [ 5672057.521811567246914, 9397735.01875557564199 ], [ 5672046.2086420385167, 9397720.841594312340021 ], [ 5672041.233946699649096, 9397706.556627541780472 ], [ 5672035.289824789389968, 9397679.525831237435341 ], [ 5672035.270758546888828, 9397678.725326683372259 ], [ 5672031.318182708695531, 9397652.464210655540228 ], [ 5672027.354516355320811, 9397626.203208357095718 ], [ 5672023.940691969357431, 9397609.511691620573401 ], [ 5672024.059258615598083, 9397608.06480772420764 ], [ 5672025.288696309551597, 9397593.539927136152983 ], [ 5672029.019214855507016, 9397577.533233247697353 ], [ 5672029.276531878858805, 9397576.663242358714342 ], [ 5672033.555506018921733, 9397562.308059215545654 ], [ 5672047.591824183240533, 9397546.153886970132589 ], [ 5672060.962074131704867, 9397538.780648438259959 ], [ 5672074.332209351472557, 9397531.396284373477101 ], [ 5672086.880698475055397, 9397521.640280473977327 ], [ 5672094.331111896783113, 9397509.677706893533468 ], [ 5672095.400063053704798, 9397507.954423321411014 ], [ 5672108.614585656672716, 9397489.417455261573195 ], [ 5672122.728598074056208, 9397478.833964932709932 ], [ 5672136.896721081808209, 9397471.452711712568998 ], [ 5672151.862631818279624, 9397464.05235624872148 ], [ 5672153.447244210168719, 9397464.025394974276423 ], [ 5672158.833171592094004, 9397461.758517671376467 ], [ 5672185.155623137950897, 9397450.663725456222892 ], [ 5672211.46698210760951, 9397439.569024262949824 ], [ 5672237.778330476954579, 9397428.474303312599659 ], [ 5672251.973375816829503, 9397422.683006227016449 ], [ 5672266.928175386972725, 9397415.282710259780288 ], [ 5672280.282378250733018, 9397406.308136085048318 ], [ 5672292.83878536708653, 9397397.352653745561838 ], [ 5672307.839598638936877, 9397392.342852879315615 ], [ 5672322.864272837527096, 9397389.723783772438765 ], [ 5672337.90013875067234, 9397387.115718971937895 ], [ 5672351.26231450214982, 9397378.941733635962009 ], [ 5672361.40113284625113, 9397367.619422685354948 ], [ 5672366.743175434879959, 9397353.186765855178237 ], [ 5672367.312198491767049, 9397338.023386394605041 ], [ 5672371.050546396523714, 9397322.817186171188951 ], [ 5672380.383559305220842, 9397310.713339751586318 ], [ 5672393.745704414322972, 9397302.539323342964053 ], [ 5672408.843454817309976, 9397303.911858167499304 ], [ 5672423.922130062244833, 9397304.483880802989006 ], [ 5672439.024676512926817, 9397307.446642527356744 ], [ 5672451.073947766795754, 9397317.635131405666471 ], [ 5672465.478772074915469, 9397326.198657078668475 ], [ 5672476.749222337268293, 9397337.19564139097929 ], [ 5672491.494975571520627, 9397342.163724672049284 ], [ 5672506.240619567222893, 9397347.12068747729063 ], [ 5672507.027438871562481, 9397347.112816452980042 ], [ 5672525.251582140102983, 9397345.251257443800569 ], [ 5672537.807825699448586, 9397336.284561481326818 ], [ 5672547.946709611453116, 9397324.973300538957119 ], [ 5672557.271696540527046, 9397312.068772858008742 ], [ 5672565.004184211604297, 9397298.401712659746408 ], [ 5672574.321162609383464, 9397284.696552427485585 ], [ 5672582.840344781987369, 9397271.010490197688341 ], [ 5672590.572813180275261, 9397257.343415919691324 ], [ 5672599.091982340440154, 9397243.657344033941627 ], [ 5672607.619141904637218, 9397230.771890003234148 ], [ 5672608.409044776111841, 9397229.963282553479075 ], [ 5672620.744267794303596, 9397206.641695747151971 ], [ 5672632.505859106779099, 9397196.904429806396365 ], [ 5672646.681720376014709, 9397190.312446188181639 ], [ 5672660.865465341135859, 9397184.509960304945707 ], [ 5672675.03343253210187, 9397177.128460856154561 ], [ 5672688.395497826859355, 9397168.954317474737763 ], [ 5672700.986739714629948, 9397162.389291694387794 ], [ 5672710.435626707039773, 9397157.457123750820756 ], [ 5672723.805680643767118, 9397150.083588669076562 ], [ 5672735.567127078771591, 9397140.335157532244921 ], [ 5672745.69791154563427, 9397128.223172219470143 ], [ 5672756.634477604180574, 9397116.89269845187664 ], [ 5672765.16156387142837, 9397104.007172921672463 ], [ 5672776.117200901731849, 9397093.47720206156373 ], [ 5672787.042667743749917, 9397082.146822296082973 ], [ 5672797.998293984681368, 9397071.616840096190572 ], [ 5672803.46096689812839, 9397065.946085255593061 ], [ 5672813.412830130197108, 9397041.480521235615015 ], [ 5672823.364564949646592, 9397017.003827741369605 ], [ 5672830.299000373110175, 9397003.34462870284915 ], [ 5672838.020133811980486, 9396989.666426472365856 ], [ 5672844.159739076159894, 9396975.214473191648722 ], [ 5672840.761458375491202, 9396960.112937094643712 ], [ 5672833.42305682040751, 9396946.663396226242185 ], [ 5672834.778682532720268, 9396931.492009939625859 ], [ 5672845.715164456516504, 9396920.161469031125307 ], [ 5672859.901998543180525, 9396913.569241704419255 ], [ 5672874.069853963330388, 9396906.18761277757585 ], [ 5672874.856556902639568, 9396906.168611947447062 ], [ 5672887.377733092755079, 9396894.822178831323981 ], [ 5672899.898791752755642, 9396883.464618884027004 ], [ 5672909.215661027468741, 9396869.770391447469592 ], [ 5672917.734627977944911, 9396856.084151674062014 ], [ 5672929.328898682259023, 9396835.171852929517627 ], [ 5672937.855855611152947, 9396822.286228301003575 ], [ 5672945.588098111562431, 9396808.618974538519979 ], [ 5672952.522328472696245, 9396794.948590958490968 ], [ 5672957.864061013795435, 9396780.515693936496973 ], [ 5672963.992600232362747, 9396766.07491 ], [ 5672963.965503515675664, 9396764.473765913397074 ], [ 5672984.358800417743623, 9396749.022604489699006 ], [ 5672996.879788067191839, 9396737.664977919310331 ], [ 5673008.622077060863376, 9396727.126977229490876 ], [ 5673015.548370118252933, 9396712.667054923251271 ], [ 5673019.278368980623782, 9396696.659986518323421 ], [ 5673023.822162342257798, 9396682.235055992379785 ], [ 5673028.36595025844872, 9396667.810122929513454 ], [ 5673029.697426280938089, 9396650.236791012808681 ], [ 5673029.46833389531821, 9396635.092347217723727 ], [ 5673029.239126505330205, 9396619.936783630400896 ], [ 5673024.983918271027505, 9396600.061807066202164 ], [ 5673024.976019166409969, 9396599.272298522293568 ], [ 5673024.273847682401538, 9396578.939112449064851 ], [ 5673023.571780920028687, 9396558.617046557366848 ], [ 5673017.801863775588572, 9396543.539269432425499 ], [ 5673018.211416478268802, 9396518.012576850131154 ], [ 5673017.993375247344375, 9396502.868024718016386 ], [ 5673015.392739062197506, 9396487.747359190136194 ], [ 5673003.351399194449186, 9396478.359665250405669 ], [ 5672991.321143038570881, 9396468.971861813217402 ], [ 5672976.967338886111975, 9396464.400481982156634 ], [ 5672961.837809325195849, 9396459.836878065019846 ], [ 5672956.854698065668344, 9396444.75123218074441 ], [ 5672959.805938492529094, 9396429.563800329342484 ], [ 5672964.349661707878113, 9396415.138866709545255 ], [ 5672965.136358755640686, 9396415.119858415797353 ], [ 5672970.861823301762342, 9396400.282719537615776 ], [ 5672976.598363436758518, 9396385.445466194301844 ], [ 5672981.92876591347158, 9396371.001514885574579 ], [ 5672988.874036436900496, 9396357.342076115310192 ], [ 5672997.400818133726716, 9396344.456362124532461 ], [ 5673005.938675588928163, 9396331.570532254874706 ], [ 5673011.269165759906173, 9396317.137686492875218 ], [ 5673010.253075446002185, 9396301.990017682313919 ], [ 5673004.413202514871955, 9396282.142079051584005 ], [ 5672997.039674555882812, 9396266.301945742219687 ], [ 5672996.233771721832454, 9396265.509319612756371 ], [ 5672986.884730360470712, 9396250.50083121471107 ], [ 5672977.546659838408232, 9396235.481115153059363 ], [ 5672967.073995078913867, 9396224.476321691647172 ], [ 5672958.93759398907423, 9396211.034854870289564 ], [ 5672958.684473413974047, 9396193.499665465205908 ], [ 5672960.837639608420432, 9396178.309102503582835 ], [ 5672969.36436518188566, 9396165.423372020944953 ], [ 5672981.904233105480671, 9396154.86614478006959 ], [ 5672991.236738240346313, 9396142.761908449232578 ], [ 5672994.187769221141934, 9396127.563330536708236 ], [ 5672993.958553370088339, 9396112.418895183131099 ], [ 5672996.901557908393443, 9396096.41968678496778 ], [ 5672996.874553986825049, 9396094.829661654308438 ], [ 5673014.903989378362894, 9396080.202672690153122 ], [ 5673025.848158636130393, 9396069.672540780156851 ], [ 5673034.385804978199303, 9396056.775541579350829 ], [ 5673040.676740637980402, 9396048.616366235539317 ], [ 5673043.718378584831953, 9396044.682391934096813 ], [ 5673057.88581268209964, 9396037.289377072826028 ], [ 5673072.929198561236262, 9396035.470291290432215 ], [ 5673087.97258360683918, 9396033.651201296597719 ], [ 5673099.714499855414033, 9396023.101910218596458 ], [ 5673107.435352678410709, 9396009.434607284143567 ], [ 5673109.588432502001524, 9395994.243994861841202 ], [ 5673109.351137560792267, 9395978.298901315778494 ], [ 5673109.335209605284035, 9395976.708762057125568 ], [ 5673111.632722084410489, 9395953.809863748028874 ], [ 5673113.941305913962424, 9395930.910852245986462 ], [ 5673116.249879345297813, 9395908.01183875836432 ], [ 5673113.630101472139359, 9395892.101776795461774 ], [ 5673111.029311923310161, 9395876.981114540249109 ], [ 5673106.832864069379866, 9395861.887590404599905 ], [ 5673098.707589790225029, 9395848.457165090367198 ], [ 5673086.658229993656278, 9395838.268969235941768 ], [ 5673076.177514066919684, 9395826.463611010462046 ], [ 5673065.607516217976809, 9395809.065305780619383 ], [ 5673060.624375937506557, 9395793.990812165662646 ], [ 5673059.826493228785694, 9395793.998821068555117 ], [ 5673057.620736399665475, 9395778.484974898397923 ], [ 5673055.403783424757421, 9395762.960121108219028 ], [ 5673054.387661680579185, 9395747.82356858253479 ], [ 5673055.742907639592886, 9395732.65209018625319 ], [ 5673061.084276090376079, 9395718.219062002375722 ], [ 5673065.62775713019073, 9395703.794040957465768 ], [ 5673070.969002745114267, 9395689.349887123331428 ], [ 5673073.114086848683655, 9395673.369762906804681 ], [ 5673077.657551411539316, 9395658.944734625518322 ], [ 5673081.395217262208462, 9395643.738205574452877 ], [ 5673085.938670861534774, 9395629.313172413036227 ], [ 5673089.676325627602637, 9395614.106638854369521 ], [ 5673091.821271212771535, 9395598.115386225283146 ], [ 5673093.974347702227533, 9395582.935881566256285 ], [ 5673096.092262670397758, 9395565.354598708450794 ], [ 5673096.057217366062105, 9395562.96394157782197 ], [ 5673099.763704247772694, 9395545.755938120186329 ], [ 5673103.481377385556698, 9395528.558940822258592 ], [ 5673108.024790551513433, 9395514.133891766890883 ], [ 5673119.739498536102474, 9395501.994462791830301 ], [ 5673131.481334375217557, 9395491.456175569444895 ], [ 5673142.425174243748188, 9395480.914776343852282 ], [ 5673149.359034512192011, 9395467.255290392786264 ], [ 5673152.309827568940818, 9395452.056629851460457 ], [ 5673161.634145936928689, 9395439.162714632228017 ], [ 5673174.189664061181247, 9395430.195406628772616 ], [ 5673183.532968678511679, 9395418.090879701077938 ], [ 5673184.319765237160027, 9395418.082975696772337 ], [ 5673189.183927387930453, 9395398.071933137252927 ], [ 5673194.036998268216848, 9395378.060998229309916 ], [ 5673201.768579945899546, 9395364.382347049191594 ], [ 5673211.092857760377228, 9395351.488400667905807 ], [ 5673220.436128845438361, 9395339.383848849684 ], [ 5673228.148691959679127, 9395324.915783639997244 ], [ 5673232.594752840697765, 9395304.108204193413258 ], [ 5673234.747713146731257, 9395288.928647937253118 ], [ 5673237.690402953885496, 9395272.929321397095919 ], [ 5673242.233708173036575, 9395258.504211058840156 ], [ 5673246.777007952332497, 9395244.079098192974925 ], [ 5673252.118178233504295, 9395229.645964164286852 ], [ 5673251.888567047193646, 9395214.490344515070319 ], [ 5673251.659063650295138, 9395199.345844801515341 ], [ 5673250.642762690782547, 9395184.209252964705229 ], [ 5673250.634730739519, 9395183.408621465787292 ], [ 5673251.919532193802297, 9395163.444628255441785 ], [ 5673256.45487947575748, 9395148.229993179440498 ], [ 5673262.582698442041874, 9395133.777818700298667 ], [ 5673284.613751285709441, 9395121.490069666877389 ], [ 5673299.602713909931481, 9395116.479512762278318 ], [ 5673314.602755509316921, 9395111.468838673084974 ], [ 5673327.15825461409986, 9395102.512530805543065 ], [ 5673338.899806309491396, 9395091.96297299861908 ], [ 5673342.637236766517162, 9395076.756326265633106 ], [ 5673340.823012016713619, 9395061.627736371010542 ], [ 5673331.899732583202422, 9395048.205413248389959 ], [ 5673321.418827557936311, 9395036.389059061184525 ], [ 5673314.080103429965675, 9395022.939688729122281 ], [ 5673309.088731010444462, 9395007.06458025611937 ], [ 5673303.326635465025902, 9394992.798649335280061 ], [ 5673282.537385326810181, 9394981.942270323634148 ], [ 5673268.938526075333357, 9394974.17196299880743 ], [ 5673264.752951137721539, 9394959.078356372192502 ], [ 5673268.490356900729239, 9394943.871723543852568 ], [ 5673278.120421930216253, 9394926.125850724056363 ], [ 5673278.740128853358328, 9394924.929671287536621 ], [ 5673282.548730561509728, 9394901.359315989539027 ], [ 5673286.35732024628669, 9394877.788957338780165 ], [ 5673290.154816368594766, 9394854.218706784769893 ], [ 5673293.105394010432065, 9394839.019972030073404 ], [ 5673294.471417430788279, 9394823.848293023183942 ], [ 5673294.241694548167288, 9394808.692662620916963 ], [ 5673293.190207380801439, 9394791.165400631725788 ], [ 5673288.985472467727959, 9394775.271280722692609 ], [ 5673284.799854839220643, 9394760.177683215588331 ], [ 5673278.231929633766413, 9394745.13029183074832 ], [ 5673271.671930172480643, 9394730.872414967045188 ], [ 5673270.060225378721952, 9394729.29832212254405 ], [ 5673258.308435646817088, 9394712.323539944365621 ], [ 5673246.556647010147572, 9394695.348762266337872 ], [ 5673231.435398011468351, 9394691.586269615218043 ], [ 5673211.627526349388063, 9394693.475898874923587 ], [ 5673195.859936927445233, 9394699.295079218223691 ], [ 5673182.498761014081538, 9394707.469942374154925 ], [ 5673167.46375223621726, 9394710.090017499402165 ], [ 5673152.350542609579861, 9394707.128138886764646 ], [ 5673144.206018629483879, 9394692.897340962663293 ], [ 5673143.987378126941621, 9394677.741636229678988 ], [ 5673141.375349659472704, 9394662.632245738059282 ], [ 5673133.24983031488955, 9394649.190853606909513 ], [ 5673120.42172434180975, 9394639.811436975374818 ], [ 5673106.83083445392549, 9394632.830704387277365 ], [ 5673094.002732748165727, 9394623.451290335506201 ], [ 5673087.442755146883428, 9394609.193452017381787 ], [ 5673089.595548330806196, 9394594.013908922672272 ], [ 5673096.529124030843377, 9394580.354334862902761 ], [ 5673102.66786883585155, 9394565.902041465044022 ], [ 5673107.21098349057138, 9394551.476916136220098 ], [ 5673105.396692072041333, 9394536.348392438143492 ], [ 5673099.376091504469514, 9394531.660297948867083 ], [ 5673093.355379761196673, 9394526.961084004491568 ], [ 5673079.004875332117081, 9394521.58943597972393 ], [ 5673076.579341244883835, 9394518.433236362412572 ], [ 5673067.461510581895709, 9394492.257217213511467 ], [ 5673055.670639216899872, 9394472.491531951352954 ], [ 5673040.261010304093361, 9394458.767578987404704 ], [ 5673024.86235436424613, 9394445.032398167997599 ], [ 5673015.478795994073153, 9394436.541409870609641 ], [ 5673008.736789165996015, 9394427.334349930286407 ], [ 5673007.934118574485183, 9394418.034179506823421 ], [ 5673007.771966313943267, 9394407.404171150177717 ], [ 5673009.068329820409417, 9394405.166937168687582 ], [ 5673011.639005033299327, 9394400.703811626881361 ], [ 5673014.149578315205872, 9394391.35918740183115 ], [ 5673013.384782642126083, 9394384.727666631340981 ], [ 5673009.982708501629531, 9394378.133799662813544 ], [ 5673002.004243043251336, 9394374.922262992709875 ], [ 5672988.746952849440277, 9394372.464453980326653 ], [ 5672980.799669289030135, 9394371.25437530875206 ], [ 5672976.116783201694489, 9394367.342425955459476 ], [ 5672975.376358119770885, 9394362.034057812765241 ], [ 5672975.276339561678469, 9394355.384732250124216 ], [ 5672979.143372647464275, 9394348.68437472730875 ], [ 5672980.355346312746406, 9394341.354591658338904 ], [ 5672978.91226115450263, 9394333.395384091883898 ], [ 5672974.88756288588047, 9394328.809558281674981 ], [ 5672964.22967522777617, 9394323.645453276112676 ], [ 5672953.614051599055529, 9394320.482694648206234 ], [ 5672942.253030522726476, 9394309.309229534119368 ], [ 5672922.553024254739285, 9394289.923436684533954 ], [ 5672902.853023074567318, 9394270.537650689482689 ], [ 5672883.153026989661157, 9394251.151871563866735 ], [ 5672871.780711632221937, 9394239.956292446702719 ], [ 5672855.696255929768085, 9394217.520375186577439 ], [ 5672839.600609414279461, 9394195.07345762476325 ], [ 5672835.466771396808326, 9394186.240545704960823 ], [ 5672831.332821490243077, 9394177.396514916792512 ], [ 5672823.065144337713718, 9394159.730695761740208 ], [ 5672818.364949612878263, 9394149.680183932185173 ], [ 5672816.020392856560647, 9394144.654872724786401 ], [ 5672813.664754595607519, 9394139.629673318937421 ], [ 5672811.864725731313229, 9394135.855548556894064 ], [ 5672810.619412884116173, 9394133.243539847433567 ], [ 5672805.932532391510904, 9394123.415315760299563 ], [ 5672588.968438508920372, 9394227.076103795319796 ], [ 5672564.55749158654362, 9394238.509203966706991 ], [ 5672413.06154403835535, 9394309.460010820999742 ], [ 5672317.309350060299039, 9394353.771544575691223 ], [ 5672276.526341781020164, 9394372.642005112022161 ], [ 5672230.350006675347686, 9394394.113279767334461 ], [ 5672217.454654558561742, 9394400.114652099087834 ], [ 5672119.123672724701464, 9394454.749385939911008 ], [ 5672089.310517580248415, 9394473.442675780504942 ], [ 5672023.527489086613059, 9394514.672062203288078 ], [ 5671943.714557151310146, 9394570.35460501536727 ], [ 5671824.753060662187636, 9394659.869995649904013 ], [ 5671761.156588695012033, 9394707.004140375182033 ], [ 5671751.541738871484995, 9394714.128940343856812 ], [ 5671634.904048427939415, 9394782.335074156522751 ], [ 5671287.260625118389726, 9394960.327355515211821 ], [ 5671183.698178799822927, 9395015.122614508494735 ], [ 5670933.147825920954347, 9395147.710761819034815 ], [ 5670913.733858382329345, 9395157.98046662658453 ], [ 5670579.032486309297383, 9395335.090136462822556 ], [ 5670480.622837414033711, 9395384.415784202516079 ], [ 5670367.990897050127387, 9395443.435890274122357 ], [ 5670203.860446102917194, 9395529.437253082171082 ], [ 5670053.669334287755191, 9395607.43628048337996 ], [ 5669903.477887252345681, 9395685.445710025727749 ], [ 5669649.034618973731995, 9395819.496917184442282 ], [ 5669604.742060592398047, 9395842.279981466010213 ], [ 5668461.52299468126148, 9396430.164026062935591 ], [ 5667678.786872893571854, 9396832.635867485776544 ], [ 5667477.438738288357854, 9396936.162112213671207 ], [ 5667441.436318426392972, 9396954.667545650154352 ], [ 5667382.339402481913567, 9396984.600119335576892 ], [ 5667360.934720039367676, 9396995.432263016700745 ], [ 5667298.165405578911304, 9397027.213704960420728 ], [ 5667268.015831805765629, 9397042.480519399046898 ], [ 5667281.976021381095052, 9397067.75081779435277 ], [ 5667282.640936318784952, 9397067.744214273989201 ], [ 5667290.262529933825135, 9397069.625621680170298 ], [ 5667297.89509561099112, 9397071.495799846947193 ], [ 5667300.561097730882466, 9397070.991166926920414 ], [ 5667313.050315075553954, 9397068.620909322053194 ], [ 5667327.489963259547949, 9397061.761077925562859 ], [ 5667343.309873260557652, 9397058.857335224747658 ], [ 5667360.472840014845133, 9397057.274635583162308 ], [ 5667377.649034881033003, 9397057.026188164949417 ], [ 5667402.019663024693727, 9397051.346474939957261 ], [ 5667403.338300418108702, 9397051.322256457060575 ], [ 5667419.158314642496407, 9397048.429608764126897 ], [ 5667432.25499621219933, 9397040.259809069335461 ], [ 5667433.29840625077486, 9397039.304250847548246 ], [ 5667443.995603300631046, 9397029.456934295594692 ], [ 5667455.725012530572712, 9397018.643044581636786 ], [ 5667463.447839714586735, 9397003.91026172414422 ], [ 5667477.838933710940182, 9396994.393186176195741 ], [ 5667493.645696190185845, 9396990.166243011131883 ], [ 5667513.421818329952657, 9396987.223125958815217 ], [ 5667530.608966543339193, 9396986.963390953838825 ], [ 5667546.479520176537335, 9396988.051126569509506 ], [ 5667559.811996826902032, 9396995.836043737828732 ], [ 5667573.168570831418037, 9397004.93287555873394 ], [ 5667583.914231331087649, 9397016.735559407621622 ], [ 5667593.365461777895689, 9397029.885501543059945 ], [ 5667602.792487720027566, 9397041.71241308376193 ], [ 5667610.91400053165853, 9397054.88669310323894 ], [ 5667629.779028336517513, 9397078.529299115762115 ], [ 5667641.830100756138563, 9397088.97351237013936 ], [ 5667657.799871889874339, 9397096.710000161081553 ], [ 5667676.305796769447625, 9397096.437155351042747 ], [ 5667686.21259247418493, 9397096.294233972206712 ], [ 5667696.130359787493944, 9397096.140082132071257 ], [ 5667704.718517206609249, 9397096.021381249651313 ], [ 5667713.306564312428236, 9397095.891560396179557 ], [ 5667729.126578578725457, 9397092.99883821234107 ], [ 5667743.566193412989378, 9397086.13887831941247 ], [ 5667756.662848839536309, 9397077.968981450423598 ], [ 5667769.735181730240583, 9397068.464922776445746 ], [ 5667793.403533325530589, 9397060.145462090149522 ], [ 5667810.590700039640069, 9397059.885676428675652 ], [ 5667827.841678647324443, 9397064.9406071100384 ], [ 5667832.04465576633811, 9397080.833777889609337 ], [ 5667832.304732331074774, 9397098.111657870933414 ], [ 5667823.225757744163275, 9397110.200360493734479 ], [ 5667812.828249046579003, 9397122.324402159079909 ], [ 5667801.074542098678648, 9397131.804239518940449 ], [ 5667786.819973492994905, 9397150.616348307579756 ], [ 5667784.407340959645808, 9397166.608616517856717 ], [ 5667784.643064836971462, 9397182.552326988428831 ], [ 5667794.070005391724408, 9397194.368153681978583 ], [ 5667795.00146287214011, 9397212.295430306345224 ], [ 5667795.921943811699748, 9397230.233936378732324 ], [ 5667795.946148799732327, 9397231.556973835453391 ], [ 5667801.505163506604731, 9397250.083231089636683 ], [ 5667805.683782084845006, 9397264.642251970246434 ], [ 5667813.829516736790538, 9397279.139618629589677 ], [ 5667823.256567117758095, 9397290.966580498963594 ], [ 5667835.331985086202621, 9397302.74499162659049 ], [ 5667842.651975749060512, 9397306.619859479367733 ], [ 5667849.983159237541258, 9397310.505736278370023 ], [ 5667865.977182852104306, 9397319.565298721194267 ], [ 5667879.333923750557005, 9397328.673305856063962 ], [ 5667892.690666888840497, 9397337.781314365565777 ], [ 5667904.717576830647886, 9397346.902537373825908 ], [ 5667915.463282729499042, 9397358.705292852595448 ], [ 5667924.938865574076772, 9397373.189471926540136 ], [ 5667934.416489320807159, 9397388.996914777904749 ], [ 5667941.243482026271522, 9397403.507415469735861 ], [ 5667948.083816587924957, 9397419.363307321444154 ], [ 5667954.935121879912913, 9397435.207972964271903 ], [ 5667959.126861448399723, 9397451.09018419124186 ], [ 5667960.692389602772892, 9397467.020728038623929 ], [ 5667960.941307107917964, 9397484.298753842711449 ], [ 5667961.300369597971439, 9397508.214332604780793 ], [ 5667961.410572239197791, 9397515.975006196647882 ], [ 5667961.536045424640179, 9397524.158088544383645 ], [ 5667964.409121432341635, 9397540.064525708556175 ], [ 5667963.350343450903893, 9397557.355542000383139 ], [ 5667962.280588181689382, 9397574.657786576077342 ], [ 5667966.360012873075902, 9397582.56807461194694 ], [ 5667971.868336917832494, 9397597.102818453684449 ], [ 5667981.30851505883038, 9397610.252989016473293 ], [ 5667998.66985216923058, 9397621.956722054630518 ], [ 5668013.270525146275759, 9397625.737063448876143 ], [ 5668026.602989098057151, 9397633.510969081893563 ], [ 5668039.935455130413175, 9397641.284875512123108 ], [ 5668053.267923244275153, 9397649.058782750740647 ], [ 5668066.60050368309021, 9397656.843809723854065 ], [ 5668078.627445525489748, 9397665.965090600773692 ], [ 5668093.302880897186697, 9397675.048944890499115 ], [ 5668106.672788166441023, 9397685.480173157528043 ], [ 5668117.429598707705736, 9397697.282884789630771 ], [ 5668126.86979731824249, 9397710.43308199942112 ], [ 5668135.015546968206763, 9397724.930544909089804 ], [ 5668140.523994658142328, 9397739.476446771994233 ], [ 5668143.421265132725239, 9397756.705977315083146 ], [ 5668144.975680441595614, 9397772.636681728065014 ], [ 5668145.211330068297684, 9397788.580484954640269 ], [ 5668146.789937408640981, 9397805.834235433489084 ], [ 5668148.344341564923525, 9397821.764941684901714 ], [ 5668153.865893254987895, 9397837.634009195491672 ], [ 5668167.284321614541113, 9397850.722481083124876 ], [ 5668183.141957010142505, 9397850.487150253728032 ], [ 5668200.294046049937606, 9397848.90455275401473 ], [ 5668214.782372087240219, 9397844.701833486557007 ], [ 5668233.202564899809659, 9397839.114528512582183 ], [ 5668239.807132107205689, 9397839.015567693859339 ], [ 5668254.346001460216939, 9397838.793315950781107 ], [ 5668266.397284569218755, 9397849.248794127255678 ], [ 5668269.270359807647765, 9397865.155312113463879 ], [ 5668269.50601439550519, 9397881.099147418513894 ], [ 5668267.104356680065393, 9397897.091416971758008 ], [ 5668263.359619370661676, 9397911.762616373598576 ], [ 5668261.605390608310699, 9397914.804696762934327 ], [ 5668255.623521677218378, 9397925.172406245023012 ], [ 5668241.25853229034692, 9397937.346976621076465 ], [ 5668228.993854220025241, 9397956.795439390465617 ], [ 5668216.718190942890942, 9397976.255121029913425 ], [ 5668215.423732245340943, 9397977.602381829172373 ], [ 5668203.744639076292515, 9397992.396825885400176 ], [ 5668191.990697246044874, 9398001.876620477065444 ], [ 5668178.90690200868994, 9398011.369613334536552 ], [ 5668165.809988627210259, 9398019.539444187656045 ], [ 5668144.864662236534059, 9398033.147050347179174 ], [ 5668138.471351147629321, 9398047.855618353933096 ], [ 5668140.025694483891129, 9398063.786327663809061 ], [ 5668153.382506536319852, 9398072.894483979791403 ], [ 5668168.020562931895256, 9398079.321110747754574 ], [ 5668183.953085293993354, 9398084.400480374693871 ], [ 5668202.53411777690053, 9398089.442434668540955 ], [ 5668217.123681666329503, 9398093.211848208680749 ], [ 5668230.207500419579446, 9398083.718859953805804 ], [ 5668241.961464139632881, 9398074.239068917930126 ], [ 5668257.805928885005414, 9398072.669502526521683 ], [ 5668271.138451422564685, 9398080.443488946184516 ], [ 5668284.471086244098842, 9398088.228595143184066 ], [ 5668296.498068772256374, 9398097.349954737350345 ], [ 5668304.6438078135252, 9398111.847488179802895 ], [ 5668316.670793691650033, 9398120.968851884827018 ], [ 5668322.042163223028183, 9398125.041066670790315 ], [ 5668328.708973729982972, 9398130.101226016879082 ], [ 5668340.773383188061416, 9398141.879919953644276 ], [ 5668348.906012731604278, 9398155.054305147379637 ], [ 5668349.141609854996204, 9398170.998160829767585 ], [ 5668349.377202834933996, 9398186.942016562446952 ], [ 5668353.580074621364474, 9398202.835363997146487 ], [ 5668364.325826707296073, 9398214.638284670189023 ], [ 5668380.258384622633457, 9398219.717660494148731 ], [ 5668381.601350226439536, 9398221.027617176994681 ], [ 5668396.239444902166724, 9398227.454254891723394 ], [ 5668410.89065477065742, 9398235.204053230583668 ], [ 5668420.31775467004627, 9398247.031194183975458 ], [ 5668431.063516793772578, 9398258.834125056862831 ], [ 5668436.571831833571196, 9398273.369001101702452 ], [ 5668434.159012647345662, 9398289.361413117498159 ], [ 5668423.772164340130985, 9398301.474234145134687 ], [ 5668414.69300028309226, 9398313.574067525565624 ], [ 5668404.493209498934448, 9398338.973527420312166 ], [ 5668400.748479276895523, 9398353.655857319012284 ], [ 5668398.981357667595148, 9398358.755278997123241 ], [ 5668395.673888099379838, 9398368.351385537534952 ], [ 5668391.966448117978871, 9398385.679921343922615 ], [ 5668391.598778104409575, 9398405.62188639305532 ], [ 5668391.23110122885555, 9398425.563851080834866 ], [ 5668391.268510486930609, 9398428.221180474385619 ], [ 5668390.185380794107914, 9398444.189254531636834 ], [ 5668389.102246335707605, 9398460.157327923923731 ], [ 5668388.019107099622488, 9398476.125400647521019 ], [ 5668384.263139779679477, 9398490.796707633882761 ], [ 5668383.179990735836327, 9398506.764778325334191 ], [ 5668383.415503433905542, 9398522.708642596378922 ], [ 5668379.670603276230395, 9398537.379835169762373 ], [ 5668375.914725866168737, 9398552.062254626303911 ], [ 5668374.831557526253164, 9398568.03032161667943 ], [ 5668373.748274290934205, 9398583.987268965691328 ], [ 5668373.983874579891562, 9398599.942249719053507 ], [ 5668379.542626777663827, 9398618.457634905353189 ], [ 5668387.688430230133235, 9398632.96636489033699 ], [ 5668401.021005456335843, 9398640.740464325994253 ], [ 5668414.353582758456469, 9398648.514564570039511 ], [ 5668430.27310548722744, 9398652.270885029807687 ], [ 5668446.168332942761481, 9398654.693033384159207 ], [ 5668462.026159479282796, 9398654.457846922799945 ], [ 5668481.826887965202332, 9398652.826880134642124 ], [ 5668493.878209248185158, 9398663.282516442239285 ], [ 5668499.386582582257688, 9398677.828556401655078 ], [ 5668499.6956433840096, 9398679.938309736549854 ], [ 5668502.32111628819257, 9398697.715547624975443 ], [ 5668494.608986140228808, 9398712.448366388678551 ], [ 5668485.529696444049478, 9398724.548160381615162 ], [ 5668480.466086897999048, 9398739.243572833016515 ], [ 5668476.734355702996254, 9398755.249060830101371 ], [ 5668474.979615425691009, 9398770.556607393547893 ], [ 5668473.213898346759379, 9398785.875381918624043 ], [ 5668473.238082739524543, 9398787.198433879762888 ], [ 5668476.12207930162549, 9398803.104927338659763 ], [ 5668481.694135057739913, 9398822.965752959251404 ], [ 5668497.613581609912217, 9398826.710988488048315 ], [ 5668513.434052444063127, 9398823.818500252440572 ], [ 5668525.188222704455256, 9398814.338761834427714 ], [ 5668542.314258135855198, 9398810.098896728828549 ], [ 5668556.791754646226764, 9398805.896421995013952 ], [ 5668572.662830855697393, 9398806.995532168075442 ], [ 5668591.753309769555926, 9398816.458389023318887 ], [ 5668610.843792570754886, 9398825.921246506273746 ], [ 5668629.92319704964757, 9398835.384214580059052 ], [ 5668631.241869728080928, 9398835.360010754317045 ], [ 5668643.2932148873806, 9398845.815682251006365 ], [ 5668655.381962674669921, 9398858.928696470335126 ], [ 5668663.514581969939172, 9398872.103205841034651 ], [ 5668669.011765704490244, 9398886.638281775638461 ], [ 5668673.190274296328425, 9398901.197563074529171 ], [ 5668677.553754009306431, 9398927.720278192311525 ], [ 5668679.107900063507259, 9398943.640015922486782 ], [ 5668679.343477584421635, 9398959.595075476914644 ], [ 5668679.578940851613879, 9398975.539016049355268 ], [ 5668685.076111300848424, 9398990.074103455990553 ], [ 5668694.503215226344764, 9399001.901374669745564 ], [ 5668706.54135883692652, 9399011.022792540490627 ], [ 5668721.168488609604537, 9399017.449694214388728 ], [ 5668730.606679523363709, 9399029.276861732825637 ], [ 5668737.446823087520897, 9399045.121937209740281 ], [ 5668739.001064756885171, 9399061.052810775116086 ], [ 5668736.748626537621021, 9399087.66342581436038 ], [ 5668735.443049563094974, 9399089.010793739929795 ], [ 5668727.717728702351451, 9399102.420476427301764 ], [ 5668719.981319526210427, 9399115.830264698714018 ], [ 5668713.587764415889978, 9399130.538906702771783 ], [ 5668711.18583307415247, 9399146.531253345310688 ], [ 5668716.682982631959021, 9399161.066360531374812 ], [ 5668730.053021416068077, 9399171.49789690412581 ], [ 5668742.091284183785319, 9399180.630466094240546 ], [ 5668757.949235494248569, 9399180.395347628742456 ], [ 5668775.088474909774959, 9399177.478680400177836 ], [ 5668801.357702810317278, 9399166.453815585002303 ], [ 5668817.202550082467496, 9399164.895510286092758 ], [ 5668833.023103294894099, 9399162.00302179902792 ], [ 5668846.355765772052109, 9399169.777206858620048 ], [ 5668851.852940646000206, 9399184.312337603420019 ], [ 5668856.031434489414096, 9399198.871670823544264 ], [ 5668873.294050579890609, 9399203.938039116561413 ], [ 5668893.119239488616586, 9399203.641302436590195 ], [ 5668908.990297643467784, 9399204.729325894266367 ], [ 5668923.6417620414868, 9399212.490432998165488 ], [ 5668926.009259520098567, 9399214.290657328441739 ], [ 5668935.680052244104445, 9399221.62300549633801 ], [ 5668946.42586715426296, 9399233.426124982535839 ], [ 5668955.852892637252808, 9399245.242329135537148 ], [ 5668961.36116112023592, 9399259.777373921126127 ], [ 5668964.271589050069451, 9399278.35257794894278 ], [ 5668963.37535634636879, 9399281.864327205345035 ], [ 5668960.526587185449898, 9399293.023892484605312 ], [ 5668958.11347240768373, 9399309.005296371877193 ], [ 5668958.34901936352253, 9399324.960427939891815 ], [ 5668958.608633883297443, 9399342.227502832189202 ], [ 5668964.167487385682762, 9399360.754201907664537 ], [ 5668965.486280516721308, 9399360.741122053936124 ], [ 5668980.13765487074852, 9399368.491142535582185 ], [ 5668996.006732864305377, 9399368.255907526239753 ], [ 5669002.711191974580288, 9399368.156049236655235 ], [ 5669011.864728492684662, 9399368.020778661593795 ], [ 5669031.67899376899004, 9399367.735284063965082 ], [ 5669051.504231136292219, 9399367.438554538413882 ], [ 5669066.105120993219316, 9399371.20803633145988 ], [ 5669080.756618054583669, 9399378.969169899821281 ], [ 5669094.113507281057537, 9399388.066451139748096 ], [ 5669103.553870837204158, 9399401.228100940585136 ], [ 5669105.108001773245633, 9399417.147950565442443 ], [ 5669102.743468733504415, 9399435.797761181369424 ], [ 5669102.978906226344407, 9399451.741811022162437 ], [ 5669109.805968118831515, 9399466.263816744089127 ], [ 5669119.233008614741266, 9399478.080065673217177 ], [ 5669131.260139656253159, 9399487.201676141470671 ], [ 5669144.592968612909317, 9399494.987031456083059 ], [ 5669157.377513658255339, 9399510.083811961114407 ], [ 5669170.150978285819292, 9399525.180706296116114 ], [ 5669176.916360998526216, 9399535.711180046200752 ], [ 5669188.943501316010952, 9399544.832800380885601 ], [ 5669200.981835907325149, 9399553.965431423857808 ], [ 5669211.75186624750495, 9399567.091686572879553 ], [ 5669219.910831886343658, 9399582.923817925155163 ], [ 5669226.737900245003402, 9399597.445854214951396 ], [ 5669233.639638221822679, 9399617.271505063399673 ], [ 5669237.831344082951546, 9399633.165232000872493 ], [ 5669243.339610369876027, 9399647.70035525970161 ], [ 5669252.766773713752627, 9399659.527758602052927 ], [ 5669263.536807719618082, 9399672.654035167768598 ], [ 5669272.963973138481379, 9399684.481443461030722 ], [ 5669281.122936143539846, 9399700.313598757609725 ], [ 5669285.301428469829261, 9399714.873042162507772 ], [ 5669284.292808804661036, 9399736.144952597096562 ], [ 5669279.229047584347427, 9399750.840528234839439 ], [ 5669275.472999284043908, 9399765.523133831098676 ], [ 5669271.752206444740295, 9399781.528696531429887 ], [ 5669270.681996519677341, 9399798.820164278149605 ], [ 5669269.68665627297014, 9399821.437484679743648 ], [ 5669269.710833665914834, 9399822.760553715750575 ], [ 5669269.946208501234651, 9399838.704646520316601 ], [ 5669271.500382031314075, 9399854.635664319619536 ], [ 5669278.32742278277874, 9399869.157737234607339 ], [ 5669280.406362172216177, 9399883.237594744190574 ], [ 5669281.261840512044728, 9399889.045000854879618 ], [ 5669281.497200606390834, 9399904.989096593111753 ], [ 5669280.413862442597747, 9399920.957385336980224 ], [ 5669279.319437115453184, 9399936.925783276557922 ], [ 5669279.55478414427489, 9399952.869878470897675 ], [ 5669279.790127035230398, 9399968.813973726704717 ], [ 5669280.025575790554285, 9399984.769188167527318 ], [ 5669286.852489816024899, 9399999.280157212167978 ], [ 5669296.947884546592832, 9400011.434600105509162 ], [ 5669307.032088020816445, 9400023.578036207705736 ], [ 5669317.127375051379204, 9400035.721364984288812 ], [ 5669327.222663239575922, 9400047.864696275442839 ], [ 5669328.565643474459648, 9400049.174694633111358 ], [ 5669336.687192253768444, 9400062.349535204470158 ], [ 5669346.114237488247454, 9400074.165887739509344 ], [ 5669360.752736512571573, 9400080.603984784334898 ], [ 5669376.623992375098169, 9400081.69213791936636 ], [ 5669392.46906531881541, 9400080.133924920111895 ], [ 5669402.867347255349159, 9400068.009846178814769 ], [ 5669410.579769334755838, 9400053.276883516460657 ], [ 5669425.057566585950553, 9400049.07446426525712 ], [ 5669440.854168361052871, 9400044.858965773135424 ], [ 5669452.595411857590079, 9400034.04486221075058 ], [ 5669455.254058072343469, 9400032.784153807908297 ], [ 5669467.035820045508444, 9400027.185051014646888 ], [ 5669478.790258018299937, 9400017.70523745380342 ], [ 5669478.55488127283752, 9400001.761090662330389 ], [ 5669479.638195756822824, 9399985.792748525738716 ], [ 5669483.394376380369067, 9399971.121216209605336 ], [ 5669497.847967294044793, 9399965.59568302705884 ], [ 5669512.486359272152185, 9399972.022618820890784 ], [ 5669524.537844909355044, 9399982.478510046377778 ], [ 5669519.401300987228751, 9399993.182678272947669 ], [ 5669514.436563617549837, 9400014.52725431509316 ], [ 5669518.727197682484984, 9400037.058893330395222 ], [ 5669534.783349516801536, 9400050.110599763691425 ], [ 5669549.533902976661921, 9400064.509689355269074 ], [ 5669544.483298466540873, 9400080.53962385840714 ], [ 5669536.770895470865071, 9400095.272630395367742 ], [ 5669537.15628039650619, 9400096.136192189529538 ], [ 5669540.874609746970236, 9400104.517387552186847 ], [ 5669546.902612525038421, 9400102.133483974263072 ], [ 5669551.385128410533071, 9400100.376518001779914 ], [ 5669561.759212128818035, 9400086.929311830550432 ], [ 5669572.829014016315341, 9400075.465734308585525 ], [ 5669583.898809984326363, 9400064.002150787040591 ], [ 5669599.62063670437783, 9400054.471846168860793 ], [ 5669616.821780515834689, 9400055.54675461910665 ], [ 5669619.483463129960001, 9400056.832557164132595 ], [ 5669639.39688435383141, 9400063.184953130781651 ], [ 5669653.997913885861635, 9400066.954513574019074 ], [ 5669666.049421790987253, 9400077.410423036664724 ], [ 5669674.171033589169383, 9400090.58530081436038 ], [ 5669683.598136332817376, 9400102.401677267625928 ], [ 5669704.91623605415225, 9400114.055660277605057 ], [ 5669716.967641932889819, 9400124.500459596514702 ], [ 5669725.100341336801648, 9400137.675238663330674 ], [ 5669727.973247517831624, 9400153.582175338640809 ], [ 5669732.189138644374907, 9400170.799115169793367 ], [ 5669734.166705880314112, 9400188.071612304076552 ], [ 5669736.144269121810794, 9400205.344110406935215 ], [ 5669736.739470914937556, 9400210.60924331471324 ], [ 5669736.763648928143084, 9400211.93232236802578 ], [ 5669740.942146020941436, 9400226.491880510002375 ], [ 5669746.439451777376235, 9400241.038364516571164 ], [ 5669754.585240140557289, 9400255.536351004615426 ], [ 5669765.342240628786385, 9400267.339571695774794 ], [ 5669788.053840423002839, 9400284.284186393022537 ], [ 5669802.692294866777956, 9400290.711167668923736 ], [ 5669817.306573706679046, 9400295.815068148076534 ], [ 5669830.663713891990483, 9400304.923635754734278 ], [ 5669843.996568378992379, 9400312.698004158213735 ], [ 5669856.048106434755027, 9400323.15396124869585 ], [ 5669871.919423633255064, 9400324.242072788998485 ], [ 5669883.685096855275333, 9400314.773194806650281 ], [ 5669886.739418866112828, 9400313.174939343705773 ], [ 5669899.420076937414706, 9400306.566032975912094 ], [ 5669908.673373533412814, 9400306.418674685060978 ], [ 5669922.019444164820015, 9400315.52735055051744 ], [ 5669931.446687123738229, 9400327.354894876480103 ], [ 5669942.241101783700287, 9400341.815531015396118 ], [ 5669955.573971691541374, 9400349.589900199323893 ], [ 5669970.051820392720401, 9400345.387400018051267 ], [ 5669972.453928935341537, 9400329.405850313603878 ], [ 5669972.417311662808061, 9400326.826287841424346 ], [ 5669972.218518435955048, 9400313.461575757712126 ], [ 5669971.982993726618588, 9400297.506181975826621 ], [ 5669978.400855652056634, 9400284.120330700650811 ], [ 5669994.221677137538791, 9400281.227813269942999 ], [ 5670016.759589637629688, 9400286.219739343971014 ], [ 5670039.345869376324117, 9400293.857832862064242 ], [ 5670064.395802772603929, 9400289.494833117350936 ], [ 5670080.216622303240001, 9400286.602293303236365 ], [ 5670090.949495632201433, 9400297.082445370033383 ], [ 5670100.414052749983966, 9400311.556280426681042 ], [ 5670110.533759944140911, 9400325.033905249089003 ], [ 5670120.653358039446175, 9400338.500413725152612 ], [ 5670126.232117214240134, 9400359.028934672474861 ], [ 5670127.700498732738197, 9400369.645470548421144 ], [ 5670134.490148203447461, 9400381.499195730313659 ], [ 5670151.790455487556756, 9400389.223090661689639 ], [ 5670179.638595452532172, 9400395.452315706759691 ], [ 5670182.27611228171736, 9400395.415034662932158 ], [ 5670196.91472692321986, 9400401.853120101615787 ], [ 5670210.24763042666018, 9400409.627485839650035 ], [ 5670223.604829068295658, 9400418.736061245203018 ], [ 5670233.04521921928972, 9400431.886838542297482 ], [ 5670245.072525110095739, 9400441.008608857169747 ], [ 5670257.111025417223573, 9400450.141390072181821 ], [ 5670269.17572852037847, 9400461.920573620125651 ], [ 5670281.214122523553669, 9400471.042239032685757 ], [ 5670288.0302097145468, 9400485.564630435779691 ], [ 5670296.162984064780176, 9400498.73951331526041 ], [ 5670305.62767443805933, 9400513.22451919876039 ], [ 5670317.679284765385091, 9400523.680514577776194 ], [ 5670331.049603090621531, 9400534.112311912700534 ], [ 5670341.795611143112183, 9400545.915713384747505 ], [ 5670351.260306421667337, 9400560.400731083005667 ], [ 5670364.020760810934007, 9400574.163596235215664 ], [ 5670376.781217224895954, 9400587.926464768126607 ], [ 5670380.761741165071726, 9400589.199196813628078 ], [ 5670382.315992381423712, 9400605.130496995523572 ], [ 5670382.551422194577754, 9400621.074877746403217 ], [ 5670382.811139218509197, 9400638.353470822796226 ], [ 5670392.473864058963954, 9400666.125474497675896 ], [ 5670400.632836885750294, 9400681.946797754615545 ], [ 5670404.811390863731503, 9400696.506505472585559 ], [ 5670414.2629862613976, 9400709.668348960578442 ], [ 5670423.703389847651124, 9400722.819185746833682 ], [ 5670435.779199196025729, 9400734.598315998911858 ], [ 5670451.712294557131827, 9400739.678044209256768 ], [ 5670466.313473528251052, 9400743.44764555990696 ], [ 5670482.23347426392138, 9400747.204166639596224 ], [ 5670495.566433697007596, 9400754.978589083999395 ], [ 5670504.982668583281338, 9400766.806343730539083 ], [ 5670513.12855494953692, 9400781.304490519687533 ], [ 5670519.98002059571445, 9400797.161053517833352 ], [ 5670533.363474288024008, 9400808.916112085804343 ], [ 5670542.790795113891363, 9400820.743767248466611 ], [ 5670548.312356540933251, 9400836.613527612760663 ], [ 5670552.490913987159729, 9400851.17327188514173 ], [ 5670555.374936707317829, 9400867.080311737954617 ], [ 5670559.553490104153752, 9400881.640059249475598 ], [ 5670571.792070908471942, 9400905.383242579177022 ], [ 5670581.219392715021968, 9400917.210914675146341 ], [ 5670594.552374831400812, 9400924.985367741435766 ], [ 5670607.885359007865191, 9400932.759821629151702 ], [ 5670622.548251948319376, 9400940.521088955923915 ], [ 5670635.881240399554372, 9400948.295544425025582 ], [ 5670646.627285355702043, 9400960.099029870703816 ], [ 5670656.092003074474633, 9400974.584141597151756 ], [ 5670661.725718655623496, 9400998.426217310130596 ], [ 5670661.750007536262274, 9400999.760435627773404 ], [ 5670665.928559532389045, 9401014.320210855454206 ], [ 5670658.191773731261492, 9401027.719273928552866 ], [ 5670642.370769057422876, 9401030.61177958920598 ], [ 5670625.268429148942232, 9401036.185900637879968 ], [ 5670620.204540045000613, 9401050.881785295903683 ], [ 5670634.818980395793915, 9401055.985763804987073 ], [ 5670650.714756961911917, 9401058.40812017954886 ], [ 5670665.304913085885346, 9401062.177878202870488 ], [ 5670678.624819442629814, 9401068.629148242995143 ], [ 5670690.614818290807307, 9401075.093604328110814 ], [ 5670693.512028027325869, 9401092.335013188421726 ], [ 5670685.949032655917108, 9401117.698006715625525 ], [ 5670680.860954158008099, 9401131.070804031565785 ], [ 5670683.645898735150695, 9401140.328809289261699 ], [ 5670698.161308529786766, 9401138.783724658191204 ], [ 5670709.841182858683169, 9401123.98886938020587 ], [ 5670716.309750797227025, 9401114.594636296853423 ], [ 5670726.919368816539645, 9401117.091644238680601 ], [ 5670732.427823841571808, 9401131.638253416866064 ], [ 5670737.925085056573153, 9401146.17385520786047 ], [ 5670742.090422323904932, 9401159.399323657155037 ], [ 5670742.264233025722206, 9401171.363266130909324 ], [ 5670723.744087718427181, 9401170.312495592981577 ], [ 5670711.879311678931117, 9401173.143520774319768 ], [ 5670705.435014033690095, 9401183.871965620666742 ], [ 5670710.833328546956182, 9401191.769609132781625 ], [ 5670725.372925966978073, 9401191.547630738466978 ], [ 5670741.255638591013849, 9401192.646794885396957 ], [ 5670750.658686807379127, 9401203.140300398692489 ], [ 5670758.879330440424383, 9401222.953396450728178 ], [ 5670761.838074889965355, 9401244.175360709428787 ], [ 5670761.937116526067257, 9401250.824444089084864 ], [ 5670771.364451012574136, 9401262.65217993222177 ], [ 5670785.992023144848645, 9401269.079401452094316 ], [ 5670800.630679992958903, 9401275.506513109430671 ], [ 5670808.752391624264419, 9401288.681659936904907 ], [ 5670820.804081669077277, 9401299.137806253507733 ], [ 5670837.981254630722106, 9401298.878562977537513 ], [ 5670855.24437895603478, 9401303.945195812731981 ], [ 5670864.671726608648896, 9401315.772945232689381 ], [ 5670866.25008934084326, 9401333.027480324730277 ], [ 5670863.836803612299263, 9401349.00936209782958 ], [ 5670854.781220898963511, 9401362.43263928592205 ], [ 5670845.749915789812803, 9401377.190133551135659 ], [ 5670839.45508205704391, 9401398.548331327736378 ], [ 5670839.492456512525678, 9401401.205766104161739 ], [ 5670839.727893445640802, 9401417.161384390667081 ], [ 5670839.963216217234731, 9401433.105883287265897 ], [ 5670838.86872807983309, 9401449.074682150036097 ], [ 5670831.142911662347615, 9401462.473635762929916 ], [ 5670819.377098028548062, 9401471.953716460615396 ], [ 5670810.308374094776809, 9401484.053747177124023 ], [ 5670807.919310135766864, 9401501.369827022776008 ], [ 5670817.346527697518468, 9401513.186484267935157 ], [ 5670831.936762154102325, 9401516.956326520070434 ], [ 5670847.795375540852547, 9401516.732450414448977 ], [ 5670863.517485922202468, 9401507.190920993685722 ], [ 5670864.587812731042504, 9401489.899013275280595 ], [ 5670864.352389182895422, 9401473.94338858500123 ], [ 5670869.427444125525653, 9401459.247354183346033 ], [ 5670885.248560114763677, 9401456.354898035526276 ], [ 5670897.313462877646089, 9401468.145410358905792 ], [ 5670909.365166978910565, 9401478.601591687649488 ], [ 5670925.223661206662655, 9401478.366568064317107 ], [ 5670938.297214278951287, 9401468.873491827398539 ], [ 5670954.118330212309957, 9401465.981019182130694 ], [ 5670966.156841420568526, 9401475.102865220978856 ], [ 5670974.278564996086061, 9401488.278054609894753 ], [ 5670982.424462901428342, 9401502.776352358981967 ], [ 5670996.503840899094939, 9401516.526366870850325 ], [ 5671010.583221442066133, 9401530.276384856551886 ], [ 5671011.901947138831019, 9401530.2521932143718 ], [ 5671022.648034599609673, 9401542.055794727057219 ], [ 5671024.226377164945006, 9401559.310375960543752 ], [ 5671016.513870272785425, 9401574.05483209528029 ], [ 5671008.776963685639203, 9401587.45393823646009 ], [ 5671010.331118241883814, 9401603.385410368442535 ], [ 5671017.158282212913036, 9401617.90791735984385 ], [ 5671023.985445559024811, 9401632.430426882579923 ], [ 5671018.910368263721466, 9401647.12649486400187 ], [ 5671004.469473159871995, 9401653.975297247990966 ], [ 5670988.672587244771421, 9401658.201959962025285 ], [ 5670972.8140505021438, 9401658.436951272189617 ], [ 5670958.212703893892467, 9401654.667205844074488 ], [ 5670942.29252062831074, 9401650.910527376458049 ], [ 5670926.383421594277024, 9401647.153737403452396 ], [ 5670910.500717858783901, 9401646.065612826496363 ], [ 5670897.427098730579019, 9401655.558640725910664 ], [ 5670885.709677342325449, 9401667.696031963452697 ], [ 5670877.97282344289124, 9401681.106201669201255 ], [ 5670860.876765524037182, 9401687.336264748126268 ], [ 5670843.791786537505686, 9401693.56621028855443 ], [ 5670829.463050929829478, 9401708.398367498070002 ], [ 5670817.708238154649734, 9401717.878289429470897 ], [ 5670816.501586858183146, 9401725.874774402007461 ], [ 5670823.2296979771927, 9401733.748177437111735 ], [ 5670836.439600610174239, 9401733.550598723813891 ], [ 5670847.012043711729348, 9401733.401385499164462 ], [ 5670853.801794297993183, 9401745.266448199748993 ], [ 5670851.32674559019506, 9401757.256650229915977 ], [ 5670838.413704014383256, 9401777.390381729230285 ], [ 5670834.619914127513766, 9401789.404761316254735 ], [ 5670840.018211548216641, 9401797.30246415361762 ], [ 5670847.966175081208348, 9401798.513720147311687 ], [ 5670868.899904298596084, 9401783.582788901403546 ], [ 5670895.256201974116266, 9401777.883768264204264 ], [ 5670908.52764025144279, 9401781.666727147996426 ], [ 5670916.57460103649646, 9401789.527074569836259 ], [ 5670918.029688756912947, 9401798.809428637847304 ], [ 5670898.302616853266954, 9401805.743886454030871 ], [ 5670878.538292254321277, 9401810.032017154619098 ], [ 5670863.230666642077267, 9401827.876399371773005 ], [ 5670857.751866317354143, 9401834.25824430771172 ], [ 5670860.74780579842627, 9401858.137700665742159 ], [ 5670858.297114985063672, 9401871.473241355270147 ], [ 5670845.236599868163466, 9401882.300534028559923 ], [ 5670830.79572070389986, 9401889.16034346818924 ], [ 5670816.354837878607213, 9401896.020146602764726 ], [ 5670799.425777323544025, 9401913.546914728358388 ], [ 5670796.926266795024276, 9401915.21750190295279 ], [ 5670781.103271475993097, 9401925.782982956618071 ], [ 5670762.657520119100809, 9401930.035735104233027 ], [ 5670750.555412085726857, 9401915.5988237131387 ], [ 5670729.10071219317615, 9401894.648944718763232 ], [ 5670712.883709512650967, 9401870.956050712615252 ], [ 5670696.340487914159894, 9401869.207132497802377 ], [ 5670679.786184442229569, 9401867.458321012556553 ], [ 5670665.345293826423585, 9401874.318080794066191 ], [ 5670648.427289283834398, 9401891.84466478228569 ], [ 5670636.859111703000963, 9401914.611621173098683 ], [ 5670630.625580735504627, 9401939.961310463026166 ], [ 5670630.873901057057083, 9401957.24008203484118 ], [ 5670631.133189360611141, 9401974.507624559104443 ], [ 5670638.627173928543925, 9401990.346853785216808 ], [ 5670646.132350381463766, 9402006.197095734998584 ], [ 5670638.55566430836916, 9402030.225615907460451 ], [ 5670644.151700995862484, 9402051.410350725054741 ], [ 5670662.757939009927213, 9402057.787273913621902 ], [ 5670685.08526873216033, 9402048.147216817364097 ], [ 5670693.967608815059066, 9402022.771291410550475 ], [ 5670709.51629991736263, 9402001.266018241643906 ], [ 5670726.533305026590824, 9401990.388512091711164 ], [ 5670739.941062547266483, 9402003.478050211444497 ], [ 5670741.506135236471891, 9402019.409356709569693 ], [ 5670739.167296901345253, 9402040.706031357869506 ], [ 5670742.064280881546438, 9402057.947493311017752 ], [ 5670748.315360833890736, 9402064.657999137416482 ], [ 5670755.496306993067265, 9402072.371266843751073 ], [ 5670765.146192678250372, 9402080.927494764328003 ], [ 5670770.233997597359121, 9402085.44765829667449 ], [ 5670775.761860474012792, 9402101.973615292459726 ], [ 5670781.289831329137087, 9402118.510694198310375 ], [ 5670782.266252840869129, 9402121.981748363003135 ], [ 5670786.872704910114408, 9402138.361144237220287 ], [ 5670792.400671324692667, 9402154.89822843670845 ], [ 5670797.928635846823454, 9402171.435315139591694 ], [ 5670800.961772018112242, 9402197.972197817638516 ], [ 5670805.313748044893146, 9402224.496029736474156 ], [ 5670811.739390597678721, 9402249.998495567589998 ], [ 5670818.154054123908281, 9402275.512195138260722 ], [ 5670824.747705405578017, 9402292.216678777709603 ], [ 5670831.957817136310041, 9402308.492484943941236 ], [ 5670837.090220503509045, 9402317.527156693860888 ], [ 5670844.146854471415281, 9402326.120207251980901 ], [ 5670856.139952425844967, 9402336.25464147515595 ], [ 5670868.144135040231049, 9402346.388967929407954 ], [ 5670878.449456751346588, 9402355.094440188258886 ], [ 5670897.606084787286818, 9402363.323100140318274 ], [ 5670899.754849917255342, 9402365.414735859259963 ], [ 5670906.65365091804415, 9402369.249768959358335 ], [ 5670914.678075293079019, 9402373.707532949745655 ], [ 5670929.601193331182003, 9402381.98921143822372 ], [ 5670944.471271421760321, 9402386.023370072245598 ], [ 5670959.39450397156179, 9402394.316168688237667 ], [ 5670974.253502944484353, 9402398.350435610860586 ], [ 5670987.071008706465364, 9402406.664075262844563 ], [ 5671001.994138330221176, 9402414.945756107568741 ], [ 5671014.811758178286254, 9402423.27051736600697 ], [ 5671027.650251016020775, 9402433.707978378981352 ], [ 5671042.573497666046023, 9402442.000782096758485 ], [ 5671059.645516605116427, 9402452.385225996375084 ], [ 5671072.463035552762449, 9402460.698872892186046 ], [ 5671085.333711726590991, 9402473.271170821040869 ], [ 5671093.982059029862285, 9402485.907502163201571 ], [ 5671100.577826635912061, 9402502.823327604681253 ], [ 5671107.13044679351151, 9402517.61555459164083 ], [ 5671113.694039107300341, 9402532.396554922685027 ], [ 5671118.17309402115643, 9402549.344457427039742 ], [ 5671122.620084398426116, 9402564.168650407344103 ], [ 5671127.067073019221425, 9402578.99284522049129 ], [ 5671127.323783164843917, 9402596.004778705537319 ], [ 5671127.601466138847172, 9402615.140533749014139 ], [ 5671127.847083400934935, 9402632.15257702767849 ], [ 5671123.838185775093734, 9402647.093810142949224 ], [ 5671119.829392462968826, 9402662.046160459518433 ], [ 5671115.820483828894794, 9402676.987389024347067 ], [ 5671111.843736633658409, 9402694.063446067273617 ], [ 5671104.760969114489853, 9402716.496981576085091 ], [ 5671097.689271350391209, 9402738.930401319637895 ], [ 5671095.593967780470848, 9402741.130760850384831 ], [ 5671091.627837080508471, 9402758.162218948826194 ], [ 5671087.651055857539177, 9402775.238262047991157 ], [ 5671083.642105171456933, 9402790.179472833871841 ], [ 5671079.654228057712317, 9402807.255620587617159 ], [ 5671073.560599547810853, 9402824.352594280615449 ], [ 5671069.551740374416113, 9402839.30491678789258 ], [ 5671065.542765914462507, 9402854.246117539703846 ], [ 5671061.533895728178322, 9402869.198435483500361 ], [ 5671061.188033701851964, 9402872.337853398174047 ], [ 5671059.662595613859594, 9402886.231395740061998 ], [ 5671057.83453035261482, 9402905.399074060842395 ], [ 5671058.112205536104739, 9402924.545926598832011 ], [ 5671058.36869141086936, 9402941.546721255406737 ], [ 5671058.646245526149869, 9402960.682454446330667 ], [ 5671061.008470648899674, 9402977.662426508963108 ], [ 5671071.762410366907716, 9402990.266883896663785 ], [ 5671084.612112100236118, 9403000.71547251753509 ], [ 5671097.450623315759003, 9403011.153053268790245 ], [ 5671110.268283740617335, 9403019.477934746071696 ], [ 5671123.069597255438566, 9403028.392369132488966 ], [ 5671125.223632986657321, 9403029.894586633890867 ], [ 5671138.030105101875961, 9403038.208460824564099 ], [ 5671148.795138798654079, 9403050.812823243439198 ], [ 5671157.464411282911897, 9403065.573062675073743 ], [ 5671161.911205722019076, 9403080.386178944259882 ], [ 5671164.284509532153606, 9403097.366070931777358 ], [ 5671164.56204395648092, 9403116.501837017014623 ], [ 5671164.807529143989086, 9403133.513890098780394 ], [ 5671165.064092522487044, 9403150.52583365701139 ], [ 5671164.52454290445894, 9403155.379739059135318 ], [ 5671163.192839841358364, 9403167.569935221225023 ], [ 5671159.215935343876481, 9403184.6459736879915 ], [ 5671155.206873619928956, 9403199.587177375331521 ], [ 5671153.335603108629584, 9403216.631274146959186 ], [ 5671149.358569519594312, 9403233.696186315268278 ], [ 5671145.349600184708834, 9403248.648503035306931 ], [ 5671141.340515629388392, 9403263.589697988703847 ], [ 5671137.35248963534832, 9403280.665831808000803 ], [ 5671135.492272217758, 9403297.709810618311167 ], [ 5671133.620966050773859, 9403314.753897782415152 ], [ 5671133.877360908314586, 9403331.754713086411357 ], [ 5671134.122777795419097, 9403348.766757460311055 ], [ 5671138.56962491478771, 9403363.591008584946394 ], [ 5671147.249940393492579, 9403378.351180700585246 ], [ 5671155.88713910151273, 9403390.987752692773938 ], [ 5671168.800926859490573, 9403405.683850420638919 ], [ 5671184.504556320607662, 9403418.917825678363442 ], [ 5671200.20829865988344, 9403432.16292367875576 ], [ 5671215.911934485659003, 9403445.396905466914177 ], [ 5671215.943968350999057, 9403447.520620269700885 ], [ 5671216.189373057335615, 9403464.532687313854694 ], [ 5671224.890643214806914, 9403481.416707325726748 ], [ 5671233.53893054369837, 9403494.053190659731627 ], [ 5671244.335990082472563, 9403508.781353296712041 ], [ 5671257.174642241559923, 9403519.230157731100917 ], [ 5671269.98115417920053, 9403527.544128006324172 ], [ 5671282.79875108320266, 9403535.857989879325032 ], [ 5671302.040723128244281, 9403550.469346174970269 ], [ 5671321.22960708476603, 9403560.822040431201458 ], [ 5671336.217046095989645, 9403573.362534193322062 ], [ 5671353.321229560300708, 9403585.870991308242083 ], [ 5671366.159789875149727, 9403596.30869098752737 ], [ 5671379.04157826025039, 9403608.881123129278421 ], [ 5671394.125237544998527, 9403627.803910536691546 ], [ 5671404.911237032152712, 9403642.532220089808106 ], [ 5671415.676287851296365, 9403655.136701917275786 ], [ 5671424.313403169624507, 9403667.762215493246913 ], [ 5671426.675542348995805, 9403684.742301750928164 ], [ 5671429.037677857093513, 9403701.722389169037342 ], [ 5671433.516555439680815, 9403718.670440334826708 ], [ 5671437.963399788364768, 9403733.494771158322692 ], [ 5671442.442272634245455, 9403750.442826436832547 ], [ 5671451.154637414030731, 9403767.326811388134956 ], [ 5671459.802942430600524, 9403779.963353572413325 ], [ 5671468.440055281855166, 9403792.58888821490109 ], [ 5671481.374943754635751, 9403809.420040681958199 ], [ 5671490.023250794969499, 9403822.056591279804707 ], [ 5671500.777115046046674, 9403834.650098867714405 ], [ 5671513.626894016750157, 9403845.098858784884214 ], [ 5671528.550203195773065, 9403853.38084951043129 ], [ 5671541.367957359179854, 9403861.705886963754892 ], [ 5671550.069246310740709, 9403878.590012080967426 ], [ 5671560.887286072596908, 9403895.442105701193213 ], [ 5671567.515043869614601, 9403914.493010364472866 ], [ 5671574.142689615488052, 9403933.532798908650875 ], [ 5671574.388046495616436, 9403950.544964907690883 ], [ 5671574.633398632518947, 9403967.557130962610245 ], [ 5671570.624185260385275, 9403982.498405899852514 ], [ 5671564.498321545310318, 9403997.482829922810197 ], [ 5671556.287611270323396, 9404014.611888306215405 ], [ 5671552.278379346244037, 9404029.553154340013862 ], [ 5671548.333297731354833, 9404048.752990180626512 ], [ 5671544.345102391205728, 9404065.829206543043256 ], [ 5671540.367983241565526, 9404082.905310871079564 ], [ 5671538.507614945992827, 9404099.949385298416018 ], [ 5671536.636048147454858, 9404116.982448456808925 ], [ 5671534.775668238289654, 9404134.026520520448685 ], [ 5671535.020958782173693, 9404151.038675416260958 ], [ 5671535.266244589351118, 9404168.050830367952585 ], [ 5671535.52260875236243, 9404185.062875920906663 ], [ 5671537.884646037593484, 9404202.043007235974073 ], [ 5671542.890018938109279, 9404221.810559080913663 ], [ 5671547.884414677508175, 9404241.589342718943954 ], [ 5671562.786826168186963, 9404247.747591381892562 ], [ 5671577.774316040799022, 9404260.288250686600804 ], [ 5671590.613029149360955, 9404270.737208180129528 ], [ 5671603.451744377613068, 9404281.186167707666755 ], [ 5671618.407115867361426, 9404291.591986583545804 ], [ 5671631.256918754428625, 9404302.0408406984061 ], [ 5671644.127657322213054, 9404314.613535843789577 ], [ 5671659.083146154880524, 9404325.030480708926916 ], [ 5671671.932846146635711, 9404335.468221748247743 ], [ 5671684.739557904191315, 9404343.793462874367833 ], [ 5671695.580560599453747, 9404356.230521932244301 ], [ 5671706.432647785171866, 9404368.667474273592234 ], [ 5671717.887472000904381, 9404383.77855933457613 ], [ 5671729.34240706730634, 9404398.900767765939236 ], [ 5671745.572402322664857, 9404423.917713362723589 ], [ 5671757.711945404298604, 9404441.023773042485118 ], [ 5671763.233119579963386, 9404456.894068425521255 ], [ 5671764.736322438344359, 9404468.833956427872181 ], [ 5671762.438095320947468, 9404474.072247484698892 ], [ 5671756.627833309583366, 9404487.352102912962437 ], [ 5671744.130487263202667, 9404500.297633314505219 ], [ 5671743.932196124456823, 9404500.421918492764235 ], [ 5671727.367580007761717, 9404511.183461299166083 ], [ 5671716.98698999453336, 9404524.096957143396139 ], [ 5671706.36814397200942, 9404545.453386407345533 ], [ 5671702.486218005418777, 9404550.829628378152847 ], [ 5671702.622256124392152, 9404560.136284422129393 ], [ 5671704.022152861580253, 9404566.094264078885317 ], [ 5671705.433132402598858, 9404572.05213457159698 ], [ 5671716.067411580123007, 9404575.88387655466795 ], [ 5671729.326224993914366, 9404578.34410871937871 ], [ 5671746.517384460195899, 9404579.419918535277247 ], [ 5671762.258809429593384, 9404582.978827204555273 ], [ 5671777.182207656092942, 9404591.260978788137436 ], [ 5671778.050309608690441, 9404591.619391331449151 ], [ 5671794.277433742769063, 9404645.594686407595873 ], [ 5671815.047040805220604, 9404682.488273849710822 ], [ 5671808.926305875182152, 9404708.137392172589898 ], [ 5671833.060302158817649, 9404768.128834659233689 ], [ 5671861.216644850559533, 9404838.122606016695499 ], [ 5671898.445139842107892, 9404909.772851571440697 ], [ 5671943.425488781183958, 9404959.316542096436024 ], [ 5671967.325684736482799, 9404985.447897743433714 ], [ 5672003.315900939516723, 9405024.782582564279437 ], [ 5672039.607185432687402, 9405084.55422180891037 ], [ 5672046.292407682165504, 9405143.216822473332286 ], [ 5671848.40591100230813, 9405432.816828414797783 ], [ 5671845.368306564167142, 9405437.272810785099864 ], [ 5671728.274040332064033, 9405608.640073601156473 ], [ 5668150.350316770374775, 9410843.824196983128786 ], [ 5663511.139585994184017, 9417628.500253489241004 ], [ 5663734.443479026667774, 9417760.500322058796883 ], [ 5664157.544573398306966, 9417808.60140535607934 ], [ 5664689.83660583011806, 9417996.406135430559516 ], [ 5665006.445783920586109, 9418034.201666101813316 ], [ 5666941.452420343644917, 9417879.597828224301338 ], [ 5668635.554845904000103, 9417536.393420301377773 ], [ 5669705.154847384430468, 9417379.09519443102181 ], [ 5670318.363263687118888, 9417345.097682116553187 ], [ 5671513.16403741389513, 9417408.590498700737953 ], [ 5672079.575469618663192, 9417374.42838604003191 ], [ 5672264.065353752113879, 9417363.292861573398113 ], [ 5673102.565460256300867, 9417179.895793385803699 ], [ 5673335.473576296120882, 9416984.692865645512938 ], [ 5674055.470603895373642, 9416626.689501706510782 ], [ 5675684.180603239685297, 9415989.793982727453113 ], [ 5676138.380631222389638, 9415787.385846750810742 ], [ 5676545.481850489042699, 9415532.381629440933466 ], [ 5677796.284194593317807, 9414969.483228392899036 ], [ 5678364.149890032596886, 9414468.556844815611839 ], [ 5678993.386553850024939, 9413913.483566123992205 ], [ 5679126.704206360504031, 9413737.158417614176869 ], [ 5679185.58154537063092, 9413659.281927295029163 ], [ 5679246.879316319711506, 9413465.434290362522006 ], [ 5679404.683536799624562, 9412966.381878301501274 ], [ 5679455.084652490913868, 9412750.373456979170442 ], [ 5679554.187680367380381, 9412105.406250599771738 ], [ 5679565.658033477142453, 9412030.74176275357604 ], [ 5679680.241294552572072, 9411284.930400710552931 ], [ 5679684.387254153378308, 9411257.940561579540372 ], [ 5679785.813804076984525, 9410597.762908896431327 ], [ 5679808.989135826937854, 9410446.873134341090918 ], [ 5679840.667601656168699, 9409987.470562603324652 ], [ 5679932.086497446522117, 9408661.76957906037569 ], [ 5679861.385492474772036, 9408247.56961134634912 ], [ 5679669.485128294676542, 9407804.66691605001688 ], [ 5679626.178640498779714, 9407513.0632891561836 ] ] ] } }
]
}
