{
"type": "FeatureCollection",
"name": "2201572",
"crs": { "type": "name", "properties": { "name": "urn:ogc:def:crs:EPSG::5880" } },
"features": [
{ "type": "Feature", "properties": { "lv_id": "LOC_015269", "id": 60740.0, "CD_SETOR": "220157205000013", "SITUACAO": "Urbana", "CD_SIT": "1", "CD_TIPO": "0", "AREA_KM2": 0.196242476622807, "CD_REGIAO": "2", "NM_REGIAO": "Nordeste", "CD_UF": "22", "NM_UF": "Piauí", "CD_MUN": "2201572", "NM_MUN": "Belém do Piauí", "CD_DIST": "220157205", "NM_DIST": "Belém do Piauí", "CD_SUBDIST": "22015720500", "NM_SUBDIST": null, "CD_BAIRRO": null, "NM_BAIRRO": null, "CD_NU": null, "NM_NU": null, "CD_FCU": null, "NM_FCU": null, "CD_AGLOM": null, "NM_AGLOM": null, "CD_RGINT": "2203", "NM_RGINT": "Picos", "CD_RGI": "220009", "NM_RGI": "Picos", "CD_CONCURB": null, "NM_CONCURB": null, "mun_code_x": "2201572", "index_right": 55678, "dist_m": 0.0, "local_id": 154077, "ano": 2022, "cod_localidade_ibge": 2201572, "NR_ZONA": "68", "nr_cep": 64678000.0, "nm_localidade": "BELÉM DO PIAUÍ", "nm_locvot": "CRECHE JEUDO JOSE FRANCISCO DIAS", "ds_endereco": "AV. DEPUTADO JULIO CESAR, S/N", "ds_bairro": "CENTRO", "pred_long": -40.96963, "pred_lat": -7.376075, "pred_dist": 0.0, "tse_long": -40.9697346, "tse_lat": -7.3759206, "long": -40.9697346, "lat": -7.3759206, "ID_UNICO": "LOC_015269", "SG_UF": "PI", "CD_MUNICIPIO": "12335", "NR_LOCAL_VOTACAO": "1031", "QT_SECOES_AGREGADAS": 1, "QT_ELEITORES_TRANSFERIDOS": 2, "CIRO GOMES (PDT) (NÃO ELEITO) 1T": 8.0, "CONSTITUINTE EYMAEL (DC) (NÃO ELEITO) 1T": 0.0, "FELIPE D AVILA (NOVO) (NÃO ELEITO) 1T": 0.0, "JAIR BOLSONARO (PL) (2º TURNO) 1T": 38.0, "LULA (PT) (2º TURNO) 1T": 259.0, "LÉO PÉRICLES (UP) (NÃO ELEITO) 1T": 0.0, "PADRE KELMON (PTB) (NÃO ELEITO) 1T": 0.0, "SIMONE TEBET (MDB) (NÃO ELEITO) 1T": 8.0, "SOFIA MANZANO (PCB) (NÃO ELEITO) 1T": 0.0, "SORAYA THRONICKE (UNIÃO) (NÃO ELEITO) 1T": 4.0, "VERA (PSTU) (NÃO ELEITO) 1T": 0.0, "Total_Votos_Validos 1T": 317.0, "Votos_Brancos 1T": 7.0, "Votos_Nulos 1T": 8.0, "Abstenções 1T": 58.0, "Eleitores_Aptos 1T": 390.0, "JAIR BOLSONARO (PL) (NÃO ELEITO) 2T": 44.0, "LULA (PT) (ELEITO) 2T": 272.0, "Total_Votos_Validos 2T": 316.0, "Votos_Brancos 2T": 6.0, "Votos_Nulos 2T": 7.0, "Abstenções 2T": 61.0, "Eleitores_Aptos 2T": 390.0, "mun_code_y": "2201572", "mun_code": "2201572" }, "geometry": { "type": "Polygon", "coordinates": [ [ [ 6439071.787744258530438, 9162844.305806474760175 ], [ 6439077.459401017054915, 9162822.78399377502501 ], [ 6439045.381929447874427, 9162798.303452176973224 ], [ 6439017.826241379603744, 9162765.974456544965506 ], [ 6438987.953990058973432, 9162718.507635436952114 ], [ 6438953.143776693381369, 9162641.68190011754632 ], [ 6438942.303206313401461, 9162572.552490474656224 ], [ 6438939.672169509343803, 9162523.721919877454638 ], [ 6438930.974294926971197, 9162387.579959332942963 ], [ 6438925.561018366366625, 9162303.767180521041155 ], [ 6438904.419876482337713, 9162248.896617220714688 ], [ 6438866.077483336441219, 9162172.174916950985789 ], [ 6438816.624437297694385, 9162119.834964355453849 ], [ 6438713.815789717249572, 9162070.985219664871693 ], [ 6438556.791679776273668, 9162068.316642282530665 ], [ 6438461.908453218638897, 9162068.028444334864616 ], [ 6438356.01168352086097, 9162091.664451776072383 ], [ 6438322.671387739479542, 9162087.612785913050175 ], [ 6438236.416397606022656, 9162077.120300762355328 ], [ 6438169.443521218374372, 9162033.803875492885709 ], [ 6438139.035949725657701, 9161986.921747490763664 ], [ 6438110.990376288071275, 9161937.701187580823898 ], [ 6438070.667683367617428, 9161918.342311635613441 ], [ 6438053.313050964847207, 9161916.705316264182329 ], [ 6438042.772886166349053, 9161917.728471912443638 ], [ 6438037.795735119841993, 9161918.248501492664218 ], [ 6438037.794552230276167, 9161951.336677026003599 ], [ 6438030.220800491049886, 9161976.952989567071199 ], [ 6438019.58738574385643, 9161996.849056908860803 ], [ 6437986.941289437003434, 9162040.343991534784436 ], [ 6437977.680179903283715, 9162050.815835500136018 ], [ 6437965.643735096789896, 9162064.228289091959596 ], [ 6437945.509705414995551, 9162089.769231090322137 ], [ 6437931.128015652298927, 9162116.004308506846428 ], [ 6437921.054812347516418, 9162143.418291710317135 ], [ 6437913.996835108846426, 9162168.928568057715893 ], [ 6437909.933449583128095, 9162219.632491743192077 ], [ 6437906.424935219809413, 9162236.142887379974127 ], [ 6437899.689174795523286, 9162249.150613049045205 ], [ 6437883.63148820400238, 9162270.918425105512142 ], [ 6437864.538617817685008, 9162296.190386196598411 ], [ 6437853.270108747296035, 9162305.620095115154982 ], [ 6437831.872630613856018, 9162325.308546788990498 ], [ 6437814.903601912781596, 9162338.501850720494986 ], [ 6437801.311124950647354, 9162353.491389567032456 ], [ 6437789.105540233664215, 9162362.982470881193876 ], [ 6437763.715634923428297, 9162370.680264616385102 ], [ 6437737.4046252630651, 9162376.702907707542181 ], [ 6437723.355568268336356, 9162382.038096150383353 ], [ 6437710.712865563109517, 9162386.356335233896971 ], [ 6437698.997255135327578, 9162389.126980729401112 ], [ 6437658.428397016599774, 9162394.805996974930167 ], [ 6437628.799933169037104, 9162394.593907117843628 ], [ 6437601.056205935776234, 9162396.913820303976536 ], [ 6437573.342413561418653, 9162397.598885662853718 ], [ 6437561.515703726559877, 9162399.203999420627952 ], [ 6437551.080336806364357, 9162402.32297602109611 ], [ 6437541.915636738762259, 9162406.221793377771974 ], [ 6437530.783638925291598, 9162408.169694792479277 ], [ 6437520.528104764409363, 9162409.490596137940884 ], [ 6437506.612482647411525, 9162414.095572266727686 ], [ 6437472.165078752674162, 9162429.013400549069047 ], [ 6437454.44200598821044, 9162436.01031599752605 ], [ 6437419.196955224499106, 9162445.890670366585255 ], [ 6437405.332268531434238, 9162447.680082194507122 ], [ 6437383.955085636116564, 9162450.925788331776857 ], [ 6437373.482049617916346, 9162453.126700043678284 ], [ 6437353.827068422921002, 9162458.251028267666698 ], [ 6437343.539074812084436, 9162461.501776527613401 ], [ 6437335.875956874340773, 9162463.858862362802029 ], [ 6437328.75758426822722, 9162465.575956407934427 ], [ 6437321.612801262177527, 9162466.00028458237648 ], [ 6437316.776478664018214, 9162465.665014192461967 ], [ 6437282.280451511964202, 9162462.134102249518037 ], [ 6437294.837326439097524, 9162470.481590496376157 ], [ 6437349.929639982059598, 9162521.963794754818082 ], [ 6437415.32320620957762, 9162609.920311657711864 ], [ 6437439.156067242845893, 9162635.775720592588186 ], [ 6437482.871873958036304, 9162668.947768853977323 ], [ 6437544.134509892202914, 9162721.441679332405329 ], [ 6437561.561911942437291, 9162735.116228068247437 ], [ 6437580.52628356218338, 9162749.994051475077868 ], [ 6437606.56039747223258, 9162767.955982837826014 ], [ 6437636.388640654273331, 9162794.884646624326706 ], [ 6437653.953540315851569, 9162829.320122024044394 ], [ 6437666.240980118513107, 9162874.122019430622458 ], [ 6437677.082621139474213, 9162910.955237690359354 ], [ 6437687.880557916127145, 9162946.280613046139479 ], [ 6437691.479206969961524, 9162958.033068750053644 ], [ 6437680.554199985228479, 9163022.814096380025148 ], [ 6437681.099137989804149, 9163030.570835720747709 ], [ 6437695.727161434479058, 9163043.691910246387124 ], [ 6437689.652784071862698, 9163058.960728373378515 ], [ 6437639.495054872706532, 9163108.082461189478636 ], [ 6437534.748006023466587, 9163213.886835906654596 ], [ 6437522.568093298003078, 9163226.190661633387208 ], [ 6437513.403541659936309, 9163235.444917118176818 ], [ 6437542.042727087624371, 9163240.384434288367629 ], [ 6437558.664886985905468, 9163242.270689664408565 ], [ 6437561.789471650496125, 9163243.756691955029964 ], [ 6437560.637741774320602, 9163247.466705424711108 ], [ 6437551.504288071766496, 9163276.872129008173943 ], [ 6437609.465571478009224, 9163297.749124677851796 ], [ 6437663.060028652660549, 9163334.128705883398652 ], [ 6437620.959878675639629, 9163378.895743329077959 ], [ 6437642.630227610468864, 9163420.485081015154719 ], [ 6437678.842838551849127, 9163454.683009162545204 ], [ 6437702.748955966904759, 9163475.828103799372911 ], [ 6437751.615009776316583, 9163429.36573114618659 ], [ 6437789.667832916602492, 9163463.79368937946856 ], [ 6437823.975565053522587, 9163497.048816859722137 ], [ 6437853.814354617148638, 9163513.66357653401792 ], [ 6437854.195806132629514, 9163513.868035428225994 ], [ 6437859.099916748702526, 9163512.726353950798512 ], [ 6437856.778396356850863, 9163523.721278617158532 ], [ 6437857.354038859717548, 9163531.39774326980114 ], [ 6437863.684905706904829, 9163559.705281609669328 ], [ 6437862.934328698553145, 9163582.999891478568316 ], [ 6437868.249196609482169, 9163572.008379202336073 ], [ 6437884.393267333507538, 9163538.676234021782875 ], [ 6437900.9035799279809, 9163513.037979789078236 ], [ 6437902.541923981159925, 9163510.49381267093122 ], [ 6437923.836135371588171, 9163478.418270990252495 ], [ 6438046.612288370728493, 9163990.150111181661487 ], [ 6437735.617915213108063, 9164611.038257865235209 ], [ 6437863.018606102094054, 9164631.425643645226955 ], [ 6437917.43992705643177, 9164641.776310168206692 ], [ 6438045.063541532494128, 9164666.049083640798926 ], [ 6438096.727127185091376, 9164674.993629358708858 ], [ 6438486.623624936677516, 9164228.459055941551924 ], [ 6438746.269536746665835, 9163924.104465052485466 ], [ 6439017.021759857423604, 9163637.710662351921201 ], [ 6439018.289593984372914, 9163631.909121181815863 ], [ 6439019.484445098787546, 9163626.257228098809719 ], [ 6439102.010702828876674, 9162879.870403330773115 ], [ 6439100.838262904435396, 9162869.907524155452847 ], [ 6439100.765991975553334, 9162869.319566542282701 ], [ 6439100.292075408622622, 9162864.783070562407374 ], [ 6439086.921831177547574, 9162865.344170426949859 ], [ 6439066.037313571199775, 9162866.158989643678069 ], [ 6439071.787744258530438, 9162844.305806474760175 ] ] ] } },
{ "type": "Feature", "properties": { "lv_id": "LOC_015270", "id": 60739.0, "CD_SETOR": "220157205000003", "SITUACAO": "Rural", "CD_SIT": "8", "CD_TIPO": "0", "AREA_KM2": 43.922436637179374, "CD_REGIAO": "2", "NM_REGIAO": "Nordeste", "CD_UF": "22", "NM_UF": "Piauí", "CD_MUN": "2201572", "NM_MUN": "Belém do Piauí", "CD_DIST": "220157205", "NM_DIST": "Belém do Piauí", "CD_SUBDIST": "22015720500", "NM_SUBDIST": null, "CD_BAIRRO": null, "NM_BAIRRO": null, "CD_NU": null, "NM_NU": null, "CD_FCU": null, "NM_FCU": null, "CD_AGLOM": "220157200001", "NM_AGLOM": "Caboclo", "CD_RGINT": "2203", "NM_RGINT": "Picos", "CD_RGI": "220009", "NM_RGI": "Picos", "CD_CONCURB": null, "NM_CONCURB": null, "mun_code_x": "2201572", "index_right": 55682, "dist_m": 59.79659139900803, "local_id": 154081, "ano": 2022, "cod_localidade_ibge": 2201572, "NR_ZONA": "68", "nr_cep": 64678000.0, "nm_localidade": "BELÉM DO PIAUÍ", "nm_locvot": "UNIDADE ESCOLAR RAIMUNDO JOSE GOMES", "ds_endereco": "LOCALIDADE CABOCLO", "ds_bairro": "ZONA RURAL", "pred_long": -40.946594, "pred_lat": -7.358498, "pred_dist": 0.0, "tse_long": -40.9458035, "tse_lat": -7.3585857, "long": -40.9458035, "lat": -7.3585857, "ID_UNICO": "LOC_015270", "SG_UF": "PI", "CD_MUNICIPIO": "12335", "NR_LOCAL_VOTACAO": "1058", "QT_SECOES_AGREGADAS": 0, "QT_ELEITORES_TRANSFERIDOS": 0, "CIRO GOMES (PDT) (NÃO ELEITO) 1T": 1.0, "CONSTITUINTE EYMAEL (DC) (NÃO ELEITO) 1T": 0.0, "FELIPE D AVILA (NOVO) (NÃO ELEITO) 1T": 0.0, "JAIR BOLSONARO (PL) (2º TURNO) 1T": 14.0, "LULA (PT) (2º TURNO) 1T": 184.0, "LÉO PÉRICLES (UP) (NÃO ELEITO) 1T": 0.0, "PADRE KELMON (PTB) (NÃO ELEITO) 1T": 0.0, "SIMONE TEBET (MDB) (NÃO ELEITO) 1T": 1.0, "SOFIA MANZANO (PCB) (NÃO ELEITO) 1T": 0.0, "SORAYA THRONICKE (UNIÃO) (NÃO ELEITO) 1T": 0.0, "VERA (PSTU) (NÃO ELEITO) 1T": 0.0, "Total_Votos_Validos 1T": 200.0, "Votos_Brancos 1T": 0.0, "Votos_Nulos 1T": 4.0, "Abstenções 1T": 35.0, "Eleitores_Aptos 1T": 239.0, "JAIR BOLSONARO (PL) (NÃO ELEITO) 2T": 14.0, "LULA (PT) (ELEITO) 2T": 171.0, "Total_Votos_Validos 2T": 185.0, "Votos_Brancos 2T": 1.0, "Votos_Nulos 2T": 3.0, "Abstenções 2T": 50.0, "Eleitores_Aptos 2T": 239.0, "mun_code_y": "2201572", "mun_code": "2201572" }, "geometry": { "type": "Polygon", "coordinates": [ [ [ 6434121.970478801056743, 9164127.393070857971907 ], [ 6434180.556044616736472, 9164133.584961574524641 ], [ 6434539.988144380971789, 9164175.292948067188263 ], [ 6434951.839837023057044, 9164227.659242434427142 ], [ 6435305.077693372033536, 9164272.835148613899946 ], [ 6436379.410350527614355, 9164405.762931551784277 ], [ 6436818.652715539559722, 9164471.314403761178255 ], [ 6436901.991808630526066, 9164480.573246989399195 ], [ 6437273.210431191138923, 9164537.05348732881248 ], [ 6437735.617915213108063, 9164611.038257865235209 ], [ 6438046.612288370728493, 9163990.150111181661487 ], [ 6437923.836135371588171, 9163478.418270990252495 ], [ 6437902.541923981159925, 9163510.49381267093122 ], [ 6437900.9035799279809, 9163513.037979789078236 ], [ 6437884.393267333507538, 9163538.676234021782875 ], [ 6437868.249196609482169, 9163572.008379202336073 ], [ 6437862.934328698553145, 9163582.999891478568316 ], [ 6437863.684905706904829, 9163559.705281609669328 ], [ 6437857.354038859717548, 9163531.39774326980114 ], [ 6437856.778396356850863, 9163523.721278617158532 ], [ 6437859.099916748702526, 9163512.726353950798512 ], [ 6437854.195806132629514, 9163513.868035428225994 ], [ 6437853.814354617148638, 9163513.66357653401792 ], [ 6437823.975565053522587, 9163497.048816859722137 ], [ 6437789.667832916602492, 9163463.79368937946856 ], [ 6437751.615009776316583, 9163429.36573114618659 ], [ 6437702.748955966904759, 9163475.828103799372911 ], [ 6437678.842838551849127, 9163454.683009162545204 ], [ 6437642.630227610468864, 9163420.485081015154719 ], [ 6437620.959878675639629, 9163378.895743329077959 ], [ 6437663.060028652660549, 9163334.128705883398652 ], [ 6437609.465571478009224, 9163297.749124677851796 ], [ 6437551.504288071766496, 9163276.872129008173943 ], [ 6437560.637741774320602, 9163247.466705424711108 ], [ 6437561.789471650496125, 9163243.756691955029964 ], [ 6437558.664886985905468, 9163242.270689664408565 ], [ 6437542.042727087624371, 9163240.384434288367629 ], [ 6437513.403541659936309, 9163235.444917118176818 ], [ 6437522.568093298003078, 9163226.190661633387208 ], [ 6437534.748006023466587, 9163213.886835906654596 ], [ 6437639.495054872706532, 9163108.082461189478636 ], [ 6437689.652784071862698, 9163058.960728373378515 ], [ 6437695.727161434479058, 9163043.691910246387124 ], [ 6437681.099137989804149, 9163030.570835720747709 ], [ 6437680.554199985228479, 9163022.814096380025148 ], [ 6437691.479206969961524, 9162958.033068750053644 ], [ 6437687.880557916127145, 9162946.280613046139479 ], [ 6437677.082621139474213, 9162910.955237690359354 ], [ 6437666.240980118513107, 9162874.122019430622458 ], [ 6437653.953540315851569, 9162829.320122024044394 ], [ 6437636.388640654273331, 9162794.884646624326706 ], [ 6437606.56039747223258, 9162767.955982837826014 ], [ 6437580.52628356218338, 9162749.994051475077868 ], [ 6437561.561911942437291, 9162735.116228068247437 ], [ 6437544.134509892202914, 9162721.441679332405329 ], [ 6437482.871873958036304, 9162668.947768853977323 ], [ 6437439.156067242845893, 9162635.775720592588186 ], [ 6437415.32320620957762, 9162609.920311657711864 ], [ 6437349.929639982059598, 9162521.963794754818082 ], [ 6437294.837326439097524, 9162470.481590496376157 ], [ 6437282.280451511964202, 9162462.134102249518037 ], [ 6437316.776478664018214, 9162465.665014192461967 ], [ 6437321.612801262177527, 9162466.00028458237648 ], [ 6437328.75758426822722, 9162465.575956407934427 ], [ 6437335.875956874340773, 9162463.858862362802029 ], [ 6437343.539074812084436, 9162461.501776527613401 ], [ 6437353.827068422921002, 9162458.251028267666698 ], [ 6437373.482049617916346, 9162453.126700043678284 ], [ 6437383.955085636116564, 9162450.925788331776857 ], [ 6437405.332268531434238, 9162447.680082194507122 ], [ 6437419.196955224499106, 9162445.890670366585255 ], [ 6437454.44200598821044, 9162436.01031599752605 ], [ 6437472.165078752674162, 9162429.013400549069047 ], [ 6437506.612482647411525, 9162414.095572266727686 ], [ 6437520.528104764409363, 9162409.490596137940884 ], [ 6437530.783638925291598, 9162408.169694792479277 ], [ 6437541.915636738762259, 9162406.221793377771974 ], [ 6437551.080336806364357, 9162402.32297602109611 ], [ 6437561.515703726559877, 9162399.203999420627952 ], [ 6437573.342413561418653, 9162397.598885662853718 ], [ 6437601.056205935776234, 9162396.913820303976536 ], [ 6437628.799933169037104, 9162394.593907117843628 ], [ 6437658.428397016599774, 9162394.805996974930167 ], [ 6437698.997255135327578, 9162389.126980729401112 ], [ 6437710.712865563109517, 9162386.356335233896971 ], [ 6437723.355568268336356, 9162382.038096150383353 ], [ 6437737.4046252630651, 9162376.702907707542181 ], [ 6437763.715634923428297, 9162370.680264616385102 ], [ 6437789.105540233664215, 9162362.982470881193876 ], [ 6437801.311124950647354, 9162353.491389567032456 ], [ 6437814.903601912781596, 9162338.501850720494986 ], [ 6437831.872630613856018, 9162325.308546788990498 ], [ 6437853.270108747296035, 9162305.620095115154982 ], [ 6437864.538617817685008, 9162296.190386196598411 ], [ 6437883.63148820400238, 9162270.918425105512142 ], [ 6437899.689174795523286, 9162249.150613049045205 ], [ 6437906.424935219809413, 9162236.142887379974127 ], [ 6437909.933449583128095, 9162219.632491743192077 ], [ 6437913.996835108846426, 9162168.928568057715893 ], [ 6437921.054812347516418, 9162143.418291710317135 ], [ 6437931.128015652298927, 9162116.004308506846428 ], [ 6437945.509705414995551, 9162089.769231090322137 ], [ 6437965.643735096789896, 9162064.228289091959596 ], [ 6437977.680179903283715, 9162050.815835500136018 ], [ 6437986.941289437003434, 9162040.343991534784436 ], [ 6438019.58738574385643, 9161996.849056908860803 ], [ 6438030.220800491049886, 9161976.952989567071199 ], [ 6438037.794552230276167, 9161951.336677026003599 ], [ 6438037.795735119841993, 9161918.248501492664218 ], [ 6438042.772886166349053, 9161917.728471912443638 ], [ 6438053.313050964847207, 9161916.705316264182329 ], [ 6438070.667683367617428, 9161918.342311635613441 ], [ 6438110.990376288071275, 9161937.701187580823898 ], [ 6438139.035949725657701, 9161986.921747490763664 ], [ 6438169.443521218374372, 9162033.803875492885709 ], [ 6438236.416397606022656, 9162077.120300762355328 ], [ 6438322.671387739479542, 9162087.612785913050175 ], [ 6438356.01168352086097, 9162091.664451776072383 ], [ 6438461.908453218638897, 9162068.028444334864616 ], [ 6438556.791679776273668, 9162068.316642282530665 ], [ 6438713.815789717249572, 9162070.985219664871693 ], [ 6438816.624437297694385, 9162119.834964355453849 ], [ 6438866.077483336441219, 9162172.174916950985789 ], [ 6438904.419876482337713, 9162248.896617220714688 ], [ 6438925.561018366366625, 9162303.767180521041155 ], [ 6438930.974294926971197, 9162387.579959332942963 ], [ 6438939.672169509343803, 9162523.721919877454638 ], [ 6438942.303206313401461, 9162572.552490474656224 ], [ 6438953.143776693381369, 9162641.68190011754632 ], [ 6438987.953990058973432, 9162718.507635436952114 ], [ 6439017.826241379603744, 9162765.974456544965506 ], [ 6439045.381929447874427, 9162798.303452176973224 ], [ 6439077.459401017054915, 9162822.78399377502501 ], [ 6439071.787744258530438, 9162844.305806474760175 ], [ 6439066.037313571199775, 9162866.158989643678069 ], [ 6439086.921831177547574, 9162865.344170426949859 ], [ 6439100.292075408622622, 9162864.783070562407374 ], [ 6439100.765991975553334, 9162869.319566542282701 ], [ 6439100.838262904435396, 9162869.907524155452847 ], [ 6439102.010702828876674, 9162879.870403330773115 ], [ 6439019.484445098787546, 9163626.257228098809719 ], [ 6439018.289593984372914, 9163631.909121181815863 ], [ 6439017.021759857423604, 9163637.710662351921201 ], [ 6438746.269536746665835, 9163924.104465052485466 ], [ 6438486.623624936677516, 9164228.459055941551924 ], [ 6438096.727127185091376, 9164674.993629358708858 ], [ 6438435.560847645625472, 9164733.674486355856061 ], [ 6438501.615583442151546, 9164745.637509617954493 ], [ 6438910.674022853374481, 9164820.26656161993742 ], [ 6439444.919926151633263, 9164917.728381769731641 ], [ 6439475.999852140434086, 9164923.392050430178642 ], [ 6439887.649186377413571, 9165004.252731619402766 ], [ 6440014.238107177428901, 9165029.734593454748392 ], [ 6440133.091118759475648, 9165054.30732230655849 ], [ 6440271.762524536810815, 9165083.555797755718231 ], [ 6440337.424618852324784, 9165100.624891098588705 ], [ 6440380.588145395740867, 9165111.621160130947828 ], [ 6440640.154600510373712, 9165175.67520204000175 ], [ 6440831.305004530586302, 9165213.366898763924837 ], [ 6440857.242027444764972, 9165214.970311829820275 ], [ 6440930.96790221426636, 9165227.468985510990024 ], [ 6440964.270453840494156, 9165226.338080355897546 ], [ 6440959.058909698389471, 9165330.973210632801056 ], [ 6441057.530347109772265, 9165338.630461879074574 ], [ 6441081.882648983038962, 9165459.130498040467501 ], [ 6441286.185104358009994, 9165361.961433125659823 ], [ 6441267.103478983044624, 9165108.79224805533886 ], [ 6441196.78524477686733, 9165035.833010068163276 ], [ 6441206.592984900809824, 9165026.275052893906832 ], [ 6441251.257727695629001, 9165000.231451585888863 ], [ 6441332.638214129023254, 9164990.614674651995301 ], [ 6441543.665499952621758, 9165034.611626446247101 ], [ 6441599.704624677076936, 9165047.387472692877054 ], [ 6441600.840818230062723, 9165047.717439379543066 ], [ 6441602.914269521832466, 9165038.839113971218467 ], [ 6441605.803549628704786, 9165026.475672882050276 ], [ 6442556.939698536880314, 9160958.253159934654832 ], [ 6442475.063109261915088, 9156974.404474334791303 ], [ 6433857.529841205105186, 9161322.546286672353745 ], [ 6433563.212889517657459, 9161460.677038591355085 ], [ 6432941.458672301843762, 9163962.54145460948348 ], [ 6432934.529883662238717, 9163987.316261865198612 ], [ 6433524.112026114016771, 9164057.516498094424605 ], [ 6433969.494180731475353, 9164111.396026890724897 ], [ 6434121.970478801056743, 9164127.393070857971907 ] ] ] } },
{ "type": "Feature", "properties": { "lv_id": "LOC_015271", "id": 60747.0, "CD_SETOR": "220157205000023", "SITUACAO": "Rural", "CD_SIT": "8", "CD_TIPO": "0", "AREA_KM2": 97.044682168525, "CD_REGIAO": "2", "NM_REGIAO": "Nordeste", "CD_UF": "22", "NM_UF": "Piauí", "CD_MUN": "2201572", "NM_MUN": "Belém do Piauí", "CD_DIST": "220157205", "NM_DIST": "Belém do Piauí", "CD_SUBDIST": "22015720500", "NM_SUBDIST": null, "CD_BAIRRO": null, "NM_BAIRRO": null, "CD_NU": null, "NM_NU": null, "CD_FCU": null, "NM_FCU": null, "CD_AGLOM": null, "NM_AGLOM": null, "CD_RGINT": "2203", "NM_RGINT": "Picos", "CD_RGI": "220009", "NM_RGI": "Picos", "CD_CONCURB": null, "NM_CONCURB": null, "mun_code_x": "2201572", "index_right": 55683, "dist_m": 0.0, "local_id": 154082, "ano": 2022, "cod_localidade_ibge": 2201572, "NR_ZONA": "68", "nr_cep": 64678000.0, "nm_localidade": "BELÉM DO PIAUÍ", "nm_locvot": "UNIDADE ESCOLAR HERMENEGILDO RIBEIRO LEAL", "ds_endereco": "LOCALIDADE CARQUEJO S/N", "ds_bairro": "ZONA RURAL", "pred_long": -41.00606, "pred_lat": -7.348272, "pred_dist": 0.0, "tse_long": -41.0060378, "tse_lat": -7.3483319, "long": -41.0060378, "lat": -7.3483319, "ID_UNICO": "LOC_015271", "SG_UF": "PI", "CD_MUNICIPIO": "12335", "NR_LOCAL_VOTACAO": "1040", "QT_SECOES_AGREGADAS": 0, "QT_ELEITORES_TRANSFERIDOS": 0, "CIRO GOMES (PDT) (NÃO ELEITO) 1T": 3.0, "CONSTITUINTE EYMAEL (DC) (NÃO ELEITO) 1T": 0.0, "FELIPE D AVILA (NOVO) (NÃO ELEITO) 1T": 0.0, "JAIR BOLSONARO (PL) (2º TURNO) 1T": 26.0, "LULA (PT) (2º TURNO) 1T": 153.0, "LÉO PÉRICLES (UP) (NÃO ELEITO) 1T": 0.0, "PADRE KELMON (PTB) (NÃO ELEITO) 1T": 0.0, "SIMONE TEBET (MDB) (NÃO ELEITO) 1T": 2.0, "SOFIA MANZANO (PCB) (NÃO ELEITO) 1T": 0.0, "SORAYA THRONICKE (UNIÃO) (NÃO ELEITO) 1T": 0.0, "VERA (PSTU) (NÃO ELEITO) 1T": 0.0, "Total_Votos_Validos 1T": 184.0, "Votos_Brancos 1T": 0.0, "Votos_Nulos 1T": 1.0, "Abstenções 1T": 27.0, "Eleitores_Aptos 1T": 212.0, "JAIR BOLSONARO (PL) (NÃO ELEITO) 2T": 25.0, "LULA (PT) (ELEITO) 2T": 149.0, "Total_Votos_Validos 2T": 174.0, "Votos_Brancos 2T": 0.0, "Votos_Nulos 2T": 2.0, "Abstenções 2T": 36.0, "Eleitores_Aptos 2T": 212.0, "mun_code_y": "2201572", "mun_code": "2201572" }, "geometry": { "type": "Polygon", "coordinates": [ [ [ 6431072.29445752222091, 9170639.382730312645435 ], [ 6430882.186788212507963, 9171318.00638896971941 ], [ 6430715.769670223817229, 9171911.981454253196716 ], [ 6430680.817365562543273, 9172036.704228829592466 ], [ 6430680.456529291346669, 9172037.996475448831916 ], [ 6430587.007412149570882, 9174830.283361364156008 ], [ 6430705.319103276357055, 9175667.129286969080567 ], [ 6430712.343239361420274, 9175718.815484713762999 ], [ 6430911.94333306979388, 9177199.815806405618787 ], [ 6430958.273967584595084, 9177177.845790581777692 ], [ 6430981.591708631254733, 9177178.086985362693667 ], [ 6431082.404508100822568, 9177222.964611092582345 ], [ 6431121.144909532740712, 9177252.826907377690077 ], [ 6431169.637520908378065, 9177264.259995330125093 ], [ 6431204.492700710892677, 9177258.385959733277559 ], [ 6431224.376732741482556, 9177254.414476361125708 ], [ 6431231.47517681773752, 9177239.804559353739023 ], [ 6431228.927103911526501, 9177216.16813195310533 ], [ 6431242.929087098687887, 9177176.176896588876843 ], [ 6431270.439047704450786, 9177141.131270073354244 ], [ 6431285.525088781490922, 9177123.797262027859688 ], [ 6431305.078819297254086, 9177127.662562444806099 ], [ 6431311.474537648260593, 9177150.62185712531209 ], [ 6431325.464787767268717, 9177160.885492280125618 ], [ 6431364.456598653458059, 9177164.535521073266864 ], [ 6431387.668300991877913, 9177161.03598247654736 ], [ 6431395.891886785626411, 9177151.044897686690092 ], [ 6431395.828932295553386, 9177133.236294317990541 ], [ 6431382.402508673258126, 9177115.582816828042269 ], [ 6431372.165457127615809, 9177105.211907522752881 ], [ 6431369.10817301645875, 9177079.207653157413006 ], [ 6431388.007572589442134, 9177044.407875733450055 ], [ 6431409.122939557768404, 9177037.11112623475492 ], [ 6431428.219036007300019, 9177040.422213483601809 ], [ 6431454.530070140957832, 9177041.031293794512749 ], [ 6431516.266287473030388, 9177028.602615913376212 ], [ 6431550.70860013179481, 9177023.760790668427944 ], [ 6431646.619224045425653, 9176989.254317136481404 ], [ 6431696.244787111878395, 9176966.621332248672843 ], [ 6431707.030790697783232, 9176930.124460266903043 ], [ 6431725.916866214945912, 9176894.870656719431281 ], [ 6431762.859387509524822, 9176876.910985359922051 ], [ 6431799.469644785858691, 9176862.817832257598639 ], [ 6431819.715618501417339, 9176840.457528281956911 ], [ 6431832.450731826946139, 9176787.001531176269054 ], [ 6431859.276050232350826, 9176782.377061080187559 ], [ 6431990.151305294595659, 9176800.414308317005634 ], [ 6432035.598052201792598, 9176813.521589227020741 ], [ 6432106.688350485637784, 9176858.227026367560029 ], [ 6432122.485675178468227, 9176862.085990738123655 ], [ 6432142.481899002566934, 9176850.396297654137015 ], [ 6432161.043178969994187, 9176850.432485798373818 ], [ 6432184.481982208788395, 9176858.837512422353029 ], [ 6432210.975127575919032, 9176858.079529045149684 ], [ 6432262.320649686269462, 9176861.034842131659389 ], [ 6432290.190052268095315, 9176873.737477539107203 ], [ 6432345.536865118891001, 9176920.368374574929476 ], [ 6432397.359522103331983, 9176936.242890488356352 ], [ 6432414.721484542824328, 9176929.052811240777373 ], [ 6432419.570676028728485, 9176897.489476196467876 ], [ 6432431.00146053917706, 9176875.947958514094353 ], [ 6432467.859248009510338, 9176870.582320911809802 ], [ 6432493.55376485362649, 9176857.254500953480601 ], [ 6432516.277829586528242, 9176805.439817437902093 ], [ 6432536.804114248603582, 9176777.398292005062103 ], [ 6432583.538800025358796, 9176769.707707919180393 ], [ 6432619.083705304190516, 9176768.690364837646484 ], [ 6432651.714973676018417, 9176785.68103595636785 ], [ 6432725.279171210713685, 9176820.21895925141871 ], [ 6432778.209010273218155, 9176836.17491040751338 ], [ 6432794.763273985125124, 9176851.129969473928213 ], [ 6432806.276565463282168, 9176886.990254689007998 ], [ 6432820.359703737311065, 9176916.083597376942635 ], [ 6432842.15292557515204, 9176948.246291676536202 ], [ 6432849.390741236507893, 9176969.707691539078951 ], [ 6432835.709645690396428, 9177005.381499528884888 ], [ 6432833.108971049077809, 9177030.527888031676412 ], [ 6432867.600021524354815, 9177062.440761437639594 ], [ 6432885.56440456956625, 9177060.905655734241009 ], [ 6432922.574331013485789, 9177045.325184592977166 ], [ 6432952.434928692877293, 9177042.542012283578515 ], [ 6432968.963463993743062, 9177056.590376300737262 ], [ 6432986.097633866593242, 9177076.407287795096636 ], [ 6433010.681116913445294, 9177078.426519239321351 ], [ 6433078.943099122494459, 9177077.947768399491906 ], [ 6433105.655150259844959, 9177084.897797683253884 ], [ 6433115.186413081362844, 9177101.528901612386107 ], [ 6433106.294628846459091, 9177122.998317858204246 ], [ 6433081.507230025716126, 9177168.293056154623628 ], [ 6433060.478850767947733, 9177178.651395499706268 ], [ 6433053.338124864734709, 9177195.646131927147508 ], [ 6433066.461328108794987, 9177257.100150365382433 ], [ 6433067.264589373022318, 9177300.981810297816992 ], [ 6433067.958428519777954, 9177341.009345304220915 ], [ 6433077.42099816724658, 9177359.117312138900161 ], [ 6433115.133336192928255, 9177352.706264456734061 ], [ 6433147.868366336449981, 9177334.411987980827689 ], [ 6433182.192669523879886, 9177309.832472687587142 ], [ 6433244.586226942017674, 9177316.669298039749265 ], [ 6433296.04941423330456, 9177343.21873814612627 ], [ 6433313.916549019515514, 9177353.825545527040958 ], [ 6433315.359385319054127, 9177373.524501787498593 ], [ 6433300.605975300073624, 9177386.993353184312582 ], [ 6433302.494583028368652, 9177402.935709726065397 ], [ 6433317.021087234839797, 9177412.617090193554759 ], [ 6433341.943348927423358, 9177410.996402427554131 ], [ 6433347.018190186470747, 9177422.423074601218104 ], [ 6433352.807996242307127, 9177443.472526850178838 ], [ 6433376.372550538741052, 9177456.298832271248102 ], [ 6433387.367764631286263, 9177473.909327320754528 ], [ 6433392.382766213268042, 9177502.695578755810857 ], [ 6433397.895014784298837, 9177529.538963187485933 ], [ 6433417.966853197664022, 9177551.654718885198236 ], [ 6433450.782680931501091, 9177559.564982937648892 ], [ 6433462.068272066302598, 9177571.835078941658139 ], [ 6433467.659958802163601, 9177617.055198520421982 ], [ 6433489.010488310828805, 9177653.088850695639849 ], [ 6433525.599002728238702, 9177673.257381144911051 ], [ 6433546.563354979269207, 9177660.631890174001455 ], [ 6433551.660392740741372, 9177637.795961415395141 ], [ 6433530.8317726906389, 9177604.583595179021358 ], [ 6433535.389683472923934, 9177582.216895401477814 ], [ 6433554.573825584724545, 9177573.045779516920447 ], [ 6433630.873733846470714, 9177591.056950025260448 ], [ 6433691.544676049612463, 9177630.617207540199161 ], [ 6433732.720090391114354, 9177629.439090149477124 ], [ 6433762.138474537059665, 9177630.526019908487797 ], [ 6433791.236672295257449, 9177651.476114045828581 ], [ 6433832.989788176491857, 9177651.18903230316937 ], [ 6433871.767449253238738, 9177631.700246503576636 ], [ 6433930.00279476121068, 9177562.076004773378372 ], [ 6433971.877153562381864, 9177519.354072639718652 ], [ 6433975.40044863615185, 9177491.684329370036721 ], [ 6433969.494303806684911, 9177454.867938928306103 ], [ 6433974.434829299338162, 9177445.990699430927634 ], [ 6434003.083330288529396, 9177435.527214119210839 ], [ 6434058.372633911669254, 9177445.062910379841924 ], [ 6434081.486833216622472, 9177442.018748860806227 ], [ 6434105.295884626917541, 9177412.860536275431514 ], [ 6434209.487821348011494, 9177354.852882843464613 ], [ 6434294.41576530225575, 9177353.782658537849784 ], [ 6434328.221957607194781, 9177361.550612449645996 ], [ 6434371.889551521278918, 9177378.112505458295345 ], [ 6434441.55659987591207, 9177395.972119979560375 ], [ 6434459.500701075419784, 9177424.842944618314505 ], [ 6434478.398726716637611, 9177456.182479487732053 ], [ 6434506.0665143430233, 9177446.200458947569132 ], [ 6434510.902177687734365, 9177414.181302923709154 ], [ 6434487.606064276769757, 9177364.134290922433138 ], [ 6434491.21632933896035, 9177323.98151795193553 ], [ 6434506.49557797703892, 9177309.589058911427855 ], [ 6434532.408964653499424, 9177303.968386936932802 ], [ 6434573.899643916636705, 9177313.898670289665461 ], [ 6434597.274551418609917, 9177320.03650332801044 ], [ 6434622.169588635675609, 9177309.679841630160809 ], [ 6434641.008819170296192, 9177288.378011252731085 ], [ 6434650.668606525287032, 9177243.400063972920179 ], [ 6434666.814756894484162, 9177228.415328335016966 ], [ 6434682.791799174621701, 9177242.479930885136127 ], [ 6434694.272101201117039, 9177312.152930792421103 ], [ 6434711.719196736812592, 9177342.96685491874814 ], [ 6434720.218741392716765, 9177358.26678897626698 ], [ 6434748.71204468421638, 9177357.904530210420489 ], [ 6434818.801225675269961, 9177320.612317083403468 ], [ 6434878.870273623615503, 9177300.057979879900813 ], [ 6434916.447103270329535, 9177288.883954068645835 ], [ 6434949.687099537812173, 9177288.385541407391429 ], [ 6434961.869111888110638, 9177301.084021870046854 ], [ 6434950.537348869256675, 9177318.313619803637266 ], [ 6434938.460391752421856, 9177328.757179290056229 ], [ 6434941.367912244983017, 9177349.43636666610837 ], [ 6434973.243740268051624, 9177351.473125617951155 ], [ 6435010.05987929366529, 9177344.632203536108136 ], [ 6435056.844925636425614, 9177373.698311038315296 ], [ 6435087.585232235491276, 9177386.319044843316078 ], [ 6435096.922900753095746, 9177400.006731785833836 ], [ 6435073.702320545911789, 9177442.083599697798491 ], [ 6435061.967562424950302, 9177460.686251288279891 ], [ 6435066.877252561971545, 9177485.732992120087147 ], [ 6435104.189812616445124, 9177480.806706596165895 ], [ 6435192.697675777599216, 9177457.962598254904151 ], [ 6435287.722814992070198, 9177415.643714873120189 ], [ 6435320.001879459246993, 9177400.763631043955684 ], [ 6435348.360179074108601, 9177380.096027297899127 ], [ 6435384.70897582359612, 9177372.360531605780125 ], [ 6435401.911868779920042, 9177379.015468180179596 ], [ 6435412.259235233068466, 9177393.241610990837216 ], [ 6435405.28748922701925, 9177412.275397472083569 ], [ 6435359.146824785508215, 9177475.885730693116784 ], [ 6435330.089755782857537, 9177499.182794153690338 ], [ 6435305.45521343126893, 9177534.266151497140527 ], [ 6435317.411116268485785, 9177570.116645678877831 ], [ 6435356.154329865239561, 9177584.437099633738399 ], [ 6435435.342085743322968, 9177599.073963332921267 ], [ 6435497.987174214795232, 9177630.29577236995101 ], [ 6435557.690764063969254, 9177647.419589003548026 ], [ 6435578.782783392816782, 9177670.414769914001226 ], [ 6435594.67234352696687, 9177712.50660783983767 ], [ 6435624.70236339699477, 9177750.676224410533905 ], [ 6435653.471954874694347, 9177763.921042274683714 ], [ 6435700.126910347491503, 9177753.394435552880168 ], [ 6435755.29830923397094, 9177727.647152781486511 ], [ 6435782.292649673298001, 9177709.51453005336225 ], [ 6435799.532519727014005, 9177682.4711001701653 ], [ 6435816.933135181665421, 9177676.639970345422626 ], [ 6435829.1861477997154, 9177691.832885954529047 ], [ 6435831.001009902916849, 9177720.713100001215935 ], [ 6435812.776940475217998, 9177763.669079504907131 ], [ 6435808.271043159067631, 9177803.395542059093714 ], [ 6435835.988859859295189, 9177830.172230277210474 ], [ 6435886.473752481862903, 9177853.346832675859332 ], [ 6435908.027417325414717, 9177845.921816073358059 ], [ 6435940.360435852780938, 9177766.821600614115596 ], [ 6435956.221729066222906, 9177734.031038459390402 ], [ 6436013.737793957814574, 9177705.26608014665544 ], [ 6436083.539457134902477, 9177661.739392317831516 ], [ 6436099.940412784926593, 9177624.621587449684739 ], [ 6436101.151205097325146, 9177566.154605997726321 ], [ 6436113.192847490310669, 9177523.375155404210091 ], [ 6436121.183619733899832, 9177520.763450119644403 ], [ 6436148.073480407707393, 9177533.948429856449366 ], [ 6436170.385076764971018, 9177533.762779902666807 ], [ 6436196.246903799474239, 9177526.327310329303145 ], [ 6436248.483889683149755, 9177478.991634448990226 ], [ 6436258.106348633766174, 9177452.165834672749043 ], [ 6436250.670784756541252, 9177439.330930326133966 ], [ 6436252.618317337706685, 9177426.22704228758812 ], [ 6436264.060131679289043, 9177408.993280651047826 ], [ 6436303.95498881675303, 9177397.751464452594519 ], [ 6436316.499063652008772, 9177388.201438125222921 ], [ 6436332.229142423719168, 9177389.679302126169205 ], [ 6436375.326220408082008, 9177433.556115496903658 ], [ 6436387.5304887406528, 9177390.294925907626748 ], [ 6436389.194278587587178, 9177333.799912132322788 ], [ 6436426.161717052571476, 9177246.81507688947022 ], [ 6436469.29536278359592, 9177182.425007231533527 ], [ 6436500.725652784109116, 9177188.217851685360074 ], [ 6436528.986705026589334, 9177179.691848307847977 ], [ 6436567.356146208941936, 9177130.369705464690924 ], [ 6436602.852831766009331, 9177077.158609373494983 ], [ 6436652.695833303034306, 9177062.226664647459984 ], [ 6436682.191340399906039, 9177100.979128720238805 ], [ 6436722.257625259459019, 9177142.378463421016932 ], [ 6436795.305224098265171, 9177143.119525138288736 ], [ 6436886.000294822268188, 9177065.177534814924002 ], [ 6436876.076481593772769, 9177025.863360224291682 ], [ 6436873.175377137027681, 9177014.37328315526247 ], [ 6436831.674248153343797, 9176988.559717360883951 ], [ 6436788.296536253765225, 9176962.800041858106852 ], [ 6436785.983552491292357, 9176916.459805170074105 ], [ 6436828.460893910378218, 9176875.642022190615535 ], [ 6436868.58849979378283, 9176884.248327596113086 ], [ 6436914.783745167776942, 9176877.02244752086699 ], [ 6436955.577914802357554, 9176843.060486286878586 ], [ 6436970.652253868058324, 9176805.978847770020366 ], [ 6436965.442951504141092, 9176758.813746633008122 ], [ 6438307.883145969361067, 9171563.975452335551381 ], [ 6438341.243764840066433, 9171419.878972606733441 ], [ 6438349.589456291869283, 9171383.860305411741138 ], [ 6438374.603458059951663, 9171275.782131316140294 ], [ 6438388.298405453562737, 9170748.245439495891333 ], [ 6438431.364285316318274, 9169704.266403965651989 ], [ 6438434.490818258374929, 9169701.974448889493942 ], [ 6442104.804445126093924, 9167001.398524254560471 ], [ 6442097.616785170510411, 9166951.447017887607217 ], [ 6442143.149916956201196, 9166883.503100076690316 ], [ 6442202.699155371636152, 9166815.150270590558648 ], [ 6442269.003692012280226, 9166648.093234971165657 ], [ 6442376.785713317804039, 9166505.927530996501446 ], [ 6442451.627060677856207, 9166389.688959546387196 ], [ 6442509.291966515593231, 9166302.095952359959483 ], [ 6442536.544725965708494, 9166278.149097770452499 ], [ 6442595.183476057834923, 9166254.761599579825997 ], [ 6442636.114531015977263, 9166260.716873938217759 ], [ 6442673.360571097582579, 9166253.841948747634888 ], [ 6442722.027157355099916, 9166198.854764968156815 ], [ 6442772.08489765226841, 9166039.30309983715415 ], [ 6442765.371364459395409, 9165937.131765093654394 ], [ 6442785.579673835076392, 9165814.881110567599535 ], [ 6442797.256877239793539, 9165760.405643733218312 ], [ 6442815.066905123181641, 9165719.369748089462519 ], [ 6442811.218800586648285, 9165685.662262996658683 ], [ 6442775.012040070258081, 9165663.567926259711385 ], [ 6442711.221281153149903, 9165623.440083472058177 ], [ 6442607.085934895090759, 9165563.268322279676795 ], [ 6442519.558157807216048, 9165534.955910243093967 ], [ 6442468.174577632918954, 9165545.649194784462452 ], [ 6442425.364527136087418, 9165539.636248107999563 ], [ 6442388.692088261246681, 9165531.968697348609567 ], [ 6442257.948232831433415, 9165594.232836300507188 ], [ 6442206.034685868769884, 9165632.405020106583834 ], [ 6442178.449093950912356, 9165728.766481257975101 ], [ 6442164.024574254639447, 9165821.906383747234941 ], [ 6442104.342252473346889, 9165889.357256483286619 ], [ 6442042.925753846764565, 9165893.079030087217689 ], [ 6442003.953357666730881, 9165859.376161465421319 ], [ 6441978.601729607209563, 9165704.753514472395182 ], [ 6441917.195903758518398, 9165579.101258238777518 ], [ 6441714.175300052389503, 9165426.375608125701547 ], [ 6441683.525690384209156, 9165310.460279520601034 ], [ 6441647.193382982164621, 9165275.24001095071435 ], [ 6441605.089157309383154, 9165235.229064194485545 ], [ 6441572.619507925584912, 9165194.936863470822573 ], [ 6441569.074064566753805, 9165183.49900908768177 ], [ 6441600.260621814988554, 9165050.185655798763037 ], [ 6441600.840818230062723, 9165047.717439379543066 ], [ 6441599.704624677076936, 9165047.387472692877054 ], [ 6441543.665499952621758, 9165034.611626446247101 ], [ 6441332.638214129023254, 9164990.614674651995301 ], [ 6441251.257727695629001, 9165000.231451585888863 ], [ 6441206.592984900809824, 9165026.275052893906832 ], [ 6441196.78524477686733, 9165035.833010068163276 ], [ 6441267.103478983044624, 9165108.79224805533886 ], [ 6441286.185104358009994, 9165361.961433125659823 ], [ 6441081.882648983038962, 9165459.130498040467501 ], [ 6441057.530347109772265, 9165338.630461879074574 ], [ 6440959.058909698389471, 9165330.973210632801056 ], [ 6440964.270453840494156, 9165226.338080355897546 ], [ 6440930.96790221426636, 9165227.468985510990024 ], [ 6440857.242027444764972, 9165214.970311829820275 ], [ 6440831.305004530586302, 9165213.366898763924837 ], [ 6440640.154600510373712, 9165175.67520204000175 ], [ 6440380.588145395740867, 9165111.621160130947828 ], [ 6440337.424618852324784, 9165100.624891098588705 ], [ 6440271.762524536810815, 9165083.555797755718231 ], [ 6440133.091118759475648, 9165054.30732230655849 ], [ 6440014.238107177428901, 9165029.734593454748392 ], [ 6439887.649186377413571, 9165004.252731619402766 ], [ 6439475.999852140434086, 9164923.392050430178642 ], [ 6439444.919926151633263, 9164917.728381769731641 ], [ 6438910.674022853374481, 9164820.26656161993742 ], [ 6438501.615583442151546, 9164745.637509617954493 ], [ 6438435.560847645625472, 9164733.674486355856061 ], [ 6438096.727127185091376, 9164674.993629358708858 ], [ 6438045.063541532494128, 9164666.049083640798926 ], [ 6437917.43992705643177, 9164641.776310168206692 ], [ 6437863.018606102094054, 9164631.425643645226955 ], [ 6437735.617915213108063, 9164611.038257865235209 ], [ 6437273.210431191138923, 9164537.05348732881248 ], [ 6436901.991808630526066, 9164480.573246989399195 ], [ 6436818.652715539559722, 9164471.314403761178255 ], [ 6436379.410350527614355, 9164405.762931551784277 ], [ 6435305.077693372033536, 9164272.835148613899946 ], [ 6434951.839837023057044, 9164227.659242434427142 ], [ 6434539.988144380971789, 9164175.292948067188263 ], [ 6434180.556044616736472, 9164133.584961574524641 ], [ 6434121.970478801056743, 9164127.393070857971907 ], [ 6433969.494180731475353, 9164111.396026890724897 ], [ 6433524.112026114016771, 9164057.516498094424605 ], [ 6432934.529883662238717, 9163987.316261865198612 ], [ 6431072.29445752222091, 9170639.382730312645435 ] ] ] } },
{ "type": "Feature", "properties": { "lv_id": "LOC_015272", "id": 60745.0, "CD_SETOR": "220157205000021", "SITUACAO": "Rural", "CD_SIT": "8", "CD_TIPO": "0", "AREA_KM2": 99.470020536818936, "CD_REGIAO": "2", "NM_REGIAO": "Nordeste", "CD_UF": "22", "NM_UF": "Piauí", "CD_MUN": "2201572", "NM_MUN": "Belém do Piauí", "CD_DIST": "220157205", "NM_DIST": "Belém do Piauí", "CD_SUBDIST": "22015720500", "NM_SUBDIST": null, "CD_BAIRRO": null, "NM_BAIRRO": null, "CD_NU": null, "NM_NU": null, "CD_FCU": null, "NM_FCU": null, "CD_AGLOM": "220157200002", "NM_AGLOM": "Comunidade Quilombola Vista Bela", "CD_RGINT": "2203", "NM_RGINT": "Picos", "CD_RGI": "220009", "NM_RGI": "Picos", "CD_CONCURB": null, "NM_CONCURB": null, "mun_code_x": "2201572", "index_right": 55684, "dist_m": 54.958520984880685, "local_id": 154083, "ano": 2022, "cod_localidade_ibge": 2201572, "NR_ZONA": "68", "nr_cep": 64678000.0, "nm_localidade": "BELÉM DO PIAUÍ", "nm_locvot": "U. E. JOAQUIM ANTONIO DE LIMA", "ds_endereco": "LOCALIDADE VISTA BELA", "ds_bairro": "ZONA RURAL", "pred_long": -40.989432, "pred_lat": -7.506611, "pred_dist": 0.0, "tse_long": -40.9895411, "tse_lat": -7.5069651, "long": -40.9895411, "lat": -7.5069651, "ID_UNICO": "LOC_015272", "SG_UF": "PI", "CD_MUNICIPIO": "12335", "NR_LOCAL_VOTACAO": "1074", "QT_SECOES_AGREGADAS": 0, "QT_ELEITORES_TRANSFERIDOS": 6, "CIRO GOMES (PDT) (NÃO ELEITO) 1T": 0.0, "CONSTITUINTE EYMAEL (DC) (NÃO ELEITO) 1T": 0.0, "FELIPE D AVILA (NOVO) (NÃO ELEITO) 1T": 0.0, "JAIR BOLSONARO (PL) (2º TURNO) 1T": 6.0, "LULA (PT) (2º TURNO) 1T": 87.0, "LÉO PÉRICLES (UP) (NÃO ELEITO) 1T": 0.0, "PADRE KELMON (PTB) (NÃO ELEITO) 1T": 0.0, "SIMONE TEBET (MDB) (NÃO ELEITO) 1T": 0.0, "SOFIA MANZANO (PCB) (NÃO ELEITO) 1T": 0.0, "SORAYA THRONICKE (UNIÃO) (NÃO ELEITO) 1T": 0.0, "VERA (PSTU) (NÃO ELEITO) 1T": 0.0, "Total_Votos_Validos 1T": 93.0, "Votos_Brancos 1T": 0.0, "Votos_Nulos 1T": 2.0, "Abstenções 1T": 0.0, "Eleitores_Aptos 1T": 95.0, "JAIR BOLSONARO (PL) (NÃO ELEITO) 2T": 6.0, "LULA (PT) (ELEITO) 2T": 87.0, "Total_Votos_Validos 2T": 93.0, "Votos_Brancos 2T": 0.0, "Votos_Nulos 2T": 1.0, "Abstenções 2T": 1.0, "Eleitores_Aptos 2T": 95.0, "mun_code_y": "2201572", "mun_code": "2201572" }, "geometry": { "type": "Polygon", "coordinates": [ [ [ 6442453.033174438402057, 9155906.731759432703257 ], [ 6443347.579134070314467, 9153099.62260502949357 ], [ 6443198.68034730385989, 9152815.619139675050974 ], [ 6442960.173610208556056, 9152560.721139254048467 ], [ 6442775.580531714484096, 9152322.418825916945934 ], [ 6442645.479641343466938, 9152086.621013253927231 ], [ 6442437.278160458430648, 9151577.623474754393101 ], [ 6442264.268235199153423, 9151313.518710814416409 ], [ 6441974.568704846315086, 9150736.420566648244858 ], [ 6441874.265716360881925, 9150484.518349627032876 ], [ 6441850.47272867616266, 9150177.525194777175784 ], [ 6441858.468022584915161, 9149942.423518802970648 ], [ 6441810.369009448215365, 9149762.420873621478677 ], [ 6441771.465520919300616, 9149590.588621072471142 ], [ 6441730.955466272309422, 9149568.642555944621563 ], [ 6441711.711372110061347, 9149541.410706730559468 ], [ 6441688.170026294887066, 9149465.847538899630308 ], [ 6441667.570728568360209, 9149396.438733579590917 ], [ 6441637.056361512281001, 9149357.739767910912633 ], [ 6441574.002959826029837, 9149323.981385121122003 ], [ 6441528.583469212055206, 9149244.189935954287648 ], [ 6441518.084823586046696, 9149210.229346258565784 ], [ 6441513.352645143866539, 9149162.138228084892035 ], [ 6441486.264579277485609, 9149112.32940193079412 ], [ 6441390.190977720543742, 9148988.651797041296959 ], [ 6441374.172624111175537, 9148954.742274735122919 ], [ 6441356.812126680277288, 9148882.854793924838305 ], [ 6441339.207572421059012, 9148813.925300765782595 ], [ 6441299.970434730872512, 9148767.769868571311235 ], [ 6441209.301488252356648, 9148699.994922429323196 ], [ 6441174.179481973871589, 9148647.362014535814524 ], [ 6441151.616487416438758, 9148571.317614959552884 ], [ 6441135.917379478923976, 9148507.098362188786268 ], [ 6441123.980530994012952, 9148469.322731271386147 ], [ 6441104.207962306216359, 9148442.902092911303043 ], [ 6441069.401355883106589, 9148415.907905364409089 ], [ 6441037.24152816273272, 9148370.109864121302962 ], [ 6441013.360422790050507, 9148346.648847537115216 ], [ 6440968.207364981994033, 9148328.247388662770391 ], [ 6440926.841937609016895, 9148307.236466800794005 ], [ 6440856.255461383610964, 9148242.723496861755848 ], [ 6440812.336530102416873, 9148232.456283649429679 ], [ 6440753.819010367617011, 9148236.355473734438419 ], [ 6440679.589759697206318, 9148257.858592299744487 ], [ 6440628.216727478429675, 9148268.126840824261308 ], [ 6440589.239259095862508, 9148264.407846197485924 ], [ 6440512.674134116619825, 9148236.728416014462709 ], [ 6440476.060342958196998, 9148234.527768094092607 ], [ 6440422.326844609342515, 9148239.64587415382266 ], [ 6440349.700943505391479, 9148233.183841461315751 ], [ 6440297.371018204838037, 9148226.003922060132027 ], [ 6440227.344595128670335, 9148184.171480884775519 ], [ 6440182.188383392058313, 9148161.91184021346271 ], [ 6440124.20470130816102, 9148139.012852260842919 ], [ 6440087.797145285643637, 9148110.137813316658139 ], [ 6440023.215547556988895, 9148039.546295270323753 ], [ 6439983.795521341264248, 9148002.136559709906578 ], [ 6439938.952833469957113, 9147960.576104028150439 ], [ 6439915.101567388512194, 9147923.156815558671951 ], [ 6439908.861723303794861, 9147887.596192052587867 ], [ 6439903.371423291042447, 9147798.904260298237205 ], [ 6439884.27393161598593, 9147698.134787509217858 ], [ 6439861.175929134711623, 9147622.677305664867163 ], [ 6439840.40713985171169, 9147592.429279588162899 ], [ 6439823.022713319398463, 9147583.301316905766726 ], [ 6439787.395378864370286, 9147577.099898373708129 ], [ 6439770.222798468545079, 9147590.094287263229489 ], [ 6439756.376574456691742, 9147603.556970532983541 ], [ 6439724.119349693879485, 9147603.042594369500875 ], [ 6439696.023178273811936, 9147582.658740505576134 ], [ 6439684.107526572421193, 9147564.28948800265789 ], [ 6439678.292798485606909, 9147543.128473334014416 ], [ 6439675.858628943562508, 9147475.680439485237002 ], [ 6439659.181330427527428, 9147438.161518672481179 ], [ 6439615.174044165760279, 9147391.243694238364697 ], [ 6439511.256611907854676, 9147353.37354251742363 ], [ 6439393.161584232002497, 9147317.741492740809917 ], [ 6439306.748439493589103, 9147278.10175202973187 ], [ 6439227.247851353138685, 9147281.83179378695786 ], [ 6439151.869684794917703, 9147294.290173094719648 ], [ 6439114.589345637708902, 9147318.096165234223008 ], [ 6439078.059592287987471, 9147378.532956574112177 ], [ 6439013.456642732955515, 9147482.92692351154983 ], [ 6438993.275633743032813, 9147506.223295660689473 ], [ 6438949.201412413269281, 9147520.585499851033092 ], [ 6438877.88435434922576, 9147528.496223850175738 ], [ 6438823.128766173496842, 9147536.36765449680388 ], [ 6438789.437443174421787, 9147535.895506685599685 ], [ 6438760.188523514196277, 9147521.333508575335145 ], [ 6438693.464911265298724, 9147441.730681952089071 ], [ 6438658.151319870725274, 9147416.228704739362001 ], [ 6438586.19450862519443, 9147387.505666274577379 ], [ 6438532.486449528485537, 9147333.615216542035341 ], [ 6438508.114850451238453, 9147312.213160457089543 ], [ 6438392.700211350806057, 9147236.443927897140384 ], [ 6438201.728286420926452, 9147118.442844981327653 ], [ 6438091.328353621065617, 9147036.738072957843542 ], [ 6438058.659782965667546, 9147022.278378685936332 ], [ 6437947.895098047330976, 9147010.484361669048667 ], [ 6437883.848279947414994, 9146976.647269560024142 ], [ 6437837.709173598326743, 9146921.057695774361491 ], [ 6437755.334291247650981, 9146763.854721708223224 ], [ 6437704.050742913037539, 9146646.236080404371023 ], [ 6437662.998635226860642, 9146572.226720683276653 ], [ 6437634.17728254571557, 9146542.220751106739044 ], [ 6437601.733276790007949, 9146535.357490936294198 ], [ 6437522.649813226424158, 9146568.123137848451734 ], [ 6437435.030206030234694, 9146569.824652018025517 ], [ 6437320.943589894101024, 9146557.676402281969786 ], [ 6437272.497539233416319, 9146569.785175915807486 ], [ 6437193.74530138913542, 9146617.51805317029357 ], [ 6437146.415848365053535, 9146633.791699273511767 ], [ 6437090.851843986660242, 9146629.205021617934108 ], [ 6437049.645607529208064, 9146613.524749541655183 ], [ 6437024.531973356381059, 9146581.933577157557011 ], [ 6436974.758966975845397, 9146421.948556492105126 ], [ 6436878.219384542666376, 9146233.741296172142029 ], [ 6436834.824333571828902, 9146158.896038955077529 ], [ 6436807.537870928645134, 9146132.249250208958983 ], [ 6436777.286943817511201, 9146121.122506381943822 ], [ 6436734.56115529499948, 9146132.493617083877325 ], [ 6436687.324163763783872, 9146185.52834640070796 ], [ 6436647.9560467293486, 9146232.08781872689724 ], [ 6436608.426825072616339, 9146265.716593848541379 ], [ 6436568.999890412203968, 9146265.415366103872657 ], [ 6436512.653076926246285, 9146234.300825141370296 ], [ 6436443.932725491002202, 9146169.287646412849426 ], [ 6436381.717036582529545, 9146085.245501913130283 ], [ 6436301.386798127554357, 9146023.415164148434997 ], [ 6436183.860252507962286, 9145894.726360376924276 ], [ 6436086.018631046637893, 9145804.484357818961143 ], [ 6436015.670665540732443, 9145744.173168102279305 ], [ 6435931.601996338926256, 9145727.727967835962772 ], [ 6435885.797397848218679, 9145732.042047487571836 ], [ 6435860.388727698475122, 9145754.016597241163254 ], [ 6435851.541492995806038, 9145790.92919447273016 ], [ 6435852.753956221044064, 9145850.689085803925991 ], [ 6435841.498571374453604, 9145951.894419057294726 ], [ 6435822.934270977973938, 9146026.199137695133686 ], [ 6435791.110826596617699, 9146074.007269935682416 ], [ 6435684.219145759008825, 9146174.654378239065409 ], [ 6435593.071536403149366, 9146247.600765988230705 ], [ 6435548.334109277464449, 9146336.752674404531717 ], [ 6435501.922045714221895, 9146496.414821654558182 ], [ 6435430.623520163819194, 9146617.217798739671707 ], [ 6435291.036330722272396, 9146811.191338067874312 ], [ 6435204.451541383750737, 9146911.683068415150046 ], [ 6435149.156064560636878, 9147043.580812115222216 ], [ 6434498.314587767235935, 9148968.485971741378307 ], [ 6433965.479830365628004, 9150542.715542085468769 ], [ 6433771.092459583655, 9151116.899266429245472 ], [ 6433696.249598853290081, 9151616.49884907156229 ], [ 6433679.308345332741737, 9151729.569369086995721 ], [ 6432944.555936727672815, 9156631.661808559671044 ], [ 6433023.102131327614188, 9156746.439763527363539 ], [ 6433128.907855216413736, 9156864.389484498649836 ], [ 6433190.811879631131887, 9156923.384210217744112 ], [ 6433318.03395145572722, 9156984.093797139823437 ], [ 6433380.894448526203632, 9157026.61018524132669 ], [ 6433566.373435414396226, 9157210.751061560586095 ], [ 6433648.166695235297084, 9157300.476984445005655 ], [ 6433762.748265404254198, 9157446.763270284980536 ], [ 6433886.471502956934273, 9157577.012163516134024 ], [ 6434027.511125655844808, 9157733.075891273096204 ], [ 6434137.869807935319841, 9157878.467673549428582 ], [ 6434188.582534929737449, 9157913.389091435819864 ], [ 6434186.751272328197956, 9157943.849050540477037 ], [ 6434373.62887036241591, 9158197.755863070487976 ], [ 6434027.317179962061346, 9159592.333510195836425 ], [ 6433563.212889517657459, 9161460.677038591355085 ], [ 6433857.529841205105186, 9161322.546286672353745 ], [ 6442475.063109261915088, 9156974.404474334791303 ], [ 6442453.033174438402057, 9155906.731759432703257 ] ] ] } }
]
}
