{
"type": "FeatureCollection",
"name": "2203800",
"crs": { "type": "name", "properties": { "name": "urn:ogc:def:crs:EPSG::5880" } },
"features": [
{ "type": "Feature", "properties": { "lv_id": "LOC_013583", "id": 62074.0, "CD_SETOR": "220380005000002", "SITUACAO": "Urbana", "CD_SIT": "1", "CD_TIPO": "0", "AREA_KM2": 0.29442631362320498, "CD_REGIAO": "2", "NM_REGIAO": "Nordeste", "CD_UF": "22", "NM_UF": "Piauí", "CD_MUN": "2203800", "NM_MUN": "Flores do Piauí", "CD_DIST": "220380005", "NM_DIST": "Flores do Piauí", "CD_SUBDIST": "22038000500", "NM_SUBDIST": null, "CD_BAIRRO": null, "NM_BAIRRO": null, "CD_NU": null, "NM_NU": null, "CD_FCU": null, "NM_FCU": null, "CD_AGLOM": "220380000005", "NM_AGLOM": "Campestre", "CD_RGINT": "2206", "NM_RGINT": "Floriano", "CD_RGI": "220019", "NM_RGI": "Canto do Buriti", "CD_CONCURB": null, "NM_CONCURB": null, "mun_code_x": "2203800", "index_right": 53668, "dist_m": 208.47902644603664, "local_id": 135310, "ano": 2022, "cod_localidade_ibge": 2203800, "NR_ZONA": "72", "nr_cep": 64815000.0, "nm_localidade": "FLORES DO PIAUÍ", "nm_locvot": "GRUPO ESCOLAR SANTO ANTONIO", "ds_endereco": "PCA 15 DE NOVEMBRO 356", "ds_bairro": "CENTRO", "pred_long": -42.9251261, "pred_lat": -7.794568, "pred_dist": 0.0, "tse_long": -42.9249997, "tse_lat": -7.794528, "long": -42.9249997, "lat": -7.794528, "ID_UNICO": "LOC_013583", "SG_UF": "PI", "CD_MUNICIPIO": "10758", "NR_LOCAL_VOTACAO": "1023", "QT_SECOES_AGREGADAS": 0, "QT_ELEITORES_TRANSFERIDOS": 0, "CIRO GOMES (PDT) (NÃO ELEITO) 1T": 22.0, "CONSTITUINTE EYMAEL (DC) (NÃO ELEITO) 1T": 0.0, "FELIPE D AVILA (NOVO) (NÃO ELEITO) 1T": 0.0, "JAIR BOLSONARO (PL) (2º TURNO) 1T": 142.0, "LULA (PT) (2º TURNO) 1T": 695.0, "LÉO PÉRICLES (UP) (NÃO ELEITO) 1T": 0.0, "PADRE KELMON (PTB) (NÃO ELEITO) 1T": 0.0, "SIMONE TEBET (MDB) (NÃO ELEITO) 1T": 18.0, "SOFIA MANZANO (PCB) (NÃO ELEITO) 1T": 0.0, "SORAYA THRONICKE (UNIÃO) (NÃO ELEITO) 1T": 4.0, "VERA (PSTU) (NÃO ELEITO) 1T": 0.0, "Total_Votos_Validos 1T": 881.0, "Votos_Brancos 1T": 8.0, "Votos_Nulos 1T": 45.0, "Abstenções 1T": 331.0, "Eleitores_Aptos 1T": 1265.0, "JAIR BOLSONARO (PL) (NÃO ELEITO) 2T": 146.0, "LULA (PT) (ELEITO) 2T": 716.0, "Total_Votos_Validos 2T": 862.0, "Votos_Brancos 2T": 10.0, "Votos_Nulos 2T": 23.0, "Abstenções 2T": 370.0, "Eleitores_Aptos 2T": 1265.0, "mun_code_y": "2203800", "mun_code": "2203800" }, "geometry": { "type": "Polygon", "coordinates": [ [ [ 6226775.106848471798003, 9118235.973377233371139 ], [ 6225139.298166383989155, 9114407.4190095923841 ], [ 6225139.227567463181913, 9114407.251849761232734 ], [ 6225113.901535876095295, 9114347.962209865450859 ], [ 6224065.586665308102965, 9111894.460992949083447 ], [ 6217319.354889231733978, 9110940.297594547271729 ], [ 6206258.020806510932744, 9109374.578569497913122 ], [ 6206613.031500299461186, 9113868.09453833475709 ], [ 6207504.130626048892736, 9113412.787156745791435 ], [ 6208157.647762383334339, 9121886.306468391790986 ], [ 6208161.352792551741004, 9121934.551095167174935 ], [ 6208161.436377261765301, 9121935.652699692174792 ], [ 6208165.540684112347662, 9121989.11300378665328 ], [ 6208677.461517923511565, 9128626.025633923709393 ], [ 6209414.463709725067019, 9129172.126313278451562 ], [ 6216923.567548118531704, 9134736.134805418550968 ], [ 6216960.398889373987913, 9134763.429876668378711 ], [ 6216970.478548601269722, 9134770.898702206090093 ], [ 6216967.18844729848206, 9134666.493115006014705 ], [ 6216974.680587943643332, 9134615.987119153141975 ], [ 6216997.599350453354418, 9134577.476212292909622 ], [ 6217019.884020737372339, 9134528.425497144460678 ], [ 6217039.345359831117094, 9134496.267302751541138 ], [ 6217058.384722275659442, 9134473.49310502037406 ], [ 6217079.43519227206707, 9134453.404670879244804 ], [ 6217089.16180170699954, 9134420.359257658943534 ], [ 6217096.541535273194313, 9134395.654676521196961 ], [ 6217117.273798864334822, 9134338.57727974653244 ], [ 6217136.484761320985854, 9134300.533239770680666 ], [ 6217148.24811156000942, 9134247.911483384668827 ], [ 6217155.692999684251845, 9134195.164375549182296 ], [ 6217149.615856237709522, 9134117.755456361919641 ], [ 6217137.187006438151002, 9134028.489571554586291 ], [ 6217134.500012231990695, 9133989.083225453272462 ], [ 6217138.913092330098152, 9133957.582778202369809 ], [ 6217156.14040064252913, 9133904.166615106165409 ], [ 6217157.243765549734235, 9133864.099253110587597 ], [ 6217149.392528144642711, 9133785.102544076740742 ], [ 6217160.5706543372944, 9133740.257827835157514 ], [ 6217158.115608786232769, 9133686.661744071170688 ], [ 6217178.60905128531158, 9133634.107504365965724 ], [ 6217174.979576420038939, 9133580.338891569525003 ], [ 6217144.606232088059187, 9133515.239252932369709 ], [ 6217095.56456667277962, 9133451.612536866217852 ], [ 6217067.888350912369788, 9133421.987317675724626 ], [ 6217056.563316486775875, 9133398.226790018379688 ], [ 6217049.601274605840445, 9133358.254860922694206 ], [ 6217052.980770654045045, 9133331.231061477214098 ], [ 6217077.915503835305572, 9133278.888943588361144 ], [ 6217099.117645147256553, 9133235.926087465137243 ], [ 6217125.114053450524807, 9133183.680333312600851 ], [ 6217136.668059499934316, 9133129.429980911314487 ], [ 6217137.221978506073356, 9133082.605962546542287 ], [ 6217126.82837444357574, 9133047.837245708331466 ], [ 6217128.011412267573178, 9133020.81368063390255 ], [ 6217147.68089000787586, 9132967.16498751938343 ], [ 6217169.103073915466666, 9132845.470059294253588 ], [ 6217181.10945712774992, 9132783.930039497092366 ], [ 6217192.918590731918812, 9132758.581139521673322 ], [ 6217195.546838689595461, 9132691.548767525702715 ], [ 6217194.698298904113472, 9132597.838343294337392 ], [ 6217205.924380206502974, 9132510.215194502845407 ], [ 6217210.276864428073168, 9132476.845844767987728 ], [ 6217222.233367425389588, 9132404.795766027644277 ], [ 6217229.971786265261471, 9132384.249687885865569 ], [ 6217284.030036741867661, 9132316.091737639158964 ], [ 6217296.76316649466753, 9132300.103221734985709 ], [ 6217361.115247047506273, 9132208.651388430967927 ], [ 6217427.768551329150796, 9132108.419779308140278 ], [ 6217445.855427916161716, 9132028.898983025923371 ], [ 6217487.155561598017812, 9131977.517820807173848 ], [ 6217558.11370999738574, 9131858.900400346145034 ], [ 6217704.132604921236634, 9131597.605904165655375 ], [ 6217728.785531556233764, 9131497.54511502943933 ], [ 6217746.153517408296466, 9131343.786770150065422 ], [ 6217804.722180958837271, 9131137.048006286844611 ], [ 6217809.828888294287026, 9131106.046675004065037 ], [ 6217811.47525598667562, 9131051.20559673756361 ], [ 6217822.852213900536299, 9131009.992593206465244 ], [ 6217837.92883731983602, 9130961.597409907728434 ], [ 6217891.782827023416758, 9130818.362695507705212 ], [ 6217903.300493041984737, 9130787.781105361878872 ], [ 6217921.536842823028564, 9130750.265861269086599 ], [ 6217957.707788646221161, 9130735.562216242775321 ], [ 6217995.121115329675376, 9130733.974006732925773 ], [ 6218027.543889258056879, 9130727.140985388308764 ], [ 6218063.234793057665229, 9130711.796179849654436 ], [ 6218170.631043184548616, 9130631.176875051110983 ], [ 6218216.570841372944415, 9130575.42463294044137 ], [ 6218245.227499308995903, 9130492.607553344219923 ], [ 6218264.474249312654138, 9130393.21347925439477 ], [ 6218283.502817425876856, 9130275.50591016933322 ], [ 6218280.783163098618388, 9130175.047126391902566 ], [ 6218241.971420699730515, 9130046.062278041616082 ], [ 6218253.217597235925496, 9129930.448995087295771 ], [ 6218275.678964999504387, 9129741.753265246748924 ], [ 6218269.950556218624115, 9129653.495042895898223 ], [ 6218264.49407484382391, 9129590.7817786578089 ], [ 6218245.180798864923418, 9129524.349439900368452 ], [ 6218245.21303332503885, 9129505.477546229958534 ], [ 6218247.97985399607569, 9129474.108006175607443 ], [ 6218249.377734523266554, 9129432.442757898941636 ], [ 6218245.020563938654959, 9129406.395394291728735 ], [ 6218254.447010056115687, 9129334.147952741011977 ], [ 6218267.469298384152353, 9129172.825836980715394 ], [ 6218282.611643669195473, 9129084.758510258048773 ], [ 6218285.988756773993373, 9129065.090023793280125 ], [ 6218306.505907860584557, 9129056.22061681561172 ], [ 6218350.729689314961433, 9129050.904630202800035 ], [ 6218383.109390591271222, 9129041.603436062112451 ], [ 6218423.701088022440672, 9129025.532084230333567 ], [ 6218519.075409936718643, 9128987.827071506530046 ], [ 6218604.243072673678398, 9128971.116811795160174 ], [ 6218711.813445978797972, 9128936.080128828063607 ], [ 6218723.290561588481069, 9128923.276422820985317 ], [ 6218733.450939789414406, 9128807.70027663372457 ], [ 6218747.519458375871181, 9128758.48355508595705 ], [ 6218760.724027604795992, 9128737.365308113396168 ], [ 6218819.931504191830754, 9128672.138391582295299 ], [ 6218887.224369291216135, 9128596.110639829188585 ], [ 6218902.864385922439396, 9128540.678664552047849 ], [ 6218921.392955224961042, 9128453.951995482668281 ], [ 6218945.824442098848522, 9128391.56535192206502 ], [ 6218976.972426764667034, 9128330.322284670546651 ], [ 6218994.236573487520218, 9128296.35567818954587 ], [ 6218999.262335985898972, 9128276.463520806282759 ], [ 6219007.683254548348486, 9128243.188572598621249 ], [ 6219018.032491777092218, 9128183.747555611655116 ], [ 6219017.748388977721334, 9128062.537758769467473 ], [ 6219017.746883858926594, 9128061.625204496085644 ], [ 6219013.785495851188898, 9127976.631651049479842 ], [ 6219021.864893050864339, 9127877.196801071986556 ], [ 6219022.514010321348906, 9127871.997295588254929 ], [ 6219037.512069710530341, 9127746.097530914470553 ], [ 6219033.909671492874622, 9127701.496611336246133 ], [ 6219031.110792671330273, 9127665.358551062643528 ], [ 6219029.029953561723232, 9127627.117503516376019 ], [ 6219030.791612763889134, 9127625.685902619734406 ], [ 6219051.682538192719221, 9127608.693415470421314 ], [ 6219058.091649884358048, 9127603.490575559437275 ], [ 6219094.05445739813149, 9127573.205810826271772 ], [ 6219113.366253194399178, 9127569.830582574009895 ], [ 6219140.203110634349287, 9127552.345340948551893 ], [ 6219149.76317996904254, 9127529.450759280472994 ], [ 6219122.737491523846984, 9127484.568888081237674 ], [ 6219052.763589863665402, 9127366.658634254708886 ], [ 6218975.56015460845083, 9127246.120188660919666 ], [ 6218941.39790634997189, 9127192.816671844571829 ], [ 6218904.345822951756418, 9127162.177870336920023 ], [ 6218863.198193241842091, 9127119.950981833040714 ], [ 6218843.961802823469043, 9127086.122279560193419 ], [ 6218832.639553522691131, 9127036.596219424158335 ], [ 6218833.336074540391564, 9127014.033758381381631 ], [ 6218861.270824246108532, 9126928.943038115277886 ], [ 6218904.123123506084085, 9126848.511347211897373 ], [ 6218925.644311762414873, 9126808.135201789438725 ], [ 6218932.145346663892269, 9126786.44684911519289 ], [ 6218934.5412283167243, 9126742.568783869966865 ], [ 6218928.130033446475863, 9126688.825106110423803 ], [ 6218917.966229400597513, 9126605.198786053806543 ], [ 6218917.069133929908276, 9126598.248132281005383 ], [ 6218901.235730731859803, 9126508.741849789395928 ], [ 6218900.821768426336348, 9126507.242907330393791 ], [ 6218894.062544683925807, 9126483.128169827163219 ], [ 6218901.632315948605537, 9126449.874978957697749 ], [ 6218915.284548362717032, 9126407.765602452680469 ], [ 6218965.800333540886641, 9126304.600260306149721 ], [ 6219022.01762655749917, 9126213.262444265186787 ], [ 6219022.652428679168224, 9126212.20938178896904 ], [ 6219031.233136357739568, 9126199.265877697616816 ], [ 6219070.210476772859693, 9126140.599287861958146 ], [ 6219097.877747934311628, 9126094.305011067539454 ], [ 6219147.311128314584494, 9126011.615586860105395 ], [ 6219241.044439262710512, 9125862.796451287344098 ], [ 6219288.031055531464517, 9125781.961342697963119 ], [ 6219353.076545190066099, 9125668.18447007983923 ], [ 6219367.714076442644, 9125601.565729670226574 ], [ 6219361.64144988451153, 9125583.111406996846199 ], [ 6219337.669131009839475, 9125440.68276522308588 ], [ 6219338.810977735556662, 9125377.45790209621191 ], [ 6219359.746355658397079, 9125323.530141247436404 ], [ 6219421.329583871178329, 9125256.328933697193861 ], [ 6219460.41510328091681, 9125204.924424903467298 ], [ 6219484.557310573756695, 9125172.984264137223363 ], [ 6219500.694911489263177, 9125148.519951052963734 ], [ 6219528.248959107324481, 9125100.5030880831182 ], [ 6219551.70817223098129, 9125070.315658170729876 ], [ 6219621.732870765030384, 9125002.318447472527623 ], [ 6219662.534381837584078, 9124972.433117588981986 ], [ 6219701.940727448090911, 9124879.838948043063283 ], [ 6219743.193733691237867, 9124787.838523704558611 ], [ 6219816.728597439825535, 9124651.910374268889427 ], [ 6219826.394755931571126, 9124628.538301149383187 ], [ 6219858.934003704227507, 9124517.148936174809933 ], [ 6219893.405649531632662, 9124441.537687819451094 ], [ 6219908.124730383045971, 9124406.248287193477154 ], [ 6219940.81104769743979, 9124400.008939199149609 ], [ 6219980.871680982410908, 9124385.408386822789907 ], [ 6220004.195827394723892, 9124371.740708608180285 ], [ 6220051.802165823057294, 9124318.837974285706878 ], [ 6220103.303680527955294, 9124240.031826758757234 ], [ 6220104.104266738519073, 9124238.56873220577836 ], [ 6220130.482073490507901, 9124190.38905219361186 ], [ 6220189.169526913203299, 9124082.404544671997428 ], [ 6220274.92645825445652, 9123922.334162643179297 ], [ 6220307.796926124021411, 9123860.779117025434971 ], [ 6220334.967600952833891, 9123809.603469470515847 ], [ 6220362.830747628584504, 9123747.717135025188327 ], [ 6220405.300117058679461, 9123653.900785187259316 ], [ 6220440.062692866660655, 9123570.088127192109823 ], [ 6220474.965150197967887, 9123485.302627494558692 ], [ 6220515.146800869144499, 9123438.912478828802705 ], [ 6220566.559548506513238, 9123395.022601336240768 ], [ 6220657.949749519117177, 9123317.27637680247426 ], [ 6220753.990762056782842, 9123236.79383041523397 ], [ 6220744.078633975237608, 9123230.709793489426374 ], [ 6220533.220411295071244, 9123174.607730932533741 ], [ 6220598.918482608161867, 9123154.365162633359432 ], [ 6220642.529953802004457, 9123135.511736068874598 ], [ 6220696.931883509270847, 9123100.522807478904724 ], [ 6220733.312362927012146, 9123066.681481245905161 ], [ 6220769.053923893719912, 9123028.642827847972512 ], [ 6220815.168996755965054, 9122974.141422431915998 ], [ 6220852.809309989213943, 9122919.613838624209166 ], [ 6220901.459378145635128, 9122846.792658552527428 ], [ 6220934.831680907867849, 9122792.78211323544383 ], [ 6220999.96144334319979, 9122673.186298489570618 ], [ 6221044.057813842780888, 9122589.509165592491627 ], [ 6221081.26917605753988, 9122515.589412780478597 ], [ 6221114.475345121696591, 9122477.266636703163385 ], [ 6221143.532314070500433, 9122478.747478671371937 ], [ 6221269.696316574700177, 9122489.131378555670381 ], [ 6221441.122234892100096, 9122513.990624703466892 ], [ 6221566.589723469689488, 9122533.631632847711444 ], [ 6221595.888091966509819, 9122434.689663367345929 ], [ 6221671.429574973881245, 9122206.26513547450304 ], [ 6221749.165211092680693, 9122229.285815795883536 ], [ 6221798.899140371009707, 9122251.091489667072892 ], [ 6221799.043790865689516, 9122201.611620891839266 ], [ 6221936.518646644428372, 9122189.634303968399763 ], [ 6221943.012651852332056, 9122091.26632023230195 ], [ 6221941.979948129504919, 9121921.332000272348523 ], [ 6221942.474164159037173, 9121914.051391249522567 ], [ 6221943.019544837996364, 9121910.84833368845284 ], [ 6222026.443641923367977, 9121333.545043678954244 ], [ 6221982.869277792051435, 9121329.179202038794756 ], [ 6221979.20768672414124, 9121328.813361784443259 ], [ 6222051.914883961901069, 9121128.761709611862898 ], [ 6222070.689851075410843, 9121064.797574104741216 ], [ 6222071.654033281840384, 9121020.16335060633719 ], [ 6222053.235426222905517, 9120958.731047507375479 ], [ 6222017.93365453928709, 9120860.874380080029368 ], [ 6221917.685549430549145, 9120572.72299056686461 ], [ 6221964.798937704414129, 9120570.673718273639679 ], [ 6221988.794144737534225, 9120558.347307397052646 ], [ 6222211.348298975266516, 9120387.876222494989634 ], [ 6222321.723266756162047, 9120317.762026542797685 ], [ 6222389.219551822170615, 9120290.150174707174301 ], [ 6222458.989627161994576, 9120267.22209407761693 ], [ 6222499.276748917996883, 9120256.866650531068444 ], [ 6222532.679149255156517, 9120244.821742597967386 ], [ 6222756.614624292589724, 9120110.060179369524121 ], [ 6222798.488029992207885, 9120089.070575643330812 ], [ 6222815.758629738353193, 9120090.903594458475709 ], [ 6222839.736854470334947, 9120118.453980172052979 ], [ 6222853.515359793789685, 9120136.525919003412127 ], [ 6222880.746448116376996, 9120149.657866170629859 ], [ 6222907.000596483238041, 9120171.841203175485134 ], [ 6222928.806685184128582, 9120203.663063986226916 ], [ 6222955.648529123514891, 9120243.679549600929022 ], [ 6222987.718740236014128, 9120284.910704277455807 ], [ 6223021.874068191275001, 9120305.038341147825122 ], [ 6223051.262227673083544, 9120312.896539375185966 ], [ 6223089.090586103498936, 9120302.605178449302912 ], [ 6223139.365680136717856, 9120218.957774955779314 ], [ 6223152.381337150931358, 9120186.343463495373726 ], [ 6223163.895585350692272, 9120112.358350530266762 ], [ 6223199.322833009064198, 9120081.565516240894794 ], [ 6223222.761366667225957, 9120058.108168104663491 ], [ 6223251.669120756909251, 9120014.708709854632616 ], [ 6223293.840901240706444, 9120005.136305077001452 ], [ 6223351.386342790909111, 9119971.2818997874856 ], [ 6223372.965082217007875, 9119943.377248682081699 ], [ 6223387.427134298719466, 9119888.897976901382208 ], [ 6223409.536572937853634, 9119848.392680961638689 ], [ 6223435.966129200533032, 9119834.265105411410332 ], [ 6223472.43157734721899, 9119828.83146321028471 ], [ 6223544.489151022396982, 9119763.944590663537383 ], [ 6223628.043037498369813, 9119727.725249197334051 ], [ 6223735.109251859597862, 9119657.836316613480449 ], [ 6223811.989261886104941, 9119610.298298008739948 ], [ 6223880.03620030824095, 9119586.949193749576807 ], [ 6223968.820382237434387, 9119632.511814720928669 ], [ 6224071.805702660232782, 9119677.711616165935993 ], [ 6224172.671365685760975, 9119732.54552161693573 ], [ 6224206.230569534935057, 9119748.428743520751595 ], [ 6225377.034663959406316, 9119481.594515331089497 ], [ 6227142.974644171074033, 9119107.606198797002435 ], [ 6227147.242768740281463, 9119106.704531697556376 ], [ 6227146.796000886708498, 9119105.657008580863476 ], [ 6226775.106848471798003, 9118235.973377233371139 ] ] ] } },
{ "type": "Feature", "properties": { "lv_id": "LOC_013584", "id": 62079.0, "CD_SETOR": "220380005000011", "SITUACAO": "Urbana", "CD_SIT": "1", "CD_TIPO": "0", "AREA_KM2": 0.13018149365759399, "CD_REGIAO": "2", "NM_REGIAO": "Nordeste", "CD_UF": "22", "NM_UF": "Piauí", "CD_MUN": "2203800", "NM_MUN": "Flores do Piauí", "CD_DIST": "220380005", "NM_DIST": "Flores do Piauí", "CD_SUBDIST": "22038000500", "NM_SUBDIST": null, "CD_BAIRRO": null, "NM_BAIRRO": null, "CD_NU": null, "NM_NU": null, "CD_FCU": null, "NM_FCU": null, "CD_AGLOM": null, "NM_AGLOM": null, "CD_RGINT": "2206", "NM_RGINT": "Floriano", "CD_RGI": "220019", "NM_RGI": "Canto do Buriti", "CD_CONCURB": null, "NM_CONCURB": null, "mun_code_x": "2203800", "index_right": 53667, "dist_m": 201.87879895764016, "local_id": 135309, "ano": 2022, "cod_localidade_ibge": 2203800, "NR_ZONA": "72", "nr_cep": 64815000.0, "nm_localidade": "FLORES DO PIAUÍ", "nm_locvot": "UNIDADE ESCOLAR TIA IZABEL", "ds_endereco": "RUA VALDEMAR MACEDO, S/N", "ds_bairro": "CENTRO", "pred_long": -42.922064, "pred_lat": -7.792632, "pred_dist": 0.0, "tse_long": -42.9224478, "tse_lat": -7.7928059, "long": -42.9224478, "lat": -7.7928059, "ID_UNICO": "LOC_013584", "SG_UF": "PI", "CD_MUNICIPIO": "10758", "NR_LOCAL_VOTACAO": "1015", "QT_SECOES_AGREGADAS": 0, "QT_ELEITORES_TRANSFERIDOS": 0, "CIRO GOMES (PDT) (NÃO ELEITO) 1T": 27.0, "CONSTITUINTE EYMAEL (DC) (NÃO ELEITO) 1T": 0.0, "FELIPE D AVILA (NOVO) (NÃO ELEITO) 1T": 1.0, "JAIR BOLSONARO (PL) (2º TURNO) 1T": 156.0, "LULA (PT) (2º TURNO) 1T": 690.0, "LÉO PÉRICLES (UP) (NÃO ELEITO) 1T": 0.0, "PADRE KELMON (PTB) (NÃO ELEITO) 1T": 0.0, "SIMONE TEBET (MDB) (NÃO ELEITO) 1T": 13.0, "SOFIA MANZANO (PCB) (NÃO ELEITO) 1T": 0.0, "SORAYA THRONICKE (UNIÃO) (NÃO ELEITO) 1T": 4.0, "VERA (PSTU) (NÃO ELEITO) 1T": 1.0, "Total_Votos_Validos 1T": 892.0, "Votos_Brancos 1T": 8.0, "Votos_Nulos 1T": 17.0, "Abstenções 1T": 253.0, "Eleitores_Aptos 1T": 1170.0, "JAIR BOLSONARO (PL) (NÃO ELEITO) 2T": 178.0, "LULA (PT) (ELEITO) 2T": 682.0, "Total_Votos_Validos 2T": 860.0, "Votos_Brancos 2T": 5.0, "Votos_Nulos 2T": 16.0, "Abstenções 2T": 289.0, "Eleitores_Aptos 2T": 1170.0, "mun_code_y": "2203800", "mun_code": "2203800" }, "geometry": { "type": "Polygon", "coordinates": [ [ [ 6221941.979948129504919, 9121921.332000272348523 ], [ 6221943.012651852332056, 9122091.26632023230195 ], [ 6221936.518646644428372, 9122189.634303968399763 ], [ 6221799.043790865689516, 9122201.611620891839266 ], [ 6221798.899140371009707, 9122251.091489667072892 ], [ 6221749.165211092680693, 9122229.285815795883536 ], [ 6221671.429574973881245, 9122206.26513547450304 ], [ 6221595.888091966509819, 9122434.689663367345929 ], [ 6221566.589723469689488, 9122533.631632847711444 ], [ 6221441.122234892100096, 9122513.990624703466892 ], [ 6221269.696316574700177, 9122489.131378555670381 ], [ 6221143.532314070500433, 9122478.747478671371937 ], [ 6221114.475345121696591, 9122477.266636703163385 ], [ 6221081.26917605753988, 9122515.589412780478597 ], [ 6221044.057813842780888, 9122589.509165592491627 ], [ 6220999.96144334319979, 9122673.186298489570618 ], [ 6221004.892698517069221, 9122674.003585107624531 ], [ 6221207.076709349639714, 9122706.757146310061216 ], [ 6221211.409334435127676, 9122707.466163756325841 ], [ 6221214.30152434296906, 9122707.942498909309506 ], [ 6221219.520052656531334, 9122708.774783935397863 ], [ 6221394.547885980457067, 9122737.191582018509507 ], [ 6221471.970524681732059, 9122731.658839816227555 ], [ 6221943.731550575233996, 9122697.976989079266787 ], [ 6222157.413454981520772, 9122684.149872932583094 ], [ 6222111.436759479343891, 9122475.449048161506653 ], [ 6222109.798348479904234, 9122468.044054111465812 ], [ 6222102.176870750263333, 9122433.437955627217889 ], [ 6222103.565232112072408, 9122191.26967210881412 ], [ 6222103.619359892793, 9122183.189301121979952 ], [ 6222103.652444549836218, 9122175.571458330377936 ], [ 6222105.120306173339486, 9121915.37264228053391 ], [ 6222105.155197346583009, 9121909.095607513561845 ], [ 6222061.798544280230999, 9121895.326091047376394 ], [ 6222030.566186543554068, 9121908.573866439983249 ], [ 6221942.474164159037173, 9121914.051391249522567 ], [ 6221941.979948129504919, 9121921.332000272348523 ] ] ] } },
{ "type": "Feature", "properties": { "lv_id": "LOC_013586", "id": 62075.0, "CD_SETOR": "220380005000005", "SITUACAO": "Rural", "CD_SIT": "8", "CD_TIPO": "0", "AREA_KM2": 157.74849119764934, "CD_REGIAO": "2", "NM_REGIAO": "Nordeste", "CD_UF": "22", "NM_UF": "Piauí", "CD_MUN": "2203800", "NM_MUN": "Flores do Piauí", "CD_DIST": "220380005", "NM_DIST": "Flores do Piauí", "CD_SUBDIST": "22038000500", "NM_SUBDIST": null, "CD_BAIRRO": null, "NM_BAIRRO": null, "CD_NU": null, "NM_NU": null, "CD_FCU": null, "NM_FCU": null, "CD_AGLOM": "220380000001", "NM_AGLOM": "Pajeú", "CD_RGINT": "2206", "NM_RGINT": "Floriano", "CD_RGI": "220019", "NM_RGI": "Canto do Buriti", "CD_CONCURB": null, "NM_CONCURB": null, "mun_code_x": "2203800", "index_right": 53670, "dist_m": 223.98067846425525, "local_id": 135312, "ano": 2022, "cod_localidade_ibge": 2203800, "NR_ZONA": "72", "nr_cep": 64815000.0, "nm_localidade": "FLORES DO PIAUÍ", "nm_locvot": "UNIDADE ESCOLAR MANOEL CORREIA", "ds_endereco": "POVOADO PAJEU", "ds_bairro": "ZONA RURAL", "pred_long": -42.870639, "pred_lat": -7.694892, "pred_dist": 0.0, "tse_long": -42.8708015, "tse_lat": -7.6966145, "long": -42.8708015, "lat": -7.6966145, "ID_UNICO": "LOC_013586", "SG_UF": "PI", "CD_MUNICIPIO": "10758", "NR_LOCAL_VOTACAO": "1074", "QT_SECOES_AGREGADAS": 2, "QT_ELEITORES_TRANSFERIDOS": 0, "CIRO GOMES (PDT) (NÃO ELEITO) 1T": 12.0, "CONSTITUINTE EYMAEL (DC) (NÃO ELEITO) 1T": 0.0, "FELIPE D AVILA (NOVO) (NÃO ELEITO) 1T": 0.0, "JAIR BOLSONARO (PL) (2º TURNO) 1T": 77.0, "LULA (PT) (2º TURNO) 1T": 804.0, "LÉO PÉRICLES (UP) (NÃO ELEITO) 1T": 0.0, "PADRE KELMON (PTB) (NÃO ELEITO) 1T": 0.0, "SIMONE TEBET (MDB) (NÃO ELEITO) 1T": 7.0, "SOFIA MANZANO (PCB) (NÃO ELEITO) 1T": 1.0, "SORAYA THRONICKE (UNIÃO) (NÃO ELEITO) 1T": 2.0, "VERA (PSTU) (NÃO ELEITO) 1T": 0.0, "Total_Votos_Validos 1T": 903.0, "Votos_Brancos 1T": 6.0, "Votos_Nulos 1T": 35.0, "Abstenções 1T": 223.0, "Eleitores_Aptos 1T": 1167.0, "JAIR BOLSONARO (PL) (NÃO ELEITO) 2T": 82.0, "LULA (PT) (ELEITO) 2T": 811.0, "Total_Votos_Validos 2T": 893.0, "Votos_Brancos 2T": 9.0, "Votos_Nulos 2T": 24.0, "Abstenções 2T": 241.0, "Eleitores_Aptos 2T": 1167.0, "mun_code_y": "2203800", "mun_code": "2203800" }, "geometry": { "type": "Polygon", "coordinates": [ [ [ 6230280.630735168233514, 9126439.887793304398656 ], [ 6227147.242768740281463, 9119106.704531697556376 ], [ 6227142.974644171074033, 9119107.606198797002435 ], [ 6225377.034663959406316, 9119481.594515331089497 ], [ 6224206.230569534935057, 9119748.428743520751595 ], [ 6224172.671365685760975, 9119732.54552161693573 ], [ 6224071.805702660232782, 9119677.711616165935993 ], [ 6223968.820382237434387, 9119632.511814720928669 ], [ 6223880.03620030824095, 9119586.949193749576807 ], [ 6223811.989261886104941, 9119610.298298008739948 ], [ 6223735.109251859597862, 9119657.836316613480449 ], [ 6223628.043037498369813, 9119727.725249197334051 ], [ 6223544.489151022396982, 9119763.944590663537383 ], [ 6223472.43157734721899, 9119828.83146321028471 ], [ 6223435.966129200533032, 9119834.265105411410332 ], [ 6223409.536572937853634, 9119848.392680961638689 ], [ 6223387.427134298719466, 9119888.897976901382208 ], [ 6223372.965082217007875, 9119943.377248682081699 ], [ 6223351.386342790909111, 9119971.2818997874856 ], [ 6223293.840901240706444, 9120005.136305077001452 ], [ 6223251.669120756909251, 9120014.708709854632616 ], [ 6223222.761366667225957, 9120058.108168104663491 ], [ 6223199.322833009064198, 9120081.565516240894794 ], [ 6223163.895585350692272, 9120112.358350530266762 ], [ 6223152.381337150931358, 9120186.343463495373726 ], [ 6223139.365680136717856, 9120218.957774955779314 ], [ 6223089.090586103498936, 9120302.605178449302912 ], [ 6223051.262227673083544, 9120312.896539375185966 ], [ 6223021.874068191275001, 9120305.038341147825122 ], [ 6222987.718740236014128, 9120284.910704277455807 ], [ 6222955.648529123514891, 9120243.679549600929022 ], [ 6222928.806685184128582, 9120203.663063986226916 ], [ 6222907.000596483238041, 9120171.841203175485134 ], [ 6222880.746448116376996, 9120149.657866170629859 ], [ 6222853.515359793789685, 9120136.525919003412127 ], [ 6222839.736854470334947, 9120118.453980172052979 ], [ 6222815.758629738353193, 9120090.903594458475709 ], [ 6222798.488029992207885, 9120089.070575643330812 ], [ 6222756.614624292589724, 9120110.060179369524121 ], [ 6222532.679149255156517, 9120244.821742597967386 ], [ 6222499.276748917996883, 9120256.866650531068444 ], [ 6222458.989627161994576, 9120267.22209407761693 ], [ 6222389.219551822170615, 9120290.150174707174301 ], [ 6222321.723266756162047, 9120317.762026542797685 ], [ 6222211.348298975266516, 9120387.876222494989634 ], [ 6221988.794144737534225, 9120558.347307397052646 ], [ 6221964.798937704414129, 9120570.673718273639679 ], [ 6221917.685549430549145, 9120572.72299056686461 ], [ 6222017.93365453928709, 9120860.874380080029368 ], [ 6222053.235426222905517, 9120958.731047507375479 ], [ 6222071.654033281840384, 9121020.16335060633719 ], [ 6222070.689851075410843, 9121064.797574104741216 ], [ 6222051.914883961901069, 9121128.761709611862898 ], [ 6221979.20768672414124, 9121328.813361784443259 ], [ 6221982.869277792051435, 9121329.179202038794756 ], [ 6222026.443641923367977, 9121333.545043678954244 ], [ 6221943.019544837996364, 9121910.84833368845284 ], [ 6221942.474164159037173, 9121914.051391249522567 ], [ 6222030.566186543554068, 9121908.573866439983249 ], [ 6222061.798544280230999, 9121895.326091047376394 ], [ 6222105.155197346583009, 9121909.095607513561845 ], [ 6222105.120306173339486, 9121915.37264228053391 ], [ 6222103.652444549836218, 9122175.571458330377936 ], [ 6222103.619359892793, 9122183.189301121979952 ], [ 6222103.565232112072408, 9122191.26967210881412 ], [ 6222102.176870750263333, 9122433.437955627217889 ], [ 6222109.798348479904234, 9122468.044054111465812 ], [ 6222111.436759479343891, 9122475.449048161506653 ], [ 6222157.413454981520772, 9122684.149872932583094 ], [ 6221943.731550575233996, 9122697.976989079266787 ], [ 6221471.970524681732059, 9122731.658839816227555 ], [ 6221394.547885980457067, 9122737.191582018509507 ], [ 6221219.520052656531334, 9122708.774783935397863 ], [ 6221214.30152434296906, 9122707.942498909309506 ], [ 6221211.409334435127676, 9122707.466163756325841 ], [ 6221207.076709349639714, 9122706.757146310061216 ], [ 6221004.892698517069221, 9122674.003585107624531 ], [ 6220999.96144334319979, 9122673.186298489570618 ], [ 6220934.831680907867849, 9122792.78211323544383 ], [ 6220901.459378145635128, 9122846.792658552527428 ], [ 6220852.809309989213943, 9122919.613838624209166 ], [ 6220815.168996755965054, 9122974.141422431915998 ], [ 6220769.053923893719912, 9123028.642827847972512 ], [ 6220733.312362927012146, 9123066.681481245905161 ], [ 6220696.931883509270847, 9123100.522807478904724 ], [ 6220642.529953802004457, 9123135.511736068874598 ], [ 6220598.918482608161867, 9123154.365162633359432 ], [ 6220533.220411295071244, 9123174.607730932533741 ], [ 6220744.078633975237608, 9123230.709793489426374 ], [ 6220753.990762056782842, 9123236.79383041523397 ], [ 6220657.949749519117177, 9123317.27637680247426 ], [ 6220566.559548506513238, 9123395.022601336240768 ], [ 6220515.146800869144499, 9123438.912478828802705 ], [ 6220474.965150197967887, 9123485.302627494558692 ], [ 6220440.062692866660655, 9123570.088127192109823 ], [ 6220405.300117058679461, 9123653.900785187259316 ], [ 6220362.830747628584504, 9123747.717135025188327 ], [ 6220334.967600952833891, 9123809.603469470515847 ], [ 6220307.796926124021411, 9123860.779117025434971 ], [ 6220274.92645825445652, 9123922.334162643179297 ], [ 6220189.169526913203299, 9124082.404544671997428 ], [ 6220130.482073490507901, 9124190.38905219361186 ], [ 6220104.104266738519073, 9124238.56873220577836 ], [ 6220103.303680527955294, 9124240.031826758757234 ], [ 6220051.802165823057294, 9124318.837974285706878 ], [ 6220004.195827394723892, 9124371.740708608180285 ], [ 6219980.871680982410908, 9124385.408386822789907 ], [ 6219940.81104769743979, 9124400.008939199149609 ], [ 6219908.124730383045971, 9124406.248287193477154 ], [ 6219893.405649531632662, 9124441.537687819451094 ], [ 6219858.934003704227507, 9124517.148936174809933 ], [ 6219826.394755931571126, 9124628.538301149383187 ], [ 6219816.728597439825535, 9124651.910374268889427 ], [ 6219743.193733691237867, 9124787.838523704558611 ], [ 6219701.940727448090911, 9124879.838948043063283 ], [ 6219662.534381837584078, 9124972.433117588981986 ], [ 6219621.732870765030384, 9125002.318447472527623 ], [ 6219551.70817223098129, 9125070.315658170729876 ], [ 6219528.248959107324481, 9125100.5030880831182 ], [ 6219500.694911489263177, 9125148.519951052963734 ], [ 6219484.557310573756695, 9125172.984264137223363 ], [ 6219460.41510328091681, 9125204.924424903467298 ], [ 6219421.329583871178329, 9125256.328933697193861 ], [ 6219359.746355658397079, 9125323.530141247436404 ], [ 6219338.810977735556662, 9125377.45790209621191 ], [ 6219337.669131009839475, 9125440.68276522308588 ], [ 6219361.64144988451153, 9125583.111406996846199 ], [ 6219367.714076442644, 9125601.565729670226574 ], [ 6219353.076545190066099, 9125668.18447007983923 ], [ 6219288.031055531464517, 9125781.961342697963119 ], [ 6219241.044439262710512, 9125862.796451287344098 ], [ 6219147.311128314584494, 9126011.615586860105395 ], [ 6219097.877747934311628, 9126094.305011067539454 ], [ 6219070.210476772859693, 9126140.599287861958146 ], [ 6219031.233136357739568, 9126199.265877697616816 ], [ 6219022.652428679168224, 9126212.20938178896904 ], [ 6219022.01762655749917, 9126213.262444265186787 ], [ 6218965.800333540886641, 9126304.600260306149721 ], [ 6218915.284548362717032, 9126407.765602452680469 ], [ 6218901.632315948605537, 9126449.874978957697749 ], [ 6218894.062544683925807, 9126483.128169827163219 ], [ 6218900.821768426336348, 9126507.242907330393791 ], [ 6218901.235730731859803, 9126508.741849789395928 ], [ 6218917.069133929908276, 9126598.248132281005383 ], [ 6218917.966229400597513, 9126605.198786053806543 ], [ 6218928.130033446475863, 9126688.825106110423803 ], [ 6218934.5412283167243, 9126742.568783869966865 ], [ 6218932.145346663892269, 9126786.44684911519289 ], [ 6218925.644311762414873, 9126808.135201789438725 ], [ 6218904.123123506084085, 9126848.511347211897373 ], [ 6218861.270824246108532, 9126928.943038115277886 ], [ 6218833.336074540391564, 9127014.033758381381631 ], [ 6218832.639553522691131, 9127036.596219424158335 ], [ 6218843.961802823469043, 9127086.122279560193419 ], [ 6218863.198193241842091, 9127119.950981833040714 ], [ 6218904.345822951756418, 9127162.177870336920023 ], [ 6218941.39790634997189, 9127192.816671844571829 ], [ 6218975.56015460845083, 9127246.120188660919666 ], [ 6219052.763589863665402, 9127366.658634254708886 ], [ 6219122.737491523846984, 9127484.568888081237674 ], [ 6219149.76317996904254, 9127529.450759280472994 ], [ 6219140.203110634349287, 9127552.345340948551893 ], [ 6219113.366253194399178, 9127569.830582574009895 ], [ 6219094.05445739813149, 9127573.205810826271772 ], [ 6219058.091649884358048, 9127603.490575559437275 ], [ 6219051.682538192719221, 9127608.693415470421314 ], [ 6219030.791612763889134, 9127625.685902619734406 ], [ 6219029.029953561723232, 9127627.117503516376019 ], [ 6219031.110792671330273, 9127665.358551062643528 ], [ 6219033.909671492874622, 9127701.496611336246133 ], [ 6219037.512069710530341, 9127746.097530914470553 ], [ 6219022.514010321348906, 9127871.997295588254929 ], [ 6219021.864893050864339, 9127877.196801071986556 ], [ 6219013.785495851188898, 9127976.631651049479842 ], [ 6219017.746883858926594, 9128061.625204496085644 ], [ 6219017.748388977721334, 9128062.537758769467473 ], [ 6219018.032491777092218, 9128183.747555611655116 ], [ 6219007.683254548348486, 9128243.188572598621249 ], [ 6218999.262335985898972, 9128276.463520806282759 ], [ 6218994.236573487520218, 9128296.35567818954587 ], [ 6218976.972426764667034, 9128330.322284670546651 ], [ 6218945.824442098848522, 9128391.56535192206502 ], [ 6218921.392955224961042, 9128453.951995482668281 ], [ 6218902.864385922439396, 9128540.678664552047849 ], [ 6218887.224369291216135, 9128596.110639829188585 ], [ 6218819.931504191830754, 9128672.138391582295299 ], [ 6218760.724027604795992, 9128737.365308113396168 ], [ 6218747.519458375871181, 9128758.48355508595705 ], [ 6218733.450939789414406, 9128807.70027663372457 ], [ 6218723.290561588481069, 9128923.276422820985317 ], [ 6218711.813445978797972, 9128936.080128828063607 ], [ 6218604.243072673678398, 9128971.116811795160174 ], [ 6218519.075409936718643, 9128987.827071506530046 ], [ 6218423.701088022440672, 9129025.532084230333567 ], [ 6218383.109390591271222, 9129041.603436062112451 ], [ 6218350.729689314961433, 9129050.904630202800035 ], [ 6218306.505907860584557, 9129056.22061681561172 ], [ 6218285.988756773993373, 9129065.090023793280125 ], [ 6218282.611643669195473, 9129084.758510258048773 ], [ 6218267.469298384152353, 9129172.825836980715394 ], [ 6218254.447010056115687, 9129334.147952741011977 ], [ 6218245.020563938654959, 9129406.395394291728735 ], [ 6218249.377734523266554, 9129432.442757898941636 ], [ 6218247.97985399607569, 9129474.108006175607443 ], [ 6218245.21303332503885, 9129505.477546229958534 ], [ 6218245.180798864923418, 9129524.349439900368452 ], [ 6218264.49407484382391, 9129590.7817786578089 ], [ 6218269.950556218624115, 9129653.495042895898223 ], [ 6218275.678964999504387, 9129741.753265246748924 ], [ 6218253.217597235925496, 9129930.448995087295771 ], [ 6218241.971420699730515, 9130046.062278041616082 ], [ 6218280.783163098618388, 9130175.047126391902566 ], [ 6218283.502817425876856, 9130275.50591016933322 ], [ 6218264.474249312654138, 9130393.21347925439477 ], [ 6218245.227499308995903, 9130492.607553344219923 ], [ 6218216.570841372944415, 9130575.42463294044137 ], [ 6218170.631043184548616, 9130631.176875051110983 ], [ 6218063.234793057665229, 9130711.796179849654436 ], [ 6218027.543889258056879, 9130727.140985388308764 ], [ 6217995.121115329675376, 9130733.974006732925773 ], [ 6217957.707788646221161, 9130735.562216242775321 ], [ 6217921.536842823028564, 9130750.265861269086599 ], [ 6217903.300493041984737, 9130787.781105361878872 ], [ 6217891.782827023416758, 9130818.362695507705212 ], [ 6217837.92883731983602, 9130961.597409907728434 ], [ 6217822.852213900536299, 9131009.992593206465244 ], [ 6217811.47525598667562, 9131051.20559673756361 ], [ 6217809.828888294287026, 9131106.046675004065037 ], [ 6217804.722180958837271, 9131137.048006286844611 ], [ 6217746.153517408296466, 9131343.786770150065422 ], [ 6217728.785531556233764, 9131497.54511502943933 ], [ 6217704.132604921236634, 9131597.605904165655375 ], [ 6217558.11370999738574, 9131858.900400346145034 ], [ 6217487.155561598017812, 9131977.517820807173848 ], [ 6217445.855427916161716, 9132028.898983025923371 ], [ 6217427.768551329150796, 9132108.419779308140278 ], [ 6217361.115247047506273, 9132208.651388430967927 ], [ 6217296.76316649466753, 9132300.103221734985709 ], [ 6217284.030036741867661, 9132316.091737639158964 ], [ 6217229.971786265261471, 9132384.249687885865569 ], [ 6217222.233367425389588, 9132404.795766027644277 ], [ 6217210.276864428073168, 9132476.845844767987728 ], [ 6217205.924380206502974, 9132510.215194502845407 ], [ 6217194.698298904113472, 9132597.838343294337392 ], [ 6217195.546838689595461, 9132691.548767525702715 ], [ 6217192.918590731918812, 9132758.581139521673322 ], [ 6217181.10945712774992, 9132783.930039497092366 ], [ 6217169.103073915466666, 9132845.470059294253588 ], [ 6217147.68089000787586, 9132967.16498751938343 ], [ 6217128.011412267573178, 9133020.81368063390255 ], [ 6217126.82837444357574, 9133047.837245708331466 ], [ 6217137.221978506073356, 9133082.605962546542287 ], [ 6217136.668059499934316, 9133129.429980911314487 ], [ 6217125.114053450524807, 9133183.680333312600851 ], [ 6217099.117645147256553, 9133235.926087465137243 ], [ 6217077.915503835305572, 9133278.888943588361144 ], [ 6217052.980770654045045, 9133331.231061477214098 ], [ 6217049.601274605840445, 9133358.254860922694206 ], [ 6217056.563316486775875, 9133398.226790018379688 ], [ 6217067.888350912369788, 9133421.987317675724626 ], [ 6217095.56456667277962, 9133451.612536866217852 ], [ 6217144.606232088059187, 9133515.239252932369709 ], [ 6217174.979576420038939, 9133580.338891569525003 ], [ 6217178.60905128531158, 9133634.107504365965724 ], [ 6217158.115608786232769, 9133686.661744071170688 ], [ 6217160.5706543372944, 9133740.257827835157514 ], [ 6217149.392528144642711, 9133785.102544076740742 ], [ 6217157.243765549734235, 9133864.099253110587597 ], [ 6217156.14040064252913, 9133904.166615106165409 ], [ 6217138.913092330098152, 9133957.582778202369809 ], [ 6217134.500012231990695, 9133989.083225453272462 ], [ 6217137.187006438151002, 9134028.489571554586291 ], [ 6217149.615856237709522, 9134117.755456361919641 ], [ 6217155.692999684251845, 9134195.164375549182296 ], [ 6217148.24811156000942, 9134247.911483384668827 ], [ 6217136.484761320985854, 9134300.533239770680666 ], [ 6217117.273798864334822, 9134338.57727974653244 ], [ 6217096.541535273194313, 9134395.654676521196961 ], [ 6217089.16180170699954, 9134420.359257658943534 ], [ 6217079.43519227206707, 9134453.404670879244804 ], [ 6217058.384722275659442, 9134473.49310502037406 ], [ 6217039.345359831117094, 9134496.267302751541138 ], [ 6217019.884020737372339, 9134528.425497144460678 ], [ 6216997.599350453354418, 9134577.476212292909622 ], [ 6216974.680587943643332, 9134615.987119153141975 ], [ 6216967.18844729848206, 9134666.493115006014705 ], [ 6216970.478548601269722, 9134770.898702206090093 ], [ 6216976.947013160213828, 9134775.689116906374693 ], [ 6216979.793253010138869, 9134777.801403043791652 ], [ 6221588.292552991770208, 9138192.512016069144011 ], [ 6221606.371800592169166, 9138205.905524376779795 ], [ 6221607.620596786960959, 9138206.831107320263982 ], [ 6226158.037959746085107, 9141578.529828427359462 ], [ 6228921.64888618607074, 9141620.927327893674374 ], [ 6235397.077673982828856, 9147955.230177840217948 ], [ 6233620.193378805182874, 9162360.665754936635494 ], [ 6233977.508161248639226, 9163007.416051425039768 ], [ 6234380.892786438576877, 9163737.573419872671366 ], [ 6236554.707794111222029, 9167672.675029132515192 ], [ 6249127.440249496139586, 9157927.936374442651868 ], [ 6249183.830228857696056, 9144225.400875119492412 ], [ 6249010.922570966184139, 9140629.997870162129402 ], [ 6246335.907529786229134, 9138439.492394523695111 ], [ 6243676.095915687270463, 9139614.296624589711428 ], [ 6243449.799350200220942, 9137252.600069552659988 ], [ 6240289.272779548540711, 9131999.482052059844136 ], [ 6235249.963163584470749, 9138070.113571489229798 ], [ 6230494.090855513699353, 9126939.322770118713379 ], [ 6230493.174004560336471, 9126937.171637125313282 ], [ 6230280.630735168233514, 9126439.887793304398656 ] ] ] } }
]
}
