{
"type": "FeatureCollection",
"name": "2208601",
"crs": { "type": "name", "properties": { "name": "urn:ogc:def:crs:EPSG::5880" } },
"features": [
{ "type": "Feature", "properties": { "lv_id": "LOC_014525", "id": 64684.0, "CD_SETOR": "220860105000001", "SITUACAO": "Urbana", "CD_SIT": "1", "CD_TIPO": "0", "AREA_KM2": 0.54880193586306103, "CD_REGIAO": "2", "NM_REGIAO": "Nordeste", "CD_UF": "22", "NM_UF": "Piauí", "CD_MUN": "2208601", "NM_MUN": "Prata do Piauí", "CD_DIST": "220860105", "NM_DIST": "Prata do Piauí", "CD_SUBDIST": "22086010500", "NM_SUBDIST": null, "CD_BAIRRO": null, "NM_BAIRRO": null, "CD_NU": null, "NM_NU": null, "CD_FCU": null, "NM_FCU": null, "CD_AGLOM": null, "NM_AGLOM": null, "CD_RGINT": "2201", "NM_RGINT": "Teresina", "CD_RGI": "220002", "NM_RGI": "Amarante - Água Branca - Regeneração", "CD_CONCURB": null, "NM_CONCURB": null, "mun_code_x": "2208601", "index_right": 54805, "dist_m": 84.792108178485648, "local_id": 145934, "ano": 2022, "cod_localidade_ibge": 2208601, "NR_ZONA": "74", "nr_cep": 64000000.0, "nm_localidade": "PRATA DO PIAUÍ", "nm_locvot": "ESCOLA MUNICIPAL ROBERTA SOUSA LIMA", "ds_endereco": "RUA GUILHERME ROCHA, S/N", "ds_bairro": "CENTRO", "pred_long": -42.202565, "pred_lat": -5.667547, "pred_dist": 0.0, "tse_long": -42.2026921, "tse_lat": -5.6675022, "long": -42.2026921, "lat": -5.6675022, "ID_UNICO": "LOC_014525", "SG_UF": "PI", "CD_MUNICIPIO": "11711", "NR_LOCAL_VOTACAO": "1040", "QT_SECOES_AGREGADAS": 0, "QT_ELEITORES_TRANSFERIDOS": 4, "CIRO GOMES (PDT) (NÃO ELEITO) 1T": 13.0, "CONSTITUINTE EYMAEL (DC) (NÃO ELEITO) 1T": 0.0, "FELIPE D AVILA (NOVO) (NÃO ELEITO) 1T": 0.0, "JAIR BOLSONARO (PL) (2º TURNO) 1T": 81.0, "LULA (PT) (2º TURNO) 1T": 800.0, "LÉO PÉRICLES (UP) (NÃO ELEITO) 1T": 0.0, "PADRE KELMON (PTB) (NÃO ELEITO) 1T": 0.0, "SIMONE TEBET (MDB) (NÃO ELEITO) 1T": 10.0, "SOFIA MANZANO (PCB) (NÃO ELEITO) 1T": 0.0, "SORAYA THRONICKE (UNIÃO) (NÃO ELEITO) 1T": 3.0, "VERA (PSTU) (NÃO ELEITO) 1T": 0.0, "Total_Votos_Validos 1T": 907.0, "Votos_Brancos 1T": 5.0, "Votos_Nulos 1T": 27.0, "Abstenções 1T": 245.0, "Eleitores_Aptos 1T": 1184.0, "JAIR BOLSONARO (PL) (NÃO ELEITO) 2T": 80.0, "LULA (PT) (ELEITO) 2T": 796.0, "Total_Votos_Validos 2T": 876.0, "Votos_Brancos 2T": 4.0, "Votos_Nulos 2T": 18.0, "Abstenções 2T": 286.0, "Eleitores_Aptos 2T": 1184.0, "mun_code_y": "2208601", "mun_code": "2208601" }, "geometry": { "type": "Polygon", "coordinates": [ [ [ 6303999.272649802267551, 9359619.553201297298074 ], [ 6304020.060740465298295, 9359609.757426297292113 ], [ 6304195.981681387871504, 9359645.045781528577209 ], [ 6304217.030415501445532, 9359649.271245609968901 ], [ 6304390.012549139559269, 9359702.000165056437254 ], [ 6304787.207905606366694, 9359856.697769325226545 ], [ 6304825.016331493854523, 9359871.131268110126257 ], [ 6305193.665756640955806, 9360011.863923775032163 ], [ 6305408.234729522839189, 9360109.173783080652356 ], [ 6305564.371638095937669, 9360159.468129483982921 ], [ 6305631.55936435982585, 9360139.027552135288715 ], [ 6305692.979353203438222, 9360143.551055788993835 ], [ 6305793.886192475445569, 9360190.766039917245507 ], [ 6305965.219195463694632, 9360270.952534548938274 ], [ 6306179.991723989136517, 9360390.37426146492362 ], [ 6306245.113699907436967, 9360437.232781879603863 ], [ 6306360.774812066927552, 9360520.449051164090633 ], [ 6306399.985931189730763, 9360573.086150072515011 ], [ 6306419.529084483161569, 9360599.332593984901905 ], [ 6306566.658563084900379, 9360796.831209901720285 ], [ 6306732.436247246339917, 9361074.583993341773748 ], [ 6306845.617462339811027, 9361378.333693448454142 ], [ 6306901.723276328295469, 9361488.039658848196268 ], [ 6307007.682655360549688, 9361588.545931925997138 ], [ 6307140.176388543099165, 9361650.395046699792147 ], [ 6307350.451618788763881, 9361690.08731447532773 ], [ 6307568.065906132571399, 9361731.607138590887189 ], [ 6307784.285705438815057, 9361740.761531129479408 ], [ 6308042.176550367847085, 9361740.993607005104423 ], [ 6308341.894708133302629, 9361722.472817914560437 ], [ 6308652.024147617630661, 9361730.113154271617532 ], [ 6308839.018093943595886, 9361738.92065036855638 ], [ 6308991.258757880888879, 9361756.814836982637644 ], [ 6309343.238441126421094, 9361866.006720053032041 ], [ 6309466.620851340703666, 9361922.643084390088916 ], [ 6309608.864346367307007, 9361949.720205578953028 ], [ 6309692.523447623476386, 9361962.422306383028626 ], [ 6309811.551644187420607, 9362018.514980804175138 ], [ 6309922.299558458849788, 9362061.266547095030546 ], [ 6310030.47999145835638, 9362054.200063899159431 ], [ 6310156.145706958137453, 9362031.223852351307869 ], [ 6310395.784284370020032, 9361926.40828501060605 ], [ 6310616.111756280064583, 9361803.096281263977289 ], [ 6310768.24108583573252, 9361754.547548960894346 ], [ 6310929.837108943611383, 9361713.339848162606359 ], [ 6311058.317116443999112, 9361665.733845122158527 ], [ 6311193.535554400645196, 9361647.823046740144491 ], [ 6311326.521992098540068, 9361651.05843897163868 ], [ 6311448.654835771769285, 9361657.293374732136726 ], [ 6311551.580777793191373, 9361669.883499704301357 ], [ 6311690.817171143367887, 9361685.202384343370795 ], [ 6311783.148415710777044, 9361691.670796256512403 ], [ 6311890.853686368092895, 9361686.349054863676429 ], [ 6311960.056858625262976, 9361696.49630038626492 ], [ 6312046.732309167273343, 9361635.323823252692819 ], [ 6312096.546386076137424, 9361562.272214470431209 ], [ 6312172.614106302149594, 9361438.495468005537987 ], [ 6312253.310153217986226, 9361360.04683493450284 ], [ 6312319.960495862178504, 9361308.656626984477043 ], [ 6312392.009408114477992, 9361267.797436971217394 ], [ 6312424.646795911714435, 9361222.635226745158434 ], [ 6312481.195578394457698, 9361121.643658168613911 ], [ 6312548.061695673502982, 9361006.52390574477613 ], [ 6312616.028433747589588, 9360918.425220398232341 ], [ 6312695.839978200383484, 9360858.78922600671649 ], [ 6312813.423111084848642, 9360792.541875602677464 ], [ 6312933.130185243673623, 9360754.029136357828975 ], [ 6313107.592162349261343, 9360695.645797930657864 ], [ 6313203.396216217428446, 9360664.668936301022768 ], [ 6313369.184639054350555, 9360551.230509277433157 ], [ 6313518.095641724765301, 9360438.82427654415369 ], [ 6313608.892337275668979, 9360387.17278753593564 ], [ 6313728.122233591973782, 9360337.233298782259226 ], [ 6313810.471199770458043, 9360343.266778333112597 ], [ 6313925.688494421541691, 9360366.98640513792634 ], [ 6314048.911211382597685, 9360386.057483799755573 ], [ 6314188.083353192545474, 9360377.519879585132003 ], [ 6314284.545151456259191, 9360333.150126211345196 ], [ 6314384.586937289685011, 9360242.444509334862232 ], [ 6314451.698051094077528, 9360139.74722059071064 ], [ 6314509.753511839546263, 9359987.820188855752349 ], [ 6314562.017542347311974, 9359812.117152348160744 ], [ 6314629.631525522097945, 9359708.097353713586926 ], [ 6314705.559249342419207, 9359656.620451454073191 ], [ 6314811.221471661701798, 9359616.374273907393217 ], [ 6314983.500757593661547, 9359597.008605070412159 ], [ 6315141.480099717155099, 9359598.033417904749513 ], [ 6315199.693046317435801, 9359588.119797868654132 ], [ 6315263.066856729798019, 9359590.618139073252678 ], [ 6315390.372374134138227, 9359619.780187226831913 ], [ 6315501.81887068413198, 9359659.672163017094135 ], [ 6315641.13563097268343, 9359670.86218055523932 ], [ 6315740.743392312899232, 9359663.094221461564302 ], [ 6315924.580532496795058, 9359654.6853381190449 ], [ 6316038.418424815870821, 9359647.077248442918062 ], [ 6316121.571700695902109, 9359645.825615616515279 ], [ 6316215.9516127910465, 9359650.139695445075631 ], [ 6316302.727237121202052, 9359627.607354510575533 ], [ 6316414.659256067126989, 9359550.306233057752252 ], [ 6316495.312919157557189, 9359494.298347879201174 ], [ 6316587.379502259194851, 9359399.134251814335585 ], [ 6316677.549218604341149, 9359281.581625876948237 ], [ 6316730.534659327939153, 9359204.345655739307404 ], [ 6316796.164811611175537, 9359098.412541335448623 ], [ 6316857.074785659089684, 9359006.641986446455121 ], [ 6316909.384174579754472, 9358956.093848260119557 ], [ 6316966.274713885039091, 9358923.200966693460941 ], [ 6317021.177050097845495, 9358854.194380931556225 ], [ 6317048.649970190599561, 9358796.303168198093772 ], [ 6317038.775245182216167, 9358689.658421551808715 ], [ 6316985.593698991462588, 9358555.013476466760039 ], [ 6316945.738226750865579, 9358475.648526484146714 ], [ 6316892.424824605695903, 9358407.361239170655608 ], [ 6316857.92817141674459, 9358329.988038944080472 ], [ 6316854.276802893728018, 9358244.411550674587488 ], [ 6316871.112335411831737, 9358176.773694459348917 ], [ 6316862.743024127557874, 9358130.962045269086957 ], [ 6316821.749635183252394, 9358031.160250121727586 ], [ 6316800.658378624357283, 9357946.156968951225281 ], [ 6316781.205803477205336, 9357907.792790418490767 ], [ 6316751.797352805733681, 9357842.529036331921816 ], [ 6316749.720332138240337, 9357778.771101485937834 ], [ 6316786.973227529786527, 9357703.448725303635001 ], [ 6316868.723552467301488, 9357614.071331592276692 ], [ 6316923.962739877402782, 9357576.939262183383107 ], [ 6317032.085365504026413, 9357525.681097310036421 ], [ 6317135.896316519938409, 9357447.779354266822338 ], [ 6317308.021978428587317, 9357368.109598755836487 ], [ 6317516.760890151374042, 9357283.866011831909418 ], [ 6317590.870049670338631, 9357240.332807268947363 ], [ 6317675.07084146887064, 9357156.606178559362888 ], [ 6317696.281804081983864, 9357107.50679305754602 ], [ 6317710.144323476590216, 9356992.733587637543678 ], [ 6317715.293322852812707, 9356870.163021484389901 ], [ 6317719.253354616463184, 9356779.39960652589798 ], [ 6317737.196149300783873, 9356714.108638696372509 ], [ 6317786.473455503582954, 9356635.347983866930008 ], [ 6317849.994925957173109, 9356543.401769375428557 ], [ 6317871.30459947604686, 9356463.465777464210987 ], [ 6317873.247808899730444, 9356373.297024739906192 ], [ 6317861.560639253817499, 9356316.028300559148192 ], [ 6317832.691113900393248, 9356284.298437744379044 ], [ 6317829.480044260621071, 9356230.832098038867116 ], [ 6317861.580884046852589, 9356159.576618891209364 ], [ 6317938.726585508324206, 9356065.924407256767154 ], [ 6318023.031329341232777, 9356048.084595795720816 ], [ 6318158.255168985575438, 9356044.175961157307029 ], [ 6318208.932248530909419, 9356023.041186397895217 ], [ 6318255.624312149360776, 9355964.239540793001652 ], [ 6318290.916801977902651, 9355890.374500205740333 ], [ 6318308.710593009367585, 9355817.943887177854776 ], [ 6318305.512009836733341, 9355761.900403723120689 ], [ 6318266.659350003115833, 9355682.617186415940523 ], [ 6318222.82105618249625, 9355584.975003834813833 ], [ 6318164.773577786050737, 9355420.094261975958943 ], [ 6318121.15887569822371, 9355362.547050010412931 ], [ 6318048.529580562375486, 9355305.124764543026686 ], [ 6318010.181025215424597, 9355240.723781840875745 ], [ 6317981.296597174368799, 9355158.614545494318008 ], [ 6317976.405638014897704, 9355047.130403669551015 ], [ 6317999.914041249081492, 9354950.380293942987919 ], [ 6318028.301269078627229, 9354823.610364828258753 ], [ 6318038.08593303244561, 9354722.759745657444 ], [ 6318034.600229157134891, 9354582.129749532788992 ], [ 6318003.926016907207668, 9354428.05180973187089 ], [ 6317980.098581549711525, 9354258.353362811729312 ], [ 6317943.101011695340276, 9354127.128319088369608 ], [ 6317872.272468755021691, 9353982.152815315872431 ], [ 6317809.683735180646181, 9353820.872952295467257 ], [ 6317730.922104020603001, 9353565.992378370836377 ], [ 6317648.908861625939608, 9353302.841992335394025 ], [ 6317575.304591195657849, 9353143.690731266513467 ], [ 6317504.291640105657279, 9353010.348627686500549 ], [ 6317456.040183959528804, 9352944.563307676464319 ], [ 6317413.8582505248487, 9352865.772141041234136 ], [ 6317374.181323274038732, 9352777.890492588281631 ], [ 6317297.50222518760711, 9352656.733993604779243 ], [ 6317255.15789683163166, 9352565.767207976430655 ], [ 6317227.976073680445552, 9352489.648664658889174 ], [ 6317214.830499609932303, 9352410.26769857481122 ], [ 6317217.623861031606793, 9352304.355290854349732 ], [ 6317230.936670832335949, 9352236.379273327067494 ], [ 6317317.711935769766569, 9352079.045272402465343 ], [ 6317370.789824113249779, 9351969.840495342388749 ], [ 6317396.323730572126806, 9351900.887184539809823 ], [ 6317407.871122081764042, 9351816.654822958633304 ], [ 6317397.8475701212883, 9351702.861563112586737 ], [ 6317380.673320759087801, 9351625.925496883690357 ], [ 6317363.388447308912873, 9351474.331724438816309 ], [ 6317348.758265625685453, 9351373.051366427913308 ], [ 6317334.315023113973439, 9351342.608361419290304 ], [ 6317294.67538240365684, 9351245.418040229007602 ], [ 6317265.640218865126371, 9351154.244311429560184 ], [ 6317257.952212649397552, 9351060.853268558159471 ], [ 6317286.156601991504431, 9350951.237431297078729 ], [ 6317447.892423754557967, 9350725.182551443576813 ], [ 6317534.124695353209972, 9350593.004499837756157 ], [ 6317622.872902900911868, 9350470.038048397749662 ], [ 6317683.034357007592916, 9350341.564453311264515 ], [ 6317712.910041017457843, 9350270.100620295852423 ], [ 6317713.811779310926795, 9350163.649228574708104 ], [ 6317705.771015944890678, 9350048.006185662001371 ], [ 6317695.481640031561255, 9350011.161089051514864 ], [ 6317636.128522964194417, 9349883.932326165959239 ], [ 6317590.085789109580219, 9349816.421997729688883 ], [ 6317580.749878397211432, 9349782.833807080984116 ], [ 6317582.971941515803337, 9349702.793881516903639 ], [ 6317619.120060957036912, 9349565.102459367364645 ], [ 6317651.771820370107889, 9349477.988131791353226 ], [ 6317698.744204856455326, 9349429.78121724165976 ], [ 6317792.997977924533188, 9349342.964232074096799 ], [ 6317860.120053983293474, 9349245.978532677516341 ], [ 6317889.792508294805884, 9349127.401925949379802 ], [ 6317890.128746882081032, 9348961.756600214168429 ], [ 6317902.513863246887922, 9348741.400293102487922 ], [ 6317898.754540027119219, 9348650.863447500392795 ], [ 6317883.955925398506224, 9348583.606287917122245 ], [ 6317900.952371578663588, 9348516.363453656435013 ], [ 6317950.156232295557857, 9348394.214492486789823 ], [ 6318030.172594847157598, 9348304.865849040448666 ], [ 6318081.072171865962446, 9348216.463729191571474 ], [ 6318119.620579591020942, 9348130.805002000182867 ], [ 6318121.452653722837567, 9348058.906669626012444 ], [ 6318138.047560075297952, 9347945.685378402471542 ], [ 6318175.259112513624132, 9347838.360393987968564 ], [ 6318215.625411497429013, 9347770.966893572360277 ], [ 6318315.629599820822477, 9347684.022353647276759 ], [ 6318396.369457386434078, 9347581.661522967740893 ], [ 6318442.089904082007706, 9347516.075895898044109 ], [ 6318482.413684879429638, 9347462.692731870338321 ], [ 6318553.713180086575449, 9347396.57159817405045 ], [ 6318591.294098107144237, 9347371.153759839013219 ], [ 6318641.124326304532588, 9347355.185357181355357 ], [ 6319382.164732543751597, 9346149.111553573980927 ], [ 6313564.208537587895989, 9346345.089561773464084 ], [ 6313557.444700365886092, 9346345.321147130802274 ], [ 6306511.316519059240818, 9346582.632831312716007 ], [ 6306427.767957848496735, 9345086.429688338190317 ], [ 6303244.3192088464275, 9348034.029779301956296 ], [ 6303308.626263066194952, 9348798.132320243865252 ], [ 6303009.36134643573314, 9349286.599441779777408 ], [ 6303084.283402968198061, 9349646.880031064152718 ], [ 6303024.227783961221576, 9349925.152935348451138 ], [ 6303093.048953917808831, 9350204.666816722601652 ], [ 6303132.048592545092106, 9350234.073207508772612 ], [ 6303520.864898096770048, 9350527.294584715738893 ], [ 6303809.563160127028823, 9350743.515967370942235 ], [ 6303942.637203534133732, 9351135.227066727355123 ], [ 6303945.979743457399309, 9351590.063658531755209 ], [ 6303884.525317020714283, 9351751.187569303438067 ], [ 6303812.038380121812224, 9351941.234341695904732 ], [ 6303794.223732409067452, 9351987.926436841487885 ], [ 6303727.791628955863416, 9352162.059302916750312 ], [ 6303690.300206451676786, 9352260.337307613343 ], [ 6303658.077770665287971, 9352344.830468039959669 ], [ 6303535.663173062726855, 9352665.807200022041798 ], [ 6303262.945960015058517, 9353188.050067257136106 ], [ 6303088.156068819575012, 9354005.605305438861251 ], [ 6303253.854743867181242, 9354084.010127421468496 ], [ 6303609.079804257489741, 9354089.148112498223782 ], [ 6303777.322057951241732, 9354091.5752182751894 ], [ 6303990.541605378501117, 9354195.648813046514988 ], [ 6303878.9633086938411, 9354687.21442405320704 ], [ 6303857.325367627665401, 9355323.75273154489696 ], [ 6303933.96945592481643, 9355747.206588167697191 ], [ 6304120.671373568475246, 9356132.354602001607418 ], [ 6304072.135945286601782, 9357077.871962072327733 ], [ 6304046.956446137279272, 9357568.548062063753605 ], [ 6304156.099313797429204, 9358861.901334708556533 ], [ 6304218.707088716328144, 9358900.607570294290781 ], [ 6304230.323721908032894, 9358932.671056458726525 ], [ 6304218.226196400821209, 9358970.07296041585505 ], [ 6304163.892550997436047, 9359033.85696055367589 ], [ 6304124.78125920984894, 9359066.838673543184996 ], [ 6304037.876092308200896, 9359185.719021135941148 ], [ 6304019.228321418166161, 9359255.440192529931664 ], [ 6304015.765249375253916, 9359352.32989390194416 ], [ 6304013.135986429639161, 9359425.757288074120879 ], [ 6303999.272649802267551, 9359619.553201297298074 ] ] ] } }
]
}
