{
"type": "FeatureCollection",
"name": "2209005",
"crs": { "type": "name", "properties": { "name": "urn:ogc:def:crs:EPSG::5880" } },
"features": [
{ "type": "Feature", "properties": { "lv_id": "LOC_014564", "id": 64821.0, "CD_SETOR": "220900505000001", "SITUACAO": "Urbana", "CD_SIT": "1", "CD_TIPO": "0", "AREA_KM2": 0.69072885536482698, "CD_REGIAO": "2", "NM_REGIAO": "Nordeste", "CD_UF": "22", "NM_UF": "Piauí", "CD_MUN": "2209005", "NM_MUN": "Rio Grande do Piauí", "CD_DIST": "220900505", "NM_DIST": "Rio Grande do Piauí", "CD_SUBDIST": "22090050500", "NM_SUBDIST": null, "CD_BAIRRO": null, "NM_BAIRRO": null, "CD_NU": null, "NM_NU": null, "CD_FCU": null, "NM_FCU": null, "CD_AGLOM": "220900500004", "NM_AGLOM": "Agrovila do PA Boa Vista", "CD_RGINT": "2206", "NM_RGINT": "Floriano", "CD_RGI": "220019", "NM_RGI": "Canto do Buriti", "CD_CONCURB": null, "NM_CONCURB": null, "mun_code_x": "2209005", "index_right": 54843, "dist_m": 0.0, "local_id": 146371, "ano": 2022, "cod_localidade_ibge": 2209005, "NR_ZONA": "72", "nr_cep": 64835000.0, "nm_localidade": "RIO GRANDE DO PIAUÍ", "nm_locvot": "CRECHE SÃO FRANCISCO", "ds_endereco": "RUA CLÓVIS BEVILAQUA, S/N", "ds_bairro": "CENTRO", "pred_long": -43.139683, "pred_lat": -7.776862, "pred_dist": 0.0, "tse_long": -43.1390205, "tse_lat": -7.7744767, "long": -43.1390205, "lat": -7.7744767, "ID_UNICO": "LOC_014564", "SG_UF": "PI", "CD_MUNICIPIO": "11797", "NR_LOCAL_VOTACAO": "1082", "QT_SECOES_AGREGADAS": 0, "QT_ELEITORES_TRANSFERIDOS": 0, "CIRO GOMES (PDT) (NÃO ELEITO) 1T": 7.0, "CONSTITUINTE EYMAEL (DC) (NÃO ELEITO) 1T": 0.0, "FELIPE D AVILA (NOVO) (NÃO ELEITO) 1T": 0.0, "JAIR BOLSONARO (PL) (2º TURNO) 1T": 59.0, "LULA (PT) (2º TURNO) 1T": 417.0, "LÉO PÉRICLES (UP) (NÃO ELEITO) 1T": 0.0, "PADRE KELMON (PTB) (NÃO ELEITO) 1T": 0.0, "SIMONE TEBET (MDB) (NÃO ELEITO) 1T": 11.0, "SOFIA MANZANO (PCB) (NÃO ELEITO) 1T": 0.0, "SORAYA THRONICKE (UNIÃO) (NÃO ELEITO) 1T": 2.0, "VERA (PSTU) (NÃO ELEITO) 1T": 0.0, "Total_Votos_Validos 1T": 496.0, "Votos_Brancos 1T": 4.0, "Votos_Nulos 1T": 7.0, "Abstenções 1T": 116.0, "Eleitores_Aptos 1T": 623.0, "JAIR BOLSONARO (PL) (NÃO ELEITO) 2T": 69.0, "LULA (PT) (ELEITO) 2T": 427.0, "Total_Votos_Validos 2T": 496.0, "Votos_Brancos 2T": 0.0, "Votos_Nulos 2T": 6.0, "Abstenções 2T": 121.0, "Eleitores_Aptos 2T": 623.0, "mun_code_y": "2209005", "mun_code": "2209005" }, "geometry": { "type": "Polygon", "coordinates": [ [ [ 6198525.406416493467987, 9123865.850969748571515 ], [ 6198558.072685606777668, 9123939.112057043239474 ], [ 6198564.469550195150077, 9123952.830981070175767 ], [ 6198919.039065634831786, 9123561.312413658946753 ], [ 6199033.932697892189026, 9123430.141657317057252 ], [ 6199316.082289732992649, 9123115.205013528466225 ], [ 6199536.550140185281634, 9122863.701159257441759 ], [ 6199583.854554513469338, 9122808.682540213689208 ], [ 6199658.488183129578829, 9122737.702522521838546 ], [ 6199805.975344559177756, 9122639.589154534041882 ], [ 6199967.29622991848737, 9122535.825779007747769 ], [ 6200141.127650839276612, 9122423.867540957406163 ], [ 6200325.182276437990367, 9122304.020743705332279 ], [ 6200409.838753690011799, 9122251.842340493574739 ], [ 6200445.07816581428051, 9122230.71015989780426 ], [ 6200502.989803915843368, 9122202.214569948613644 ], [ 6200542.993819726631045, 9122182.738504590466619 ], [ 6200596.450682931579649, 9122166.834092931821942 ], [ 6200708.79651059396565, 9122141.629886316135526 ], [ 6200878.657681084237993, 9122106.057160312309861 ], [ 6201145.095180255360901, 9122048.634784946218133 ], [ 6201390.665967852808535, 9121995.858784699812531 ], [ 6201643.158880680799484, 9121941.550814671441913 ], [ 6201998.683264207094908, 9121864.603272069245577 ], [ 6202254.237880698405206, 9121809.70442627184093 ], [ 6202445.984017662703991, 9121768.445171797648072 ], [ 6202666.326215796172619, 9121721.535854287445545 ], [ 6202801.791866522282362, 9121692.325509306043386 ], [ 6202850.104366236366332, 9121681.943923817947507 ], [ 6202924.576621337793767, 9121660.829757105559111 ], [ 6203032.414700224064291, 9121623.030697245150805 ], [ 6203083.580825820565224, 9121607.777626359835267 ], [ 6203133.6471739821136, 9121596.956065364181995 ], [ 6203187.735554362647235, 9121590.658827422186732 ], [ 6203297.782715603709221, 9121576.574291337281466 ], [ 6203382.569400102831423, 9121565.282392479479313 ], [ 6203466.110887945629656, 9121547.186815636232495 ], [ 6203523.139312541112304, 9121536.376020152121782 ], [ 6203556.482262477278709, 9121532.968463063240051 ], [ 6203588.90097638219595, 9121530.947422144934535 ], [ 6203662.112188813276589, 9121532.037848804146051 ], [ 6203725.794919926673174, 9121539.726172806695104 ], [ 6203778.33088871371001, 9121551.14885376766324 ], [ 6203821.553234530612826, 9121562.508413191884756 ], [ 6203914.834599765017629, 9121589.791745586320758 ], [ 6204037.609454535879195, 9121625.287440668791533 ], [ 6204115.399668348021805, 9121647.824986381456256 ], [ 6204208.051515497267246, 9121672.928508834913373 ], [ 6204164.535387811250985, 9121410.858333218842745 ], [ 6204238.281600218266249, 9121331.13124137558043 ], [ 6204371.88392978720367, 9121485.111429121345282 ], [ 6204393.161386226303875, 9121647.405320243909955 ], [ 6204673.371558541432023, 9121723.264645034447312 ], [ 6205033.962408052757382, 9121775.644997468218207 ], [ 6205513.246890671551228, 9121861.326601071283221 ], [ 6205510.793917062692344, 9121885.18695555627346 ], [ 6205508.890754037536681, 9121901.690175920724869 ], [ 6205539.136470646597445, 9121898.395456468686461 ], [ 6205587.829580878838897, 9121891.233058165758848 ], [ 6205676.73032470792532, 9121871.305300556123257 ], [ 6205769.800238956697285, 9121851.325594488531351 ], [ 6205916.583453526720405, 9121819.480194754898548 ], [ 6206060.363025037571788, 9121788.826880248263478 ], [ 6206148.044383902102709, 9121769.548755824565887 ], [ 6206217.884206804446876, 9121755.384104197844863 ], [ 6206248.98982120025903, 9121750.782560762017965 ], [ 6206261.135467520914972, 9121748.992419408634305 ], [ 6206314.419937901198864, 9121746.609082400798798 ], [ 6206368.164247360080481, 9121747.941615309566259 ], [ 6206396.489190329797566, 9121750.180730108171701 ], [ 6206511.981617690995336, 9121765.871483244001865 ], [ 6206702.499572305008769, 9121793.943019485101104 ], [ 6207043.136281071230769, 9121840.827138191089034 ], [ 6207259.082984659820795, 9121871.752029079943895 ], [ 6207512.099225365556777, 9121905.994748132303357 ], [ 6207545.093536395579576, 9121910.454970279708505 ], [ 6207886.159589220769703, 9121956.378501007333398 ], [ 6207955.964443358592689, 9121960.536774041131139 ], [ 6208014.248021888546646, 9121962.887734768912196 ], [ 6208161.352792551741004, 9121934.551095167174935 ], [ 6208157.647762383334339, 9121886.306468391790986 ], [ 6207504.130626048892736, 9113412.787156745791435 ], [ 6206613.031500299461186, 9113868.09453833475709 ], [ 6206258.020806510932744, 9109374.578569497913122 ], [ 6206164.815777843818069, 9108195.580839922651649 ], [ 6205770.213232102803886, 9106668.378847483545542 ], [ 6205633.717148249968886, 9106693.577475402504206 ], [ 6205735.713296411558986, 9106588.874713188037276 ], [ 6204759.11559377796948, 9104195.872875083237886 ], [ 6197541.285006461665034, 9106651.08287676051259 ], [ 6200958.805964212864637, 9110192.18726440705359 ], [ 6193910.771192133426666, 9115815.549365926533937 ], [ 6193907.830623503774405, 9115817.888258162885904 ], [ 6193901.290574552491307, 9115823.112204587087035 ], [ 6193875.086258360184729, 9115844.009100990369916 ], [ 6193572.482340879738331, 9116085.410709127783775 ], [ 6190897.076833887025714, 9114661.211699668318033 ], [ 6188049.658856081776321, 9114205.614310761913657 ], [ 6187942.466420078650117, 9114547.214046141132712 ], [ 6187861.968177900649607, 9114581.614843348041177 ], [ 6187722.059786258265376, 9114610.622120570391417 ], [ 6187548.057700479403138, 9114624.725065125152469 ], [ 6187396.958390224725008, 9114568.618512580171227 ], [ 6187325.957978491671383, 9114572.415600227192044 ], [ 6187253.955570287071168, 9114608.622192800045013 ], [ 6187194.760880094952881, 9114695.725458938628435 ], [ 6187145.755265549756587, 9114712.82358505949378 ], [ 6186822.661619741469622, 9114527.622119745239615 ], [ 6186782.959399964660406, 9114684.617276173084974 ], [ 6184371.260778026655316, 9124219.750734684988856 ], [ 6184269.361923354677856, 9124622.250405818223953 ], [ 6181844.869693096727133, 9134207.667822372168303 ], [ 6189973.758061340078712, 9141334.199322698637843 ], [ 6190765.60548600461334, 9142028.478314777836204 ], [ 6191993.918825577944517, 9143105.275858163833618 ], [ 6199149.714671155437827, 9139061.465152503922582 ], [ 6199373.459170559421182, 9138934.962280672043562 ], [ 6199426.533225752413273, 9138904.96512858569622 ], [ 6200565.936132410541177, 9138261.062970198690891 ], [ 6200573.238070206716657, 9138256.937093647196889 ], [ 6200355.738482954911888, 9138241.305718626827002 ], [ 6200330.619175739586353, 9138225.535285755991936 ], [ 6200301.586226667277515, 9138220.470948385074735 ], [ 6200246.413420401513577, 9138155.116955047473311 ], [ 6200194.632516220211983, 9138092.537346554920077 ], [ 6200134.623171987943351, 9138032.35055760294199 ], [ 6200080.751413846388459, 9137978.787152759730816 ], [ 6200020.253744004294276, 9137897.871968239545822 ], [ 6199986.79606812261045, 9137851.167520057410002 ], [ 6199933.409494592808187, 9137780.476954508572817 ], [ 6199899.03958341665566, 9137737.871893730014563 ], [ 6199860.927325901575387, 9137680.318250121548772 ], [ 6199824.480131313204765, 9137664.812405878677964 ], [ 6199782.77367243450135, 9137665.744126759469509 ], [ 6199723.687816618010402, 9137689.18516924418509 ], [ 6199598.697797610424459, 9137642.725733533501625 ], [ 6199490.173231183551252, 9137603.664027560502291 ], [ 6199452.610358046367764, 9137582.84922543913126 ], [ 6199432.481301588006318, 9137532.03614092618227 ], [ 6199409.662215875461698, 9137444.054843485355377 ], [ 6199383.721161443740129, 9137389.470552608370781 ], [ 6199352.953462067060173, 9137339.129594201222062 ], [ 6199335.595170549117029, 9137286.591424472630024 ], [ 6199291.664508843794465, 9137225.436560280621052 ], [ 6199258.261016726493835, 9137159.3875532746315 ], [ 6199259.325269788503647, 9137102.566136829555035 ], [ 6199221.838959150016308, 9137011.556337649002671 ], [ 6199192.192114773206413, 9136967.60554770193994 ], [ 6199156.297962984070182, 9136914.861466143280268 ], [ 6199119.570250377058983, 9136866.270907932892442 ], [ 6199083.221733371727169, 9136830.551983768120408 ], [ 6199045.620669226162136, 9136787.602290373295546 ], [ 6199013.079253476113081, 9136749.670245137065649 ], [ 6198977.810050181113183, 9136702.022624708712101 ], [ 6198946.498163710348308, 9136654.184790911152959 ], [ 6198917.406665571033955, 9136614.758092408999801 ], [ 6198873.28398634120822, 9136575.351773113012314 ], [ 6198847.967383408918977, 9136528.927404681220651 ], [ 6198831.82067749928683, 9136480.694508746266365 ], [ 6198822.48481317050755, 9136439.968253992497921 ], [ 6198814.458166107535362, 9136414.420673267915845 ], [ 6198810.463372562080622, 9136386.823063626885414 ], [ 6198802.924185984767973, 9136353.899332787841558 ], [ 6198795.200712703168392, 9136300.510211804881692 ], [ 6198791.281736227683723, 9136263.655262067914009 ], [ 6198785.565742252394557, 9136226.001365948468447 ], [ 6198766.923924495466053, 9136157.587012473493814 ], [ 6198757.270082123577595, 9136120.021657444536686 ], [ 6198755.224098441191018, 9136085.675248054787517 ], [ 6198734.605439782142639, 9136019.844519417732954 ], [ 6198721.787858337163925, 9135983.744325926527381 ], [ 6198701.924617392010987, 9135911.10499975644052 ], [ 6198674.012947999872267, 9135819.077944096177816 ], [ 6198662.90355827100575, 9135785.952158564701676 ], [ 6198641.973826725967228, 9135690.269100980833173 ], [ 6198617.267716748639941, 9135566.048662865534425 ], [ 6198607.794247349724174, 9135509.382714821025729 ], [ 6198597.397948548197746, 9135489.2325822673738 ], [ 6198587.008295881561935, 9135443.072600523009896 ], [ 6198551.918419985100627, 9135313.238244591280818 ], [ 6198533.49720476847142, 9135264.568440787494183 ], [ 6198505.637346850708127, 9135258.260104399174452 ], [ 6198463.68091781809926, 9135261.012816954404116 ], [ 6198447.517292796634138, 9135257.684449495747685 ], [ 6198391.640799482353032, 9135235.343449888750911 ], [ 6198354.366030970588326, 9135228.992290895432234 ], [ 6198312.210122241638601, 9135214.196371981874108 ], [ 6198303.361796314828098, 9135116.226461336016655 ], [ 6198297.378243792802095, 9135043.911937700584531 ], [ 6198298.391002646647394, 9134965.013348784297705 ], [ 6198293.509911173954606, 9134932.934916626662016 ], [ 6198296.040593856014311, 9134883.171233141794801 ], [ 6198306.46312995813787, 9134808.943108558654785 ], [ 6198344.847700890153646, 9134682.515768762677908 ], [ 6198382.425774832256138, 9134545.580877877771854 ], [ 6198397.006972664035857, 9134494.936987303197384 ], [ 6198434.122526211664081, 9134424.129536245018244 ], [ 6198474.392305719666183, 9134349.751368306577206 ], [ 6198480.326246836222708, 9134333.871117340400815 ], [ 6198516.9576496463269, 9134290.256200296804309 ], [ 6198538.834634927101433, 9134264.164089865982533 ], [ 6198556.518649555742741, 9134241.162175906822085 ], [ 6198581.650639001280069, 9134208.490547640249133 ], [ 6198597.486220855265856, 9134187.900009397417307 ], [ 6198622.443659663200378, 9134168.429003560915589 ], [ 6198654.569855665788054, 9134154.022931592538953 ], [ 6198686.443204805254936, 9134126.978637214750051 ], [ 6198731.799437437206507, 9134070.091549037024379 ], [ 6198730.205367843620479, 9134028.809031749144197 ], [ 6198712.443524541333318, 9134007.191158443689346 ], [ 6198693.848699310794473, 9133996.291133996099234 ], [ 6198651.87426455039531, 9133999.158645180985332 ], [ 6198547.815714050084352, 9134052.018981192260981 ], [ 6198498.986838119104505, 9134085.01084971614182 ], [ 6198480.681220726110041, 9134072.887395760044456 ], [ 6198435.835798231884837, 9134047.273227194324136 ], [ 6198378.844776837155223, 9134039.780067848041654 ], [ 6198299.150200463831425, 9134025.184250133112073 ], [ 6198254.792318253777921, 9134019.757312603294849 ], [ 6198204.338943124748766, 9134017.682785578072071 ], [ 6198126.720378062687814, 9134005.319796040654182 ], [ 6198067.575490350835025, 9133992.938201645389199 ], [ 6198036.74629264883697, 9133980.896236564964056 ], [ 6198011.233176709152758, 9133962.166346741840243 ], [ 6197997.716116534546018, 9133932.942188858985901 ], [ 6197992.845443332567811, 9133869.382498016580939 ], [ 6197998.056435519829392, 9133837.543657246977091 ], [ 6198018.519456726498902, 9133800.915149420499802 ], [ 6198038.707978451624513, 9133770.902851205319166 ], [ 6198068.208401152864099, 9133745.60823199339211 ], [ 6198088.486111016944051, 9133720.007279461249709 ], [ 6198134.232642196118832, 9133661.985300505533814 ], [ 6198165.839821035973728, 9133609.118759859353304 ], [ 6198184.030683944001794, 9133576.927506878972054 ], [ 6198189.986405082046986, 9133540.509397534653544 ], [ 6198194.708696288987994, 9133521.676164496690035 ], [ 6198236.54538600333035, 9133482.781525548547506 ], [ 6198272.539690658450127, 9133476.924252981320024 ], [ 6198309.105018139816821, 9133437.74671770632267 ], [ 6198341.913707018829882, 9133403.202112227678299 ], [ 6198347.144529226236045, 9133386.157366195693612 ], [ 6198352.454408754594624, 9133374.864238074049354 ], [ 6198361.4240354122594, 9133373.893210150301456 ], [ 6198374.782563993707299, 9133379.780336106196046 ], [ 6198397.116522666998208, 9133383.61536462418735 ], [ 6198421.469702550210059, 9133388.31110867485404 ], [ 6198441.93339420389384, 9133397.181645045056939 ], [ 6198457.756621971726418, 9133395.788750547915697 ], [ 6198476.379419172182679, 9133378.966624649241567 ], [ 6198493.850518180057406, 9133348.009158432483673 ], [ 6198505.451943226158619, 9133342.005729831755161 ], [ 6198535.078107014298439, 9133337.007995197549462 ], [ 6198573.038888772949576, 9133321.630979262292385 ], [ 6198594.294072547927499, 9133313.344172762706876 ], [ 6198615.986670557409525, 9133300.531112641096115 ], [ 6198630.210072221234441, 9133290.418764602392912 ], [ 6198645.275082696229219, 9133276.490509822964668 ], [ 6198658.598275352269411, 9133267.876030329614878 ], [ 6198670.636164526455104, 9133259.057756723836064 ], [ 6198682.065845493227243, 9133246.696878561750054 ], [ 6198690.268396271392703, 9133224.543288074433804 ], [ 6198697.442578364163637, 9133191.392606155946851 ], [ 6198703.566916099749506, 9133155.566274031996727 ], [ 6198705.311501452699304, 9133130.277730690315366 ], [ 6198704.035072566941381, 9133109.029392516240478 ], [ 6198708.136421043425798, 9133070.450806464999914 ], [ 6198705.559782914817333, 9133032.255930792540312 ], [ 6198703.644292891025543, 9132986.601601902395487 ], [ 6198695.807456890121102, 9132971.262511109933257 ], [ 6198663.967570774257183, 9132941.062962351366878 ], [ 6198633.729662362486124, 9132912.680559108033776 ], [ 6198609.548790181986988, 9132869.39403529278934 ], [ 6198597.344445329159498, 9132835.824095221236348 ], [ 6198584.673577859066427, 9132799.079560341313481 ], [ 6198569.870187293738127, 9132756.556787444278598 ], [ 6198551.412536858581007, 9132722.70681618899107 ], [ 6198537.535366362892091, 9132701.542579444125295 ], [ 6198526.761265793815255, 9132656.890683893114328 ], [ 6198521.614444866776466, 9132630.09982524625957 ], [ 6198502.434871030040085, 9132602.17960842885077 ], [ 6198479.613910854794085, 9132572.52797351591289 ], [ 6198461.100541926920414, 9132531.676097892224789 ], [ 6198453.370443576946855, 9132504.849670393392444 ], [ 6198448.419982641935349, 9132468.370631210505962 ], [ 6198436.128806605003774, 9132409.120013255625963 ], [ 6198421.584021967835724, 9132365.487517535686493 ], [ 6198413.81279687397182, 9132329.620744336396456 ], [ 6198406.532266929745674, 9132308.356445737183094 ], [ 6198389.216281083412468, 9132256.822736918926239 ], [ 6198367.461887624114752, 9132187.3191181384027 ], [ 6198341.707489993423223, 9132129.829975860193372 ], [ 6198326.592530697584152, 9132088.531659780070186 ], [ 6198311.479664048179984, 9132058.22265044413507 ], [ 6198280.990406778641045, 9132031.682798316702247 ], [ 6198248.195507610216737, 9131989.032947296276689 ], [ 6198216.022944463416934, 9131942.629155743867159 ], [ 6198195.547832313925028, 9131918.030193712562323 ], [ 6198172.995533973909914, 9131880.682044144719839 ], [ 6198112.41310316324234, 9131778.264799440279603 ], [ 6198078.807644818909466, 9131726.695884004235268 ], [ 6198058.784799440763891, 9131684.644647372886539 ], [ 6198019.104213347658515, 9131607.558908309787512 ], [ 6197955.472934877499938, 9131501.538173593580723 ], [ 6197929.11035090778023, 9131455.786559920758009 ], [ 6197925.682790922001004, 9131438.083899036049843 ], [ 6197933.96938612870872, 9131427.581823322921991 ], [ 6197973.274594828486443, 9131403.06022335216403 ], [ 6198025.571490292437375, 9131374.739849610254169 ], [ 6198075.215635797008872, 9131343.638226874172688 ], [ 6198111.615748518146574, 9131322.500582227483392 ], [ 6198142.53712151106447, 9131303.33768099732697 ], [ 6198162.526651918888092, 9131275.186529194936156 ], [ 6198182.193359487690032, 9131216.417644502595067 ], [ 6198196.881003437563777, 9131164.542476372793317 ], [ 6198198.043587133288383, 9131142.905821908265352 ], [ 6198192.854781776666641, 9131125.822160314768553 ], [ 6198165.183937916532159, 9131089.438090043142438 ], [ 6198139.265386202372611, 9131042.504301162436604 ], [ 6198112.001156930811703, 9131006.053669018670917 ], [ 6198071.601316891610622, 9130938.084580615162849 ], [ 6197996.005817908793688, 9130829.858863610774279 ], [ 6197950.95032025873661, 9130770.216868141666055 ], [ 6197926.665666614659131, 9130733.769451465457678 ], [ 6197910.109312037937343, 9130690.932479990646243 ], [ 6197897.141602185554802, 9130642.520760729908943 ], [ 6197885.512946592643857, 9130590.775938160717487 ], [ 6197870.327571638859808, 9130504.487765254452825 ], [ 6197862.869794604368508, 9130437.053673963993788 ], [ 6197848.901744369417429, 9130363.108689982444048 ], [ 6197837.864808386191726, 9130305.550324846059084 ], [ 6197828.382184160873294, 9130245.317667745053768 ], [ 6197821.347311837598681, 9130180.653987219557166 ], [ 6197812.062966220080853, 9130140.007714448496699 ], [ 6197803.31649930588901, 9130086.624609045684338 ], [ 6197792.870055126026273, 9130045.411254812031984 ], [ 6197783.270905397832394, 9129991.914822399616241 ], [ 6197773.703008599579334, 9129920.064784519374371 ], [ 6197755.723201637156308, 9129813.705286139622331 ], [ 6197743.07228821143508, 9129735.60618057847023 ], [ 6197741.924010187387466, 9129686.83722753636539 ], [ 6197748.476314376108348, 9129622.333888301625848 ], [ 6197766.053499886766076, 9129530.898265106603503 ], [ 6197779.458736564032733, 9129461.198305279016495 ], [ 6197794.715618813410401, 9129392.723352005705237 ], [ 6197807.85520221106708, 9129325.180588260293007 ], [ 6197813.607832748442888, 9129285.299276329576969 ], [ 6197805.928420043550432, 9129228.35364643111825 ], [ 6197794.590217795222998, 9129182.907209699973464 ], [ 6197786.599774782545865, 9129097.618338176980615 ], [ 6197785.448031887412071, 9129063.97080166451633 ], [ 6197793.374012603424489, 9129017.559817086905241 ], [ 6197794.560602493584156, 9128980.395940378308296 ], [ 6197799.819470377638936, 9128922.816093474626541 ], [ 6197807.405239735729992, 9128883.878735233098269 ], [ 6197804.523473348468542, 9128819.469539992511272 ], [ 6197800.161319422535598, 9128777.166635541245341 ], [ 6197790.763864346779883, 9128756.464040020480752 ], [ 6197769.057045897468925, 9128735.974418485537171 ], [ 6197706.782874358817935, 9128688.822491763159633 ], [ 6197693.166647365316749, 9128671.459126546978951 ], [ 6197655.5047966260463, 9128611.023328570649028 ], [ 6197612.788769342005253, 9128529.278850408270955 ], [ 6197587.883556508459151, 9128458.001268327236176 ], [ 6197568.89457228127867, 9128364.628184735774994 ], [ 6197569.509019020013511, 9128318.426596814766526 ], [ 6197550.936126567423344, 9128202.344131115823984 ], [ 6197533.818532291799784, 9128116.6360989715904 ], [ 6197520.507714201696217, 9128071.330753026530147 ], [ 6197515.159488326869905, 9128034.108879322186112 ], [ 6197495.991983752697706, 9127958.06884853169322 ], [ 6197478.536532626487315, 9127886.443839639425278 ], [ 6197461.823418232612312, 9127825.800289306789637 ], [ 6197464.806605661287904, 9127762.975798137485981 ], [ 6197462.197548493742943, 9127674.622937142848969 ], [ 6197464.868485938757658, 9127622.536547921597958 ], [ 6197470.107498354278505, 9127530.391336875036359 ], [ 6197482.490568663924932, 9127461.888212637975812 ], [ 6197482.178373713046312, 9127443.093091787770391 ], [ 6197474.517525222152472, 9127355.285938706248999 ], [ 6197471.473312510177493, 9127292.829395046457648 ], [ 6197462.588306797668338, 9127229.801618952304125 ], [ 6197462.834566513076425, 9127143.571298582479358 ], [ 6197462.818372137844563, 9127089.121541680768132 ], [ 6197442.982261497527361, 9127012.457380859181285 ], [ 6197461.281923316419125, 9126892.02102324180305 ], [ 6197470.962250223383307, 9126826.638063298538327 ], [ 6197480.770143374800682, 9126778.42230555973947 ], [ 6197488.0325384195894, 9126730.778317714110017 ], [ 6197500.368502609431744, 9126660.497021719813347 ], [ 6197511.86672443524003, 9126596.328420544043183 ], [ 6197528.668232117779553, 9126501.646256374195218 ], [ 6197527.227436545304954, 9126424.646518625319004 ], [ 6197526.5512052802369, 9126376.394903251901269 ], [ 6197521.341955309733748, 9126278.369058452546597 ], [ 6197515.729273455217481, 9126248.168747892603278 ], [ 6197561.625473283231258, 9126207.61962815746665 ], [ 6197612.481096055358648, 9126163.374131616204977 ], [ 6198122.049518964253366, 9125954.9920674841851 ], [ 6198120.884778207167983, 9125953.017707215622067 ], [ 6198108.988991599529982, 9125916.593788996338844 ], [ 6198102.382915553636849, 9125898.533818213269114 ], [ 6198106.58870960213244, 9125844.89804263971746 ], [ 6198112.814778551459312, 9125786.109887456521392 ], [ 6198094.780973603948951, 9125719.6902090087533 ], [ 6198065.687827282585204, 9125732.393494686111808 ], [ 6197989.676912028342485, 9125765.417792961001396 ], [ 6197958.198551218025386, 9125661.116784285753965 ], [ 6197922.809858448803425, 9125529.375389322638512 ], [ 6197892.157773763872683, 9125415.516754372045398 ], [ 6197973.988526180386543, 9125402.632374327629805 ], [ 6198015.923323780298233, 9125395.060539789497852 ], [ 6198069.618496345356107, 9125382.221662148833275 ], [ 6198037.197909355163574, 9125260.481354590505362 ], [ 6198136.382281625643373, 9125223.697558855637908 ], [ 6198298.125452604144812, 9125164.275770528241992 ], [ 6198308.495374513790011, 9125159.438361894339323 ], [ 6198405.3871064549312, 9125122.768546173349023 ], [ 6198387.96425306238234, 9125077.332321962341666 ], [ 6198354.494466850534081, 9124993.687172373756766 ], [ 6198304.905004290863872, 9124868.986462032422423 ], [ 6198294.268511592410505, 9124870.723137462511659 ], [ 6198257.73720663972199, 9124879.880006199702621 ], [ 6198228.56459603458643, 9124887.271680183708668 ], [ 6198204.598571132868528, 9124894.608560627326369 ], [ 6198161.22140496224165, 9124777.698267644271255 ], [ 6198138.955178407020867, 9124724.932873601093888 ], [ 6198125.33465825393796, 9124691.875158881768584 ], [ 6198102.059346812777221, 9124636.320854594931006 ], [ 6198046.961261839605868, 9124506.335564490407705 ], [ 6198033.349016200751066, 9124478.794969733804464 ], [ 6197996.123458290472627, 9124382.028680212795734 ], [ 6197940.114913278259337, 9124234.97545170225203 ], [ 6197896.147312180139124, 9124139.069517184048891 ], [ 6197895.058493793942034, 9124136.181252846494317 ], [ 6197873.070464697666466, 9124076.608650045469403 ], [ 6198286.965069087222219, 9123942.597306160256267 ], [ 6198525.406416493467987, 9123865.850969748571515 ] ] ] } },
{ "type": "Feature", "properties": { "lv_id": "LOC_014566", "id": 64822.0, "CD_SETOR": "220900505000002", "SITUACAO": "Urbana", "CD_SIT": "1", "CD_TIPO": "0", "AREA_KM2": 0.492611446304562, "CD_REGIAO": "2", "NM_REGIAO": "Nordeste", "CD_UF": "22", "NM_UF": "Piauí", "CD_MUN": "2209005", "NM_MUN": "Rio Grande do Piauí", "CD_DIST": "220900505", "NM_DIST": "Rio Grande do Piauí", "CD_SUBDIST": "22090050500", "NM_SUBDIST": null, "CD_BAIRRO": null, "NM_BAIRRO": null, "CD_NU": null, "NM_NU": null, "CD_FCU": null, "NM_FCU": null, "CD_AGLOM": "220900500003", "NM_AGLOM": "Agrovila do PA Chapada das Flores", "CD_RGINT": "2206", "NM_RGINT": "Floriano", "CD_RGI": "220019", "NM_RGI": "Canto do Buriti", "CD_CONCURB": null, "NM_CONCURB": null, "mun_code_x": "2209005", "index_right": 54846, "dist_m": 0.0, "local_id": 146374, "ano": 2022, "cod_localidade_ibge": 2209005, "NR_ZONA": "72", "nr_cep": 64835000.0, "nm_localidade": "RIO GRANDE DO PIAUÍ", "nm_locvot": "ESCOLA PADRE PEDRO DA SILVA OLIVEIRA", "ds_endereco": "RUA 15 DE NOVEMBRO, S/N, PIÇARRA", "ds_bairro": "CENTRO", "pred_long": -43.133854, "pred_lat": -7.776651, "pred_dist": 0.0, "tse_long": -43.1337393, "tse_lat": -7.7766771, "long": -43.1337393, "lat": -7.7766771, "ID_UNICO": "LOC_014566", "SG_UF": "PI", "CD_MUNICIPIO": "11797", "NR_LOCAL_VOTACAO": "1112", "QT_SECOES_AGREGADAS": 0, "QT_ELEITORES_TRANSFERIDOS": 0, "CIRO GOMES (PDT) (NÃO ELEITO) 1T": 10.0, "CONSTITUINTE EYMAEL (DC) (NÃO ELEITO) 1T": 0.0, "FELIPE D AVILA (NOVO) (NÃO ELEITO) 1T": 0.0, "JAIR BOLSONARO (PL) (2º TURNO) 1T": 56.0, "LULA (PT) (2º TURNO) 1T": 415.0, "LÉO PÉRICLES (UP) (NÃO ELEITO) 1T": 0.0, "PADRE KELMON (PTB) (NÃO ELEITO) 1T": 1.0, "SIMONE TEBET (MDB) (NÃO ELEITO) 1T": 1.0, "SOFIA MANZANO (PCB) (NÃO ELEITO) 1T": 0.0, "SORAYA THRONICKE (UNIÃO) (NÃO ELEITO) 1T": 1.0, "VERA (PSTU) (NÃO ELEITO) 1T": 0.0, "Total_Votos_Validos 1T": 484.0, "Votos_Brancos 1T": 3.0, "Votos_Nulos 1T": 12.0, "Abstenções 1T": 97.0, "Eleitores_Aptos 1T": 596.0, "JAIR BOLSONARO (PL) (NÃO ELEITO) 2T": 61.0, "LULA (PT) (ELEITO) 2T": 423.0, "Total_Votos_Validos 2T": 484.0, "Votos_Brancos 2T": 2.0, "Votos_Nulos 2T": 6.0, "Abstenções 2T": 104.0, "Eleitores_Aptos 2T": 596.0, "mun_code_y": "2209005", "mun_code": "2209005" }, "geometry": { "type": "Polygon", "coordinates": [ [ [ 6205513.246890671551228, 9121861.326601071283221 ], [ 6205033.962408052757382, 9121775.644997468218207 ], [ 6204673.371558541432023, 9121723.264645034447312 ], [ 6204393.161386226303875, 9121647.405320243909955 ], [ 6204371.88392978720367, 9121485.111429121345282 ], [ 6204238.281600218266249, 9121331.13124137558043 ], [ 6204164.535387811250985, 9121410.858333218842745 ], [ 6204208.051515497267246, 9121672.928508834913373 ], [ 6204115.399668348021805, 9121647.824986381456256 ], [ 6204037.609454535879195, 9121625.287440668791533 ], [ 6203914.834599765017629, 9121589.791745586320758 ], [ 6203821.553234530612826, 9121562.508413191884756 ], [ 6203778.33088871371001, 9121551.14885376766324 ], [ 6203725.794919926673174, 9121539.726172806695104 ], [ 6203662.112188813276589, 9121532.037848804146051 ], [ 6203588.90097638219595, 9121530.947422144934535 ], [ 6203556.482262477278709, 9121532.968463063240051 ], [ 6203523.139312541112304, 9121536.376020152121782 ], [ 6203466.110887945629656, 9121547.186815636232495 ], [ 6203382.569400102831423, 9121565.282392479479313 ], [ 6203297.782715603709221, 9121576.574291337281466 ], [ 6203187.735554362647235, 9121590.658827422186732 ], [ 6203133.6471739821136, 9121596.956065364181995 ], [ 6203083.580825820565224, 9121607.777626359835267 ], [ 6203032.414700224064291, 9121623.030697245150805 ], [ 6202924.576621337793767, 9121660.829757105559111 ], [ 6202850.104366236366332, 9121681.943923817947507 ], [ 6202801.791866522282362, 9121692.325509306043386 ], [ 6202666.326215796172619, 9121721.535854287445545 ], [ 6202445.984017662703991, 9121768.445171797648072 ], [ 6202254.237880698405206, 9121809.70442627184093 ], [ 6201998.683264207094908, 9121864.603272069245577 ], [ 6201643.158880680799484, 9121941.550814671441913 ], [ 6201390.665967852808535, 9121995.858784699812531 ], [ 6201145.095180255360901, 9122048.634784946218133 ], [ 6200878.657681084237993, 9122106.057160312309861 ], [ 6200708.79651059396565, 9122141.629886316135526 ], [ 6200596.450682931579649, 9122166.834092931821942 ], [ 6200542.993819726631045, 9122182.738504590466619 ], [ 6200502.989803915843368, 9122202.214569948613644 ], [ 6200445.07816581428051, 9122230.71015989780426 ], [ 6200409.838753690011799, 9122251.842340493574739 ], [ 6200325.182276437990367, 9122304.020743705332279 ], [ 6200141.127650839276612, 9122423.867540957406163 ], [ 6199967.29622991848737, 9122535.825779007747769 ], [ 6199805.975344559177756, 9122639.589154534041882 ], [ 6199658.488183129578829, 9122737.702522521838546 ], [ 6199583.854554513469338, 9122808.682540213689208 ], [ 6199536.550140185281634, 9122863.701159257441759 ], [ 6199316.082289732992649, 9123115.205013528466225 ], [ 6199033.932697892189026, 9123430.141657317057252 ], [ 6198919.039065634831786, 9123561.312413658946753 ], [ 6198564.469550195150077, 9123952.830981070175767 ], [ 6198558.072685606777668, 9123939.112057043239474 ], [ 6198525.406416493467987, 9123865.850969748571515 ], [ 6198286.965069087222219, 9123942.597306160256267 ], [ 6197873.070464697666466, 9124076.608650045469403 ], [ 6197895.058493793942034, 9124136.181252846494317 ], [ 6197896.147312180139124, 9124139.069517184048891 ], [ 6197940.114913278259337, 9124234.97545170225203 ], [ 6197996.123458290472627, 9124382.028680212795734 ], [ 6198033.349016200751066, 9124478.794969733804464 ], [ 6198046.961261839605868, 9124506.335564490407705 ], [ 6198102.059346812777221, 9124636.320854594931006 ], [ 6198125.33465825393796, 9124691.875158881768584 ], [ 6198138.955178407020867, 9124724.932873601093888 ], [ 6198161.22140496224165, 9124777.698267644271255 ], [ 6198204.598571132868528, 9124894.608560627326369 ], [ 6198228.56459603458643, 9124887.271680183708668 ], [ 6198257.73720663972199, 9124879.880006199702621 ], [ 6198294.268511592410505, 9124870.723137462511659 ], [ 6198304.905004290863872, 9124868.986462032422423 ], [ 6198354.494466850534081, 9124993.687172373756766 ], [ 6198387.96425306238234, 9125077.332321962341666 ], [ 6198405.3871064549312, 9125122.768546173349023 ], [ 6198308.495374513790011, 9125159.438361894339323 ], [ 6198298.125452604144812, 9125164.275770528241992 ], [ 6198136.382281625643373, 9125223.697558855637908 ], [ 6198037.197909355163574, 9125260.481354590505362 ], [ 6198069.618496345356107, 9125382.221662148833275 ], [ 6198015.923323780298233, 9125395.060539789497852 ], [ 6197973.988526180386543, 9125402.632374327629805 ], [ 6197892.157773763872683, 9125415.516754372045398 ], [ 6197922.809858448803425, 9125529.375389322638512 ], [ 6197958.198551218025386, 9125661.116784285753965 ], [ 6197989.676912028342485, 9125765.417792961001396 ], [ 6198065.687827282585204, 9125732.393494686111808 ], [ 6198094.780973603948951, 9125719.6902090087533 ], [ 6198112.814778551459312, 9125786.109887456521392 ], [ 6198106.58870960213244, 9125844.89804263971746 ], [ 6198102.382915553636849, 9125898.533818213269114 ], [ 6198108.988991599529982, 9125916.593788996338844 ], [ 6198120.884778207167983, 9125953.017707215622067 ], [ 6198122.049518964253366, 9125954.9920674841851 ], [ 6197612.481096055358648, 9126163.374131616204977 ], [ 6197561.625473283231258, 9126207.61962815746665 ], [ 6197515.729273455217481, 9126248.168747892603278 ], [ 6197521.341955309733748, 9126278.369058452546597 ], [ 6197526.5512052802369, 9126376.394903251901269 ], [ 6197527.227436545304954, 9126424.646518625319004 ], [ 6197528.668232117779553, 9126501.646256374195218 ], [ 6197511.86672443524003, 9126596.328420544043183 ], [ 6197500.368502609431744, 9126660.497021719813347 ], [ 6197488.0325384195894, 9126730.778317714110017 ], [ 6197480.770143374800682, 9126778.42230555973947 ], [ 6197470.962250223383307, 9126826.638063298538327 ], [ 6197461.281923316419125, 9126892.02102324180305 ], [ 6197442.982261497527361, 9127012.457380859181285 ], [ 6197462.818372137844563, 9127089.121541680768132 ], [ 6197462.834566513076425, 9127143.571298582479358 ], [ 6197462.588306797668338, 9127229.801618952304125 ], [ 6197471.473312510177493, 9127292.829395046457648 ], [ 6197474.517525222152472, 9127355.285938706248999 ], [ 6197482.178373713046312, 9127443.093091787770391 ], [ 6197482.490568663924932, 9127461.888212637975812 ], [ 6197470.107498354278505, 9127530.391336875036359 ], [ 6197464.868485938757658, 9127622.536547921597958 ], [ 6197462.197548493742943, 9127674.622937142848969 ], [ 6197464.806605661287904, 9127762.975798137485981 ], [ 6197461.823418232612312, 9127825.800289306789637 ], [ 6197478.536532626487315, 9127886.443839639425278 ], [ 6197495.991983752697706, 9127958.06884853169322 ], [ 6197515.159488326869905, 9128034.108879322186112 ], [ 6197520.507714201696217, 9128071.330753026530147 ], [ 6197533.818532291799784, 9128116.6360989715904 ], [ 6197550.936126567423344, 9128202.344131115823984 ], [ 6197569.509019020013511, 9128318.426596814766526 ], [ 6197568.89457228127867, 9128364.628184735774994 ], [ 6197587.883556508459151, 9128458.001268327236176 ], [ 6197612.788769342005253, 9128529.278850408270955 ], [ 6197655.5047966260463, 9128611.023328570649028 ], [ 6197693.166647365316749, 9128671.459126546978951 ], [ 6197706.782874358817935, 9128688.822491763159633 ], [ 6197769.057045897468925, 9128735.974418485537171 ], [ 6197790.763864346779883, 9128756.464040020480752 ], [ 6197800.161319422535598, 9128777.166635541245341 ], [ 6197804.523473348468542, 9128819.469539992511272 ], [ 6197807.405239735729992, 9128883.878735233098269 ], [ 6197799.819470377638936, 9128922.816093474626541 ], [ 6197794.560602493584156, 9128980.395940378308296 ], [ 6197793.374012603424489, 9129017.559817086905241 ], [ 6197785.448031887412071, 9129063.97080166451633 ], [ 6197786.599774782545865, 9129097.618338176980615 ], [ 6197794.590217795222998, 9129182.907209699973464 ], [ 6197805.928420043550432, 9129228.35364643111825 ], [ 6197813.607832748442888, 9129285.299276329576969 ], [ 6197807.85520221106708, 9129325.180588260293007 ], [ 6197794.715618813410401, 9129392.723352005705237 ], [ 6197779.458736564032733, 9129461.198305279016495 ], [ 6197766.053499886766076, 9129530.898265106603503 ], [ 6197748.476314376108348, 9129622.333888301625848 ], [ 6197741.924010187387466, 9129686.83722753636539 ], [ 6197743.07228821143508, 9129735.60618057847023 ], [ 6197755.723201637156308, 9129813.705286139622331 ], [ 6197773.703008599579334, 9129920.064784519374371 ], [ 6197783.270905397832394, 9129991.914822399616241 ], [ 6197792.870055126026273, 9130045.411254812031984 ], [ 6197803.31649930588901, 9130086.624609045684338 ], [ 6197812.062966220080853, 9130140.007714448496699 ], [ 6197821.347311837598681, 9130180.653987219557166 ], [ 6197828.382184160873294, 9130245.317667745053768 ], [ 6197837.864808386191726, 9130305.550324846059084 ], [ 6197848.901744369417429, 9130363.108689982444048 ], [ 6197862.869794604368508, 9130437.053673963993788 ], [ 6197870.327571638859808, 9130504.487765254452825 ], [ 6197885.512946592643857, 9130590.775938160717487 ], [ 6197897.141602185554802, 9130642.520760729908943 ], [ 6197910.109312037937343, 9130690.932479990646243 ], [ 6197926.665666614659131, 9130733.769451465457678 ], [ 6197950.95032025873661, 9130770.216868141666055 ], [ 6197996.005817908793688, 9130829.858863610774279 ], [ 6198071.601316891610622, 9130938.084580615162849 ], [ 6198112.001156930811703, 9131006.053669018670917 ], [ 6198139.265386202372611, 9131042.504301162436604 ], [ 6198165.183937916532159, 9131089.438090043142438 ], [ 6198192.854781776666641, 9131125.822160314768553 ], [ 6198198.043587133288383, 9131142.905821908265352 ], [ 6198196.881003437563777, 9131164.542476372793317 ], [ 6198182.193359487690032, 9131216.417644502595067 ], [ 6198162.526651918888092, 9131275.186529194936156 ], [ 6198142.53712151106447, 9131303.33768099732697 ], [ 6198111.615748518146574, 9131322.500582227483392 ], [ 6198075.215635797008872, 9131343.638226874172688 ], [ 6198025.571490292437375, 9131374.739849610254169 ], [ 6197973.274594828486443, 9131403.06022335216403 ], [ 6197933.96938612870872, 9131427.581823322921991 ], [ 6197925.682790922001004, 9131438.083899036049843 ], [ 6197929.11035090778023, 9131455.786559920758009 ], [ 6197955.472934877499938, 9131501.538173593580723 ], [ 6198019.104213347658515, 9131607.558908309787512 ], [ 6198058.784799440763891, 9131684.644647372886539 ], [ 6198078.807644818909466, 9131726.695884004235268 ], [ 6198112.41310316324234, 9131778.264799440279603 ], [ 6198172.995533973909914, 9131880.682044144719839 ], [ 6198195.547832313925028, 9131918.030193712562323 ], [ 6198216.022944463416934, 9131942.629155743867159 ], [ 6198248.195507610216737, 9131989.032947296276689 ], [ 6198280.990406778641045, 9132031.682798316702247 ], [ 6198311.479664048179984, 9132058.22265044413507 ], [ 6198326.592530697584152, 9132088.531659780070186 ], [ 6198341.707489993423223, 9132129.829975860193372 ], [ 6198367.461887624114752, 9132187.3191181384027 ], [ 6198389.216281083412468, 9132256.822736918926239 ], [ 6198406.532266929745674, 9132308.356445737183094 ], [ 6198413.81279687397182, 9132329.620744336396456 ], [ 6198421.584021967835724, 9132365.487517535686493 ], [ 6198436.128806605003774, 9132409.120013255625963 ], [ 6198448.419982641935349, 9132468.370631210505962 ], [ 6198453.370443576946855, 9132504.849670393392444 ], [ 6198461.100541926920414, 9132531.676097892224789 ], [ 6198479.613910854794085, 9132572.52797351591289 ], [ 6198502.434871030040085, 9132602.17960842885077 ], [ 6198521.614444866776466, 9132630.09982524625957 ], [ 6198526.761265793815255, 9132656.890683893114328 ], [ 6198537.535366362892091, 9132701.542579444125295 ], [ 6198551.412536858581007, 9132722.70681618899107 ], [ 6198569.870187293738127, 9132756.556787444278598 ], [ 6198584.673577859066427, 9132799.079560341313481 ], [ 6198597.344445329159498, 9132835.824095221236348 ], [ 6198609.548790181986988, 9132869.39403529278934 ], [ 6198633.729662362486124, 9132912.680559108033776 ], [ 6198663.967570774257183, 9132941.062962351366878 ], [ 6198695.807456890121102, 9132971.262511109933257 ], [ 6198703.644292891025543, 9132986.601601902395487 ], [ 6198705.559782914817333, 9133032.255930792540312 ], [ 6198708.136421043425798, 9133070.450806464999914 ], [ 6198704.035072566941381, 9133109.029392516240478 ], [ 6198705.311501452699304, 9133130.277730690315366 ], [ 6198703.566916099749506, 9133155.566274031996727 ], [ 6198697.442578364163637, 9133191.392606155946851 ], [ 6198690.268396271392703, 9133224.543288074433804 ], [ 6198682.065845493227243, 9133246.696878561750054 ], [ 6198670.636164526455104, 9133259.057756723836064 ], [ 6198658.598275352269411, 9133267.876030329614878 ], [ 6198645.275082696229219, 9133276.490509822964668 ], [ 6198630.210072221234441, 9133290.418764602392912 ], [ 6198615.986670557409525, 9133300.531112641096115 ], [ 6198594.294072547927499, 9133313.344172762706876 ], [ 6198573.038888772949576, 9133321.630979262292385 ], [ 6198535.078107014298439, 9133337.007995197549462 ], [ 6198505.451943226158619, 9133342.005729831755161 ], [ 6198493.850518180057406, 9133348.009158432483673 ], [ 6198476.379419172182679, 9133378.966624649241567 ], [ 6198457.756621971726418, 9133395.788750547915697 ], [ 6198441.93339420389384, 9133397.181645045056939 ], [ 6198421.469702550210059, 9133388.31110867485404 ], [ 6198397.116522666998208, 9133383.61536462418735 ], [ 6198374.782563993707299, 9133379.780336106196046 ], [ 6198361.4240354122594, 9133373.893210150301456 ], [ 6198352.454408754594624, 9133374.864238074049354 ], [ 6198347.144529226236045, 9133386.157366195693612 ], [ 6198341.913707018829882, 9133403.202112227678299 ], [ 6198309.105018139816821, 9133437.74671770632267 ], [ 6198272.539690658450127, 9133476.924252981320024 ], [ 6198236.54538600333035, 9133482.781525548547506 ], [ 6198194.708696288987994, 9133521.676164496690035 ], [ 6198189.986405082046986, 9133540.509397534653544 ], [ 6198184.030683944001794, 9133576.927506878972054 ], [ 6198165.839821035973728, 9133609.118759859353304 ], [ 6198134.232642196118832, 9133661.985300505533814 ], [ 6198088.486111016944051, 9133720.007279461249709 ], [ 6198068.208401152864099, 9133745.60823199339211 ], [ 6198038.707978451624513, 9133770.902851205319166 ], [ 6198018.519456726498902, 9133800.915149420499802 ], [ 6197998.056435519829392, 9133837.543657246977091 ], [ 6197992.845443332567811, 9133869.382498016580939 ], [ 6197997.716116534546018, 9133932.942188858985901 ], [ 6198011.233176709152758, 9133962.166346741840243 ], [ 6198036.74629264883697, 9133980.896236564964056 ], [ 6198067.575490350835025, 9133992.938201645389199 ], [ 6198126.720378062687814, 9134005.319796040654182 ], [ 6198204.338943124748766, 9134017.682785578072071 ], [ 6198254.792318253777921, 9134019.757312603294849 ], [ 6198299.150200463831425, 9134025.184250133112073 ], [ 6198378.844776837155223, 9134039.780067848041654 ], [ 6198435.835798231884837, 9134047.273227194324136 ], [ 6198480.681220726110041, 9134072.887395760044456 ], [ 6198498.986838119104505, 9134085.01084971614182 ], [ 6198547.815714050084352, 9134052.018981192260981 ], [ 6198651.87426455039531, 9133999.158645180985332 ], [ 6198693.848699310794473, 9133996.291133996099234 ], [ 6198712.443524541333318, 9134007.191158443689346 ], [ 6198730.205367843620479, 9134028.809031749144197 ], [ 6198731.799437437206507, 9134070.091549037024379 ], [ 6198686.443204805254936, 9134126.978637214750051 ], [ 6198654.569855665788054, 9134154.022931592538953 ], [ 6198622.443659663200378, 9134168.429003560915589 ], [ 6198597.486220855265856, 9134187.900009397417307 ], [ 6198581.650639001280069, 9134208.490547640249133 ], [ 6198556.518649555742741, 9134241.162175906822085 ], [ 6198538.834634927101433, 9134264.164089865982533 ], [ 6198516.9576496463269, 9134290.256200296804309 ], [ 6198480.326246836222708, 9134333.871117340400815 ], [ 6198474.392305719666183, 9134349.751368306577206 ], [ 6198434.122526211664081, 9134424.129536245018244 ], [ 6198397.006972664035857, 9134494.936987303197384 ], [ 6198382.425774832256138, 9134545.580877877771854 ], [ 6198344.847700890153646, 9134682.515768762677908 ], [ 6198306.46312995813787, 9134808.943108558654785 ], [ 6198296.040593856014311, 9134883.171233141794801 ], [ 6198293.509911173954606, 9134932.934916626662016 ], [ 6198298.391002646647394, 9134965.013348784297705 ], [ 6198297.378243792802095, 9135043.911937700584531 ], [ 6198303.361796314828098, 9135116.226461336016655 ], [ 6198312.210122241638601, 9135214.196371981874108 ], [ 6198354.366030970588326, 9135228.992290895432234 ], [ 6198391.640799482353032, 9135235.343449888750911 ], [ 6198447.517292796634138, 9135257.684449495747685 ], [ 6198463.68091781809926, 9135261.012816954404116 ], [ 6198505.637346850708127, 9135258.260104399174452 ], [ 6198533.49720476847142, 9135264.568440787494183 ], [ 6198551.918419985100627, 9135313.238244591280818 ], [ 6198587.008295881561935, 9135443.072600523009896 ], [ 6198597.397948548197746, 9135489.2325822673738 ], [ 6198607.794247349724174, 9135509.382714821025729 ], [ 6198617.267716748639941, 9135566.048662865534425 ], [ 6198641.973826725967228, 9135690.269100980833173 ], [ 6198662.90355827100575, 9135785.952158564701676 ], [ 6198674.012947999872267, 9135819.077944096177816 ], [ 6198701.924617392010987, 9135911.10499975644052 ], [ 6198721.787858337163925, 9135983.744325926527381 ], [ 6198734.605439782142639, 9136019.844519417732954 ], [ 6198755.224098441191018, 9136085.675248054787517 ], [ 6198757.270082123577595, 9136120.021657444536686 ], [ 6198766.923924495466053, 9136157.587012473493814 ], [ 6198785.565742252394557, 9136226.001365948468447 ], [ 6198791.281736227683723, 9136263.655262067914009 ], [ 6198795.200712703168392, 9136300.510211804881692 ], [ 6198802.924185984767973, 9136353.899332787841558 ], [ 6198810.463372562080622, 9136386.823063626885414 ], [ 6198814.458166107535362, 9136414.420673267915845 ], [ 6198822.48481317050755, 9136439.968253992497921 ], [ 6198831.82067749928683, 9136480.694508746266365 ], [ 6198847.967383408918977, 9136528.927404681220651 ], [ 6198873.28398634120822, 9136575.351773113012314 ], [ 6198917.406665571033955, 9136614.758092408999801 ], [ 6198946.498163710348308, 9136654.184790911152959 ], [ 6198977.810050181113183, 9136702.022624708712101 ], [ 6199013.079253476113081, 9136749.670245137065649 ], [ 6199045.620669226162136, 9136787.602290373295546 ], [ 6199083.221733371727169, 9136830.551983768120408 ], [ 6199119.570250377058983, 9136866.270907932892442 ], [ 6199156.297962984070182, 9136914.861466143280268 ], [ 6199192.192114773206413, 9136967.60554770193994 ], [ 6199221.838959150016308, 9137011.556337649002671 ], [ 6199259.325269788503647, 9137102.566136829555035 ], [ 6199258.261016726493835, 9137159.3875532746315 ], [ 6199291.664508843794465, 9137225.436560280621052 ], [ 6199335.595170549117029, 9137286.591424472630024 ], [ 6199352.953462067060173, 9137339.129594201222062 ], [ 6199383.721161443740129, 9137389.470552608370781 ], [ 6199409.662215875461698, 9137444.054843485355377 ], [ 6199432.481301588006318, 9137532.03614092618227 ], [ 6199452.610358046367764, 9137582.84922543913126 ], [ 6199490.173231183551252, 9137603.664027560502291 ], [ 6199598.697797610424459, 9137642.725733533501625 ], [ 6199723.687816618010402, 9137689.18516924418509 ], [ 6199782.77367243450135, 9137665.744126759469509 ], [ 6199824.480131313204765, 9137664.812405878677964 ], [ 6199860.927325901575387, 9137680.318250121548772 ], [ 6199899.03958341665566, 9137737.871893730014563 ], [ 6199933.409494592808187, 9137780.476954508572817 ], [ 6199986.79606812261045, 9137851.167520057410002 ], [ 6200020.253744004294276, 9137897.871968239545822 ], [ 6200080.751413846388459, 9137978.787152759730816 ], [ 6200134.623171987943351, 9138032.35055760294199 ], [ 6200194.632516220211983, 9138092.537346554920077 ], [ 6200246.413420401513577, 9138155.116955047473311 ], [ 6200301.586226667277515, 9138220.470948385074735 ], [ 6200330.619175739586353, 9138225.535285755991936 ], [ 6200355.738482954911888, 9138241.305718626827002 ], [ 6200573.238070206716657, 9138256.937093647196889 ], [ 6203867.947252437472343, 9136395.048331275582314 ], [ 6204177.853445566259325, 9136090.944665407761931 ], [ 6204238.852241956628859, 9135993.241864819079638 ], [ 6204316.24994059279561, 9135927.351667601615191 ], [ 6204451.849422479979694, 9135841.251385848969221 ], [ 6205378.854123780503869, 9135017.338864225894213 ], [ 6206266.057919794693589, 9133693.842702366411686 ], [ 6206693.852630831301212, 9132995.441263049840927 ], [ 6208480.753303684294224, 9130484.228011440485716 ], [ 6208535.072019815444946, 9130407.910395285114646 ], [ 6209414.463709725067019, 9129172.126313278451562 ], [ 6208677.461517923511565, 9128626.025633923709393 ], [ 6208165.540684112347662, 9121989.11300378665328 ], [ 6208161.436377261765301, 9121935.652699692174792 ], [ 6208161.352792551741004, 9121934.551095167174935 ], [ 6208014.248021888546646, 9121962.887734768912196 ], [ 6207955.964443358592689, 9121960.536774041131139 ], [ 6207886.159589220769703, 9121956.378501007333398 ], [ 6207545.093536395579576, 9121910.454970279708505 ], [ 6207512.099225365556777, 9121905.994748132303357 ], [ 6207259.082984659820795, 9121871.752029079943895 ], [ 6207043.136281071230769, 9121840.827138191089034 ], [ 6206702.499572305008769, 9121793.943019485101104 ], [ 6206511.981617690995336, 9121765.871483244001865 ], [ 6206396.489190329797566, 9121750.180730108171701 ], [ 6206368.164247360080481, 9121747.941615309566259 ], [ 6206314.419937901198864, 9121746.609082400798798 ], [ 6206261.135467520914972, 9121748.992419408634305 ], [ 6206248.98982120025903, 9121750.782560762017965 ], [ 6206217.884206804446876, 9121755.384104197844863 ], [ 6206148.044383902102709, 9121769.548755824565887 ], [ 6206060.363025037571788, 9121788.826880248263478 ], [ 6205916.583453526720405, 9121819.480194754898548 ], [ 6205769.800238956697285, 9121851.325594488531351 ], [ 6205676.73032470792532, 9121871.305300556123257 ], [ 6205587.829580878838897, 9121891.233058165758848 ], [ 6205539.136470646597445, 9121898.395456468686461 ], [ 6205508.890754037536681, 9121901.690175920724869 ], [ 6205510.793917062692344, 9121885.18695555627346 ], [ 6205513.246890671551228, 9121861.326601071283221 ] ] ] } }
]
}
