{
"type": "FeatureCollection",
"name": "2211506",
"crs": { "type": "name", "properties": { "name": "urn:ogc:def:crs:EPSG::5880" } },
"features": [
{ "type": "Feature", "properties": { "lv_id": "LOC_015467", "id": 67339.0, "CD_SETOR": "221150605000001", "SITUACAO": "Urbana", "CD_SIT": "1", "CD_TIPO": "0", "AREA_KM2": 0.40374747703672897, "CD_REGIAO": "2", "NM_REGIAO": "Nordeste", "CD_UF": "22", "NM_UF": "Piauí", "CD_MUN": "2211506", "NM_MUN": "Vera Mendes", "CD_DIST": "221150605", "NM_DIST": "Vera Mendes", "CD_SUBDIST": "22115060500", "NM_SUBDIST": null, "CD_BAIRRO": null, "NM_BAIRRO": null, "CD_NU": null, "NM_NU": null, "CD_FCU": null, "NM_FCU": null, "CD_AGLOM": null, "NM_AGLOM": null, "CD_RGINT": "2203", "NM_RGINT": "Picos", "CD_RGI": "220009", "NM_RGI": "Picos", "CD_CONCURB": null, "NM_CONCURB": null, "mun_code_x": "2211506", "index_right": 55861, "dist_m": 0.0, "local_id": 155965, "ano": 2022, "cod_localidade_ibge": 2211506, "NR_ZONA": "57", "nr_cep": 64568000.0, "nm_localidade": "VERA MENDES", "nm_locvot": "ESCOLA MUNICIPAL JOSÉ ANTÔNIO DA VERA", "ds_endereco": "RUA JOSÉ ANTÔNIO DA VERA N. 50", "ds_bairro": "CENTRO", "pred_long": -41.482685, "pred_lat": -7.604847, "pred_dist": 0.0, "tse_long": -41.483203, "tse_lat": -7.604892, "long": -41.483203, "lat": -7.604892, "ID_UNICO": "LOC_015467", "SG_UF": "PI", "CD_MUNICIPIO": "12556", "NR_LOCAL_VOTACAO": "1015", "QT_SECOES_AGREGADAS": 1, "QT_ELEITORES_TRANSFERIDOS": 2, "CIRO GOMES (PDT) (NÃO ELEITO) 1T": 7.0, "CONSTITUINTE EYMAEL (DC) (NÃO ELEITO) 1T": 0.0, "FELIPE D AVILA (NOVO) (NÃO ELEITO) 1T": 0.0, "JAIR BOLSONARO (PL) (2º TURNO) 1T": 27.0, "LULA (PT) (2º TURNO) 1T": 204.0, "LÉO PÉRICLES (UP) (NÃO ELEITO) 1T": 0.0, "PADRE KELMON (PTB) (NÃO ELEITO) 1T": 0.0, "SIMONE TEBET (MDB) (NÃO ELEITO) 1T": 3.0, "SOFIA MANZANO (PCB) (NÃO ELEITO) 1T": 1.0, "SORAYA THRONICKE (UNIÃO) (NÃO ELEITO) 1T": 0.0, "VERA (PSTU) (NÃO ELEITO) 1T": 0.0, "Total_Votos_Validos 1T": 242.0, "Votos_Brancos 1T": 5.0, "Votos_Nulos 1T": 10.0, "Abstenções 1T": 56.0, "Eleitores_Aptos 1T": 313.0, "JAIR BOLSONARO (PL) (NÃO ELEITO) 2T": 31.0, "LULA (PT) (ELEITO) 2T": 222.0, "Total_Votos_Validos 2T": 253.0, "Votos_Brancos 2T": 3.0, "Votos_Nulos 2T": 6.0, "Abstenções 2T": 51.0, "Eleitores_Aptos 2T": 313.0, "mun_code_y": "2211506", "mun_code": "2211506" }, "geometry": { "type": "Polygon", "coordinates": [ [ [ 6385667.222985439002514, 9134390.472242321819067 ], [ 6383986.551322296261787, 9130134.363191211596131 ], [ 6383872.617483025416732, 9129845.865128735080361 ], [ 6383450.713507506065071, 9128777.862097717821598 ], [ 6383449.511484874412417, 9128741.857399875298142 ], [ 6382433.801858501508832, 9128525.665013300254941 ], [ 6382199.509089485742152, 9128521.862075204029679 ], [ 6380495.099637992680073, 9129628.571748109534383 ], [ 6377805.836604057811201, 9131303.594062898308039 ], [ 6377804.416100763715804, 9131304.473401451483369 ], [ 6377560.493664192035794, 9131456.374126655980945 ], [ 6377505.389065811410546, 9131482.177238253876567 ], [ 6376711.390550021082163, 9131854.183002404868603 ], [ 6374642.097241081297398, 9132719.606568180024624 ], [ 6374511.579216717742383, 9132774.186006240546703 ], [ 6371474.125742699950933, 9134044.2755316644907 ], [ 6371489.487483053468168, 9134076.10923745110631 ], [ 6371496.652803119271994, 9134110.421486470848322 ], [ 6371508.733445371501148, 9134166.408291216939688 ], [ 6371514.84380298294127, 9134194.728008586913347 ], [ 6371537.837622815743089, 9134314.88700569793582 ], [ 6371567.428483313880861, 9134411.827569982036948 ], [ 6371585.154304970987141, 9134499.951895821839571 ], [ 6371601.158135069534183, 9134585.386231338605285 ], [ 6371620.808249336667359, 9134664.409228572621942 ], [ 6371643.023468061350286, 9134761.687852410599589 ], [ 6371662.479609407484531, 9134873.243519268929958 ], [ 6371659.80035563185811, 9134897.23203800432384 ], [ 6371644.147334315814078, 9134963.462282706052065 ], [ 6371623.049395736306906, 9135026.509776409715414 ], [ 6371622.241285126656294, 9135166.297669710591435 ], [ 6371623.966066927649081, 9135365.643030820414424 ], [ 6371628.994493997655809, 9135562.447593366727233 ], [ 6371633.117466079071164, 9135627.41622568666935 ], [ 6371634.141787583008409, 9135643.531203465536237 ], [ 6371616.170405993238091, 9135675.115951320156455 ], [ 6371594.153930393047631, 9135704.598315006121993 ], [ 6371582.741495951078832, 9135750.915553508326411 ], [ 6371573.036098008975387, 9135817.924546096473932 ], [ 6371575.053642170503736, 9135891.501540223136544 ], [ 6371579.214276639744639, 9135925.798983665183187 ], [ 6371571.626023040153086, 9135982.715980120003223 ], [ 6371567.567293657921255, 9136035.296926219016314 ], [ 6371560.852177310734987, 9136059.469513712450862 ], [ 6371542.451550480909646, 9136097.293092090636492 ], [ 6371515.634227216243744, 9136158.46643428131938 ], [ 6371459.457060102373362, 9136262.567872021347284 ], [ 6371410.985793090425432, 9136333.92023004591465 ], [ 6371377.20367993786931, 9136385.489343136548996 ], [ 6371351.579093029722571, 9136431.275749048218131 ], [ 6371337.58375654835254, 9136463.367697175592184 ], [ 6371313.844718523323536, 9136489.015436805784702 ], [ 6371298.314781229943037, 9136506.818618223071098 ], [ 6371288.723006564192474, 9136519.197558008134365 ], [ 6371282.802896246314049, 9136544.94316928088665 ], [ 6371282.160760692320764, 9136573.446311084553599 ], [ 6371270.14335760846734, 9136689.791529528796673 ], [ 6371256.212648657150567, 9136814.524277990683913 ], [ 6371256.208571247756481, 9136847.209235271438956 ], [ 6371261.272899195551872, 9136859.098016992211342 ], [ 6371271.382870497182012, 9136881.449633469805121 ], [ 6371279.321067844517529, 9136909.694323914125562 ], [ 6371282.839830430224538, 9136932.779204737395048 ], [ 6371284.367056270129979, 9136953.000520376488566 ], [ 6371287.069129973649979, 9136964.504496157169342 ], [ 6371298.345112899318337, 9136978.603247437626123 ], [ 6371313.722578145563602, 9136988.281765930354595 ], [ 6371331.341656632721424, 9136994.51063746213913 ], [ 6371352.186661576852202, 9136999.672972420230508 ], [ 6371368.35716428142041, 9137007.358738424256444 ], [ 6371378.474465291947126, 9137017.607642164453864 ], [ 6371390.209899176843464, 9137037.353922627866268 ], [ 6371399.218696624971926, 9137060.960090950131416 ], [ 6371407.042468843050301, 9137094.087760001420975 ], [ 6371421.694563023746014, 9137161.43601993471384 ], [ 6371437.028184234164655, 9137203.189562262967229 ], [ 6371459.369629138149321, 9137255.700551852583885 ], [ 6371476.388037451542914, 9137304.26648211106658 ], [ 6371514.972032325342298, 9137405.62635482288897 ], [ 6371529.923726898618042, 9137443.677661813795567 ], [ 6371534.739205900579691, 9137466.566941196098924 ], [ 6371540.400146621279418, 9137549.198001345619559 ], [ 6371549.565958901308477, 9137640.921261066570878 ], [ 6371546.246607890352607, 9137674.664237175136805 ], [ 6371534.423148358240724, 9137734.159212253987789 ], [ 6371512.715548116713762, 9137831.005017627030611 ], [ 6371485.096293496899307, 9137891.701495265588164 ], [ 6371451.035771241411567, 9137980.04895225353539 ], [ 6371444.181483989581466, 9138011.787648778408766 ], [ 6371443.048079458065331, 9138035.889628136530519 ], [ 6371445.186414239928126, 9138093.012707399204373 ], [ 6371460.20833658054471, 9138155.595802444964647 ], [ 6371483.30185311473906, 9138236.049826549366117 ], [ 6371487.182415001094341, 9138278.031387252733111 ], [ 6371483.75234891846776, 9138331.906907636672258 ], [ 6371478.073421893641353, 9138369.646082252264023 ], [ 6371473.700385137461126, 9138405.955155780538917 ], [ 6371474.998861018568277, 9138435.987578330561519 ], [ 6371480.629901906475425, 9138476.265886316075921 ], [ 6371493.171718569472432, 9138571.503634862601757 ], [ 6371494.539436653256416, 9138636.087147893384099 ], [ 6371483.875794891268015, 9138684.849445674568415 ], [ 6371485.364870565012097, 9138705.706031465902925 ], [ 6371482.394269281066954, 9138726.566258678212762 ], [ 6371474.144622224383056, 9138748.891488658264279 ], [ 6371458.410259917378426, 9138787.078027661889791 ], [ 6371418.37963692471385, 9138864.387598061934114 ], [ 6371395.615619054995477, 9138901.111720321699977 ], [ 6371386.496514565311372, 9138920.438984520733356 ], [ 6371382.538529492914677, 9138935.32713571190834 ], [ 6371381.668236741796136, 9138950.488853359594941 ], [ 6371381.568934337235987, 9138962.492390688508749 ], [ 6371386.694219007156789, 9138988.542859680950642 ], [ 6371409.78668321762234, 9139078.711072655394673 ], [ 6371426.240489466115832, 9139136.600284323096275 ], [ 6371437.482129239477217, 9139164.614865845069289 ], [ 6371447.815607018768787, 9139176.262132683768868 ], [ 6371469.696658432483673, 9139196.838630503043532 ], [ 6371490.922920729964972, 9139221.939889857545495 ], [ 6371514.944735036231577, 9139254.104708928614855 ], [ 6371526.4401311930269, 9139275.919273231178522 ], [ 6371537.576853131875396, 9139302.578414482995868 ], [ 6371570.126219317317009, 9139364.364422710612416 ], [ 6371642.891231887042522, 9139499.740030720829964 ], [ 6371705.406112607568502, 9139602.770585162565112 ], [ 6371720.635950646363199, 9139643.294501677155495 ], [ 6371736.456415778957307, 9139675.491495046764612 ], [ 6371760.415195558220148, 9139718.232937887310982 ], [ 6371800.890867621637881, 9139779.260003339499235 ], [ 6371830.747389612719417, 9139831.398974696174264 ], [ 6371843.976138537749648, 9139862.912009773775935 ], [ 6371853.562614683061838, 9139904.91151025146246 ], [ 6371856.022106651216745, 9139942.417180461809039 ], [ 6371873.243857741355896, 9140036.208836868405342 ], [ 6371879.629498256370425, 9140087.923631185665727 ], [ 6371889.190260513685644, 9140150.733029697090387 ], [ 6371908.930163059383631, 9140264.740881945937872 ], [ 6371930.540028663352132, 9140354.489648731425405 ], [ 6371947.172051847912371, 9140396.592906149104238 ], [ 6371972.476175611838698, 9140436.975567160174251 ], [ 6372016.746563648805022, 9140482.418297227472067 ], [ 6372060.211644170805812, 9140523.615972256287932 ], [ 6372089.955530688166618, 9140562.127919565886259 ], [ 6372108.40826434455812, 9140595.676660463213921 ], [ 6372120.954639360308647, 9140633.482003966346383 ], [ 6372129.298775909468532, 9140661.727910850197077 ], [ 6372143.949568623676896, 9140741.657450135797262 ], [ 6372151.420265049673617, 9140783.820140702649951 ], [ 6372160.5806371755898, 9140811.657758584246039 ], [ 6372176.766849871724844, 9140838.886285470798612 ], [ 6372221.787979498505592, 9140882.394833287224174 ], [ 6372262.165450017899275, 9140907.038840303197503 ], [ 6372306.127325206063688, 9140923.41710932739079 ], [ 6372358.973993582651019, 9140945.541065132245421 ], [ 6372411.457551065832376, 9140974.298692593351007 ], [ 6372444.123365773819387, 9140990.582126565277576 ], [ 6372491.332067455165088, 9141015.143564349040389 ], [ 6372534.523894642479718, 9141045.186794094741344 ], [ 6372571.135108383372426, 9141073.641303597018123 ], [ 6372637.782646996900439, 9141131.101340115070343 ], [ 6372678.128841171041131, 9141175.582503022626042 ], [ 6372709.632376276887953, 9141222.004331951960921 ], [ 6372731.232448109425604, 9141256.369421502575278 ], [ 6372772.625466308556497, 9141316.297824217006564 ], [ 6372802.125953622162342, 9141365.653093528002501 ], [ 6372839.263383120298386, 9141431.602484744042158 ], [ 6372890.759397801011801, 9141520.689900953322649 ], [ 6372928.213601684197783, 9141588.464680509641767 ], [ 6372947.858043446205556, 9141641.012710135430098 ], [ 6372984.04277852550149, 9141738.283881507813931 ], [ 6372996.546813221648335, 9141770.351532017812133 ], [ 6373010.975150955840945, 9141794.778314424678683 ], [ 6373029.075384365394711, 9141829.142453217878938 ], [ 6373056.388229845091701, 9141873.013415940105915 ], [ 6373077.431153606623411, 9141906.817758671939373 ], [ 6373097.6219701198861, 9141925.803410110995173 ], [ 6373118.03322019148618, 9141938.566972963511944 ], [ 6373138.388486508280039, 9141956.347807142883539 ], [ 6373156.641124817542732, 9141982.487977838143706 ], [ 6373177.003493059426546, 9142017.206416036933661 ], [ 6373200.915609408169985, 9142054.076233793050051 ], [ 6373210.297013999894261, 9142073.009533032774925 ], [ 6373247.63006560690701, 9142139.645408155396581 ], [ 6373268.417020070366561, 9142159.406715584918857 ], [ 6373292.096770242787898, 9142182.674232710152864 ], [ 6373303.368985937908292, 9142208.312705233693123 ], [ 6373327.402465965598822, 9142276.235789304599166 ], [ 6373337.180882723070681, 9142296.708961328491569 ], [ 6373349.494733802042902, 9142307.734787873923779 ], [ 6373436.157207853160799, 9142425.741334890946746 ], [ 6373473.348616988398135, 9142478.86338878236711 ], [ 6373480.768410925753415, 9142487.051815556362271 ], [ 6373483.701492757536471, 9142494.304523874074221 ], [ 6373476.535951779223979, 9142510.587288964539766 ], [ 6373443.138558890670538, 9142547.797678608447313 ], [ 6373425.547826994210482, 9142568.228608069941401 ], [ 6373404.001096222549677, 9142590.471159225329757 ], [ 6373379.032544080168009, 9142603.414346681907773 ], [ 6373351.160623529925942, 9142613.644114963710308 ], [ 6373317.491835330612957, 9142625.783506851643324 ], [ 6373305.524101793766022, 9142639.746791584417224 ], [ 6373295.13363687787205, 9142660.650601712986827 ], [ 6373291.427398073486984, 9142683.287687903270125 ], [ 6373292.952507187612355, 9142702.763256745412946 ], [ 6373301.283379023894668, 9142718.149101028218865 ], [ 6373308.72588758636266, 9142733.741550117731094 ], [ 6373313.548289056867361, 9142745.321779051795602 ], [ 6373319.49254, 9142762.191258139908314 ], [ 6373330.216469370760024, 9142796.518369415774941 ], [ 6373331.653325241990387, 9142823.378492711111903 ], [ 6373332.209070636890829, 9142844.874538764357567 ], [ 6373327.941835196688771, 9142873.41517616994679 ], [ 6373324.067316241562366, 9142897.517624020576477 ], [ 6373322.126468120142817, 9142918.960613569244742 ], [ 6373323.690499994903803, 9142942.918636877089739 ], [ 6373325.887522049248219, 9142964.288424154743552 ], [ 6373322.593502804636955, 9142989.008269879966974 ], [ 6373321.642428511753678, 9143006.822488490492105 ], [ 6373323.54309343546629, 9143022.426502294838428 ], [ 6373327.362315346486866, 9143039.889016978442669 ], [ 6373333.715368583798409, 9143051.334894567728043 ], [ 6373344.340140564367175, 9143065.862620562314987 ], [ 6373358.074473552405834, 9143079.871084425598383 ], [ 6373371.039015602320433, 9143087.380069950595498 ], [ 6373398.966138611547649, 9143104.333535196259618 ], [ 6373417.955409763380885, 9143117.172582641243935 ], [ 6373467.89252454880625, 9143156.140164328739047 ], [ 6373510.869127354584634, 9143181.709211204200983 ], [ 6373551.6493333959952, 9143202.246207613497972 ], [ 6373628.762130878865719, 9143241.817218886688352 ], [ 6373713.759481521323323, 9143285.340475879609585 ], [ 6373783.057263171300292, 9143322.621895719319582 ], [ 6373793.418455973267555, 9143331.756675267592072 ], [ 6373799.877455858513713, 9143342.656233387067914 ], [ 6373800.092832214199007, 9143342.853867514058948 ], [ 6373803.884794473648071, 9143355.471516709774733 ], [ 6373830.305390009656549, 9143424.697999350726604 ], [ 6373840.382546390406787, 9143442.876122118905187 ], [ 6373862.714039400219917, 9143478.536022149026394 ], [ 6373877.694130096584558, 9143495.588778182864189 ], [ 6373891.31341265141964, 9143510.597201954573393 ], [ 6373898.827356026507914, 9143526.765452913939953 ], [ 6373911.620809325948358, 9143555.452225351706147 ], [ 6373931.237133004702628, 9143594.247005239129066 ], [ 6373948.405338371172547, 9143626.533641654998064 ], [ 6373976.539430330507457, 9143672.919733852148056 ], [ 6374010.100075918249786, 9143717.180488646030426 ], [ 6374037.14303260948509, 9143741.089141726493835 ], [ 6374062.847496725618839, 9143770.346316797658801 ], [ 6374073.710592777468264, 9143787.822811068966985 ], [ 6374078.438618239015341, 9143799.972243420779705 ], [ 6374085.010815744288266, 9143827.297468623146415 ], [ 6374089.804704036563635, 9143842.932311994954944 ], [ 6374096.593621489591897, 9143854.954840999096632 ], [ 6374112.25216880813241, 9143876.460765391588211 ], [ 6374137.13259282335639, 9143904.303731618449092 ], [ 6374193.538412529975176, 9143977.439894815906882 ], [ 6374228.126499708741903, 9144032.224247070029378 ], [ 6374254.782055962830782, 9144075.924594670534134 ], [ 6374276.756491138599813, 9144118.456873586401343 ], [ 6374304.441352866590023, 9144160.304976660758257 ], [ 6374330.867401635274291, 9144192.814173676073551 ], [ 6374373.512723344378173, 9144230.418667457997799 ], [ 6374416.696675900369883, 9144266.773671830072999 ], [ 6374468.29201805125922, 9144310.859117241576314 ], [ 6374483.513927671127021, 9144327.486601231619716 ], [ 6374507.801245426759124, 9144355.437653731554747 ], [ 6374526.412729006260633, 9144377.516226084902883 ], [ 6374538.499093660153449, 9144391.02919390052557 ], [ 6374546.301661625504494, 9144404.925147954374552 ], [ 6374551.990449097007513, 9144424.47491124086082 ], [ 6374554.070229131728411, 9144436.677707530558109 ], [ 6374553.863049854524434, 9144464.378537528216839 ], [ 6374549.960814272984862, 9144488.31276779063046 ], [ 6374545.407272949814796, 9144512.639265498146415 ], [ 6374541.59443627577275, 9144543.613531481474638 ], [ 6374533.036679822951555, 9144618.23594693094492 ], [ 6374530.622985289432108, 9144668.169344549998641 ], [ 6374526.068285739049315, 9144722.024938266724348 ], [ 6374520.740154172293842, 9144757.967772886157036 ], [ 6374515.255847455002367, 9144787.631066543981433 ], [ 6374505.979111972264946, 9144814.764650035649538 ], [ 6374491.646965693682432, 9144836.879710711538792 ], [ 6374478.231916181743145, 9144858.243882993236184 ], [ 6374456.760643537156284, 9144905.404546342790127 ], [ 6374447.296190365217626, 9144929.429709689691663 ], [ 6374411.739634177647531, 9145003.917749814689159 ], [ 6374405.279760794714093, 9145032.284026877954602 ], [ 6374404.114834633655846, 9145054.656543493270874 ], [ 6374407.522063616663218, 9145092.647909015417099 ], [ 6374413.459273633547127, 9145128.755372777581215 ], [ 6374425.519396874122322, 9145212.581879878416657 ], [ 6374439.364618385210633, 9145290.843385485932231 ], [ 6374456.854195879772305, 9145385.497660260647535 ], [ 6374470.185149488970637, 9145459.652614299207926 ], [ 6374490.291372278705239, 9145567.173899363726377 ], [ 6374496.635983456857502, 9145607.153501117601991 ], [ 6374494.226192377507687, 9145630.025833392515779 ], [ 6374485.865976663306355, 9145652.5246661324054 ], [ 6374476.375259993597865, 9145679.154515182599425 ], [ 6374453.492566044442356, 9145725.267884256318212 ], [ 6374436.716953182592988, 9145755.083554347977042 ], [ 6374409.799469407647848, 9145790.510396406054497 ], [ 6374393.142376207746565, 9145810.098416285589337 ], [ 6374388.768613060936332, 9145831.464232275262475 ], [ 6374385.559711953625083, 9145861.20934896916151 ], [ 6374376.020200518891215, 9145899.762935105711222 ], [ 6374355.322822317481041, 9145954.441210608929396 ], [ 6374330.061400264501572, 9146028.067566430196166 ], [ 6374297.737012717872858, 9146170.792235188186169 ], [ 6374258.240637922659516, 9146303.180091071873903 ], [ 6374240.662849287502468, 9146367.857003018260002 ], [ 6374209.517858016304672, 9146463.797055372968316 ], [ 6374202.912527049891651, 9146498.394187867641449 ], [ 6374201.009457951411605, 9146536.853934461250901 ], [ 6374209.620970179326832, 9146626.145483979955316 ], [ 6374218.884277855046093, 9146749.781855722889304 ], [ 6374229.364626500755548, 9146865.333369737491012 ], [ 6374224.761355846188962, 9146958.206138169392943 ], [ 6374222.821037004701793, 9146963.379178557544947 ], [ 6374216.068306742236018, 9146975.233776777982712 ], [ 6374196.665067492052913, 9146985.21860621497035 ], [ 6374173.523964949883521, 9146996.940418273210526 ], [ 6374156.884102165699005, 9147006.257645985111594 ], [ 6374150.134904179722071, 9147019.799125887453556 ], [ 6374144.649194184690714, 9147041.705742077901959 ], [ 6374141.218933205120265, 9147058.605885807424784 ], [ 6374144.74709658510983, 9147069.748364042490721 ], [ 6374160.966724568046629, 9147083.427506113424897 ], [ 6374197.220081467181444, 9147102.377790851518512 ], [ 6374229.332206273451447, 9147123.246426969766617 ], [ 6374257.325033716857433, 9147131.200485778972507 ], [ 6374308.825409468263388, 9147139.208915110677481 ], [ 6374361.122073136270046, 9147148.825044563040137 ], [ 6374426.38255946803838, 9147166.699197217822075 ], [ 6374494.528097398579121, 9147186.64234871789813 ], [ 6374548.472801744937897, 9147202.212359853088856 ], [ 6374580.716582269407809, 9147216.023468062281609 ], [ 6374607.572950196452439, 9147230.633595611900091 ], [ 6374630.953899200074375, 9147253.913982814177871 ], [ 6374650.094506446272135, 9147280.293132126331329 ], [ 6374675.000574049539864, 9147317.671923348680139 ], [ 6374707.953671371564269, 9147372.156126862391829 ], [ 6374749.662042399868369, 9147437.951128795742989 ], [ 6374749.716757111251354, 9147439.104469548910856 ], [ 6374792.483475286513567, 9147531.771876346319914 ], [ 6374833.036536459811032, 9147634.398548921570182 ], [ 6374866.190212983638048, 9147708.08068155311048 ], [ 6374905.930275687947869, 9147788.221592750400305 ], [ 6374961.397271308116615, 9147875.942193049937487 ], [ 6374975.817844269797206, 9147899.399308767169714 ], [ 6374993.351009011268616, 9147927.896891074255109 ], [ 6375012.554388614371419, 9147959.234176076948643 ], [ 6375027.582068247720599, 9147975.269038770347834 ], [ 6375030.285854374989867, 9147972.100899044424295 ], [ 6375052.811461610719562, 9147945.620616989210248 ], [ 6375056.177475967444479, 9147941.663655329495668 ], [ 6375091.410644961521029, 9147900.328093722462654 ], [ 6375203.6097127860412, 9147712.218583106994629 ], [ 6375257.40921386051923, 9147564.224923741072416 ], [ 6375261.506095986813307, 9147494.416559830307961 ], [ 6375191.507986152544618, 9146977.322341350838542 ], [ 6375240.510717967525125, 9146859.322278944775462 ], [ 6375351.507383801043034, 9146776.41908485814929 ], [ 6375608.408081945963204, 9146660.419125307351351 ], [ 6375863.71082912851125, 9146443.313194317743182 ], [ 6376004.511387153528631, 9146422.215542796999216 ], [ 6376343.414087100885808, 9146479.31577717140317 ], [ 6376470.513602855615318, 9146426.314388994127512 ], [ 6376579.508907857351005, 9146471.119287498295307 ], [ 6376897.510646524839103, 9146475.221351018175483 ], [ 6377017.517213872633874, 9146377.319151226431131 ], [ 6377046.512762600556016, 9146320.212530411779881 ], [ 6377074.513087901286781, 9146010.21327674947679 ], [ 6377137.306727044284344, 9145741.318361358717084 ], [ 6377226.506477081216872, 9145638.008924467489123 ], [ 6377268.508185346610844, 9145491.208542132750154 ], [ 6377283.611905188299716, 9145348.212560009211302 ], [ 6377379.610870026051998, 9145171.114340459927917 ], [ 6377593.411127978935838, 9145059.306615980342031 ], [ 6377898.511031057685614, 9145108.112562580034137 ], [ 6378049.616962430998683, 9145115.310398796573281 ], [ 6378181.618076340295374, 9145242.307446314021945 ], [ 6378332.512219325639307, 9145582.209268750622869 ], [ 6378492.421588283032179, 9145723.108008498325944 ], [ 6378730.719830240122974, 9145884.206856878474355 ], [ 6378806.415642060339451, 9145959.212621228769422 ], [ 6378793.522947065532207, 9146067.308325814083219 ], [ 6378732.523193765431643, 9146172.217782089486718 ], [ 6378726.517271887511015, 9146271.317084334790707 ], [ 6378787.71773980371654, 9146582.314431332051754 ], [ 6378975.725037088617682, 9146722.415062924847007 ], [ 6379353.424874546937644, 9146875.30856959335506 ], [ 6379842.625270327553153, 9147130.31821976415813 ], [ 6379938.528483086265624, 9147170.41388838738203 ], [ 6380046.62090877071023, 9147189.516009723767638 ], [ 6380118.722169757820666, 9147249.51098608225584 ], [ 6380174.730454285629094, 9147363.317159604281187 ], [ 6380247.522473786026239, 9147681.31398556753993 ], [ 6380422.527242511510849, 9148005.414284685626626 ], [ 6380555.0254169665277, 9147976.01874871738255 ], [ 6380558.229140536859632, 9147975.304233560338616 ], [ 6380559.53490069322288, 9147975.017733061686158 ], [ 6380562.354425866156816, 9147974.38215733319521 ], [ 6380567.588177097029984, 9147973.224523050710559 ], [ 6384181.485004139132798, 9147170.434342235326767 ], [ 6384217.888573943637311, 9147162.344389783218503 ], [ 6385163.038542043417692, 9146952.300235090777278 ], [ 6385368.80848163831979, 9146906.596692429855466 ], [ 6385382.303502417169511, 9146903.603718647733331 ], [ 6387359.547318831086159, 9146464.300822034478188 ], [ 6390463.657598823308945, 9144960.689975941553712 ], [ 6391238.7654984947294, 9144576.884260781109333 ], [ 6391906.867662496864796, 9144229.691680978983641 ], [ 6390182.652524837292731, 9142140.683162180706859 ], [ 6390552.251336825080216, 9141635.680467922240496 ], [ 6386713.734876942820847, 9137040.172635009512305 ], [ 6385696.262569499202073, 9134463.997946258634329 ], [ 6385693.605576574802399, 9134457.245291600003839 ], [ 6385667.222985439002514, 9134390.472242321819067 ] ] ] } },
{ "type": "Feature", "properties": { "lv_id": "LOC_015468", "id": 67342.0, "CD_SETOR": "221150605000004", "SITUACAO": "Rural", "CD_SIT": "8", "CD_TIPO": "0", "AREA_KM2": 103.08406447519938, "CD_REGIAO": "2", "NM_REGIAO": "Nordeste", "CD_UF": "22", "NM_UF": "Piauí", "CD_MUN": "2211506", "NM_MUN": "Vera Mendes", "CD_DIST": "221150605", "NM_DIST": "Vera Mendes", "CD_SUBDIST": "22115060500", "NM_SUBDIST": null, "CD_BAIRRO": null, "NM_BAIRRO": null, "CD_NU": null, "NM_NU": null, "CD_FCU": null, "NM_FCU": null, "CD_AGLOM": null, "NM_AGLOM": null, "CD_RGINT": "2203", "NM_RGINT": "Picos", "CD_RGI": "220009", "NM_RGI": "Picos", "CD_CONCURB": null, "NM_CONCURB": null, "mun_code_x": "2211506", "index_right": 55863, "dist_m": 0.0, "local_id": 155967, "ano": 2022, "cod_localidade_ibge": 2211506, "NR_ZONA": "57", "nr_cep": 64565000.0, "nm_localidade": "VERA MENDES", "nm_locvot": "ESCOLA MUNICIPAL LUÍS JOSÉ DE SOUSA", "ds_endereco": "LOCALIDADE SÍTIO DO MEIO", "ds_bairro": "ZONA RURAL", "pred_long": -41.580091, "pred_lat": -7.5648, "pred_dist": 0.0, "tse_long": -41.5681929, "tse_lat": -7.5475934, "long": -41.5681929, "lat": -7.5475934, "ID_UNICO": "LOC_015468", "SG_UF": "PI", "CD_MUNICIPIO": "12556", "NR_LOCAL_VOTACAO": "1058", "QT_SECOES_AGREGADAS": 0, "QT_ELEITORES_TRANSFERIDOS": 0, "CIRO GOMES (PDT) (NÃO ELEITO) 1T": 12.0, "CONSTITUINTE EYMAEL (DC) (NÃO ELEITO) 1T": 0.0, "FELIPE D AVILA (NOVO) (NÃO ELEITO) 1T": 0.0, "JAIR BOLSONARO (PL) (2º TURNO) 1T": 39.0, "LULA (PT) (2º TURNO) 1T": 350.0, "LÉO PÉRICLES (UP) (NÃO ELEITO) 1T": 0.0, "PADRE KELMON (PTB) (NÃO ELEITO) 1T": 0.0, "SIMONE TEBET (MDB) (NÃO ELEITO) 1T": 5.0, "SOFIA MANZANO (PCB) (NÃO ELEITO) 1T": 0.0, "SORAYA THRONICKE (UNIÃO) (NÃO ELEITO) 1T": 3.0, "VERA (PSTU) (NÃO ELEITO) 1T": 0.0, "Total_Votos_Validos 1T": 409.0, "Votos_Brancos 1T": 7.0, "Votos_Nulos 1T": 21.0, "Abstenções 1T": 79.0, "Eleitores_Aptos 1T": 516.0, "JAIR BOLSONARO (PL) (NÃO ELEITO) 2T": 46.0, "LULA (PT) (ELEITO) 2T": 365.0, "Total_Votos_Validos 2T": 411.0, "Votos_Brancos 2T": 4.0, "Votos_Nulos 2T": 17.0, "Abstenções 2T": 84.0, "Eleitores_Aptos 2T": 516.0, "mun_code_y": "2211506", "mun_code": "2211506" }, "geometry": { "type": "Polygon", "coordinates": [ [ [ 6375027.582068247720599, 9147975.269038770347834 ], [ 6375012.554388614371419, 9147959.234176076948643 ], [ 6374993.351009011268616, 9147927.896891074255109 ], [ 6374975.817844269797206, 9147899.399308767169714 ], [ 6374961.397271308116615, 9147875.942193049937487 ], [ 6374905.930275687947869, 9147788.221592750400305 ], [ 6374866.190212983638048, 9147708.08068155311048 ], [ 6374833.036536459811032, 9147634.398548921570182 ], [ 6374792.483475286513567, 9147531.771876346319914 ], [ 6374749.716757111251354, 9147439.104469548910856 ], [ 6374749.662042399868369, 9147437.951128795742989 ], [ 6374707.953671371564269, 9147372.156126862391829 ], [ 6374675.000574049539864, 9147317.671923348680139 ], [ 6374650.094506446272135, 9147280.293132126331329 ], [ 6374630.953899200074375, 9147253.913982814177871 ], [ 6374607.572950196452439, 9147230.633595611900091 ], [ 6374580.716582269407809, 9147216.023468062281609 ], [ 6374548.472801744937897, 9147202.212359853088856 ], [ 6374494.528097398579121, 9147186.64234871789813 ], [ 6374426.38255946803838, 9147166.699197217822075 ], [ 6374361.122073136270046, 9147148.825044563040137 ], [ 6374308.825409468263388, 9147139.208915110677481 ], [ 6374257.325033716857433, 9147131.200485778972507 ], [ 6374229.332206273451447, 9147123.246426969766617 ], [ 6374197.220081467181444, 9147102.377790851518512 ], [ 6374160.966724568046629, 9147083.427506113424897 ], [ 6374144.74709658510983, 9147069.748364042490721 ], [ 6374141.218933205120265, 9147058.605885807424784 ], [ 6374144.649194184690714, 9147041.705742077901959 ], [ 6374150.134904179722071, 9147019.799125887453556 ], [ 6374156.884102165699005, 9147006.257645985111594 ], [ 6374173.523964949883521, 9146996.940418273210526 ], [ 6374196.665067492052913, 9146985.21860621497035 ], [ 6374216.068306742236018, 9146975.233776777982712 ], [ 6374222.821037004701793, 9146963.379178557544947 ], [ 6374224.761355846188962, 9146958.206138169392943 ], [ 6374229.364626500755548, 9146865.333369737491012 ], [ 6374218.884277855046093, 9146749.781855722889304 ], [ 6374209.620970179326832, 9146626.145483979955316 ], [ 6374201.009457951411605, 9146536.853934461250901 ], [ 6374202.912527049891651, 9146498.394187867641449 ], [ 6374209.517858016304672, 9146463.797055372968316 ], [ 6374240.662849287502468, 9146367.857003018260002 ], [ 6374258.240637922659516, 9146303.180091071873903 ], [ 6374297.737012717872858, 9146170.792235188186169 ], [ 6374330.061400264501572, 9146028.067566430196166 ], [ 6374355.322822317481041, 9145954.441210608929396 ], [ 6374376.020200518891215, 9145899.762935105711222 ], [ 6374385.559711953625083, 9145861.20934896916151 ], [ 6374388.768613060936332, 9145831.464232275262475 ], [ 6374393.142376207746565, 9145810.098416285589337 ], [ 6374409.799469407647848, 9145790.510396406054497 ], [ 6374436.716953182592988, 9145755.083554347977042 ], [ 6374453.492566044442356, 9145725.267884256318212 ], [ 6374476.375259993597865, 9145679.154515182599425 ], [ 6374485.865976663306355, 9145652.5246661324054 ], [ 6374494.226192377507687, 9145630.025833392515779 ], [ 6374496.635983456857502, 9145607.153501117601991 ], [ 6374490.291372278705239, 9145567.173899363726377 ], [ 6374470.185149488970637, 9145459.652614299207926 ], [ 6374456.854195879772305, 9145385.497660260647535 ], [ 6374439.364618385210633, 9145290.843385485932231 ], [ 6374425.519396874122322, 9145212.581879878416657 ], [ 6374413.459273633547127, 9145128.755372777581215 ], [ 6374407.522063616663218, 9145092.647909015417099 ], [ 6374404.114834633655846, 9145054.656543493270874 ], [ 6374405.279760794714093, 9145032.284026877954602 ], [ 6374411.739634177647531, 9145003.917749814689159 ], [ 6374447.296190365217626, 9144929.429709689691663 ], [ 6374456.760643537156284, 9144905.404546342790127 ], [ 6374478.231916181743145, 9144858.243882993236184 ], [ 6374491.646965693682432, 9144836.879710711538792 ], [ 6374505.979111972264946, 9144814.764650035649538 ], [ 6374515.255847455002367, 9144787.631066543981433 ], [ 6374520.740154172293842, 9144757.967772886157036 ], [ 6374526.068285739049315, 9144722.024938266724348 ], [ 6374530.622985289432108, 9144668.169344549998641 ], [ 6374533.036679822951555, 9144618.23594693094492 ], [ 6374541.59443627577275, 9144543.613531481474638 ], [ 6374545.407272949814796, 9144512.639265498146415 ], [ 6374549.960814272984862, 9144488.31276779063046 ], [ 6374553.863049854524434, 9144464.378537528216839 ], [ 6374554.070229131728411, 9144436.677707530558109 ], [ 6374551.990449097007513, 9144424.47491124086082 ], [ 6374546.301661625504494, 9144404.925147954374552 ], [ 6374538.499093660153449, 9144391.02919390052557 ], [ 6374526.412729006260633, 9144377.516226084902883 ], [ 6374507.801245426759124, 9144355.437653731554747 ], [ 6374483.513927671127021, 9144327.486601231619716 ], [ 6374468.29201805125922, 9144310.859117241576314 ], [ 6374416.696675900369883, 9144266.773671830072999 ], [ 6374373.512723344378173, 9144230.418667457997799 ], [ 6374330.867401635274291, 9144192.814173676073551 ], [ 6374304.441352866590023, 9144160.304976660758257 ], [ 6374276.756491138599813, 9144118.456873586401343 ], [ 6374254.782055962830782, 9144075.924594670534134 ], [ 6374228.126499708741903, 9144032.224247070029378 ], [ 6374193.538412529975176, 9143977.439894815906882 ], [ 6374137.13259282335639, 9143904.303731618449092 ], [ 6374112.25216880813241, 9143876.460765391588211 ], [ 6374096.593621489591897, 9143854.954840999096632 ], [ 6374089.804704036563635, 9143842.932311994954944 ], [ 6374085.010815744288266, 9143827.297468623146415 ], [ 6374078.438618239015341, 9143799.972243420779705 ], [ 6374073.710592777468264, 9143787.822811068966985 ], [ 6374062.847496725618839, 9143770.346316797658801 ], [ 6374037.14303260948509, 9143741.089141726493835 ], [ 6374010.100075918249786, 9143717.180488646030426 ], [ 6373976.539430330507457, 9143672.919733852148056 ], [ 6373948.405338371172547, 9143626.533641654998064 ], [ 6373931.237133004702628, 9143594.247005239129066 ], [ 6373911.620809325948358, 9143555.452225351706147 ], [ 6373898.827356026507914, 9143526.765452913939953 ], [ 6373891.31341265141964, 9143510.597201954573393 ], [ 6373877.694130096584558, 9143495.588778182864189 ], [ 6373862.714039400219917, 9143478.536022149026394 ], [ 6373840.382546390406787, 9143442.876122118905187 ], [ 6373830.305390009656549, 9143424.697999350726604 ], [ 6373803.884794473648071, 9143355.471516709774733 ], [ 6373800.092832214199007, 9143342.853867514058948 ], [ 6373799.877455858513713, 9143342.656233387067914 ], [ 6373793.418455973267555, 9143331.756675267592072 ], [ 6373783.057263171300292, 9143322.621895719319582 ], [ 6373713.759481521323323, 9143285.340475879609585 ], [ 6373628.762130878865719, 9143241.817218886688352 ], [ 6373551.6493333959952, 9143202.246207613497972 ], [ 6373510.869127354584634, 9143181.709211204200983 ], [ 6373467.89252454880625, 9143156.140164328739047 ], [ 6373417.955409763380885, 9143117.172582641243935 ], [ 6373398.966138611547649, 9143104.333535196259618 ], [ 6373371.039015602320433, 9143087.380069950595498 ], [ 6373358.074473552405834, 9143079.871084425598383 ], [ 6373344.340140564367175, 9143065.862620562314987 ], [ 6373333.715368583798409, 9143051.334894567728043 ], [ 6373327.362315346486866, 9143039.889016978442669 ], [ 6373323.54309343546629, 9143022.426502294838428 ], [ 6373321.642428511753678, 9143006.822488490492105 ], [ 6373322.593502804636955, 9142989.008269879966974 ], [ 6373325.887522049248219, 9142964.288424154743552 ], [ 6373323.690499994903803, 9142942.918636877089739 ], [ 6373322.126468120142817, 9142918.960613569244742 ], [ 6373324.067316241562366, 9142897.517624020576477 ], [ 6373327.941835196688771, 9142873.41517616994679 ], [ 6373332.209070636890829, 9142844.874538764357567 ], [ 6373331.653325241990387, 9142823.378492711111903 ], [ 6373330.216469370760024, 9142796.518369415774941 ], [ 6373319.49254, 9142762.191258139908314 ], [ 6373313.548289056867361, 9142745.321779051795602 ], [ 6373308.72588758636266, 9142733.741550117731094 ], [ 6373301.283379023894668, 9142718.149101028218865 ], [ 6373292.952507187612355, 9142702.763256745412946 ], [ 6373291.427398073486984, 9142683.287687903270125 ], [ 6373295.13363687787205, 9142660.650601712986827 ], [ 6373305.524101793766022, 9142639.746791584417224 ], [ 6373317.491835330612957, 9142625.783506851643324 ], [ 6373351.160623529925942, 9142613.644114963710308 ], [ 6373379.032544080168009, 9142603.414346681907773 ], [ 6373404.001096222549677, 9142590.471159225329757 ], [ 6373425.547826994210482, 9142568.228608069941401 ], [ 6373443.138558890670538, 9142547.797678608447313 ], [ 6373476.535951779223979, 9142510.587288964539766 ], [ 6373483.701492757536471, 9142494.304523874074221 ], [ 6373480.768410925753415, 9142487.051815556362271 ], [ 6373473.348616988398135, 9142478.86338878236711 ], [ 6373436.157207853160799, 9142425.741334890946746 ], [ 6373349.494733802042902, 9142307.734787873923779 ], [ 6373337.180882723070681, 9142296.708961328491569 ], [ 6373327.402465965598822, 9142276.235789304599166 ], [ 6373303.368985937908292, 9142208.312705233693123 ], [ 6373292.096770242787898, 9142182.674232710152864 ], [ 6373268.417020070366561, 9142159.406715584918857 ], [ 6373247.63006560690701, 9142139.645408155396581 ], [ 6373210.297013999894261, 9142073.009533032774925 ], [ 6373200.915609408169985, 9142054.076233793050051 ], [ 6373177.003493059426546, 9142017.206416036933661 ], [ 6373156.641124817542732, 9141982.487977838143706 ], [ 6373138.388486508280039, 9141956.347807142883539 ], [ 6373118.03322019148618, 9141938.566972963511944 ], [ 6373097.6219701198861, 9141925.803410110995173 ], [ 6373077.431153606623411, 9141906.817758671939373 ], [ 6373056.388229845091701, 9141873.013415940105915 ], [ 6373029.075384365394711, 9141829.142453217878938 ], [ 6373010.975150955840945, 9141794.778314424678683 ], [ 6372996.546813221648335, 9141770.351532017812133 ], [ 6372984.04277852550149, 9141738.283881507813931 ], [ 6372947.858043446205556, 9141641.012710135430098 ], [ 6372928.213601684197783, 9141588.464680509641767 ], [ 6372890.759397801011801, 9141520.689900953322649 ], [ 6372839.263383120298386, 9141431.602484744042158 ], [ 6372802.125953622162342, 9141365.653093528002501 ], [ 6372772.625466308556497, 9141316.297824217006564 ], [ 6372731.232448109425604, 9141256.369421502575278 ], [ 6372709.632376276887953, 9141222.004331951960921 ], [ 6372678.128841171041131, 9141175.582503022626042 ], [ 6372637.782646996900439, 9141131.101340115070343 ], [ 6372571.135108383372426, 9141073.641303597018123 ], [ 6372534.523894642479718, 9141045.186794094741344 ], [ 6372491.332067455165088, 9141015.143564349040389 ], [ 6372444.123365773819387, 9140990.582126565277576 ], [ 6372411.457551065832376, 9140974.298692593351007 ], [ 6372358.973993582651019, 9140945.541065132245421 ], [ 6372306.127325206063688, 9140923.41710932739079 ], [ 6372262.165450017899275, 9140907.038840303197503 ], [ 6372221.787979498505592, 9140882.394833287224174 ], [ 6372176.766849871724844, 9140838.886285470798612 ], [ 6372160.5806371755898, 9140811.657758584246039 ], [ 6372151.420265049673617, 9140783.820140702649951 ], [ 6372143.949568623676896, 9140741.657450135797262 ], [ 6372129.298775909468532, 9140661.727910850197077 ], [ 6372120.954639360308647, 9140633.482003966346383 ], [ 6372108.40826434455812, 9140595.676660463213921 ], [ 6372089.955530688166618, 9140562.127919565886259 ], [ 6372060.211644170805812, 9140523.615972256287932 ], [ 6372016.746563648805022, 9140482.418297227472067 ], [ 6371972.476175611838698, 9140436.975567160174251 ], [ 6371947.172051847912371, 9140396.592906149104238 ], [ 6371930.540028663352132, 9140354.489648731425405 ], [ 6371908.930163059383631, 9140264.740881945937872 ], [ 6371889.190260513685644, 9140150.733029697090387 ], [ 6371879.629498256370425, 9140087.923631185665727 ], [ 6371873.243857741355896, 9140036.208836868405342 ], [ 6371856.022106651216745, 9139942.417180461809039 ], [ 6371853.562614683061838, 9139904.91151025146246 ], [ 6371843.976138537749648, 9139862.912009773775935 ], [ 6371830.747389612719417, 9139831.398974696174264 ], [ 6371800.890867621637881, 9139779.260003339499235 ], [ 6371760.415195558220148, 9139718.232937887310982 ], [ 6371736.456415778957307, 9139675.491495046764612 ], [ 6371720.635950646363199, 9139643.294501677155495 ], [ 6371705.406112607568502, 9139602.770585162565112 ], [ 6371642.891231887042522, 9139499.740030720829964 ], [ 6371570.126219317317009, 9139364.364422710612416 ], [ 6371537.576853131875396, 9139302.578414482995868 ], [ 6371526.4401311930269, 9139275.919273231178522 ], [ 6371514.944735036231577, 9139254.104708928614855 ], [ 6371490.922920729964972, 9139221.939889857545495 ], [ 6371469.696658432483673, 9139196.838630503043532 ], [ 6371447.815607018768787, 9139176.262132683768868 ], [ 6371437.482129239477217, 9139164.614865845069289 ], [ 6371426.240489466115832, 9139136.600284323096275 ], [ 6371409.78668321762234, 9139078.711072655394673 ], [ 6371386.694219007156789, 9138988.542859680950642 ], [ 6371381.568934337235987, 9138962.492390688508749 ], [ 6371381.668236741796136, 9138950.488853359594941 ], [ 6371382.538529492914677, 9138935.32713571190834 ], [ 6371386.496514565311372, 9138920.438984520733356 ], [ 6371395.615619054995477, 9138901.111720321699977 ], [ 6371418.37963692471385, 9138864.387598061934114 ], [ 6371458.410259917378426, 9138787.078027661889791 ], [ 6371474.144622224383056, 9138748.891488658264279 ], [ 6371482.394269281066954, 9138726.566258678212762 ], [ 6371485.364870565012097, 9138705.706031465902925 ], [ 6371483.875794891268015, 9138684.849445674568415 ], [ 6371494.539436653256416, 9138636.087147893384099 ], [ 6371493.171718569472432, 9138571.503634862601757 ], [ 6371480.629901906475425, 9138476.265886316075921 ], [ 6371474.998861018568277, 9138435.987578330561519 ], [ 6371473.700385137461126, 9138405.955155780538917 ], [ 6371478.073421893641353, 9138369.646082252264023 ], [ 6371483.75234891846776, 9138331.906907636672258 ], [ 6371487.182415001094341, 9138278.031387252733111 ], [ 6371483.30185311473906, 9138236.049826549366117 ], [ 6371460.20833658054471, 9138155.595802444964647 ], [ 6371445.186414239928126, 9138093.012707399204373 ], [ 6371443.048079458065331, 9138035.889628136530519 ], [ 6371444.181483989581466, 9138011.787648778408766 ], [ 6371451.035771241411567, 9137980.04895225353539 ], [ 6371485.096293496899307, 9137891.701495265588164 ], [ 6371512.715548116713762, 9137831.005017627030611 ], [ 6371534.423148358240724, 9137734.159212253987789 ], [ 6371546.246607890352607, 9137674.664237175136805 ], [ 6371549.565958901308477, 9137640.921261066570878 ], [ 6371540.400146621279418, 9137549.198001345619559 ], [ 6371534.739205900579691, 9137466.566941196098924 ], [ 6371529.923726898618042, 9137443.677661813795567 ], [ 6371514.972032325342298, 9137405.62635482288897 ], [ 6371476.388037451542914, 9137304.26648211106658 ], [ 6371459.369629138149321, 9137255.700551852583885 ], [ 6371437.028184234164655, 9137203.189562262967229 ], [ 6371421.694563023746014, 9137161.43601993471384 ], [ 6371407.042468843050301, 9137094.087760001420975 ], [ 6371399.218696624971926, 9137060.960090950131416 ], [ 6371390.209899176843464, 9137037.353922627866268 ], [ 6371378.474465291947126, 9137017.607642164453864 ], [ 6371368.35716428142041, 9137007.358738424256444 ], [ 6371352.186661576852202, 9136999.672972420230508 ], [ 6371331.341656632721424, 9136994.51063746213913 ], [ 6371313.722578145563602, 9136988.281765930354595 ], [ 6371298.345112899318337, 9136978.603247437626123 ], [ 6371287.069129973649979, 9136964.504496157169342 ], [ 6371284.367056270129979, 9136953.000520376488566 ], [ 6371282.839830430224538, 9136932.779204737395048 ], [ 6371279.321067844517529, 9136909.694323914125562 ], [ 6371271.382870497182012, 9136881.449633469805121 ], [ 6371261.272899195551872, 9136859.098016992211342 ], [ 6371256.208571247756481, 9136847.209235271438956 ], [ 6371256.212648657150567, 9136814.524277990683913 ], [ 6371270.14335760846734, 9136689.791529528796673 ], [ 6371282.160760692320764, 9136573.446311084553599 ], [ 6371282.802896246314049, 9136544.94316928088665 ], [ 6371288.723006564192474, 9136519.197558008134365 ], [ 6371298.314781229943037, 9136506.818618223071098 ], [ 6371313.844718523323536, 9136489.015436805784702 ], [ 6371337.58375654835254, 9136463.367697175592184 ], [ 6371351.579093029722571, 9136431.275749048218131 ], [ 6371377.20367993786931, 9136385.489343136548996 ], [ 6371410.985793090425432, 9136333.92023004591465 ], [ 6371459.457060102373362, 9136262.567872021347284 ], [ 6371515.634227216243744, 9136158.46643428131938 ], [ 6371542.451550480909646, 9136097.293092090636492 ], [ 6371560.852177310734987, 9136059.469513712450862 ], [ 6371567.567293657921255, 9136035.296926219016314 ], [ 6371571.626023040153086, 9135982.715980120003223 ], [ 6371579.214276639744639, 9135925.798983665183187 ], [ 6371575.053642170503736, 9135891.501540223136544 ], [ 6371573.036098008975387, 9135817.924546096473932 ], [ 6371582.741495951078832, 9135750.915553508326411 ], [ 6371594.153930393047631, 9135704.598315006121993 ], [ 6371616.170405993238091, 9135675.115951320156455 ], [ 6371634.141787583008409, 9135643.531203465536237 ], [ 6371633.117466079071164, 9135627.41622568666935 ], [ 6371628.994493997655809, 9135562.447593366727233 ], [ 6371623.966066927649081, 9135365.643030820414424 ], [ 6371622.241285126656294, 9135166.297669710591435 ], [ 6371623.049395736306906, 9135026.509776409715414 ], [ 6371644.147334315814078, 9134963.462282706052065 ], [ 6371659.80035563185811, 9134897.23203800432384 ], [ 6371662.479609407484531, 9134873.243519268929958 ], [ 6371643.023468061350286, 9134761.687852410599589 ], [ 6371620.808249336667359, 9134664.409228572621942 ], [ 6371601.158135069534183, 9134585.386231338605285 ], [ 6371585.154304970987141, 9134499.951895821839571 ], [ 6371567.428483313880861, 9134411.827569982036948 ], [ 6371537.837622815743089, 9134314.88700569793582 ], [ 6371514.84380298294127, 9134194.728008586913347 ], [ 6371508.733445371501148, 9134166.408291216939688 ], [ 6371496.652803119271994, 9134110.421486470848322 ], [ 6371489.487483053468168, 9134076.10923745110631 ], [ 6371474.125742699950933, 9134044.2755316644907 ], [ 6371422.872347099706531, 9134065.693824984133244 ], [ 6362923.040033327415586, 9137618.214899292215705 ], [ 6362969.849209671840072, 9137815.917965637519956 ], [ 6364895.965051703155041, 9145963.132379401475191 ], [ 6365215.470812029205263, 9146065.639042539522052 ], [ 6374249.404551452957094, 9148964.323196712881327 ], [ 6374354.609669004566967, 9148749.420273937284946 ], [ 6374583.202576221898198, 9148347.92957504466176 ], [ 6374726.50716137047857, 9148184.325225848704576 ], [ 6374952.50348823517561, 9148063.528516644611955 ], [ 6375027.582068247720599, 9147975.269038770347834 ] ] ] } }
]
}
