{
"type": "FeatureCollection",
"name": "2302057",
"crs": { "type": "name", "properties": { "name": "urn:ogc:def:crs:EPSG::5880" } },
"features": [
{ "type": "Feature", "properties": { "lv_id": "LOC_016634", "id": 69282.0, "CD_SETOR": "230205710000005", "SITUACAO": "Urbana", "CD_SIT": "2", "CD_TIPO": "0", "AREA_KM2": 0.22561951660957599, "CD_REGIAO": "2", "NM_REGIAO": "Nordeste", "CD_UF": "23", "NM_UF": "Ceará", "CD_MUN": "2302057", "NM_MUN": "Barroquinha", "CD_DIST": "230205710", "NM_DIST": "Araras", "CD_SUBDIST": "23020571000", "NM_SUBDIST": null, "CD_BAIRRO": null, "NM_BAIRRO": null, "CD_NU": null, "NM_NU": null, "CD_FCU": null, "NM_FCU": null, "CD_AGLOM": null, "NM_AGLOM": null, "CD_RGINT": "2306", "NM_RGINT": "Sobral", "CD_RGI": "230018", "NM_RGI": "Camocim", "CD_CONCURB": null, "NM_CONCURB": null, "mun_code_x": "2302057", "index_right": 13737, "dist_m": 82.42478269015534, "local_id": 166927, "ano": 2022, "cod_localidade_ibge": 2302057, "NR_ZONA": "108", "nr_cep": 62410000.0, "nm_localidade": "BARROQUINHA", "nm_locvot": "EEF NOSSA SENHORA DE FÁTIMA", "ds_endereco": "RUA DO QUADRO S/N", "ds_bairro": "DISTRITO ARARAS", "pred_long": -41.162328, "pred_lat": -2.935784, "pred_dist": 0.0, "tse_long": -41.16252, "tse_lat": -2.935863, "long": -41.16252, "lat": -2.935863, "ID_UNICO": "LOC_016634", "SG_UF": "CE", "CD_MUNICIPIO": "13404", "NR_LOCAL_VOTACAO": "1023", "QT_SECOES_AGREGADAS": 0, "QT_ELEITORES_TRANSFERIDOS": 0, "CIRO GOMES (PDT) (NÃO ELEITO) 1T": 88.0, "CONSTITUINTE EYMAEL (DC) (NÃO ELEITO) 1T": 0.0, "FELIPE D AVILA (NOVO) (NÃO ELEITO) 1T": 1.0, "JAIR BOLSONARO (PL) (2º TURNO) 1T": 103.0, "LULA (PT) (2º TURNO) 1T": 725.0, "LÉO PÉRICLES (UP) (NÃO ELEITO) 1T": 1.0, "PADRE KELMON (PTB) (NÃO ELEITO) 1T": 0.0, "SIMONE TEBET (MDB) (NÃO ELEITO) 1T": 8.0, "SOFIA MANZANO (PCB) (NÃO ELEITO) 1T": 1.0, "SORAYA THRONICKE (UNIÃO) (NÃO ELEITO) 1T": 1.0, "VERA (PSTU) (NÃO ELEITO) 1T": 0.0, "Total_Votos_Validos 1T": 928.0, "Votos_Brancos 1T": 9.0, "Votos_Nulos 1T": 26.0, "Abstenções 1T": 350.0, "Eleitores_Aptos 1T": 1313.0, "JAIR BOLSONARO (PL) (NÃO ELEITO) 2T": 119.0, "LULA (PT) (ELEITO) 2T": 790.0, "Total_Votos_Validos 2T": 909.0, "Votos_Brancos 2T": 6.0, "Votos_Nulos 2T": 27.0, "Abstenções 2T": 371.0, "Eleitores_Aptos 2T": 1313.0, "mun_code_y": "2302057", "mun_code": "2302057" }, "geometry": { "type": "Polygon", "coordinates": [ [ [ 6427194.021817747503519, 9667229.222045989707112 ], [ 6427271.201511225663126, 9667239.741626784205437 ], [ 6427375.818245129659772, 9667251.987076481804252 ], [ 6427451.090574257075787, 9667266.848066544160247 ], [ 6427497.009155998006463, 9667273.735708789899945 ], [ 6427516.787293857894838, 9667275.594805566594005 ], [ 6427530.766420792788267, 9667275.910553500056267 ], [ 6427562.244973005726933, 9667274.222849572077394 ], [ 6427583.973366744816303, 9667267.692623354494572 ], [ 6427589.94720311742276, 9667260.175449473783374 ], [ 6427607.023813010193408, 9667145.835303716361523 ], [ 6427624.164299435913563, 9667043.001670313999057 ], [ 6427636.400794684886932, 9667043.575393460690975 ], [ 6427697.205881921574473, 9667041.618619559332728 ], [ 6427700.780549842864275, 9667041.146744877099991 ], [ 6427711.057725879363716, 9667036.61847622692585 ], [ 6427826.410687481984496, 9667026.076251320540905 ], [ 6427890.047564748674631, 9667009.189426092430949 ], [ 6428008.091160954907537, 9666991.824813455343246 ], [ 6428063.748631562106311, 9666978.169895261526108 ], [ 6428075.260282646864653, 9666968.797557706013322 ], [ 6428102.188021201640368, 9666943.398217439651489 ], [ 6428112.277980096638203, 9666940.005724750459194 ], [ 6428180.897318280301988, 9666925.215282864868641 ], [ 6428261.504668402485549, 9666913.586184985935688 ], [ 6428305.584270747378469, 9666903.499268574640155 ], [ 6428323.29483500868082, 9666897.592879710718989 ], [ 6428052.961738409474492, 9666691.251022631302476 ], [ 6427286.629032037220895, 9666494.801309775561094 ], [ 6427206.580863917246461, 9666519.359895156696439 ], [ 6427175.933971455320716, 9666529.609646808356047 ], [ 6426701.443083342164755, 9666688.283925639465451 ], [ 6426750.805266286246479, 9666725.162845568731427 ], [ 6426838.50547088123858, 9666810.101238314062357 ], [ 6426891.215488709509373, 9666859.786908537149429 ], [ 6426905.90457748901099, 9666873.630796149373055 ], [ 6426924.965948339551687, 9666971.681492075324059 ], [ 6426936.102211596444249, 9667022.094249190762639 ], [ 6426954.494254731573164, 9667164.922893518581986 ], [ 6426967.150151363573968, 9667223.84381128102541 ], [ 6426983.693017614074051, 9667402.609784541651607 ], [ 6427045.385223168879747, 9667359.376874409615993 ], [ 6427065.407393123023212, 9667338.706429919227958 ], [ 6427079.188880491070449, 9667216.118848457932472 ], [ 6427194.021817747503519, 9667229.222045989707112 ] ] ] } },
{ "type": "Feature", "properties": { "lv_id": "LOC_016635", "id": 69283.0, "CD_SETOR": "230205710000008", "SITUACAO": "Rural", "CD_SIT": "8", "CD_TIPO": "0", "AREA_KM2": 24.729456059354217, "CD_REGIAO": "2", "NM_REGIAO": "Nordeste", "CD_UF": "23", "NM_UF": "Ceará", "CD_MUN": "2302057", "NM_MUN": "Barroquinha", "CD_DIST": "230205710", "NM_DIST": "Araras", "CD_SUBDIST": "23020571000", "NM_SUBDIST": null, "CD_BAIRRO": null, "NM_BAIRRO": null, "CD_NU": null, "NM_NU": null, "CD_FCU": null, "NM_FCU": null, "CD_AGLOM": null, "NM_AGLOM": null, "CD_RGINT": "2306", "NM_RGINT": "Sobral", "CD_RGI": "230018", "NM_RGI": "Camocim", "CD_CONCURB": null, "NM_CONCURB": null, "mun_code_x": "2302057", "index_right": 13736, "dist_m": 344.79398235259202, "local_id": 166926, "ano": 2022, "cod_localidade_ibge": 2302057, "NR_ZONA": "108", "nr_cep": 62410000.0, "nm_localidade": "BARROQUINHA", "nm_locvot": "EEF MANOEL COSTA VIANA", "ds_endereco": "SÃO CAETANO", "ds_bairro": "DISTRITO ARARAS", "pred_long": -41.1552881, "pred_lat": -2.9376066, "pred_dist": 0.0, "tse_long": -41.1552256, "tse_lat": -2.9376066, "long": -41.1552256, "lat": -2.9376066, "ID_UNICO": "LOC_016635", "SG_UF": "CE", "CD_MUNICIPIO": "13404", "NR_LOCAL_VOTACAO": "1031", "QT_SECOES_AGREGADAS": 0, "QT_ELEITORES_TRANSFERIDOS": 0, "CIRO GOMES (PDT) (NÃO ELEITO) 1T": 47.0, "CONSTITUINTE EYMAEL (DC) (NÃO ELEITO) 1T": 0.0, "FELIPE D AVILA (NOVO) (NÃO ELEITO) 1T": 0.0, "JAIR BOLSONARO (PL) (2º TURNO) 1T": 35.0, "LULA (PT) (2º TURNO) 1T": 402.0, "LÉO PÉRICLES (UP) (NÃO ELEITO) 1T": 0.0, "PADRE KELMON (PTB) (NÃO ELEITO) 1T": 0.0, "SIMONE TEBET (MDB) (NÃO ELEITO) 1T": 12.0, "SOFIA MANZANO (PCB) (NÃO ELEITO) 1T": 0.0, "SORAYA THRONICKE (UNIÃO) (NÃO ELEITO) 1T": 1.0, "VERA (PSTU) (NÃO ELEITO) 1T": 0.0, "Total_Votos_Validos 1T": 497.0, "Votos_Brancos 1T": 5.0, "Votos_Nulos 1T": 12.0, "Abstenções 1T": 152.0, "Eleitores_Aptos 1T": 666.0, "JAIR BOLSONARO (PL) (NÃO ELEITO) 2T": 56.0, "LULA (PT) (ELEITO) 2T": 427.0, "Total_Votos_Validos 2T": 483.0, "Votos_Brancos 2T": 4.0, "Votos_Nulos 2T": 8.0, "Abstenções 2T": 171.0, "Eleitores_Aptos 2T": 666.0, "mun_code_y": "2302057", "mun_code": "2302057" }, "geometry": { "type": "Polygon", "coordinates": [ [ [ 6428052.961738409474492, 9666691.251022631302476 ], [ 6427286.629032037220895, 9666494.801309775561094 ], [ 6427265.169986512511969, 9666643.871430065482855 ], [ 6427239.421769612468779, 9666814.689961172640324 ], [ 6427219.732943316921592, 9666971.936013881117105 ], [ 6427203.189831405878067, 9667104.782161789014935 ], [ 6427093.605651252903044, 9667087.855287399142981 ], [ 6427079.188880491070449, 9667216.118848457932472 ], [ 6427065.407393123023212, 9667338.706429919227958 ], [ 6427045.385223168879747, 9667359.376874409615993 ], [ 6426983.693017614074051, 9667402.609784541651607 ], [ 6426895.19022055901587, 9667474.775896018370986 ], [ 6426837.613274508155882, 9667521.10145172663033 ], [ 6426820.786097146570683, 9667572.469595357775688 ], [ 6426785.501674100756645, 9667748.030566224828362 ], [ 6426755.122111966833472, 9667821.03725671581924 ], [ 6426730.790785051882267, 9667869.57737292535603 ], [ 6426664.951601141132414, 9667950.131932968273759 ], [ 6426480.002227086573839, 9667884.703559121116996 ], [ 6426393.551806980744004, 9667859.663696056231856 ], [ 6426359.704573759809136, 9667837.819608507677913 ], [ 6426325.802829816006124, 9667807.258175116032362 ], [ 6426286.170810991898179, 9667781.206435613334179 ], [ 6426214.529907651245594, 9667773.796108392998576 ], [ 6426121.179785038344562, 9667766.793021574616432 ], [ 6426059.11911048553884, 9667763.955078182742 ], [ 6426003.192097021266818, 9667747.091439174488187 ], [ 6425346.735997944138944, 9668083.89397825486958 ], [ 6424826.742909357883036, 9668008.93028155900538 ], [ 6423975.108936233446002, 9667897.027074012905359 ], [ 6423765.407783126458526, 9668035.339577630162239 ], [ 6423341.775496331974864, 9668193.911078259348869 ], [ 6424903.561231080442667, 9668407.564668456092477 ], [ 6424855.365718698129058, 9668696.565442282706499 ], [ 6424867.513384498655796, 9668961.615554962307215 ], [ 6424869.967566412873566, 9668996.763938365504146 ], [ 6424900.667489759624004, 9669081.572006396949291 ], [ 6424939.062738751992583, 9669138.972187327221036 ], [ 6425014.768831070512533, 9669178.466969683766365 ], [ 6425189.662178003229201, 9669209.168756356462836 ], [ 6425349.562884138897061, 9669317.163183400407434 ], [ 6425392.167265230789781, 9669367.272518144920468 ], [ 6425451.672208374366164, 9669396.77258619479835 ], [ 6425707.06686032935977, 9669420.969993606209755 ], [ 6426045.365295184776187, 9669419.067028993740678 ], [ 6425972.272160801105201, 9672652.27570472098887 ], [ 6425970.471655789762735, 9672731.867941483855247 ], [ 6426420.661204677075148, 9672599.433207593858242 ], [ 6426634.943844626657665, 9672554.184365980327129 ], [ 6426889.795653931796551, 9672549.437118900939822 ], [ 6427207.266359274275601, 9672434.408910302445292 ], [ 6427441.72991956397891, 9672401.195282055065036 ], [ 6427670.396878451108932, 9672435.117783974856138 ], [ 6428140.610497416928411, 9672263.324406169354916 ], [ 6428819.871768051758409, 9672155.789868645370007 ], [ 6429112.102094859816134, 9672151.915551720187068 ], [ 6429259.428503155708313, 9672191.019101111218333 ], [ 6429452.152805937454104, 9672167.794191664084792 ], [ 6429948.347762519493699, 9672107.990464864298701 ], [ 6430349.057369529269636, 9672131.422799423336983 ], [ 6430599.584979024715722, 9672102.097653187811375 ], [ 6430949.731296897865832, 9672035.869053525850177 ], [ 6431393.695792878046632, 9672101.146851353347301 ], [ 6431567.283646376803517, 9672117.388782169669867 ], [ 6431689.289775871671736, 9672204.58475942723453 ], [ 6431761.34743432328105, 9672260.791280077770352 ], [ 6431881.46525059081614, 9672336.296521291136742 ], [ 6431928.990543662570417, 9672380.2180469725281 ], [ 6432065.460908715613186, 9672473.284384870901704 ], [ 6432140.99723025970161, 9672534.328497521579266 ], [ 6432216.533495083451271, 9672595.372887641191483 ], [ 6432108.813458081334829, 9672260.718818852677941 ], [ 6431978.894540603272617, 9671994.965381169691682 ], [ 6430760.885622942820191, 9669628.865647589787841 ], [ 6430610.094995373860002, 9669410.666143359616399 ], [ 6430179.685865817591548, 9668627.762459397315979 ], [ 6429949.588941405527294, 9668373.85778789781034 ], [ 6429851.682657298631966, 9668184.157540278509259 ], [ 6429772.183845303021371, 9667955.062692537903786 ], [ 6429596.287885413505137, 9667643.853651698678732 ], [ 6429517.046642178669572, 9667357.649281622841954 ], [ 6429515.072873851284385, 9667314.201797602698207 ], [ 6429465.925734179094434, 9667259.141985038295388 ], [ 6429401.082754651084542, 9667209.228779198601842 ], [ 6429333.453073360025883, 9667157.715122204273939 ], [ 6429232.702291644178331, 9667116.922605073079467 ], [ 6429158.0640465375036, 9667104.061586309224367 ], [ 6429091.542986304499209, 9667073.726287003606558 ], [ 6429025.245957733131945, 9667033.785335648804903 ], [ 6428921.562996165826917, 9666967.902514301240444 ], [ 6428895.110324002802372, 9666939.397211685776711 ], [ 6428877.278490792028606, 9666910.293964942917228 ], [ 6428838.782567420974374, 9666893.287720669060946 ], [ 6428782.674769191071391, 9666907.413508528843522 ], [ 6428727.221782459877431, 9666885.364225214347243 ], [ 6428667.03698106482625, 9666869.559819001704454 ], [ 6428530.422592655755579, 9666852.468750197440386 ], [ 6428473.255345133133233, 9666837.060569217428565 ], [ 6428426.097386432811618, 9666841.412230366840959 ], [ 6428323.29483500868082, 9666897.592879710718989 ], [ 6428052.961738409474492, 9666691.251022631302476 ] ] ] } },
{ "type": "Feature", "properties": { "lv_id": "LOC_016636", "id": 69262.0, "CD_SETOR": "230205705000003", "SITUACAO": "Urbana", "CD_SIT": "1", "CD_TIPO": "0", "AREA_KM2": 0.16913292613034001, "CD_REGIAO": "2", "NM_REGIAO": "Nordeste", "CD_UF": "23", "NM_UF": "Ceará", "CD_MUN": "2302057", "NM_MUN": "Barroquinha", "CD_DIST": "230205705", "NM_DIST": "Barroquinha", "CD_SUBDIST": "23020570500", "NM_SUBDIST": null, "CD_BAIRRO": "2302057006", "NM_BAIRRO": "Jaime Laurindo", "CD_NU": null, "NM_NU": null, "CD_FCU": null, "NM_FCU": null, "CD_AGLOM": "230205700001", "NM_AGLOM": "Agrovila do PA Lagoa do Mato", "CD_RGINT": "2306", "NM_RGINT": "Sobral", "CD_RGI": "230018", "NM_RGI": "Camocim", "CD_CONCURB": null, "NM_CONCURB": null, "mun_code_x": "2302057", "index_right": 13739, "dist_m": 0.0, "local_id": 166929, "ano": 2022, "cod_localidade_ibge": 2302057, "NR_ZONA": "108", "nr_cep": 62410000.0, "nm_localidade": "BARROQUINHA", "nm_locvot": "ESCOLA DE ENSINO MÉDIO JAIME LAURINDO DA SILVA", "ds_endereco": "TRAVESSA DO CAMPO, S/N", "ds_bairro": "CENTRO", "pred_long": -41.129699, "pred_lat": -3.024898, "pred_dist": 0.0, "tse_long": -41.1297175, "tse_lat": -3.025422, "long": -41.1297175, "lat": -3.025422, "ID_UNICO": "LOC_016636", "SG_UF": "CE", "CD_MUNICIPIO": "13404", "NR_LOCAL_VOTACAO": "1074", "QT_SECOES_AGREGADAS": 0, "QT_ELEITORES_TRANSFERIDOS": 4, "CIRO GOMES (PDT) (NÃO ELEITO) 1T": 103.0, "CONSTITUINTE EYMAEL (DC) (NÃO ELEITO) 1T": 0.0, "FELIPE D AVILA (NOVO) (NÃO ELEITO) 1T": 1.0, "JAIR BOLSONARO (PL) (2º TURNO) 1T": 168.0, "LULA (PT) (2º TURNO) 1T": 1128.0, "LÉO PÉRICLES (UP) (NÃO ELEITO) 1T": 0.0, "PADRE KELMON (PTB) (NÃO ELEITO) 1T": 0.0, "SIMONE TEBET (MDB) (NÃO ELEITO) 1T": 8.0, "SOFIA MANZANO (PCB) (NÃO ELEITO) 1T": 1.0, "SORAYA THRONICKE (UNIÃO) (NÃO ELEITO) 1T": 0.0, "VERA (PSTU) (NÃO ELEITO) 1T": 1.0, "Total_Votos_Validos 1T": 1410.0, "Votos_Brancos 1T": 10.0, "Votos_Nulos 1T": 22.0, "Abstenções 1T": 296.0, "Eleitores_Aptos 1T": 1738.0, "JAIR BOLSONARO (PL) (NÃO ELEITO) 2T": 211.0, "LULA (PT) (ELEITO) 2T": 1173.0, "Total_Votos_Validos 2T": 1384.0, "Votos_Brancos 2T": 14.0, "Votos_Nulos 2T": 26.0, "Abstenções 2T": 314.0, "Eleitores_Aptos 2T": 1738.0, "mun_code_y": "2302057", "mun_code": "2302057" }, "geometry": { "type": "Polygon", "coordinates": [ [ [ 6433548.444417335093021, 9656364.174053005874157 ], [ 6433624.679429302923381, 9656355.090858092531562 ], [ 6433737.143577917478979, 9656359.966571822762489 ], [ 6433913.155194841325283, 9656404.501126078888774 ], [ 6433904.938042484223843, 9656326.206440877169371 ], [ 6433929.875824538990855, 9656174.783058702945709 ], [ 6433921.664327235892415, 9656086.667987098917365 ], [ 6433956.59068685490638, 9655971.548957979306579 ], [ 6433947.098211824893951, 9655892.679788786917925 ], [ 6433923.799987677484751, 9655832.788116240873933 ], [ 6433923.844451016746461, 9655778.254125028848648 ], [ 6433949.750818201340735, 9655719.306678375229239 ], [ 6434019.657118644565344, 9655666.785649120807648 ], [ 6434096.540644546970725, 9655640.21759800799191 ], [ 6434162.596048372797668, 9655602.381881138309836 ], [ 6434146.204440856352448, 9655467.64321500621736 ], [ 6434123.011763950809836, 9655382.938407463952899 ], [ 6434074.087099704891443, 9655299.550258278846741 ], [ 6434054.165020061656833, 9655229.140385396778584 ], [ 6434008.387092566117644, 9655176.797774210572243 ], [ 6433963.436594687402248, 9655116.416781121864915 ], [ 6433995.672682091593742, 9655075.763646330684423 ], [ 6434071.506196370348334, 9655023.521631833165884 ], [ 6434083.362673977389932, 9654950.838317528367043 ], [ 6434038.172523586079478, 9654880.594666257500648 ], [ 6433960.249505929648876, 9654819.394959582015872 ], [ 6433915.129928979091346, 9654720.438349634408951 ], [ 6433897.69621711038053, 9654626.548594309017062 ], [ 6433835.030834538862109, 9654551.740846529603004 ], [ 6433781.74306960310787, 9654524.278345823287964 ], [ 6433710.444851720705628, 9654466.776856377720833 ], [ 6433663.134012993425131, 9654455.83315016143024 ], [ 6433619.624879017472267, 9654354.012449264526367 ], [ 6433621.702352859079838, 9654308.946029359474778 ], [ 6433596.320112977176905, 9654210.480622688308358 ], [ 6433609.908322218805552, 9654161.137349333614111 ], [ 6433601.851769727654755, 9654053.80095755122602 ], [ 6433490.714720211923122, 9653983.646835220977664 ], [ 6433429.45176206342876, 9653953.03797853551805 ], [ 6433367.214078601449728, 9653923.665587931871414 ], [ 6433348.856935203075409, 9653863.558566516265273 ], [ 6433334.474601972848177, 9653824.541089875623584 ], [ 6433275.952915517613292, 9653789.806194420903921 ], [ 6433221.106852224096656, 9653721.065210204571486 ], [ 6433196.940609881654382, 9653633.370959674939513 ], [ 6433071.041058016940951, 9653534.355542924255133 ], [ 6432934.638779379427433, 9653548.669109970331192 ], [ 6432848.919141476042569, 9653517.198197232559323 ], [ 6432778.154744135215878, 9653468.210040917620063 ], [ 6432694.674569170922041, 9653405.381789926439524 ], [ 6432619.446287014521658, 9653389.535944445058703 ], [ 6432588.704686959274113, 9653350.965331809595227 ], [ 6432577.06810344196856, 9653300.758168565109372 ], [ 6432547.751597104594111, 9653238.085812985897064 ], [ 6432476.25582284014672, 9653207.057610822841525 ], [ 6432412.349301932379603, 9653200.941591957584023 ], [ 6432380.978515617549419, 9653156.221724089235067 ], [ 6432349.398448500782251, 9653118.205967906862497 ], [ 6432291.055432312190533, 9653107.83914914354682 ], [ 6432244.404738374054432, 9653081.366362990811467 ], [ 6432196.323728158138692, 9653024.396989829838276 ], [ 6432160.166163249872625, 9652967.942297192290425 ], [ 6432110.328488774597645, 9652896.96777262724936 ], [ 6432067.008542059920728, 9652852.403475485742092 ], [ 6432023.207300937734544, 9652787.037741588428617 ], [ 6431964.575122986920178, 9652688.014417285099626 ], [ 6431912.618155571632087, 9652665.926445098593831 ], [ 6431882.304535432718694, 9652626.002873219549656 ], [ 6431847.311287788674235, 9652587.065420210361481 ], [ 6431826.491883414797485, 9652557.437163688242435 ], [ 6431807.504496383480728, 9652530.417589474469423 ], [ 6431770.373806368559599, 9652482.842989536002278 ], [ 6431788.403122618794441, 9652375.426810078322887 ], [ 6431839.291509365662932, 9652337.736105090007186 ], [ 6431885.267994864843786, 9652267.58379640430212 ], [ 6431893.187968263402581, 9652195.303813096135855 ], [ 6431915.263231858611107, 9652141.030031869187951 ], [ 6431934.261699943803251, 9652060.905987937003374 ], [ 6431944.617827173322439, 9651943.183298993855715 ], [ 6431974.681734465062618, 9651887.65641400963068 ], [ 6432075.7257458306849, 9651796.689940111711621 ], [ 6432058.832345586270094, 9651739.358509730547667 ], [ 6432064.96110790129751, 9651649.410392444580793 ], [ 6432138.118275176733732, 9651568.269825194031 ], [ 6432195.012540174648166, 9651474.228106180205941 ], [ 6432221.475374469533563, 9651424.435907362028956 ], [ 6432236.500746794976294, 9651366.43589704670012 ], [ 6432315.309982327744365, 9651350.812172185629606 ], [ 6432402.40261463355273, 9651336.233641821891069 ], [ 6432436.821741094812751, 9651301.981823733076453 ], [ 6432489.918965813703835, 9651266.960210304707289 ], [ 6432463.305824816226959, 9651161.133909076452255 ], [ 6432463.235989664681256, 9651083.811848286539316 ], [ 6432509.977209165692329, 9651046.269831730052829 ], [ 6432523.763733417727053, 9651003.716826220974326 ], [ 6432560.691769008524716, 9650951.58595241047442 ], [ 6432583.784198851324618, 9650897.08207487873733 ], [ 6432607.510985149070621, 9650799.979687662795186 ], [ 6432662.547274022363126, 9650810.869385380297899 ], [ 6432727.778691550716758, 9650810.716006152331829 ], [ 6432807.407460501417518, 9650758.725952621549368 ], [ 6432838.098811343312263, 9650709.413726439699531 ], [ 6432887.969854499213398, 9650679.849654639139771 ], [ 6432891.26839498989284, 9650659.194551639258862 ], [ 6432897.214130523614585, 9650621.974430151283741 ], [ 6432970.538487100973725, 9650531.936186583712697 ], [ 6433029.819757984951138, 9650449.120588103309274 ], [ 6433039.322833667509258, 9650277.653446435928345 ], [ 6433080.462252053432167, 9650217.180313432589173 ], [ 6433120.196474684402347, 9650189.665540438145399 ], [ 6433148.60001408867538, 9650136.014047188684344 ], [ 6433162.611632799729705, 9650077.17316229827702 ], [ 6433169.335109228268266, 9650028.886995751410723 ], [ 6433285.796649031341076, 9649989.35183621942997 ], [ 6433338.308342081494629, 9649931.71083315089345 ], [ 6433349.560957992449403, 9649848.703988274559379 ], [ 6433377.920518649742007, 9649796.084117971360683 ], [ 6433381.228234427049756, 9649716.178485788404942 ], [ 6433429.447142638266087, 9649649.210876721888781 ], [ 6433450.713815667666495, 9649569.801546517759562 ], [ 6433462.033353086560965, 9649520.154898589476943 ], [ 6433479.335958112031221, 9649477.171389136463404 ], [ 6433499.545486985705793, 9649408.796851526945829 ], [ 6433571.169967008754611, 9649336.781455280259252 ], [ 6433621.342702452093363, 9649313.980151036754251 ], [ 6433678.50416858214885, 9649243.818140227347612 ], [ 6433741.683229310438037, 9649187.802871188148856 ], [ 6430080.140333360992372, 9646896.352634890004992 ], [ 6428182.039635733701289, 9645708.687258150428534 ], [ 6427817.049147712998092, 9645983.198090462014079 ], [ 6427451.345565407536924, 9645965.000675758346915 ], [ 6427342.342593958601356, 9646024.991188187152147 ], [ 6426980.237579550594091, 9647041.994369242340326 ], [ 6426426.33690525777638, 9647670.704108914360404 ], [ 6426287.943987515754998, 9647896.606527533382177 ], [ 6426345.943575240671635, 9648265.702721364796162 ], [ 6426293.245533784851432, 9648498.306484781205654 ], [ 6426178.043920049443841, 9648660.209633428603411 ], [ 6426086.243252267129719, 9648880.609733292832971 ], [ 6426264.040566756390035, 9649600.903069453313947 ], [ 6426254.340593049302697, 9649725.703499814495444 ], [ 6425942.246871005743742, 9650181.615497201681137 ], [ 6425944.547589932568371, 9650334.112814299762249 ], [ 6426033.247219217941165, 9650570.414316624403 ], [ 6426297.143138030543923, 9650895.0093929246068 ], [ 6427334.353233796544373, 9651507.517744962126017 ], [ 6427509.148112511262298, 9651712.210662197321653 ], [ 6427533.84560688957572, 9651856.511072982102633 ], [ 6427168.54842718783766, 9652455.717196760699153 ], [ 6426895.844692317768931, 9653100.315676059573889 ], [ 6426519.649119136855006, 9653646.518367692828178 ], [ 6426356.945694274269044, 9653823.525405975058675 ], [ 6426069.646370448172092, 9654064.923750340938568 ], [ 6425876.342128089629114, 9654171.117660984396935 ], [ 6425056.440145023167133, 9654540.520391652360559 ], [ 6425019.66739905346185, 9655203.773815609514713 ], [ 6427128.819770890288055, 9656820.363820174708962 ], [ 6427214.495114024728537, 9656856.830830078572035 ], [ 6427255.802081514149904, 9656874.413609895855188 ], [ 6428413.828663053922355, 9657212.945060135796666 ], [ 6428698.923443753272295, 9657298.403744298964739 ], [ 6428823.543231345713139, 9657331.101798737421632 ], [ 6429289.895616916008294, 9657468.704358614981174 ], [ 6429468.430490313097835, 9657520.947376433759928 ], [ 6429479.12672112416476, 9657523.904829865321517 ], [ 6429552.651207625865936, 9657544.271515732631087 ], [ 6429580.200110652484, 9657554.705581735819578 ], [ 6429632.536120913922787, 9657577.069045888260007 ], [ 6429703.503822917118669, 9657624.938601899892092 ], [ 6429701.141530683264136, 9657563.819600597023964 ], [ 6429805.823534412309527, 9657554.429149024188519 ], [ 6429889.034317914396524, 9657543.784571457654238 ], [ 6430006.990159895271063, 9657525.846427496522665 ], [ 6430036.50924963504076, 9657521.324646292254329 ], [ 6430087.159510841593146, 9657512.765796048566699 ], [ 6430143.420970795676112, 9657505.841251689940691 ], [ 6430164.992574616335332, 9657502.388551380485296 ], [ 6430177.931875274516642, 9657610.278964402154088 ], [ 6430268.768740005791187, 9657545.595713764429092 ], [ 6430346.43283726926893, 9657490.512844933196902 ], [ 6430375.119280856102705, 9657565.653504451736808 ], [ 6430393.081868225708604, 9657590.022759413346648 ], [ 6430402.98037622962147, 9657611.210635999217629 ], [ 6430409.809195808134973, 9657645.55346935801208 ], [ 6430464.068653997965157, 9657950.393455233424902 ], [ 6430492.665054626762867, 9657954.398067492991686 ], [ 6430568.747939590364695, 9657962.546826956793666 ], [ 6430593.503982548601925, 9657959.49890779517591 ], [ 6430698.705180836841464, 9657953.583715973421931 ], [ 6430766.008845709264278, 9657952.549880525097251 ], [ 6430825.833293589763343, 9657954.597840636968613 ], [ 6430909.596308956854045, 9657954.99075111374259 ], [ 6430868.891177978366613, 9658075.990671541541815 ], [ 6430804.810568751767278, 9658252.45154475979507 ], [ 6430789.305435807444155, 9658294.519597124308348 ], [ 6430772.049020848236978, 9658328.50117058493197 ], [ 6430692.131316471844912, 9658469.476556487381458 ], [ 6430810.282910250127316, 9658550.763074222952127 ], [ 6430838.031226332299411, 9658582.036365399137139 ], [ 6430852.815014269202948, 9658595.128107812255621 ], [ 6430859.197235163301229, 9658606.595535611733794 ], [ 6431121.460793502628803, 9658579.314644051715732 ], [ 6431428.28691678121686, 9658533.38705019466579 ], [ 6431547.734151016920805, 9658524.969072161242366 ], [ 6431695.367135333828628, 9658514.914038211107254 ], [ 6431667.952368122525513, 9658237.954614503309131 ], [ 6431579.573077589273453, 9657582.644711405038834 ], [ 6431572.211458372883499, 9657522.850950695574284 ], [ 6431566.747475614771247, 9657475.076689917594194 ], [ 6431562.769423640333116, 9657446.85584544017911 ], [ 6431558.584483181126416, 9657419.952775828540325 ], [ 6431554.788572425022721, 9657393.045103956013918 ], [ 6431549.502979343757033, 9657339.656007003039122 ], [ 6431539.596270019188523, 9657261.999697225168347 ], [ 6431528.148333798162639, 9657176.197683289647102 ], [ 6431515.909388793632388, 9657089.3279153034091 ], [ 6431494.773334763944149, 9656925.663244275376201 ], [ 6431483.152583967894316, 9656812.978973550722003 ], [ 6431474.924922041594982, 9656771.349446622654796 ], [ 6431519.212358277291059, 9656762.52366853132844 ], [ 6432353.052441151812673, 9656596.356591124087572 ], [ 6432678.392814924940467, 9656536.371645297855139 ], [ 6432769.252404564991593, 9656516.411405880004168 ], [ 6433548.444417335093021, 9656364.174053005874157 ] ] ] } },
{ "type": "Feature", "properties": { "lv_id": "LOC_016637", "id": 69261.0, "CD_SETOR": "230205705000001", "SITUACAO": "Urbana", "CD_SIT": "2", "CD_TIPO": "0", "AREA_KM2": 0.12661757937728199, "CD_REGIAO": "2", "NM_REGIAO": "Nordeste", "CD_UF": "23", "NM_UF": "Ceará", "CD_MUN": "2302057", "NM_MUN": "Barroquinha", "CD_DIST": "230205705", "NM_DIST": "Barroquinha", "CD_SUBDIST": "23020570500", "NM_SUBDIST": null, "CD_BAIRRO": "2302057003", "NM_BAIRRO": "Poço Imperial", "CD_NU": null, "NM_NU": null, "CD_FCU": null, "NM_FCU": null, "CD_AGLOM": null, "NM_AGLOM": null, "CD_RGINT": "2306", "NM_RGINT": "Sobral", "CD_RGI": "230018", "NM_RGI": "Camocim", "CD_CONCURB": null, "NM_CONCURB": null, "mun_code_x": "2302057", "index_right": 13742, "dist_m": 238.9652252583403, "local_id": 166932, "ano": 2022, "cod_localidade_ibge": 2302057, "NR_ZONA": "108", "nr_cep": 60410000.0, "nm_localidade": "BARROQUINHA", "nm_locvot": "EEF ANTONIO MARCELINO FERREIRA", "ds_endereco": "RUA SÃO FRANCISCO, 12", "ds_bairro": "CAUCAIA", "pred_long": -41.132797, "pred_lat": -3.014847, "pred_dist": 0.0, "tse_long": -41.1327056, "tse_lat": -3.0147347, "long": -41.1327056, "lat": -3.0147347, "ID_UNICO": "LOC_016637", "SG_UF": "CE", "CD_MUNICIPIO": "13404", "NR_LOCAL_VOTACAO": "1236", "QT_SECOES_AGREGADAS": 0, "QT_ELEITORES_TRANSFERIDOS": 0, "CIRO GOMES (PDT) (NÃO ELEITO) 1T": 50.0, "CONSTITUINTE EYMAEL (DC) (NÃO ELEITO) 1T": 0.0, "FELIPE D AVILA (NOVO) (NÃO ELEITO) 1T": 0.0, "JAIR BOLSONARO (PL) (2º TURNO) 1T": 114.0, "LULA (PT) (2º TURNO) 1T": 582.0, "LÉO PÉRICLES (UP) (NÃO ELEITO) 1T": 0.0, "PADRE KELMON (PTB) (NÃO ELEITO) 1T": 0.0, "SIMONE TEBET (MDB) (NÃO ELEITO) 1T": 2.0, "SOFIA MANZANO (PCB) (NÃO ELEITO) 1T": 0.0, "SORAYA THRONICKE (UNIÃO) (NÃO ELEITO) 1T": 1.0, "VERA (PSTU) (NÃO ELEITO) 1T": 0.0, "Total_Votos_Validos 1T": 749.0, "Votos_Brancos 1T": 5.0, "Votos_Nulos 1T": 10.0, "Abstenções 1T": 129.0, "Eleitores_Aptos 1T": 893.0, "JAIR BOLSONARO (PL) (NÃO ELEITO) 2T": 136.0, "LULA (PT) (ELEITO) 2T": 612.0, "Total_Votos_Validos 2T": 748.0, "Votos_Brancos 2T": 7.0, "Votos_Nulos 2T": 9.0, "Abstenções 2T": 129.0, "Eleitores_Aptos 2T": 893.0, "mun_code_y": "2302057", "mun_code": "2302057" }, "geometry": { "type": "Polygon", "coordinates": [ [ [ 6427255.802081514149904, 9656874.413609895855188 ], [ 6427214.495114024728537, 9656856.830830078572035 ], [ 6427128.819770890288055, 9656820.363820174708962 ], [ 6425019.66739905346185, 9655203.773815609514713 ], [ 6427164.755997180007398, 9658120.940246628597379 ], [ 6427227.974001551046968, 9658154.603446993976831 ], [ 6427295.179912754334509, 9658217.469880420714617 ], [ 6427352.415741417557001, 9658280.533429007977247 ], [ 6427425.972779402509332, 9658422.641325581818819 ], [ 6427561.957455393858254, 9658516.533842034637928 ], [ 6427658.122344067320228, 9658552.621800372377038 ], [ 6427674.604809050448239, 9658583.628204056993127 ], [ 6427738.342840359546244, 9658615.189210865646601 ], [ 6427810.134356925264001, 9658648.084008131176233 ], [ 6427939.424047458916903, 9658819.877898259088397 ], [ 6428012.156207045540214, 9658912.409016476944089 ], [ 6428132.769117284566164, 9658989.524963039904833 ], [ 6428152.971060194075108, 9659014.422686161473393 ], [ 6428185.811283302493393, 9659011.496662700548768 ], [ 6428214.191534696146846, 9659032.228012692183256 ], [ 6428249.585238426923752, 9659107.127421729266644 ], [ 6428260.796236949972808, 9659226.652885649353266 ], [ 6428330.549203544855118, 9658667.747703723609447 ], [ 6428372.400708856061101, 9658290.639726784080267 ], [ 6428397.827291434630752, 9658174.786144468933344 ], [ 6428708.587760159745812, 9658458.589930148795247 ], [ 6428786.319489372894168, 9658535.496419984847307 ], [ 6429329.122156043536961, 9659072.507042555138469 ], [ 6429941.394359707832336, 9659678.290302682667971 ], [ 6430174.985094755887985, 9659895.735029432922602 ], [ 6430229.388323936611414, 9659853.245685659348965 ], [ 6430303.656117528676987, 9659786.711951516568661 ], [ 6430406.244356166571379, 9659694.809473466128111 ], [ 6430496.3774024695158, 9659614.073808094486594 ], [ 6430590.811875824816525, 9659529.465871434658766 ], [ 6430686.31324124801904, 9659443.903651023283601 ], [ 6430820.024540696293116, 9659324.02238393202424 ], [ 6430870.407758570276201, 9659279.174293987452984 ], [ 6431012.203728754073381, 9659151.961945708841085 ], [ 6431075.279718742705882, 9659095.443435193970799 ], [ 6431079.251497115939856, 9659091.881615499034524 ], [ 6431234.08589513041079, 9658953.163311835378408 ], [ 6431438.011758768931031, 9658770.549612740054727 ], [ 6431640.393857832066715, 9658589.164503278210759 ], [ 6431695.367135333828628, 9658514.914038211107254 ], [ 6431547.734151016920805, 9658524.969072161242366 ], [ 6431428.28691678121686, 9658533.38705019466579 ], [ 6431121.460793502628803, 9658579.314644051715732 ], [ 6430859.197235163301229, 9658606.595535611733794 ], [ 6430852.815014269202948, 9658595.128107812255621 ], [ 6430838.031226332299411, 9658582.036365399137139 ], [ 6430810.282910250127316, 9658550.763074222952127 ], [ 6430692.131316471844912, 9658469.476556487381458 ], [ 6430772.049020848236978, 9658328.50117058493197 ], [ 6430789.305435807444155, 9658294.519597124308348 ], [ 6430804.810568751767278, 9658252.45154475979507 ], [ 6430868.891177978366613, 9658075.990671541541815 ], [ 6430909.596308956854045, 9657954.99075111374259 ], [ 6430825.833293589763343, 9657954.597840636968613 ], [ 6430766.008845709264278, 9657952.549880525097251 ], [ 6430698.705180836841464, 9657953.583715973421931 ], [ 6430593.503982548601925, 9657959.49890779517591 ], [ 6430568.747939590364695, 9657962.546826956793666 ], [ 6430492.665054626762867, 9657954.398067492991686 ], [ 6430464.068653997965157, 9657950.393455233424902 ], [ 6430409.809195808134973, 9657645.55346935801208 ], [ 6430402.98037622962147, 9657611.210635999217629 ], [ 6430393.081868225708604, 9657590.022759413346648 ], [ 6430375.119280856102705, 9657565.653504451736808 ], [ 6430346.43283726926893, 9657490.512844933196902 ], [ 6430268.768740005791187, 9657545.595713764429092 ], [ 6430177.931875274516642, 9657610.278964402154088 ], [ 6430164.992574616335332, 9657502.388551380485296 ], [ 6430143.420970795676112, 9657505.841251689940691 ], [ 6430087.159510841593146, 9657512.765796048566699 ], [ 6430036.50924963504076, 9657521.324646292254329 ], [ 6430006.990159895271063, 9657525.846427496522665 ], [ 6429889.034317914396524, 9657543.784571457654238 ], [ 6429805.823534412309527, 9657554.429149024188519 ], [ 6429701.141530683264136, 9657563.819600597023964 ], [ 6429703.503822917118669, 9657624.938601899892092 ], [ 6429632.536120913922787, 9657577.069045888260007 ], [ 6429580.200110652484, 9657554.705581735819578 ], [ 6429552.651207625865936, 9657544.271515732631087 ], [ 6429479.12672112416476, 9657523.904829865321517 ], [ 6429468.430490313097835, 9657520.947376433759928 ], [ 6429289.895616916008294, 9657468.704358614981174 ], [ 6428823.543231345713139, 9657331.101798737421632 ], [ 6428698.923443753272295, 9657298.403744298964739 ], [ 6428413.828663053922355, 9657212.945060135796666 ], [ 6427255.802081514149904, 9656874.413609895855188 ] ] ] } },
{ "type": "Feature", "properties": { "lv_id": "LOC_016638", "id": 69292.0, "CD_SETOR": "230205715000001", "SITUACAO": "Urbana", "CD_SIT": "1", "CD_TIPO": "0", "AREA_KM2": 0.055935011435761003, "CD_REGIAO": "2", "NM_REGIAO": "Nordeste", "CD_UF": "23", "NM_UF": "Ceará", "CD_MUN": "2302057", "NM_MUN": "Barroquinha", "CD_DIST": "230205715", "NM_DIST": "Bitupitá", "CD_SUBDIST": "23020571500", "NM_SUBDIST": null, "CD_BAIRRO": null, "NM_BAIRRO": null, "CD_NU": null, "NM_NU": null, "CD_FCU": null, "NM_FCU": null, "CD_AGLOM": null, "NM_AGLOM": null, "CD_RGINT": "2306", "NM_RGINT": "Sobral", "CD_RGI": "230018", "NM_RGI": "Camocim", "CD_CONCURB": null, "NM_CONCURB": null, "mun_code_x": "2302057", "index_right": 13734, "dist_m": 0.0, "local_id": 166924, "ano": 2022, "cod_localidade_ibge": 2302057, "NR_ZONA": "108", "nr_cep": 62410000.0, "nm_localidade": "BARROQUINHA", "nm_locvot": "C.E.I. CASTELINHO VERMELHO", "ds_endereco": "RUA DO COMERCIO S/N", "ds_bairro": "DISTRITO BITUPITÁ", "pred_long": -41.2753815, "pred_lat": -2.8952388, "pred_dist": 0.0, "tse_long": -41.2736599, "tse_lat": -2.8925369, "long": -41.2736599, "lat": -2.8925369, "ID_UNICO": "LOC_016638", "SG_UF": "CE", "CD_MUNICIPIO": "13404", "NR_LOCAL_VOTACAO": "1210", "QT_SECOES_AGREGADAS": 0, "QT_ELEITORES_TRANSFERIDOS": 0, "CIRO GOMES (PDT) (NÃO ELEITO) 1T": 49.0, "CONSTITUINTE EYMAEL (DC) (NÃO ELEITO) 1T": 0.0, "FELIPE D AVILA (NOVO) (NÃO ELEITO) 1T": 0.0, "JAIR BOLSONARO (PL) (2º TURNO) 1T": 192.0, "LULA (PT) (2º TURNO) 1T": 447.0, "LÉO PÉRICLES (UP) (NÃO ELEITO) 1T": 2.0, "PADRE KELMON (PTB) (NÃO ELEITO) 1T": 0.0, "SIMONE TEBET (MDB) (NÃO ELEITO) 1T": 2.0, "SOFIA MANZANO (PCB) (NÃO ELEITO) 1T": 0.0, "SORAYA THRONICKE (UNIÃO) (NÃO ELEITO) 1T": 0.0, "VERA (PSTU) (NÃO ELEITO) 1T": 0.0, "Total_Votos_Validos 1T": 692.0, "Votos_Brancos 1T": 10.0, "Votos_Nulos 1T": 16.0, "Abstenções 1T": 148.0, "Eleitores_Aptos 1T": 866.0, "JAIR BOLSONARO (PL) (NÃO ELEITO) 2T": 200.0, "LULA (PT) (ELEITO) 2T": 437.0, "Total_Votos_Validos 2T": 637.0, "Votos_Brancos 2T": 8.0, "Votos_Nulos 2T": 16.0, "Abstenções 2T": 205.0, "Eleitores_Aptos 2T": 866.0, "mun_code_y": "2302057", "mun_code": "2302057" }, "geometry": { "type": "Polygon", "coordinates": [ [ [ 6420976.444748349487782, 9669563.785413825884461 ], [ 6421093.463364820927382, 9669445.097440056502819 ], [ 6421346.52863016538322, 9669166.877963891252875 ], [ 6421389.224090510047972, 9669129.497761817649007 ], [ 6421449.683486142195761, 9669081.986145295202732 ], [ 6421722.702724743634462, 9668871.882469639182091 ], [ 6421813.050326330587268, 9668801.971534548327327 ], [ 6421889.94909037835896, 9668749.204465327784419 ], [ 6422009.059115466661751, 9668696.024536345154047 ], [ 6422443.707247435115278, 9668503.283694675192237 ], [ 6422612.806644682772458, 9668440.49722826294601 ], [ 6422713.264018004760146, 9668393.647846478968859 ], [ 6422744.110303278081119, 9668346.832325397059321 ], [ 6422750.525175334885716, 9668299.615184487774968 ], [ 6422770.970121456310153, 9668117.686500886455178 ], [ 6421641.145815273746848, 9667961.27358153834939 ], [ 6422488.863706019707024, 9664615.285267131403089 ], [ 6422582.626929147168994, 9664524.405428031459451 ], [ 6422678.958734648302197, 9664466.628713069483638 ], [ 6422727.521168830804527, 9664329.589919021353126 ], [ 6422637.942507251165807, 9664241.062676887959242 ], [ 6422621.509874409064651, 9664153.641107361763716 ], [ 6422666.129170345142484, 9664048.114703228697181 ], [ 6422780.403728043660522, 9663912.707724004983902 ], [ 6422892.722553671337664, 9663842.433297164738178 ], [ 6422948.086147638037801, 9663742.267484851181507 ], [ 6422910.560852972790599, 9663637.360480239614844 ], [ 6422837.350381974130869, 9663188.959386838600039 ], [ 6422641.945046356879175, 9662905.558521203696728 ], [ 6422304.938822904601693, 9662475.957162395119667 ], [ 6421924.641639266163111, 9662295.957115389406681 ], [ 6421706.244547767564654, 9662326.851525338366628 ], [ 6421485.93832747079432, 9662234.352206384763122 ], [ 6421222.227902402170002, 9662098.333004163578153 ], [ 6420987.438641110435128, 9662013.847923822700977 ], [ 6420793.177461737766862, 9661988.61585178412497 ], [ 6420528.752004342153668, 9661910.222778830677271 ], [ 6420286.738728024996817, 9662006.552415052428842 ], [ 6420084.336232151836157, 9662014.850970320403576 ], [ 6419961.105503644794226, 9662002.112368695437908 ], [ 6417631.633495660498738, 9663184.850517800077796 ], [ 6415205.768763619475067, 9663245.720112850889564 ], [ 6415036.986721962690353, 9663370.066012822091579 ], [ 6415003.402433547191322, 9663372.243217926472425 ], [ 6414711.475111177191138, 9663497.267755391076207 ], [ 6414545.895656796172261, 9663551.675295768305659 ], [ 6414073.147504890337586, 9663707.036086874082685 ], [ 6412790.352605090476573, 9663674.182368876412511 ], [ 6412233.979723306372762, 9663690.509250706061721 ], [ 6412171.251634187996387, 9663692.35123104415834 ], [ 6412018.287865011952817, 9663718.310858335345984 ], [ 6411793.042127002961934, 9663756.544062389060855 ], [ 6411542.285522009246051, 9663799.102841768413782 ], [ 6410688.443179035559297, 9664195.931215656921268 ], [ 6410126.415308754891157, 9664456.714129025116563 ], [ 6409621.579085348173976, 9664971.151969226077199 ], [ 6409443.769921535626054, 9665581.379263214766979 ], [ 6409452.259339096024632, 9666333.23819956369698 ], [ 6409471.613459194079041, 9666460.211756413802505 ], [ 6409490.96719835139811, 9666587.196804089471698 ], [ 6409565.601349563337862, 9666884.120566438883543 ], [ 6409581.002747289836407, 9667210.349240066483617 ], [ 6409529.785764764994383, 9667463.833372386172414 ], [ 6409423.14302824344486, 9668585.681854136288166 ], [ 6409381.096391320228577, 9669027.887922301888466 ], [ 6409382.683269091881812, 9669040.537211740389466 ], [ 6410689.244875679723918, 9669669.495239855721593 ], [ 6410689.599881878122687, 9669670.42035979218781 ], [ 6410768.408488060347736, 9669708.397034473717213 ], [ 6410797.752227989956737, 9669722.5472093205899 ], [ 6410858.830082514323294, 9669820.505030317232013 ], [ 6410996.351105913519859, 9669935.811245460063219 ], [ 6411479.638447663746774, 9670123.495331112295389 ], [ 6411752.471623465418816, 9670295.739388497546315 ], [ 6411956.154939580708742, 9670384.901616940274835 ], [ 6412156.296237573027611, 9670489.435853399336338 ], [ 6412250.319360097870231, 9670525.839579371735454 ], [ 6412382.725326425395906, 9670595.318638604134321 ], [ 6412548.94002110697329, 9670662.59365957044065 ], [ 6412666.244573179632425, 9670717.886569557711482 ], [ 6412773.605347849428654, 9670784.793115166947246 ], [ 6412998.756803335621953, 9670954.592695198953152 ], [ 6413262.420093463733792, 9671136.177426613867283 ], [ 6413446.649880132637918, 9671228.693950239568949 ], [ 6413579.413829356431961, 9671299.397688569501042 ], [ 6413636.642124135047197, 9671390.361625945195556 ], [ 6413728.743087630718946, 9671536.721290979534388 ], [ 6413849.743325578048825, 9671651.368104010820389 ], [ 6414238.141232878901064, 9671996.660629833117127 ], [ 6414272.777357613667846, 9671951.850463787093759 ], [ 6414330.639163207262754, 9671876.987545991316438 ], [ 6414352.645468086004257, 9671901.218090748414397 ], [ 6414431.37430405151099, 9671976.045149942860007 ], [ 6414456.280750839039683, 9672000.118660379201174 ], [ 6414471.487729458138347, 9672014.82727294228971 ], [ 6414477.27620068192482, 9672020.43978344835341 ], [ 6414480.721905553713441, 9672024.34474278613925 ], [ 6414486.700978984124959, 9672031.099669242277741 ], [ 6414502.849521675147116, 9672049.492044221609831 ], [ 6414515.84480438195169, 9672064.28215910308063 ], [ 6414517.531405269168317, 9672065.974409407004714 ], [ 6414517.722413065843284, 9672066.153582854196429 ], [ 6414539.47806013468653, 9672087.848791386932135 ], [ 6414560.783846240490675, 9672109.084451470524073 ], [ 6414589.263555491343141, 9672144.540974501520395 ], [ 6414597.009268570691347, 9672154.188522566109896 ], [ 6414609.918701917864382, 9672170.260225795209408 ], [ 6414625.730559168383479, 9672187.375971438363194 ], [ 6414654.405532385222614, 9672218.399540111422539 ], [ 6414657.635460614226758, 9672221.898999338969588 ], [ 6414659.859207281842828, 9672223.902547776699066 ], [ 6414699.237557521089911, 9672259.588442793115973 ], [ 6414720.260206831619143, 9672283.365918641909957 ], [ 6414744.300281226634979, 9672310.531960964202881 ], [ 6414754.584637547843158, 9672322.508263308554888 ], [ 6414754.810255398973823, 9672322.800374524667859 ], [ 6414767.410870913416147, 9672339.102328978478909 ], [ 6414771.189904931932688, 9672343.989531010389328 ], [ 6414773.729426382109523, 9672347.394760129973292 ], [ 6414789.864864314906299, 9672368.620674602687359 ], [ 6414799.789210930466652, 9672379.218505453318357 ], [ 6414846.721672934480011, 9672429.336808850988746 ], [ 6414896.540720467455685, 9672331.003342811018229 ], [ 6414911.446690762415528, 9672300.635621188208461 ], [ 6414931.685593882575631, 9672312.919716207310557 ], [ 6414954.193691320717335, 9672324.294471861794591 ], [ 6414973.862249096855521, 9672335.281764380633831 ], [ 6414981.346647925674915, 9672319.423236574977636 ], [ 6414994.588600005023181, 9672291.397198315709829 ], [ 6415000.608591413125396, 9672277.832867750898004 ], [ 6415007.958378060720861, 9672258.870745956897736 ], [ 6415022.128006759099662, 9672257.284036077558994 ], [ 6415035.742058796808124, 9672254.728965429589152 ], [ 6415044.256607200950384, 9672252.525696760043502 ], [ 6415053.87809794396162, 9672240.881464045494795 ], [ 6415066.340863401070237, 9672221.782647851854563 ], [ 6415079.553945614024997, 9672187.172669632360339 ], [ 6415101.89863601513207, 9672135.869605300948024 ], [ 6415178.749494762159884, 9672174.807323036715388 ], [ 6415213.302814332768321, 9672191.520542846992612 ], [ 6415239.280273247510195, 9672202.924363790079951 ], [ 6415262.709111087024212, 9672210.107097567990422 ], [ 6415288.036968054249883, 9672217.087226154282689 ], [ 6415321.317252025008202, 9672224.306837184354663 ], [ 6415347.187863050028682, 9672230.102314662188292 ], [ 6415377.763250366784632, 9672238.043553877621889 ], [ 6415415.86944292485714, 9672248.302861040458083 ], [ 6415448.698288078419864, 9672257.918738441541791 ], [ 6415478.066275540739298, 9672263.267060957849026 ], [ 6415492.645813649520278, 9672267.545953305438161 ], [ 6415499.998095044866204, 9672265.808960855007172 ], [ 6415522.136458951979876, 9672263.928839817643166 ], [ 6415548.379855331033468, 9672261.254731681197882 ], [ 6415580.001137379556894, 9672255.267853073775768 ], [ 6415609.220326114445925, 9672250.237165501341224 ], [ 6415634.23515672981739, 9672247.066830117255449 ], [ 6415663.337800136767328, 9672244.553265128284693 ], [ 6415687.884267764165998, 9672238.260352570563555 ], [ 6415714.172296479344368, 9672233.602460218593478 ], [ 6415734.903049280866981, 9672227.125661099329591 ], [ 6415759.986099581234157, 9672218.095513856038451 ], [ 6415788.481837260536849, 9672210.001678161323071 ], [ 6415810.342723207548261, 9672204.169453971087933 ], [ 6415844.517214890569448, 9672199.819667181000113 ], [ 6415874.567867888137698, 9672195.572785872966051 ], [ 6415906.916470845229924, 9672192.002739669755101 ], [ 6415935.20814950671047, 9672190.552081923931837 ], [ 6416055.447979412972927, 9672186.902567440643907 ], [ 6416101.107073135674, 9672184.47504510730505 ], [ 6416130.621616385877132, 9672184.007898066192865 ], [ 6416190.409532529301941, 9672185.320302709937096 ], [ 6416295.808378223329782, 9672192.863944601267576 ], [ 6416365.106009935960174, 9672187.485172461718321 ], [ 6416427.060365222394466, 9672182.653400098904967 ], [ 6416447.484275393188, 9672179.579625602811575 ], [ 6416471.352203628979623, 9672170.268069645389915 ], [ 6416542.393353172577918, 9672118.767012668773532 ], [ 6416678.90324261970818, 9671936.778733398765326 ], [ 6416887.815105763264, 9671655.0593774151057 ], [ 6416919.971343226730824, 9671609.342643167823553 ], [ 6418044.413711740635335, 9670214.473255725577474 ], [ 6418121.059945601038635, 9670179.41348977573216 ], [ 6418215.843030851334333, 9670145.599150229245424 ], [ 6418257.767074702307582, 9670134.392186228185892 ], [ 6418296.038554644212127, 9670117.718314256519079 ], [ 6418341.897051343694329, 9670111.340249188244343 ], [ 6418400.223323756828904, 9670117.220234794542193 ], [ 6418465.941163079813123, 9670119.933856016024947 ], [ 6418596.079994952306151, 9670138.602236932143569 ], [ 6418697.406241493299603, 9670154.853723846375942 ], [ 6418783.237244611606002, 9670175.40601503662765 ], [ 6418824.222816457040608, 9670166.770774215459824 ], [ 6418861.267897026613355, 9670150.790369400754571 ], [ 6418882.591093317605555, 9670128.822108821943402 ], [ 6418942.690034214407206, 9670096.486645435914397 ], [ 6419075.773363492451608, 9670017.898646168410778 ], [ 6419195.529518645256758, 9669947.598493289202452 ], [ 6419300.909210968762636, 9669904.016152763739228 ], [ 6419342.209250776097178, 9669896.668746512383223 ], [ 6419465.40280029643327, 9669913.680394595488906 ], [ 6419666.645118841901422, 9669937.424842717126012 ], [ 6419745.004666806198657, 9669922.335679281502962 ], [ 6419836.591647081077099, 9669899.026572160422802 ], [ 6419898.708132240921259, 9669886.988693309947848 ], [ 6420014.726566728204489, 9669881.888772824779153 ], [ 6420164.299513394013047, 9669876.725914262235165 ], [ 6420219.754842850379646, 9669868.537543021142483 ], [ 6420264.369567213580012, 9669854.396697144955397 ], [ 6420314.136908917687833, 9669836.729058979079127 ], [ 6420420.101540106348693, 9669802.703476702794433 ], [ 6420623.007826237007976, 9669742.053096910938621 ], [ 6420716.400278127752244, 9669715.207933666184545 ], [ 6420829.406197801232338, 9669680.523201648145914 ], [ 6420888.442849257960916, 9669648.739912841469049 ], [ 6420919.249113814905286, 9669621.82194471731782 ], [ 6420976.444748349487782, 9669563.785413825884461 ] ] ] } },
{ "type": "Feature", "properties": { "lv_id": "LOC_016639", "id": 69284.0, "CD_SETOR": "230205710000009", "SITUACAO": "Rural", "CD_SIT": "5", "CD_TIPO": "0", "AREA_KM2": 0.10465981558354299, "CD_REGIAO": "2", "NM_REGIAO": "Nordeste", "CD_UF": "23", "NM_UF": "Ceará", "CD_MUN": "2302057", "NM_MUN": "Barroquinha", "CD_DIST": "230205710", "NM_DIST": "Araras", "CD_SUBDIST": "23020571000", "NM_SUBDIST": null, "CD_BAIRRO": null, "NM_BAIRRO": null, "CD_NU": null, "NM_NU": null, "CD_FCU": null, "NM_FCU": null, "CD_AGLOM": "230205700002", "NM_AGLOM": "Chapada", "CD_RGINT": "2306", "NM_RGINT": "Sobral", "CD_RGI": "230018", "NM_RGI": "Camocim", "CD_CONCURB": null, "NM_CONCURB": null, "mun_code_x": "2302057", "index_right": 13735, "dist_m": 71.786475216587348, "local_id": 166925, "ano": 2022, "cod_localidade_ibge": 2302057, "NR_ZONA": "108", "nr_cep": 62410000.0, "nm_localidade": "BARROQUINHA", "nm_locvot": "EEF JOSÉ MACHADO GOUVEIA", "ds_endereco": "POVOADO CHAPADA", "ds_bairro": "POVOADO CHAPADA", "pred_long": -41.195084, "pred_lat": -2.958927, "pred_dist": 0.0, "tse_long": -41.1951465, "tse_lat": -2.9586828, "long": -41.1951465, "lat": -2.9586828, "ID_UNICO": "LOC_016639", "SG_UF": "CE", "CD_MUNICIPIO": "13404", "NR_LOCAL_VOTACAO": "1171", "QT_SECOES_AGREGADAS": 0, "QT_ELEITORES_TRANSFERIDOS": 0, "CIRO GOMES (PDT) (NÃO ELEITO) 1T": 27.0, "CONSTITUINTE EYMAEL (DC) (NÃO ELEITO) 1T": 0.0, "FELIPE D AVILA (NOVO) (NÃO ELEITO) 1T": 0.0, "JAIR BOLSONARO (PL) (2º TURNO) 1T": 47.0, "LULA (PT) (2º TURNO) 1T": 308.0, "LÉO PÉRICLES (UP) (NÃO ELEITO) 1T": 0.0, "PADRE KELMON (PTB) (NÃO ELEITO) 1T": 0.0, "SIMONE TEBET (MDB) (NÃO ELEITO) 1T": 1.0, "SOFIA MANZANO (PCB) (NÃO ELEITO) 1T": 0.0, "SORAYA THRONICKE (UNIÃO) (NÃO ELEITO) 1T": 0.0, "VERA (PSTU) (NÃO ELEITO) 1T": 0.0, "Total_Votos_Validos 1T": 383.0, "Votos_Brancos 1T": 2.0, "Votos_Nulos 1T": 10.0, "Abstenções 1T": 79.0, "Eleitores_Aptos 1T": 474.0, "JAIR BOLSONARO (PL) (NÃO ELEITO) 2T": 48.0, "LULA (PT) (ELEITO) 2T": 308.0, "Total_Votos_Validos 2T": 356.0, "Votos_Brancos 2T": 6.0, "Votos_Nulos 2T": 6.0, "Abstenções 2T": 106.0, "Eleitores_Aptos 2T": 474.0, "mun_code_y": "2302057", "mun_code": "2302057" }, "geometry": { "type": "Polygon", "coordinates": [ [ [ 6427821.44408287294209, 9662506.356682315468788 ], [ 6427971.269548953510821, 9661369.592565517872572 ], [ 6428099.522375518456101, 9660377.067029017955065 ], [ 6428240.166113654151559, 9659318.514798505231738 ], [ 6428260.796236949972808, 9659226.652885649353266 ], [ 6428249.585238426923752, 9659107.127421729266644 ], [ 6428214.191534696146846, 9659032.228012692183256 ], [ 6428185.811283302493393, 9659011.496662700548768 ], [ 6428152.971060194075108, 9659014.422686161473393 ], [ 6428132.769117284566164, 9658989.524963039904833 ], [ 6428012.156207045540214, 9658912.409016476944089 ], [ 6427939.424047458916903, 9658819.877898259088397 ], [ 6427810.134356925264001, 9658648.084008131176233 ], [ 6427738.342840359546244, 9658615.189210865646601 ], [ 6427674.604809050448239, 9658583.628204056993127 ], [ 6427658.122344067320228, 9658552.621800372377038 ], [ 6427561.957455393858254, 9658516.533842034637928 ], [ 6427425.972779402509332, 9658422.641325581818819 ], [ 6427352.415741417557001, 9658280.533429007977247 ], [ 6427295.179912754334509, 9658217.469880420714617 ], [ 6427227.974001551046968, 9658154.603446993976831 ], [ 6427164.755997180007398, 9658120.940246628597379 ], [ 6425019.66739905346185, 9655203.773815609514713 ], [ 6424963.578900569118559, 9655161.078138275071979 ], [ 6424886.435663543641567, 9655102.433000123128295 ], [ 6424799.837704036384821, 9655036.747211642563343 ], [ 6424717.401489539071918, 9654974.231822138652205 ], [ 6424640.179328889586031, 9654924.940865660086274 ], [ 6424552.490249598398805, 9654902.527924126014113 ], [ 6424454.710353310219944, 9654905.888682466000319 ], [ 6424353.198063358664513, 9654912.331760978326201 ], [ 6424253.886543452739716, 9654917.796347677707672 ], [ 6424154.623714509420097, 9654924.563890310004354 ], [ 6424056.986282417550683, 9654931.527395745739341 ], [ 6424058.428184174001217, 9655050.198321990668774 ], [ 6424100.528859306126833, 9655170.143853440880775 ], [ 6424115.827637061476707, 9655213.730730675160885 ], [ 6424198.405404317192733, 9655536.905650589615107 ], [ 6424308.099890924990177, 9656012.900540651753545 ], [ 6424359.615870412439108, 9656239.137764599174261 ], [ 6424421.374890377745032, 9656518.942603217437863 ], [ 6424426.422567527741194, 9656655.528826240450144 ], [ 6424435.854885417968035, 9657113.397712681442499 ], [ 6424444.846884530968964, 9657480.968220800161362 ], [ 6424351.065301256254315, 9657470.873771226033568 ], [ 6424197.627015898004174, 9657450.225900858640671 ], [ 6424147.815897889435291, 9657581.948313284665346 ], [ 6423930.666220853105187, 9658631.437941059470177 ], [ 6423877.333029843866825, 9658910.916608838364482 ], [ 6423761.841030543670058, 9659443.980921514332294 ], [ 6423697.973656395450234, 9659806.036498950794339 ], [ 6423647.344845373183489, 9660129.949281100183725 ], [ 6419961.105503644794226, 9662002.112368695437908 ], [ 6420084.336232151836157, 9662014.850970320403576 ], [ 6420286.738728024996817, 9662006.552415052428842 ], [ 6420528.752004342153668, 9661910.222778830677271 ], [ 6420793.177461737766862, 9661988.61585178412497 ], [ 6420987.438641110435128, 9662013.847923822700977 ], [ 6421222.227902402170002, 9662098.333004163578153 ], [ 6421485.93832747079432, 9662234.352206384763122 ], [ 6421706.244547767564654, 9662326.851525338366628 ], [ 6421924.641639266163111, 9662295.957115389406681 ], [ 6422304.938822904601693, 9662475.957162395119667 ], [ 6422641.945046356879175, 9662905.558521203696728 ], [ 6422837.350381974130869, 9663188.959386838600039 ], [ 6422910.560852972790599, 9663637.360480239614844 ], [ 6422948.086147638037801, 9663742.267484851181507 ], [ 6422892.722553671337664, 9663842.433297164738178 ], [ 6422780.403728043660522, 9663912.707724004983902 ], [ 6422666.129170345142484, 9664048.114703228697181 ], [ 6422621.509874409064651, 9664153.641107361763716 ], [ 6422637.942507251165807, 9664241.062676887959242 ], [ 6422727.521168830804527, 9664329.589919021353126 ], [ 6422678.958734648302197, 9664466.628713069483638 ], [ 6422582.626929147168994, 9664524.405428031459451 ], [ 6422488.863706019707024, 9664615.285267131403089 ], [ 6421641.145815273746848, 9667961.27358153834939 ], [ 6422770.970121456310153, 9668117.686500886455178 ], [ 6423296.821554383262992, 9668187.758731290698051 ], [ 6423341.775496331974864, 9668193.911078259348869 ], [ 6423765.407783126458526, 9668035.339577630162239 ], [ 6423975.108936233446002, 9667897.027074012905359 ], [ 6424826.742909357883036, 9668008.93028155900538 ], [ 6425346.735997944138944, 9668083.89397825486958 ], [ 6426003.192097021266818, 9667747.091439174488187 ], [ 6426059.11911048553884, 9667763.955078182742 ], [ 6426121.179785038344562, 9667766.793021574616432 ], [ 6426214.529907651245594, 9667773.796108392998576 ], [ 6426286.170810991898179, 9667781.206435613334179 ], [ 6426325.802829816006124, 9667807.258175116032362 ], [ 6426359.704573759809136, 9667837.819608507677913 ], [ 6426393.551806980744004, 9667859.663696056231856 ], [ 6426480.002227086573839, 9667884.703559121116996 ], [ 6426664.951601141132414, 9667950.131932968273759 ], [ 6426730.790785051882267, 9667869.57737292535603 ], [ 6426755.122111966833472, 9667821.03725671581924 ], [ 6426785.501674100756645, 9667748.030566224828362 ], [ 6426820.786097146570683, 9667572.469595357775688 ], [ 6426837.613274508155882, 9667521.10145172663033 ], [ 6426895.19022055901587, 9667474.775896018370986 ], [ 6426983.693017614074051, 9667402.609784541651607 ], [ 6426967.150151363573968, 9667223.84381128102541 ], [ 6426954.494254731573164, 9667164.922893518581986 ], [ 6426936.102211596444249, 9667022.094249190762639 ], [ 6426924.965948339551687, 9666971.681492075324059 ], [ 6426905.90457748901099, 9666873.630796149373055 ], [ 6426891.215488709509373, 9666859.786908537149429 ], [ 6426838.50547088123858, 9666810.101238314062357 ], [ 6426750.805266286246479, 9666725.162845568731427 ], [ 6426701.443083342164755, 9666688.283925639465451 ], [ 6427175.933971455320716, 9666529.609646808356047 ], [ 6427206.580863917246461, 9666519.359895156696439 ], [ 6427286.629032037220895, 9666494.801309775561094 ], [ 6427290.651392496190965, 9666449.757690092548728 ], [ 6427302.511444402858615, 9666339.389594729989767 ], [ 6427697.160822553560138, 9663428.342551508918405 ], [ 6427821.44408287294209, 9662506.356682315468788 ] ] ] } },
{ "type": "Feature", "properties": { "lv_id": "LOC_016642", "id": 69263.0, "CD_SETOR": "230205705000005", "SITUACAO": "Rural", "CD_SIT": "8", "CD_TIPO": "0", "AREA_KM2": 63.028630076902182, "CD_REGIAO": "2", "NM_REGIAO": "Nordeste", "CD_UF": "23", "NM_UF": "Ceará", "CD_MUN": "2302057", "NM_MUN": "Barroquinha", "CD_DIST": "230205705", "NM_DIST": "Barroquinha", "CD_SUBDIST": "23020570500", "NM_SUBDIST": null, "CD_BAIRRO": null, "NM_BAIRRO": null, "CD_NU": null, "NM_NU": null, "CD_FCU": null, "NM_FCU": null, "CD_AGLOM": "230205700004", "NM_AGLOM": "Picada Nova", "CD_RGINT": "2306", "NM_RGINT": "Sobral", "CD_RGI": "230018", "NM_RGI": "Camocim", "CD_CONCURB": null, "NM_CONCURB": null, "mun_code_x": "2302057", "index_right": 13738, "dist_m": 295.93964204379057, "local_id": 166928, "ano": 2022, "cod_localidade_ibge": 2302057, "NR_ZONA": "108", "nr_cep": 62410000.0, "nm_localidade": "BARROQUINHA", "nm_locvot": "EEF JOÃO ANTUNES DE AGUIAR", "ds_endereco": "POVOADO PICADA NOVA", "ds_bairro": "POVOADO PICADA NOVA", "pred_long": -41.1042106, "pred_lat": -2.9249308, "pred_dist": 0.0, "tse_long": -41.1091054, "tse_lat": -2.9241239, "long": -41.1091054, "lat": -2.9241239, "ID_UNICO": "LOC_016642", "SG_UF": "CE", "CD_MUNICIPIO": "13404", "NR_LOCAL_VOTACAO": "1180", "QT_SECOES_AGREGADAS": 0, "QT_ELEITORES_TRANSFERIDOS": 2, "CIRO GOMES (PDT) (NÃO ELEITO) 1T": 19.0, "CONSTITUINTE EYMAEL (DC) (NÃO ELEITO) 1T": 0.0, "FELIPE D AVILA (NOVO) (NÃO ELEITO) 1T": 0.0, "JAIR BOLSONARO (PL) (2º TURNO) 1T": 39.0, "LULA (PT) (2º TURNO) 1T": 268.0, "LÉO PÉRICLES (UP) (NÃO ELEITO) 1T": 0.0, "PADRE KELMON (PTB) (NÃO ELEITO) 1T": 1.0, "SIMONE TEBET (MDB) (NÃO ELEITO) 1T": 1.0, "SOFIA MANZANO (PCB) (NÃO ELEITO) 1T": 0.0, "SORAYA THRONICKE (UNIÃO) (NÃO ELEITO) 1T": 0.0, "VERA (PSTU) (NÃO ELEITO) 1T": 0.0, "Total_Votos_Validos 1T": 328.0, "Votos_Brancos 1T": 4.0, "Votos_Nulos 1T": 7.0, "Abstenções 1T": 88.0, "Eleitores_Aptos 1T": 427.0, "JAIR BOLSONARO (PL) (NÃO ELEITO) 2T": 42.0, "LULA (PT) (ELEITO) 2T": 285.0, "Total_Votos_Validos 2T": 327.0, "Votos_Brancos 2T": 4.0, "Votos_Nulos 2T": 5.0, "Abstenções 2T": 91.0, "Eleitores_Aptos 2T": 427.0, "mun_code_y": "2302057", "mun_code": "2302057" }, "geometry": { "type": "Polygon", "coordinates": [ [ [ 6433737.143577917478979, 9656359.966571822762489 ], [ 6433624.679429302923381, 9656355.090858092531562 ], [ 6433548.444417335093021, 9656364.174053005874157 ], [ 6432769.252404564991593, 9656516.411405880004168 ], [ 6432678.392814924940467, 9656536.371645297855139 ], [ 6432353.052441151812673, 9656596.356591124087572 ], [ 6431519.212358277291059, 9656762.52366853132844 ], [ 6431474.924922041594982, 9656771.349446622654796 ], [ 6431483.152583967894316, 9656812.978973550722003 ], [ 6431494.773334763944149, 9656925.663244275376201 ], [ 6431515.909388793632388, 9657089.3279153034091 ], [ 6431528.148333798162639, 9657176.197683289647102 ], [ 6431539.596270019188523, 9657261.999697225168347 ], [ 6431549.502979343757033, 9657339.656007003039122 ], [ 6431554.788572425022721, 9657393.045103956013918 ], [ 6431558.584483181126416, 9657419.952775828540325 ], [ 6431562.769423640333116, 9657446.85584544017911 ], [ 6431566.747475614771247, 9657475.076689917594194 ], [ 6431572.211458372883499, 9657522.850950695574284 ], [ 6431579.573077589273453, 9657582.644711405038834 ], [ 6431667.952368122525513, 9658237.954614503309131 ], [ 6431695.367135333828628, 9658514.914038211107254 ], [ 6431640.393857832066715, 9658589.164503278210759 ], [ 6431438.011758768931031, 9658770.549612740054727 ], [ 6431234.08589513041079, 9658953.163311835378408 ], [ 6431079.251497115939856, 9659091.881615499034524 ], [ 6431075.279718742705882, 9659095.443435193970799 ], [ 6431012.203728754073381, 9659151.961945708841085 ], [ 6430870.407758570276201, 9659279.174293987452984 ], [ 6430820.024540696293116, 9659324.02238393202424 ], [ 6430686.31324124801904, 9659443.903651023283601 ], [ 6430590.811875824816525, 9659529.465871434658766 ], [ 6430496.3774024695158, 9659614.073808094486594 ], [ 6430406.244356166571379, 9659694.809473466128111 ], [ 6430303.656117528676987, 9659786.711951516568661 ], [ 6430229.388323936611414, 9659853.245685659348965 ], [ 6430174.985094755887985, 9659895.735029432922602 ], [ 6429941.394359707832336, 9659678.290302682667971 ], [ 6429329.122156043536961, 9659072.507042555138469 ], [ 6428786.319489372894168, 9658535.496419984847307 ], [ 6428708.587760159745812, 9658458.589930148795247 ], [ 6428397.827291434630752, 9658174.786144468933344 ], [ 6428372.400708856061101, 9658290.639726784080267 ], [ 6428330.549203544855118, 9658667.747703723609447 ], [ 6428260.796236949972808, 9659226.652885649353266 ], [ 6428240.166113654151559, 9659318.514798505231738 ], [ 6428099.522375518456101, 9660377.067029017955065 ], [ 6427971.269548953510821, 9661369.592565517872572 ], [ 6427821.44408287294209, 9662506.356682315468788 ], [ 6427697.160822553560138, 9663428.342551508918405 ], [ 6427302.511444402858615, 9666339.389594729989767 ], [ 6427290.651392496190965, 9666449.757690092548728 ], [ 6427286.629032037220895, 9666494.801309775561094 ], [ 6428052.961738409474492, 9666691.251022631302476 ], [ 6428323.29483500868082, 9666897.592879710718989 ], [ 6428426.097386432811618, 9666841.412230366840959 ], [ 6428473.255345133133233, 9666837.060569217428565 ], [ 6428530.422592655755579, 9666852.468750197440386 ], [ 6428667.03698106482625, 9666869.559819001704454 ], [ 6428727.221782459877431, 9666885.364225214347243 ], [ 6428782.674769191071391, 9666907.413508528843522 ], [ 6428838.782567420974374, 9666893.287720669060946 ], [ 6428877.278490792028606, 9666910.293964942917228 ], [ 6428895.110324002802372, 9666939.397211685776711 ], [ 6428921.562996165826917, 9666967.902514301240444 ], [ 6429025.245957733131945, 9667033.785335648804903 ], [ 6429091.542986304499209, 9667073.726287003606558 ], [ 6429158.0640465375036, 9667104.061586309224367 ], [ 6429232.702291644178331, 9667116.922605073079467 ], [ 6429333.453073360025883, 9667157.715122204273939 ], [ 6429401.082754651084542, 9667209.228779198601842 ], [ 6429465.925734179094434, 9667259.141985038295388 ], [ 6429515.072873851284385, 9667314.201797602698207 ], [ 6429517.046642178669572, 9667357.649281622841954 ], [ 6429596.287885413505137, 9667643.853651698678732 ], [ 6429772.183845303021371, 9667955.062692537903786 ], [ 6429851.682657298631966, 9668184.157540278509259 ], [ 6429949.588941405527294, 9668373.85778789781034 ], [ 6430179.685865817591548, 9668627.762459397315979 ], [ 6430610.094995373860002, 9669410.666143359616399 ], [ 6430760.885622942820191, 9669628.865647589787841 ], [ 6431978.894540603272617, 9671994.965381169691682 ], [ 6432108.813458081334829, 9672260.718818852677941 ], [ 6432216.533495083451271, 9672595.372887641191483 ], [ 6432223.821695221588016, 9672789.914635187014937 ], [ 6432317.104221713729203, 9672879.798473199829459 ], [ 6432400.676563812419772, 9672899.036297127604485 ], [ 6432445.902688018977642, 9672867.931301858276129 ], [ 6432491.128630091436207, 9672836.81485684774816 ], [ 6432551.00817608460784, 9672770.981762239709496 ], [ 6432637.698590879328549, 9672504.638678699731827 ], [ 6432732.118953517638147, 9672104.379772836342454 ], [ 6432902.528128898702562, 9671770.202299948781729 ], [ 6433151.094862943515182, 9671483.256363382562995 ], [ 6433917.901849953457713, 9671106.716500738635659 ], [ 6433971.901674815453589, 9671058.258748944848776 ], [ 6433985.712885897606611, 9671053.520109048113227 ], [ 6434195.464455530978739, 9670844.143128955736756 ], [ 6434362.962388100102544, 9670751.58151151612401 ], [ 6434519.060665198601782, 9670687.271936751902103 ], [ 6434716.610570024698973, 9670620.220334425568581 ], [ 6434871.310645052231848, 9670581.735012963414192 ], [ 6435103.035998328588903, 9670540.022067986428738 ], [ 6435192.752541937865317, 9670520.546826766803861 ], [ 6435404.460506025701761, 9670446.105980234220624 ], [ 6435502.06139366235584, 9670384.580461313948035 ], [ 6435605.858306112699211, 9670311.575138268992305 ], [ 6435662.363334917463362, 9670263.628080645576119 ], [ 6435707.441159010864794, 9670191.406767576932907 ], [ 6435758.375050323083997, 9670081.671868467703462 ], [ 6435726.3757458422333, 9669986.585031162947416 ], [ 6435713.522504881024361, 9669859.21965965628624 ], [ 6435800.093659039586782, 9669741.046892371028662 ], [ 6435849.334317452274263, 9669612.606942413374782 ], [ 6435914.003208873793483, 9669433.013806285336614 ], [ 6435978.392703377641737, 9669244.61137567833066 ], [ 6436049.622396504506469, 9669145.436973651871085 ], [ 6436137.592551426962018, 9669105.551633674651384 ], [ 6436240.766110034659505, 9668999.681361433118582 ], [ 6436368.504627804271877, 9668926.472964663058519 ], [ 6436464.576702903024852, 9668892.197651483118534 ], [ 6436519.429149615578353, 9668781.470891309902072 ], [ 6436518.228291909210384, 9668690.746838459745049 ], [ 6436519.970062721520662, 9668619.222976645454764 ], [ 6436503.660538871772587, 9668468.203482652083039 ], [ 6436522.677071109414101, 9668363.331672858446836 ], [ 6436610.700485344044864, 9668083.832796650007367 ], [ 6436707.874707433395088, 9667889.271993763744831 ], [ 6436800.484814192168415, 9667772.141596570611 ], [ 6436880.605655444785953, 9667735.448446733877063 ], [ 6436982.295803851447999, 9667745.424016902223229 ], [ 6437068.216706315986812, 9667780.361597109586 ], [ 6437120.988758855499327, 9667816.77028739079833 ], [ 6437220.111009265296161, 9667860.810290653258562 ], [ 6437309.10218808427453, 9667898.809086967259645 ], [ 6437385.219662768766284, 9667914.546333760023117 ], [ 6437504.130523668602109, 9667896.186263162642717 ], [ 6437561.758234094828367, 9667843.85114173963666 ], [ 6437621.019801436923444, 9667758.437180897220969 ], [ 6437693.153930417262018, 9667666.046844249591231 ], [ 6437760.436390856280923, 9667552.934724291786551 ], [ 6437853.347921382635832, 9667350.711949964985251 ], [ 6437916.041114449501038, 9667035.253214810043573 ], [ 6437931.06686843931675, 9666804.055502340197563 ], [ 6437909.209048199467361, 9666672.351527512073517 ], [ 6437857.027553758583963, 9666528.682180762290955 ], [ 6437785.358600798994303, 9666432.713887117803097 ], [ 6437675.836547726765275, 9666342.923282619565725 ], [ 6437481.787488637492061, 9666288.31781530380249 ], [ 6437331.052294665016234, 9666294.475844522938132 ], [ 6437118.281454861164093, 9666324.159085731953382 ], [ 6436951.61389047652483, 9666342.896669628098607 ], [ 6436850.865757792256773, 9666327.766333315521479 ], [ 6436764.853362001478672, 9666211.361032150685787 ], [ 6436748.690548613667488, 9666054.850737078115344 ], [ 6436795.137557642534375, 9665918.096440913155675 ], [ 6436863.101388306356966, 9665844.533485924825072 ], [ 6437023.724648771807551, 9665717.976041054353118 ], [ 6437112.342903573065996, 9665619.108443401753902 ], [ 6437185.244935245253146, 9665531.310100052505732 ], [ 6437236.481676297262311, 9665440.972964512184262 ], [ 6437264.357462117448449, 9665392.959775879979134 ], [ 6437348.774309259839356, 9665259.59381115436554 ], [ 6437511.420794196426868, 9664990.651725171133876 ], [ 6437608.78044216055423, 9664851.836267942562699 ], [ 6437784.359793794341385, 9664546.967851631343365 ], [ 6437826.372518754564226, 9664480.392358504235744 ], [ 6437951.906548004597425, 9664246.782370930537581 ], [ 6438008.781288079917431, 9664148.33334899507463 ], [ 6438011.003364951349795, 9664050.181358544155955 ], [ 6437983.279281950555742, 9663983.272889023646712 ], [ 6437931.758045903407037, 9663939.971565378829837 ], [ 6437869.173203871585429, 9663896.561344025656581 ], [ 6437806.637405772693455, 9663868.915190266445279 ], [ 6437742.696748746559024, 9663838.041907019913197 ], [ 6437624.625626605004072, 9663831.401833327487111 ], [ 6437562.814865975640714, 9663821.247040146961808 ], [ 6437457.34952100366354, 9663753.931721219792962 ], [ 6437405.454242714680731, 9663683.133363958448172 ], [ 6437366.003705085255206, 9663540.683761913329363 ], [ 6437353.471197942271829, 9663406.108309760689735 ], [ 6437359.520391049794853, 9663257.524869965389371 ], [ 6437325.030645858496428, 9663084.759778520092368 ], [ 6437272.759604485705495, 9662986.476330516859889 ], [ 6437193.355804479680955, 9662863.809770694002509 ], [ 6437024.965527068823576, 9662703.864106677472591 ], [ 6436921.687207750976086, 9662582.783022852614522 ], [ 6436866.669910029508173, 9662497.03162344545126 ], [ 6436845.828179580159485, 9662343.321892702952027 ], [ 6436859.620389402844012, 9662172.64848824031651 ], [ 6436857.884178023785353, 9662043.426920121535659 ], [ 6436827.096235991455615, 9661947.605180429294705 ], [ 6436696.763636113144457, 9661627.664191316813231 ], [ 6436674.236793987452984, 9661548.224705427885056 ], [ 6436608.784559638239443, 9661407.731195425614715 ], [ 6436561.367168067954481, 9661213.089091289788485 ], [ 6436586.878986440598965, 9661116.505037212744355 ], [ 6436670.345316716469824, 9661067.449364624917507 ], [ 6436735.579733707010746, 9661041.369110917672515 ], [ 6436812.472533211112022, 9660976.830386891961098 ], [ 6436826.495072884485126, 9660878.97415541484952 ], [ 6436806.080594768747687, 9660816.850374853238463 ], [ 6436739.155681418254972, 9660758.08679298684001 ], [ 6436672.2001364659518, 9660658.621226102113724 ], [ 6436670.555663434788585, 9660573.980578351765871 ], [ 6436673.824187379330397, 9660504.501579759642482 ], [ 6436711.410133535973728, 9660268.35994977876544 ], [ 6436791.665037266910076, 9660180.632619498297572 ], [ 6436839.316417624242604, 9660135.12629091180861 ], [ 6436891.769385930150747, 9660111.383265176787972 ], [ 6436977.572139664553106, 9660117.799474542960525 ], [ 6437032.220088977366686, 9660168.597899336367846 ], [ 6437085.001187926158309, 9660349.727652505040169 ], [ 6437168.194831172935665, 9660413.493292657658458 ], [ 6437232.648368034511805, 9660356.844322998076677 ], [ 6437262.231847316026688, 9660275.043300403282046 ], [ 6437250.472078988328576, 9660162.167356472462416 ], [ 6437204.727245228365064, 9660014.296853562816978 ], [ 6437146.961920049972832, 9659967.890267293900251 ], [ 6437002.623616117984056, 9659897.702848508954048 ], [ 6436869.401197005994618, 9659827.373403513804078 ], [ 6436815.224464281462133, 9659772.226676499471068 ], [ 6436821.143383646383882, 9659685.262115683406591 ], [ 6436806.619998185895383, 9659567.249227974563837 ], [ 6436749.739784047007561, 9659469.277517395094037 ], [ 6436690.091954459436238, 9659401.732602620497346 ], [ 6436597.014738567173481, 9659365.577803755179048 ], [ 6436453.105169430375099, 9659326.315563507378101 ], [ 6436387.329296820797026, 9659281.34414323605597 ], [ 6436422.378004332073033, 9659166.205913947895169 ], [ 6436458.363490421324968, 9659090.216268744319677 ], [ 6436517.396197896450758, 9659035.149837685748935 ], [ 6436569.341182243078947, 9658964.437198806554079 ], [ 6436580.031636509113014, 9658811.560090102255344 ], [ 6436569.473977928049862, 9658740.883855110034347 ], [ 6436539.072309310548007, 9658644.721562394872308 ], [ 6436526.849861410446465, 9658562.962477693334222 ], [ 6436445.44539581798017, 9658568.42918330617249 ], [ 6436370.308775716461241, 9658557.604188669472933 ], [ 6436343.888173997402191, 9658492.786892421543598 ], [ 6436276.10464979428798, 9658449.22483834438026 ], [ 6436197.826784007251263, 9658412.330928632989526 ], [ 6436131.164644188247621, 9658489.750142401084304 ], [ 6436075.39195229485631, 9658512.763378722593188 ], [ 6436019.79041032679379, 9658466.119999190792441 ], [ 6435977.663776556029916, 9658407.227975975722075 ], [ 6435921.040067782625556, 9658390.921912653371692 ], [ 6435868.752379297278821, 9658376.526441879570484 ], [ 6435855.478939857333899, 9658293.341498939320445 ], [ 6435875.905517070554197, 9658238.811829155310988 ], [ 6435924.660170302726328, 9658206.11719879321754 ], [ 6435884.436764349229634, 9658108.679018519818783 ], [ 6435838.445519788190722, 9658071.93643175624311 ], [ 6435851.728031706064939, 9658012.149935711175203 ], [ 6435854.326529758051038, 9657962.753390092402697 ], [ 6435922.42744021397084, 9657993.57457204349339 ], [ 6435919.526421753689647, 9657906.694263976067305 ], [ 6435932.537914797663689, 9657852.252173457294703 ], [ 6435978.621037782169878, 9657817.433776339516044 ], [ 6435994.556614213623106, 9657776.248088521882892 ], [ 6435983.137053315527737, 9657709.03138143196702 ], [ 6436012.602999782189727, 9657643.359190113842487 ], [ 6436039.73790811188519, 9657594.997764829546213 ], [ 6435958.04415662586689, 9657584.332493992522359 ], [ 6435863.895641767419875, 9657552.619518605992198 ], [ 6435808.11697175912559, 9657496.692370884120464 ], [ 6435813.640115717425942, 9657436.113275393843651 ], [ 6435772.965835035778582, 9657402.495347240939736 ], [ 6435725.276452074758708, 9657410.387975879013538 ], [ 6435691.575773785822093, 9657311.932695103809237 ], [ 6435634.200774148106575, 9657275.281478343531489 ], [ 6435577.272197285667062, 9657241.607632268220186 ], [ 6435583.398317044600844, 9657177.517585542052984 ], [ 6435536.848135235719383, 9657159.438518427312374 ], [ 6435489.546598674729466, 9657130.436200074851513 ], [ 6435435.998082235455513, 9657154.32076520845294 ], [ 6435395.293234505690634, 9657176.589637396857142 ], [ 6435304.784068206325173, 9657193.31520626321435 ], [ 6435220.574003830552101, 9657128.55318396538496 ], [ 6435142.698124745860696, 9657082.427754333242774 ], [ 6435125.743820996955037, 9657022.99045180156827 ], [ 6435104.169230446219444, 9656973.372184049338102 ], [ 6435048.179242556914687, 9656941.048999469727278 ], [ 6434990.390490257181227, 9656893.834829723462462 ], [ 6434946.784438686445355, 9656838.831466576084495 ], [ 6434882.086290683597326, 9656820.36795693449676 ], [ 6434811.742859367281199, 9656790.790193684399128 ], [ 6434734.879956526681781, 9656799.449825119227171 ], [ 6434656.047566395252943, 9656896.574673198163509 ], [ 6434613.169249071739614, 9656886.30003316514194 ], [ 6434524.472644748166203, 9656811.591398755088449 ], [ 6434450.662342637777328, 9656752.933750420808792 ], [ 6434427.762507893145084, 9656648.480586251243949 ], [ 6434352.238672359846532, 9656617.037295773625374 ], [ 6434262.260317329317331, 9656633.473503265529871 ], [ 6434210.855404615402222, 9656608.150486072525382 ], [ 6434154.636257308535278, 9656565.82951407879591 ], [ 6434092.377786707133055, 9656522.344490936025977 ], [ 6434046.093136800453067, 9656501.326694963499904 ], [ 6433985.834181333892047, 9656491.622356407344341 ], [ 6433941.142009232193232, 9656472.717597538605332 ], [ 6433916.210546668618917, 9656433.540185099467635 ], [ 6433913.155194841325283, 9656404.501126078888774 ], [ 6433737.143577917478979, 9656359.966571822762489 ] ] ] } },
{ "type": "Feature", "properties": { "lv_id": "LOC_016643", "id": 69294.0, "CD_SETOR": "230205715000003", "SITUACAO": "Urbana", "CD_SIT": "1", "CD_TIPO": "0", "AREA_KM2": 0.258123150383749, "CD_REGIAO": "2", "NM_REGIAO": "Nordeste", "CD_UF": "23", "NM_UF": "Ceará", "CD_MUN": "2302057", "NM_MUN": "Barroquinha", "CD_DIST": "230205715", "NM_DIST": "Bitupitá", "CD_SUBDIST": "23020571500", "NM_SUBDIST": null, "CD_BAIRRO": null, "NM_BAIRRO": null, "CD_NU": null, "NM_NU": null, "CD_FCU": null, "NM_FCU": null, "CD_AGLOM": null, "NM_AGLOM": null, "CD_RGINT": "2306", "NM_RGINT": "Sobral", "CD_RGI": "230018", "NM_RGI": "Camocim", "CD_CONCURB": null, "NM_CONCURB": null, "mun_code_x": "2302057", "index_right": 13747, "dist_m": 7.8597188884277855, "local_id": 166937, "ano": 2022, "cod_localidade_ibge": 2302057, "NR_ZONA": "108", "nr_cep": 62410000.0, "nm_localidade": "BARROQUINHA", "nm_locvot": "UBS II - DR. JOSÉ ALVES DA SILVA", "ds_endereco": "RUA DA CABEÇA, S/N", "ds_bairro": "DISTRITO BITUPITÁ", "pred_long": -41.268401, "pred_lat": -2.8900265, "pred_dist": 0.0, "tse_long": -41.2686942, "tse_lat": -2.8897312, "long": -41.2686942, "lat": -2.8897312, "ID_UNICO": "LOC_016643", "SG_UF": "CE", "CD_MUNICIPIO": "13404", "NR_LOCAL_VOTACAO": "1252", "QT_SECOES_AGREGADAS": 0, "QT_ELEITORES_TRANSFERIDOS": 0, "CIRO GOMES (PDT) (NÃO ELEITO) 1T": 13.0, "CONSTITUINTE EYMAEL (DC) (NÃO ELEITO) 1T": 0.0, "FELIPE D AVILA (NOVO) (NÃO ELEITO) 1T": 0.0, "JAIR BOLSONARO (PL) (2º TURNO) 1T": 43.0, "LULA (PT) (2º TURNO) 1T": 144.0, "LÉO PÉRICLES (UP) (NÃO ELEITO) 1T": 0.0, "PADRE KELMON (PTB) (NÃO ELEITO) 1T": 0.0, "SIMONE TEBET (MDB) (NÃO ELEITO) 1T": 1.0, "SOFIA MANZANO (PCB) (NÃO ELEITO) 1T": 0.0, "SORAYA THRONICKE (UNIÃO) (NÃO ELEITO) 1T": 2.0, "VERA (PSTU) (NÃO ELEITO) 1T": 0.0, "Total_Votos_Validos 1T": 203.0, "Votos_Brancos 1T": 3.0, "Votos_Nulos 1T": 4.0, "Abstenções 1T": 51.0, "Eleitores_Aptos 1T": 261.0, "JAIR BOLSONARO (PL) (NÃO ELEITO) 2T": 50.0, "LULA (PT) (ELEITO) 2T": 155.0, "Total_Votos_Validos 2T": 205.0, "Votos_Brancos 2T": 1.0, "Votos_Nulos 2T": 4.0, "Abstenções 2T": 51.0, "Eleitores_Aptos 2T": 261.0, "mun_code_y": "2302057", "mun_code": "2302057" }, "geometry": { "type": "Polygon", "coordinates": [ [ [ 6416055.447979412972927, 9672186.902567440643907 ], [ 6415935.20814950671047, 9672190.552081923931837 ], [ 6415906.916470845229924, 9672192.002739669755101 ], [ 6415874.567867888137698, 9672195.572785872966051 ], [ 6415844.517214890569448, 9672199.819667181000113 ], [ 6415810.342723207548261, 9672204.169453971087933 ], [ 6415788.481837260536849, 9672210.001678161323071 ], [ 6415759.986099581234157, 9672218.095513856038451 ], [ 6415734.903049280866981, 9672227.125661099329591 ], [ 6415714.172296479344368, 9672233.602460218593478 ], [ 6415687.884267764165998, 9672238.260352570563555 ], [ 6415663.337800136767328, 9672244.553265128284693 ], [ 6415634.23515672981739, 9672247.066830117255449 ], [ 6415609.220326114445925, 9672250.237165501341224 ], [ 6415580.001137379556894, 9672255.267853073775768 ], [ 6415548.379855331033468, 9672261.254731681197882 ], [ 6415522.136458951979876, 9672263.928839817643166 ], [ 6415499.998095044866204, 9672265.808960855007172 ], [ 6415492.645813649520278, 9672267.545953305438161 ], [ 6415478.066275540739298, 9672263.267060957849026 ], [ 6415448.698288078419864, 9672257.918738441541791 ], [ 6415415.86944292485714, 9672248.302861040458083 ], [ 6415377.763250366784632, 9672238.043553877621889 ], [ 6415347.187863050028682, 9672230.102314662188292 ], [ 6415321.317252025008202, 9672224.306837184354663 ], [ 6415288.036968054249883, 9672217.087226154282689 ], [ 6415262.709111087024212, 9672210.107097567990422 ], [ 6415239.280273247510195, 9672202.924363790079951 ], [ 6415213.302814332768321, 9672191.520542846992612 ], [ 6415178.749494762159884, 9672174.807323036715388 ], [ 6415101.89863601513207, 9672135.869605300948024 ], [ 6415079.553945614024997, 9672187.172669632360339 ], [ 6415066.340863401070237, 9672221.782647851854563 ], [ 6415053.87809794396162, 9672240.881464045494795 ], [ 6415044.256607200950384, 9672252.525696760043502 ], [ 6415035.742058796808124, 9672254.728965429589152 ], [ 6415022.128006759099662, 9672257.284036077558994 ], [ 6415007.958378060720861, 9672258.870745956897736 ], [ 6415000.608591413125396, 9672277.832867750898004 ], [ 6414994.588600005023181, 9672291.397198315709829 ], [ 6414981.346647925674915, 9672319.423236574977636 ], [ 6414973.862249096855521, 9672335.281764380633831 ], [ 6414954.193691320717335, 9672324.294471861794591 ], [ 6414931.685593882575631, 9672312.919716207310557 ], [ 6414911.446690762415528, 9672300.635621188208461 ], [ 6414896.540720467455685, 9672331.003342811018229 ], [ 6414846.721672934480011, 9672429.336808850988746 ], [ 6414846.901688240468502, 9672429.527441652491689 ], [ 6414847.104189718142152, 9672429.740487216040492 ], [ 6414852.218194951303303, 9672433.694840045645833 ], [ 6414858.285344177857041, 9672438.375117870047688 ], [ 6414873.481323624029756, 9672450.103835690766573 ], [ 6414901.329155001789331, 9672471.742628695443273 ], [ 6414915.293929705396295, 9672482.737232139334083 ], [ 6414958.465547684580088, 9672516.602047484368086 ], [ 6414959.833929440937936, 9672517.674628127366304 ], [ 6414979.459612388163805, 9672528.809852052479982 ], [ 6415016.75313155259937, 9672549.991689322516322 ], [ 6415028.45271223038435, 9672559.255209773778915 ], [ 6415076.496736505068839, 9672597.349319644272327 ], [ 6415076.687365040183067, 9672597.494506226852536 ], [ 6415114.383732282556593, 9672630.922307474538684 ], [ 6415128.658380148001015, 9672641.788918823003769 ], [ 6415160.752922742627561, 9672666.383578384295106 ], [ 6415245.041401320137084, 9672709.296483036130667 ], [ 6415340.256159061565995, 9672752.914540665224195 ], [ 6415343.831281783990562, 9672754.461069107055664 ], [ 6415484.89286657050252, 9672815.539582444354892 ], [ 6415562.514398676343262, 9672611.567998569458723 ], [ 6415566.887763882055879, 9672607.903914362192154 ], [ 6415588.545744928531349, 9672589.801133634522557 ], [ 6415589.31689765676856, 9672589.157869361341 ], [ 6415590.076933158561587, 9672588.514729591086507 ], [ 6415746.595224285498261, 9672457.659582190215588 ], [ 6415752.114416906610131, 9672453.053324678912759 ], [ 6416101.107073135674, 9672184.47504510730505 ], [ 6416055.447979412972927, 9672186.902567440643907 ] ] ] } },
{ "type": "Feature", "properties": { "lv_id": "LOC_016644", "id": 69299.0, "CD_SETOR": "230205715000009", "SITUACAO": "Rural", "CD_SIT": "8", "CD_TIPO": "0", "AREA_KM2": 0.88982349337364497, "CD_REGIAO": "2", "NM_REGIAO": "Nordeste", "CD_UF": "23", "NM_UF": "Ceará", "CD_MUN": "2302057", "NM_MUN": "Barroquinha", "CD_DIST": "230205715", "NM_DIST": "Bitupitá", "CD_SUBDIST": "23020571500", "NM_SUBDIST": null, "CD_BAIRRO": null, "NM_BAIRRO": null, "CD_NU": null, "NM_NU": null, "CD_FCU": null, "NM_FCU": null, "CD_AGLOM": "230205700003", "NM_AGLOM": "Curimãs", "CD_RGINT": "2306", "NM_RGINT": "Sobral", "CD_RGI": "230018", "NM_RGI": "Camocim", "CD_CONCURB": null, "NM_CONCURB": null, "mun_code_x": "2302057", "index_right": 13745, "dist_m": 3727.734294945315, "local_id": 166935, "ano": 2022, "cod_localidade_ibge": 2302057, "NR_ZONA": "108", "nr_cep": 62410000.0, "nm_localidade": "BARROQUINHA", "nm_locvot": "ESCOLA NOSSA SENHORA DO PERPETUO SOCORRO", "ds_endereco": "POVOADO CURIMÃS", "ds_bairro": "POVOADO CURIMÃS", "pred_long": -41.1839593, "pred_lat": -2.8908363, "pred_dist": 0.0, "tse_long": -41.1839702, "tse_lat": -2.8907455, "long": -41.1839702, "lat": -2.8907455, "ID_UNICO": "LOC_016644", "SG_UF": "CE", "CD_MUNICIPIO": "13404", "NR_LOCAL_VOTACAO": "1244", "QT_SECOES_AGREGADAS": 0, "QT_ELEITORES_TRANSFERIDOS": 0, "CIRO GOMES (PDT) (NÃO ELEITO) 1T": 8.0, "CONSTITUINTE EYMAEL (DC) (NÃO ELEITO) 1T": 0.0, "FELIPE D AVILA (NOVO) (NÃO ELEITO) 1T": 0.0, "JAIR BOLSONARO (PL) (2º TURNO) 1T": 51.0, "LULA (PT) (2º TURNO) 1T": 148.0, "LÉO PÉRICLES (UP) (NÃO ELEITO) 1T": 0.0, "PADRE KELMON (PTB) (NÃO ELEITO) 1T": 1.0, "SIMONE TEBET (MDB) (NÃO ELEITO) 1T": 0.0, "SOFIA MANZANO (PCB) (NÃO ELEITO) 1T": 0.0, "SORAYA THRONICKE (UNIÃO) (NÃO ELEITO) 1T": 0.0, "VERA (PSTU) (NÃO ELEITO) 1T": 0.0, "Total_Votos_Validos 1T": 208.0, "Votos_Brancos 1T": 1.0, "Votos_Nulos 1T": 4.0, "Abstenções 1T": 17.0, "Eleitores_Aptos 1T": 230.0, "JAIR BOLSONARO (PL) (NÃO ELEITO) 2T": 53.0, "LULA (PT) (ELEITO) 2T": 159.0, "Total_Votos_Validos 2T": 212.0, "Votos_Brancos 2T": 0.0, "Votos_Nulos 2T": 3.0, "Abstenções 2T": 15.0, "Eleitores_Aptos 2T": 230.0, "mun_code_y": "2302057", "mun_code": "2302057" }, "geometry": { "type": "Polygon", "coordinates": [ [ [ 6422443.707247435115278, 9668503.283694675192237 ], [ 6422009.059115466661751, 9668696.024536345154047 ], [ 6421889.94909037835896, 9668749.204465327784419 ], [ 6421813.050326330587268, 9668801.971534548327327 ], [ 6421722.702724743634462, 9668871.882469639182091 ], [ 6421449.683486142195761, 9669081.986145295202732 ], [ 6421389.224090510047972, 9669129.497761817649007 ], [ 6421346.52863016538322, 9669166.877963891252875 ], [ 6421093.463364820927382, 9669445.097440056502819 ], [ 6420976.444748349487782, 9669563.785413825884461 ], [ 6420919.249113814905286, 9669621.82194471731782 ], [ 6420888.442849257960916, 9669648.739912841469049 ], [ 6420829.406197801232338, 9669680.523201648145914 ], [ 6420716.400278127752244, 9669715.207933666184545 ], [ 6420623.007826237007976, 9669742.053096910938621 ], [ 6420420.101540106348693, 9669802.703476702794433 ], [ 6420314.136908917687833, 9669836.729058979079127 ], [ 6420264.369567213580012, 9669854.396697144955397 ], [ 6420219.754842850379646, 9669868.537543021142483 ], [ 6420164.299513394013047, 9669876.725914262235165 ], [ 6420014.726566728204489, 9669881.888772824779153 ], [ 6419898.708132240921259, 9669886.988693309947848 ], [ 6419836.591647081077099, 9669899.026572160422802 ], [ 6419745.004666806198657, 9669922.335679281502962 ], [ 6419666.645118841901422, 9669937.424842717126012 ], [ 6419465.40280029643327, 9669913.680394595488906 ], [ 6419342.209250776097178, 9669896.668746512383223 ], [ 6419300.909210968762636, 9669904.016152763739228 ], [ 6419195.529518645256758, 9669947.598493289202452 ], [ 6419075.773363492451608, 9670017.898646168410778 ], [ 6418942.690034214407206, 9670096.486645435914397 ], [ 6418882.591093317605555, 9670128.822108821943402 ], [ 6418861.267897026613355, 9670150.790369400754571 ], [ 6418824.222816457040608, 9670166.770774215459824 ], [ 6418783.237244611606002, 9670175.40601503662765 ], [ 6418697.406241493299603, 9670154.853723846375942 ], [ 6418596.079994952306151, 9670138.602236932143569 ], [ 6418465.941163079813123, 9670119.933856016024947 ], [ 6418400.223323756828904, 9670117.220234794542193 ], [ 6418341.897051343694329, 9670111.340249188244343 ], [ 6418296.038554644212127, 9670117.718314256519079 ], [ 6418257.767074702307582, 9670134.392186228185892 ], [ 6418215.843030851334333, 9670145.599150229245424 ], [ 6418121.059945601038635, 9670179.41348977573216 ], [ 6418044.413711740635335, 9670214.473255725577474 ], [ 6416919.971343226730824, 9671609.342643167823553 ], [ 6416887.815105763264, 9671655.0593774151057 ], [ 6416678.90324261970818, 9671936.778733398765326 ], [ 6416542.393353172577918, 9672118.767012668773532 ], [ 6416471.352203628979623, 9672170.268069645389915 ], [ 6416447.484275393188, 9672179.579625602811575 ], [ 6416427.060365222394466, 9672182.653400098904967 ], [ 6416365.106009935960174, 9672187.485172461718321 ], [ 6416295.808378223329782, 9672192.863944601267576 ], [ 6416190.409532529301941, 9672185.320302709937096 ], [ 6416130.621616385877132, 9672184.007898066192865 ], [ 6416101.107073135674, 9672184.47504510730505 ], [ 6415752.114416906610131, 9672453.053324678912759 ], [ 6415746.595224285498261, 9672457.659582190215588 ], [ 6415590.076933158561587, 9672588.514729591086507 ], [ 6415589.31689765676856, 9672589.157869361341 ], [ 6415588.545744928531349, 9672589.801133634522557 ], [ 6415566.887763882055879, 9672607.903914362192154 ], [ 6415562.514398676343262, 9672611.567998569458723 ], [ 6415484.89286657050252, 9672815.539582444354892 ], [ 6415343.831281783990562, 9672754.461069107055664 ], [ 6415340.256159061565995, 9672752.914540665224195 ], [ 6415245.041401320137084, 9672709.296483036130667 ], [ 6415160.752922742627561, 9672666.383578384295106 ], [ 6415128.658380148001015, 9672641.788918823003769 ], [ 6415114.383732282556593, 9672630.922307474538684 ], [ 6415076.687365040183067, 9672597.494506226852536 ], [ 6415076.496736505068839, 9672597.349319644272327 ], [ 6415028.45271223038435, 9672559.255209773778915 ], [ 6415016.75313155259937, 9672549.991689322516322 ], [ 6414979.459612388163805, 9672528.809852052479982 ], [ 6414959.833929440937936, 9672517.674628127366304 ], [ 6414958.465547684580088, 9672516.602047484368086 ], [ 6414915.293929705396295, 9672482.737232139334083 ], [ 6414901.329155001789331, 9672471.742628695443273 ], [ 6414873.481323624029756, 9672450.103835690766573 ], [ 6414858.285344177857041, 9672438.375117870047688 ], [ 6414852.218194951303303, 9672433.694840045645833 ], [ 6414847.104189718142152, 9672429.740487216040492 ], [ 6414846.901688240468502, 9672429.527441652491689 ], [ 6414846.721672934480011, 9672429.336808850988746 ], [ 6414799.789210930466652, 9672379.218505453318357 ], [ 6414789.864864314906299, 9672368.620674602687359 ], [ 6414773.729426382109523, 9672347.394760129973292 ], [ 6414771.189904931932688, 9672343.989531010389328 ], [ 6414767.410870913416147, 9672339.102328978478909 ], [ 6414754.810255398973823, 9672322.800374524667859 ], [ 6414754.584637547843158, 9672322.508263308554888 ], [ 6414744.300281226634979, 9672310.531960964202881 ], [ 6414720.260206831619143, 9672283.365918641909957 ], [ 6414699.237557521089911, 9672259.588442793115973 ], [ 6414659.859207281842828, 9672223.902547776699066 ], [ 6414657.635460614226758, 9672221.898999338969588 ], [ 6414654.405532385222614, 9672218.399540111422539 ], [ 6414625.730559168383479, 9672187.375971438363194 ], [ 6414609.918701917864382, 9672170.260225795209408 ], [ 6414597.009268570691347, 9672154.188522566109896 ], [ 6414589.263555491343141, 9672144.540974501520395 ], [ 6414560.783846240490675, 9672109.084451470524073 ], [ 6414539.47806013468653, 9672087.848791386932135 ], [ 6414517.722413065843284, 9672066.153582854196429 ], [ 6414517.531405269168317, 9672065.974409407004714 ], [ 6414515.84480438195169, 9672064.28215910308063 ], [ 6414502.849521675147116, 9672049.492044221609831 ], [ 6414486.700978984124959, 9672031.099669242277741 ], [ 6414480.721905553713441, 9672024.34474278613925 ], [ 6414477.27620068192482, 9672020.43978344835341 ], [ 6414471.487729458138347, 9672014.82727294228971 ], [ 6414456.280750839039683, 9672000.118660379201174 ], [ 6414431.37430405151099, 9671976.045149942860007 ], [ 6414352.645468086004257, 9671901.218090748414397 ], [ 6414330.639163207262754, 9671876.987545991316438 ], [ 6414272.777357613667846, 9671951.850463787093759 ], [ 6414238.141232878901064, 9671996.660629833117127 ], [ 6414476.165133348666131, 9672207.489755587652326 ], [ 6414587.634603976272047, 9672333.070637613534927 ], [ 6414616.636423875577748, 9672383.514087785035372 ], [ 6414769.093053155578673, 9672528.525282729417086 ], [ 6414973.001298053190112, 9672680.11256305500865 ], [ 6415152.098351251333952, 9672830.222777871415019 ], [ 6415337.469484932720661, 9672918.536267429590225 ], [ 6415761.064619235694408, 9673072.668612828478217 ], [ 6416062.714836682192981, 9673165.033078210428357 ], [ 6416334.579546169377863, 9673222.430004833266139 ], [ 6416549.160257259383798, 9673196.581594303250313 ], [ 6416779.648904526606202, 9673077.351351080462337 ], [ 6417172.138031119480729, 9672883.363722650334239 ], [ 6417426.865695752203465, 9672856.392209040001035 ], [ 6417817.125080803409219, 9672764.081671757623553 ], [ 6418010.563194237649441, 9672728.807239441201091 ], [ 6418246.41126112639904, 9672674.88848196528852 ], [ 6418785.570420979522169, 9672589.682816870510578 ], [ 6418859.970158943906426, 9672584.166678469628096 ], [ 6419263.375586880370975, 9672554.305461404845119 ], [ 6419546.654441873542964, 9672543.291742691770196 ], [ 6420143.556491374969482, 9672682.050365909934044 ], [ 6420352.143827363848686, 9672666.309754932299256 ], [ 6420504.384992432780564, 9672696.721190253272653 ], [ 6421168.173303300514817, 9672534.927213665097952 ], [ 6422002.979742527008057, 9672394.559132533147931 ], [ 6422170.851666294038296, 9672380.94870288297534 ], [ 6422442.857535479590297, 9672373.079776244238019 ], [ 6422641.522857317700982, 9672396.84570262953639 ], [ 6422669.978404805064201, 9672423.004637418314815 ], [ 6422688.694199776276946, 9672440.216333182528615 ], [ 6422778.408536886796355, 9672522.713957021012902 ], [ 6422939.681317252106965, 9672608.135886587202549 ], [ 6423132.156253984197974, 9672631.122642619535327 ], [ 6423410.058482902124524, 9672518.004065426066518 ], [ 6423853.372166348621249, 9672399.028347428888083 ], [ 6424050.254624193534255, 9672350.819406192749739 ], [ 6424409.172413827851415, 9672313.954601434990764 ], [ 6424437.658794553950429, 9672311.026036217808723 ], [ 6424494.001524481922388, 9672323.393046204000711 ], [ 6424649.710237651132047, 9672357.561020506545901 ], [ 6424713.583872841671109, 9672395.100149769335985 ], [ 6424758.736945716664195, 9672449.820774141699076 ], [ 6424803.505363950505853, 9672527.819092683494091 ], [ 6424894.533437490463257, 9672558.658980088308454 ], [ 6424975.394765667617321, 9672608.998612636700273 ], [ 6425037.21591788250953, 9672708.616510160267353 ], [ 6425088.847749531269073, 9672773.014339666813612 ], [ 6425132.653034895658493, 9672795.714873822405934 ], [ 6425210.078124951571226, 9672774.380400970578194 ], [ 6425287.503047753125429, 9672753.034436682239175 ], [ 6425414.911333691328764, 9672744.093828277662396 ], [ 6425497.628499461337924, 9672741.631093041971326 ], [ 6425584.050061125308275, 9672775.142586704343557 ], [ 6425641.492165334522724, 9672823.185492191463709 ], [ 6425697.757336468435824, 9672812.688595807179809 ], [ 6425859.1535420473665, 9672730.005478667095304 ], [ 6425957.993228626437485, 9672735.545672157779336 ], [ 6425964.232442352920771, 9672733.706807361915708 ], [ 6425970.471655789762735, 9672731.867941483855247 ], [ 6425972.272160801105201, 9672652.27570472098887 ], [ 6426045.365295184776187, 9669419.067028993740678 ], [ 6425707.06686032935977, 9669420.969993606209755 ], [ 6425451.672208374366164, 9669396.77258619479835 ], [ 6425392.167265230789781, 9669367.272518144920468 ], [ 6425349.562884138897061, 9669317.163183400407434 ], [ 6425189.662178003229201, 9669209.168756356462836 ], [ 6425014.768831070512533, 9669178.466969683766365 ], [ 6424939.062738751992583, 9669138.972187327221036 ], [ 6424900.667489759624004, 9669081.572006396949291 ], [ 6424869.967566412873566, 9668996.763938365504146 ], [ 6424867.513384498655796, 9668961.615554962307215 ], [ 6424855.365718698129058, 9668696.565442282706499 ], [ 6424903.561231080442667, 9668407.564668456092477 ], [ 6423341.775496331974864, 9668193.911078259348869 ], [ 6423296.821554383262992, 9668187.758731290698051 ], [ 6422770.970121456310153, 9668117.686500886455178 ], [ 6422750.525175334885716, 9668299.615184487774968 ], [ 6422744.110303278081119, 9668346.832325397059321 ], [ 6422713.264018004760146, 9668393.647846478968859 ], [ 6422612.806644682772458, 9668440.49722826294601 ], [ 6422443.707247435115278, 9668503.283694675192237 ] ] ] } }
]
}
