{
"type": "FeatureCollection",
"name": "2401909",
"crs": { "type": "name", "properties": { "name": "urn:ogc:def:crs:EPSG::5880" } },
"features": [
{ "type": "Feature", "properties": { "lv_id": "LOC_021937", "id": 88921.0, "CD_SETOR": "240190905000001", "SITUACAO": "Urbana", "CD_SIT": "1", "CD_TIPO": "0", "AREA_KM2": 0.258355167726667, "CD_REGIAO": "2", "NM_REGIAO": "Nordeste", "CD_UF": "24", "NM_UF": "Rio Grande do Norte", "CD_MUN": "2401909", "NM_MUN": "Caiçara do Rio do Vento", "CD_DIST": "240190905", "NM_DIST": "Caiçara do Rio do Vento", "CD_SUBDIST": "24019090500", "NM_SUBDIST": null, "CD_BAIRRO": null, "NM_BAIRRO": null, "CD_NU": "2401909001", "NM_NU": "Conjunto Manoel Ferreira Pires", "CD_FCU": null, "NM_FCU": null, "CD_AGLOM": null, "NM_AGLOM": null, "CD_RGINT": "2401", "NM_RGINT": "Natal", "CD_RGI": "240006", "NM_RGI": "São Paulo do Potengi", "CD_CONCURB": null, "NM_CONCURB": null, "mun_code_x": "2401909", "index_right": 65716, "dist_m": 0.0, "local_id": 223056, "ano": 2022, "cod_localidade_ibge": 2401909, "NR_ZONA": "17", "nr_cep": 59540000.0, "nm_localidade": "CAIÇARA DO RIO DO VENTO", "nm_locvot": "CENTRO EDUCACIONAL RIO DO VENTO", "ds_endereco": "PRAÇA JOSE VITORINO DE ANDRADE, S/N", "ds_bairro": "CENTRO", "pred_long": -35.99714, "pred_lat": -5.759617, "pred_dist": 0.0, "tse_long": -35.99705833, "tse_lat": -5.75965, "long": -35.99705833, "lat": -5.75965, "ID_UNICO": "LOC_021937", "SG_UF": "RN", "CD_MUNICIPIO": "16373", "NR_LOCAL_VOTACAO": "1112", "QT_SECOES_AGREGADAS": 0, "QT_ELEITORES_TRANSFERIDOS": 0, "CIRO GOMES (PDT) (NÃO ELEITO) 1T": 27.0, "CONSTITUINTE EYMAEL (DC) (NÃO ELEITO) 1T": 0.0, "FELIPE D AVILA (NOVO) (NÃO ELEITO) 1T": 0.0, "JAIR BOLSONARO (PL) (2º TURNO) 1T": 166.0, "LULA (PT) (2º TURNO) 1T": 517.0, "LÉO PÉRICLES (UP) (NÃO ELEITO) 1T": 0.0, "PADRE KELMON (PTB) (NÃO ELEITO) 1T": 1.0, "SIMONE TEBET (MDB) (NÃO ELEITO) 1T": 11.0, "SOFIA MANZANO (PCB) (NÃO ELEITO) 1T": 0.0, "SORAYA THRONICKE (UNIÃO) (NÃO ELEITO) 1T": 3.0, "VERA (PSTU) (NÃO ELEITO) 1T": 0.0, "Total_Votos_Validos 1T": 725.0, "Votos_Brancos 1T": 6.0, "Votos_Nulos 1T": 13.0, "Abstenções 1T": 110.0, "Eleitores_Aptos 1T": 854.0, "JAIR BOLSONARO (PL) (NÃO ELEITO) 2T": 167.0, "LULA (PT) (ELEITO) 2T": 514.0, "Total_Votos_Validos 2T": 681.0, "Votos_Brancos 2T": 9.0, "Votos_Nulos 2T": 11.0, "Abstenções 2T": 153.0, "Eleitores_Aptos 2T": 854.0, "mun_code_y": "2401909", "mun_code": "2401909" }, "geometry": { "type": "Polygon", "coordinates": [ [ [ 7000645.600651507265866, 9332667.018978832289577 ], [ 7000765.001389048062265, 9332538.613060725852847 ], [ 7000851.094089615158737, 9332379.011258417740464 ], [ 7000934.695869370363653, 9332270.812955498695374 ], [ 7001037.502711308188736, 9332177.613274876028299 ], [ 7001167.502024758607149, 9332143.112369338050485 ], [ 7001477.898628247901797, 9332141.713524661958218 ], [ 7001524.299466790631413, 9332107.614366170018911 ], [ 7001456.500022304244339, 9331843.506520822644234 ], [ 7001449.400535377673805, 9331650.11507517658174 ], [ 7001464.901473851874471, 9331594.209221441298723 ], [ 7001656.09924403205514, 9331284.809625562280416 ], [ 7001723.600784135982394, 9331100.502717189490795 ], [ 7001767.601115182973444, 9330917.403887268155813 ], [ 7001775.402251101098955, 9330784.202212505042553 ], [ 7001703.694950317963958, 9330546.301162941381335 ], [ 7001531.200994986109436, 9330221.101418055593967 ], [ 7001395.898888704366982, 9329786.508549068123102 ], [ 7001316.090124583803117, 9329625.804667407646775 ], [ 7001166.093560722656548, 9329387.506808467209339 ], [ 7001087.992026761174202, 9329295.299658356234431 ], [ 7000913.490380715578794, 9329148.000800376757979 ], [ 7000773.991225491277874, 9328982.905076313763857 ], [ 7000657.791434691287577, 9328776.602370887994766 ], [ 7000541.685509638860822, 9328522.700633302330971 ], [ 7000368.791352024301887, 9328383.998832928016782 ], [ 7000285.782447349280119, 9328100.40267525985837 ], [ 7000044.785096563398838, 9327541.803872412070632 ], [ 7000048.281389813870192, 9327396.997066726908088 ], [ 7000153.784399977885187, 9327380.79515983723104 ], [ 7000273.689325345680118, 9327424.598013108596206 ], [ 7000365.683983594179153, 9327360.995878150686622 ], [ 7000608.185671288520098, 9327045.294684967026114 ], [ 7000849.78980549518019, 9326867.893470605835319 ], [ 7001151.984207004308701, 9326736.491681614890695 ], [ 7001469.892526145093143, 9326712.500260164961219 ], [ 7001470.384347105398774, 9326237.293784035369754 ], [ 7001427.588142080232501, 9325872.198746940121055 ], [ 7000930.887314681895077, 9325854.589924482628703 ], [ 7000579.476760506629944, 9325777.392253121361136 ], [ 7000278.97581903450191, 9325620.293679844588041 ], [ 6999985.374189209192991, 9325342.493237525224686 ], [ 6999860.982089875265956, 9325166.900515826418996 ], [ 6999653.573639845475554, 9325144.600426126271486 ], [ 6999408.279792927205563, 9325225.900971846655011 ], [ 6999214.572935249656439, 9325413.596471669152379 ], [ 6999139.777390092611313, 9325632.594794953241944 ], [ 6999204.479256336577237, 9325949.19452241063118 ], [ 6999129.370799792930484, 9326156.29890957288444 ], [ 6998990.074603389017284, 9326221.59497201256454 ], [ 6998135.870697909034789, 9326271.600730668753386 ], [ 6997818.770036180503666, 9326319.508411478251219 ], [ 6997573.270005768164992, 9326388.899531664326787 ], [ 6997184.968499244190753, 9326589.70123522169888 ], [ 6996864.698881822638214, 9326836.847387427464128 ], [ 6996791.668711189180613, 9326893.204415913671255 ], [ 6996374.067469507455826, 9327179.204449616372585 ], [ 6995944.065131628885865, 9327538.005475755780935 ], [ 6995742.467768611386418, 9327184.713416405022144 ], [ 6995310.563768061809242, 9326509.314466552808881 ], [ 6995085.457713799551129, 9326315.706492902711034 ], [ 6994808.361331090331078, 9326173.408166918903589 ], [ 6994414.755919713526964, 9326068.009711120277643 ], [ 6994117.75044858455658, 9326018.812986368313432 ], [ 6993876.355284854769707, 9325871.508267840370536 ], [ 6993709.24754430167377, 9325667.015365995466709 ], [ 6993657.544915342703462, 9325537.207679849117994 ], [ 6993488.451843908987939, 9325462.110157947987318 ], [ 6993161.585727576166391, 9325167.535294869914651 ], [ 6993031.846661290153861, 9325050.606359383091331 ], [ 6992724.744348439387977, 9324624.905010178685188 ], [ 6992487.94554887432605, 9324396.011531045660377 ], [ 6992303.94396445620805, 9324147.71431303024292 ], [ 6992129.140378664247692, 9323802.807887561619282 ], [ 6992087.541699869558215, 9323575.105952097103 ], [ 6991873.339762614108622, 9323297.510878223925829 ], [ 6991810.031166573986411, 9323142.808040987700224 ], [ 6991556.838372072204947, 9322968.609119957312942 ], [ 6990522.131263782270253, 9323001.704285817220807 ], [ 6990113.525554824620485, 9322982.510121431201696 ], [ 6989873.622425926849246, 9322868.30852097645402 ], [ 6988971.42534442152828, 9322090.909488370642066 ], [ 6988730.515270657837391, 9321928.809270858764648 ], [ 6988353.819954494014382, 9321799.807111486792564 ], [ 6988114.918479055166245, 9321697.706794193014503 ], [ 6987934.718771059066057, 9321594.209016114473343 ], [ 6987552.910850260406733, 9321261.010991334915161 ], [ 6987228.606114092282951, 9321076.81454355828464 ], [ 6986749.305064329877496, 9320860.509971866384149 ], [ 6986435.96431736741215, 9320699.379030499607325 ], [ 6986435.119583528488874, 9320698.941847071051598 ], [ 6986433.610495965927839, 9320698.166156064718962 ], [ 6986359.405896948650479, 9320660.014824200421572 ], [ 6985950.702944381162524, 9320417.909790670499206 ], [ 6985796.898964597843587, 9320421.909282885491848 ], [ 6985588.397775444202125, 9320596.112525124102831 ], [ 6985515.603167056106031, 9320748.617442332208157 ], [ 6985827.605296702124178, 9321354.715606365352869 ], [ 6985801.609149409458041, 9321493.913230253383517 ], [ 6985371.099327234551311, 9321770.420744733884931 ], [ 6985049.99854932539165, 9321941.418760389089584 ], [ 6984899.097481552511454, 9322053.922699574381113 ], [ 6984769.997471832670271, 9322093.21933295018971 ], [ 6984492.196252469904721, 9322329.719249894842505 ], [ 6984373.304304810240865, 9322531.72615984082222 ], [ 6984281.497296512126923, 9322642.420778330415487 ], [ 6983996.993679211474955, 9322625.718558738008142 ], [ 6983780.199424549937248, 9322487.024644780904055 ], [ 6983627.294975944794714, 9322514.924109114333987 ], [ 6983481.100680628791451, 9322585.122127827256918 ], [ 6983447.199696207419038, 9322646.419764321297407 ], [ 6983449.494400050491095, 9322730.629691801965237 ], [ 6983391.995984453707933, 9322804.419774957001209 ], [ 6983143.59545024856925, 9322798.828279374167323 ], [ 6983045.093435344286263, 9322879.826802706345916 ], [ 6982899.196831034496427, 9323184.728714264929295 ], [ 6982903.895428982563317, 9323365.323367401957512 ], [ 6982812.49297789297998, 9323488.12807184830308 ], [ 6982455.697968514636159, 9323648.123804254457355 ], [ 6982095.090983225032687, 9323886.535779379308224 ], [ 6981852.188470564782619, 9323874.731817124411464 ], [ 6981537.59212945215404, 9323618.131756547838449 ], [ 6981247.592224385589361, 9323162.032812403514981 ], [ 6981153.490915500558913, 9323103.626595392823219 ], [ 6980838.480839814990759, 9322907.928893594071269 ], [ 6980703.782822444103658, 9322742.933635957539082 ], [ 6980702.184168551117182, 9322682.63435747846961 ], [ 6980620.68804700113833, 9322507.63198590837419 ], [ 6980396.187212355434895, 9326345.643339056521654 ], [ 6981348.392837006598711, 9328590.542108003050089 ], [ 6982331.51298541482538, 9331123.448632910847664 ], [ 6983244.111397712491453, 9333234.354634080082178 ], [ 6983554.179075667634606, 9334148.585414441302419 ], [ 6983557.982009384781122, 9334159.802243432030082 ], [ 6983560.371116439811885, 9334166.851538414135575 ], [ 6984467.129307427443564, 9336841.161492560058832 ], [ 6986820.060005443170667, 9344000.577759707346559 ], [ 6987079.953193359076977, 9343703.073937006294727 ], [ 6990052.463909285143018, 9340064.257914563640952 ], [ 6990936.966651747003198, 9338914.450842007994652 ], [ 6992770.389653502963483, 9338264.45931407622993 ], [ 6996786.190145893022418, 9336840.131495390087366 ], [ 6996982.884755399078131, 9336800.831594485789537 ], [ 7000816.600605673156679, 9336647.727771276608109 ], [ 7000831.309456149116158, 9336527.730732098221779 ], [ 7000010.603966077789664, 9335403.6266915127635 ], [ 6999952.20385158713907, 9335175.018860874697566 ], [ 7000150.401844018138945, 9334562.624455066397786 ], [ 7000272.696155784651637, 9333742.621647810563445 ], [ 7000286.892218148335814, 9333390.020655298605561 ], [ 7000355.40165202319622, 9333177.114071756601334 ], [ 7000531.988986410200596, 9332850.142010094597936 ], [ 7000564.891474634408951, 9332789.219471948221326 ], [ 7000645.600651507265866, 9332667.018978832289577 ] ] ] } }
]
}
