{
"type": "FeatureCollection",
"name": "2401206",
"crs": { "type": "name", "properties": { "name": "urn:ogc:def:crs:EPSG::5880" } },
"features": [
{ "type": "Feature", "properties": { "lv_id": "LOC_021873", "id": 88728.0, "CD_SETOR": "240120605000001", "SITUACAO": "Urbana", "CD_SIT": "1", "CD_TIPO": "0", "AREA_KM2": 0.073212655434877996, "CD_REGIAO": "2", "NM_REGIAO": "Nordeste", "CD_UF": "24", "NM_UF": "Rio Grande do Norte", "CD_MUN": "2401206", "NM_MUN": "Arês", "CD_DIST": "240120605", "NM_DIST": "Arês", "CD_SUBDIST": "24012060500", "NM_SUBDIST": null, "CD_BAIRRO": null, "NM_BAIRRO": null, "CD_NU": null, "NM_NU": null, "CD_FCU": null, "NM_FCU": null, "CD_AGLOM": "240120600003", "NM_AGLOM": "Usina Estivas", "CD_RGINT": "2401", "NM_RGINT": "Natal", "CD_RGI": "240003", "NM_RGI": "Canguaretama", "CD_CONCURB": null, "NM_CONCURB": null, "mun_code_x": "2401206", "index_right": 65655, "dist_m": 131.87621005827208, "local_id": 222466, "ano": 2022, "cod_localidade_ibge": 2401206, "NR_ZONA": "67", "nr_cep": 59170000.0, "nm_localidade": "AREZ", "nm_locvot": "ESCOLA MUNICIPAL JOAO GUIÓ", "ds_endereco": "RUA LEONIDAS DE PAULA, 255", "ds_bairro": "CENTRO", "pred_long": -35.162126, "pred_lat": -6.196853, "pred_dist": 0.0, "tse_long": -35.1621833, "tse_lat": -6.19684797, "long": -35.1621833, "lat": -6.19684797, "ID_UNICO": "LOC_021873", "SG_UF": "RN", "CD_MUNICIPIO": "16233", "NR_LOCAL_VOTACAO": "1066", "QT_SECOES_AGREGADAS": 0, "QT_ELEITORES_TRANSFERIDOS": 0, "CIRO GOMES (PDT) (NÃO ELEITO) 1T": 118.0, "CONSTITUINTE EYMAEL (DC) (NÃO ELEITO) 1T": 1.0, "FELIPE D AVILA (NOVO) (NÃO ELEITO) 1T": 2.0, "JAIR BOLSONARO (PL) (2º TURNO) 1T": 827.0, "LULA (PT) (2º TURNO) 1T": 2244.0, "LÉO PÉRICLES (UP) (NÃO ELEITO) 1T": 0.0, "PADRE KELMON (PTB) (NÃO ELEITO) 1T": 0.0, "SIMONE TEBET (MDB) (NÃO ELEITO) 1T": 33.0, "SOFIA MANZANO (PCB) (NÃO ELEITO) 1T": 1.0, "SORAYA THRONICKE (UNIÃO) (NÃO ELEITO) 1T": 8.0, "VERA (PSTU) (NÃO ELEITO) 1T": 1.0, "Total_Votos_Validos 1T": 3235.0, "Votos_Brancos 1T": 51.0, "Votos_Nulos 1T": 118.0, "Abstenções 1T": 645.0, "Eleitores_Aptos 1T": 4049.0, "JAIR BOLSONARO (PL) (NÃO ELEITO) 2T": 1012.0, "LULA (PT) (ELEITO) 2T": 2308.0, "Total_Votos_Validos 2T": 3320.0, "Votos_Brancos 2T": 48.0, "Votos_Nulos 2T": 104.0, "Abstenções 2T": 577.0, "Eleitores_Aptos 2T": 4049.0, "mun_code_y": "2401206", "mun_code": "2401206" }, "geometry": { "type": "MultiPolygon", "coordinates": [ [ [ [ 7078718.004642602056265, 9273709.186578888446093 ], [ 7078675.109747897833586, 9273714.339909259229898 ], [ 7078547.866547847166657, 9273660.596552506089211 ], [ 7078462.683293182402849, 9273801.455518702045083 ], [ 7078776.794021747075021, 9274080.250134643167257 ], [ 7079128.665405513718724, 9274365.728397097438574 ], [ 7079205.457103861495852, 9274320.712392717599869 ], [ 7079281.071628003381193, 9274229.409717831760645 ], [ 7079048.648584482260048, 9274039.188587578013539 ], [ 7079061.00322680734098, 9274025.808627430349588 ], [ 7079094.594311578199267, 9274047.158501971513033 ], [ 7079148.880699544213712, 9273954.92456373013556 ], [ 7078841.315615033730865, 9273678.459782805293798 ], [ 7078819.790818018838763, 9273664.281547978520393 ], [ 7078813.836704179644585, 9273666.906764140352607 ], [ 7078718.004642602056265, 9273709.186578888446093 ] ] ], [ [ [ 7082645.040166812948883, 9277447.259180320426822 ], [ 7082522.092955285683274, 9277271.01567517966032 ], [ 7082403.814280154183507, 9277154.946407726034522 ], [ 7082252.459258600138128, 9277337.846889382228255 ], [ 7082325.936817659065127, 9277423.594489635899663 ], [ 7082238.128580331802368, 9277580.032387983053923 ], [ 7082147.658412686549127, 9277715.436399079859257 ], [ 7082062.615535768680274, 9277811.517861653119326 ], [ 7081812.415624881163239, 9277863.821682401001453 ], [ 7081882.894756695255637, 9278156.254043243825436 ], [ 7081771.204600136727095, 9278190.03717303276062 ], [ 7081877.602191733196378, 9278407.709308048710227 ], [ 7081933.30988687556237, 9279044.276465125381947 ], [ 7082193.178274226374924, 9278852.769446773454547 ], [ 7082516.451392048969865, 9278581.695366086438298 ], [ 7082706.533999035134912, 9278469.007749432697892 ], [ 7082751.330188293009996, 9278505.593844506889582 ], [ 7082810.991126650944352, 9278421.814376683905721 ], [ 7083411.152667302638292, 9278948.723807094618678 ], [ 7083416.703434630297124, 9278949.751443555578589 ], [ 7085173.067193550057709, 9279235.05343447253108 ], [ 7085222.044816142879426, 9279180.585865549743176 ], [ 7086214.451082780957222, 9278114.03778780810535 ], [ 7086248.916075093671679, 9278076.988868365064263 ], [ 7085977.955687313340604, 9277925.099290421232581 ], [ 7085430.553038366138935, 9277685.042976116761565 ], [ 7084727.366340928710997, 9277360.438138771802187 ], [ 7084669.071886534802616, 9277346.778852626681328 ], [ 7084622.403621454723179, 9277335.295221842825413 ], [ 7084396.122120702639222, 9277279.620564263314009 ], [ 7084169.841312289237976, 9277223.958089841529727 ], [ 7082645.040166812948883, 9277447.259180320426822 ] ] ], [ [ [ 7082611.677884632721543, 9279825.456246783956885 ], [ 7081713.783380342647433, 9279761.876874536275864 ], [ 7081784.553267668932676, 9280314.581068290397525 ], [ 7082594.054562383331358, 9280439.606728667393327 ], [ 7082611.677884632721543, 9279825.456246783956885 ] ] ] ] } },
{ "type": "Feature", "properties": { "lv_id": "LOC_021874", "id": 88742.0, "CD_SETOR": "240120605000020", "SITUACAO": "Rural", "CD_SIT": "5", "CD_TIPO": "0", "AREA_KM2": 0.95394073596710904, "CD_REGIAO": "2", "NM_REGIAO": "Nordeste", "CD_UF": "24", "NM_UF": "Rio Grande do Norte", "CD_MUN": "2401206", "NM_MUN": "Arês", "CD_DIST": "240120605", "NM_DIST": "Arês", "CD_SUBDIST": "24012060500", "NM_SUBDIST": null, "CD_BAIRRO": null, "NM_BAIRRO": null, "CD_NU": null, "NM_NU": null, "CD_FCU": null, "NM_FCU": null, "CD_AGLOM": "240120600005", "NM_AGLOM": "Nascença", "CD_RGINT": "2401", "NM_RGINT": "Natal", "CD_RGI": "240003", "NM_RGI": "Canguaretama", "CD_CONCURB": null, "NM_CONCURB": null, "mun_code_x": "2401206", "index_right": 65657, "dist_m": 0.0, "local_id": 222468, "ano": 2022, "cod_localidade_ibge": 2401206, "NR_ZONA": "67", "nr_cep": 59170000.0, "nm_localidade": "AREZ", "nm_locvot": "ESCOLA ISOLADA MAJOR NAPOLEAO AGRA", "ds_endereco": "POVOADO NASCENCA, S/N", "ds_bairro": "DISTRITO NASCENÇA", "pred_long": -35.252199, "pred_lat": -6.185045, "pred_dist": 0.0, "tse_long": -35.25144696, "tse_lat": -6.18507378, "long": -35.25144696, "lat": -6.18507378, "ID_UNICO": "LOC_021874", "SG_UF": "RN", "CD_MUNICIPIO": "16233", "NR_LOCAL_VOTACAO": "1031", "QT_SECOES_AGREGADAS": 0, "QT_ELEITORES_TRANSFERIDOS": 0, "CIRO GOMES (PDT) (NÃO ELEITO) 1T": 5.0, "CONSTITUINTE EYMAEL (DC) (NÃO ELEITO) 1T": 0.0, "FELIPE D AVILA (NOVO) (NÃO ELEITO) 1T": 0.0, "JAIR BOLSONARO (PL) (2º TURNO) 1T": 104.0, "LULA (PT) (2º TURNO) 1T": 420.0, "LÉO PÉRICLES (UP) (NÃO ELEITO) 1T": 0.0, "PADRE KELMON (PTB) (NÃO ELEITO) 1T": 0.0, "SIMONE TEBET (MDB) (NÃO ELEITO) 1T": 6.0, "SOFIA MANZANO (PCB) (NÃO ELEITO) 1T": 0.0, "SORAYA THRONICKE (UNIÃO) (NÃO ELEITO) 1T": 4.0, "VERA (PSTU) (NÃO ELEITO) 1T": 0.0, "Total_Votos_Validos 1T": 539.0, "Votos_Brancos 1T": 3.0, "Votos_Nulos 1T": 13.0, "Abstenções 1T": 149.0, "Eleitores_Aptos 1T": 704.0, "JAIR BOLSONARO (PL) (NÃO ELEITO) 2T": 126.0, "LULA (PT) (ELEITO) 2T": 438.0, "Total_Votos_Validos 2T": 564.0, "Votos_Brancos 2T": 2.0, "Votos_Nulos 2T": 12.0, "Abstenções 2T": 126.0, "Eleitores_Aptos 2T": 704.0, "mun_code_y": "2401206", "mun_code": "2401206" }, "geometry": { "type": "Polygon", "coordinates": [ [ [ 7075015.663950251415372, 9279602.32008015550673 ], [ 7075069.63519436866045, 9279140.860962707549334 ], [ 7075020.561286031268537, 9279079.7828727979213 ], [ 7074931.744484865106642, 9279082.91775369271636 ], [ 7074880.600662681274116, 9279032.717521468177438 ], [ 7074846.59924747608602, 9279049.523898797109723 ], [ 7074791.59271973092109, 9279030.66098416224122 ], [ 7074736.777830773033202, 9279017.001188250258565 ], [ 7074710.659936737269163, 9278976.326087854802608 ], [ 7074587.120885517448187, 9278975.488406421616673 ], [ 7074566.296373253688216, 9278945.023011250421405 ], [ 7074236.663791174069047, 9278842.265112087130547 ], [ 7073544.539444038644433, 9279256.646751802414656 ], [ 7073717.80287413392216, 9279661.64831193909049 ], [ 7073788.438814943656325, 9279813.580885607749224 ], [ 7075015.663950251415372, 9279602.32008015550673 ] ] ] } },
{ "type": "Feature", "properties": { "lv_id": "LOC_021875", "id": 88732.0, "CD_SETOR": "240120605000007", "SITUACAO": "Rural", "CD_SIT": "5", "CD_TIPO": "9", "AREA_KM2": 0.14072962972231001, "CD_REGIAO": "2", "NM_REGIAO": "Nordeste", "CD_UF": "24", "NM_UF": "Rio Grande do Norte", "CD_MUN": "2401206", "NM_MUN": "Arês", "CD_DIST": "240120605", "NM_DIST": "Arês", "CD_SUBDIST": "24012060500", "NM_SUBDIST": null, "CD_BAIRRO": null, "NM_BAIRRO": null, "CD_NU": null, "NM_NU": null, "CD_FCU": null, "NM_FCU": null, "CD_AGLOM": "240120600008", "NM_AGLOM": "Comunidade Quilombola Patané", "CD_RGINT": "2401", "NM_RGINT": "Natal", "CD_RGI": "240003", "NM_RGI": "Canguaretama", "CD_CONCURB": null, "NM_CONCURB": null, "mun_code_x": "2401206", "index_right": 65656, "dist_m": 62.684805379140421, "local_id": 222467, "ano": 2022, "cod_localidade_ibge": 2401206, "NR_ZONA": "67", "nr_cep": 59170000.0, "nm_localidade": "AREZ", "nm_locvot": "ESCOLA ESTADUAL MANOEL BALCEU", "ds_endereco": "RUA SAO SEBASTIAO, S/N", "ds_bairro": "DISTRITO PATANÉ", "pred_long": -35.129351, "pred_lat": -6.177539, "pred_dist": 0.0, "tse_long": -35.12938131, "tse_lat": -6.17753183, "long": -35.12938131, "lat": -6.17753183, "ID_UNICO": "LOC_021875", "SG_UF": "RN", "CD_MUNICIPIO": "16233", "NR_LOCAL_VOTACAO": "1040", "QT_SECOES_AGREGADAS": 0, "QT_ELEITORES_TRANSFERIDOS": 2, "CIRO GOMES (PDT) (NÃO ELEITO) 1T": 13.0, "CONSTITUINTE EYMAEL (DC) (NÃO ELEITO) 1T": 0.0, "FELIPE D AVILA (NOVO) (NÃO ELEITO) 1T": 0.0, "JAIR BOLSONARO (PL) (2º TURNO) 1T": 209.0, "LULA (PT) (2º TURNO) 1T": 267.0, "LÉO PÉRICLES (UP) (NÃO ELEITO) 1T": 0.0, "PADRE KELMON (PTB) (NÃO ELEITO) 1T": 0.0, "SIMONE TEBET (MDB) (NÃO ELEITO) 1T": 3.0, "SOFIA MANZANO (PCB) (NÃO ELEITO) 1T": 1.0, "SORAYA THRONICKE (UNIÃO) (NÃO ELEITO) 1T": 3.0, "VERA (PSTU) (NÃO ELEITO) 1T": 0.0, "Total_Votos_Validos 1T": 496.0, "Votos_Brancos 1T": 8.0, "Votos_Nulos 1T": 15.0, "Abstenções 1T": 101.0, "Eleitores_Aptos 1T": 620.0, "JAIR BOLSONARO (PL) (NÃO ELEITO) 2T": 238.0, "LULA (PT) (ELEITO) 2T": 282.0, "Total_Votos_Validos 2T": 520.0, "Votos_Brancos 2T": 6.0, "Votos_Nulos 2T": 12.0, "Abstenções 2T": 82.0, "Eleitores_Aptos 2T": 620.0, "mun_code_y": "2401206", "mun_code": "2401206" }, "geometry": { "type": "Polygon", "coordinates": [ [ [ 7086303.984554696828127, 9281551.673994425684214 ], [ 7087260.164451440796256, 9280927.152520522475243 ], [ 7087479.622758065350354, 9281127.511831035837531 ], [ 7087989.260204927064478, 9280709.142883375287056 ], [ 7088077.668958317488432, 9280637.574998607859015 ], [ 7088123.908931104466319, 9280600.144201189279556 ], [ 7088128.454164071008563, 9280596.461047766730189 ], [ 7088139.041944062337279, 9280587.887082654982805 ], [ 7088139.559079228900373, 9280587.472230363637209 ], [ 7088140.011471092700958, 9280587.106322484090924 ], [ 7088140.572038801386952, 9280586.666606118902564 ], [ 7088141.359207967296243, 9280586.055584168061614 ], [ 7088141.552221106365323, 9280585.873805610463023 ], [ 7088141.659585815854371, 9280585.776700319722295 ], [ 7088145.681706143543124, 9280582.018767073750496 ], [ 7088155.537241714075208, 9280572.770956013351679 ], [ 7088312.595783665776253, 9280425.503318000584841 ], [ 7088333.154047071002424, 9280406.219221714884043 ], [ 7088727.447147907689214, 9280036.754543969407678 ], [ 7090131.520398558117449, 9278720.84089095517993 ], [ 7088164.382522559724748, 9277189.54984412714839 ], [ 7085674.071783990599215, 9275245.049806928262115 ], [ 7085536.470583596266806, 9275209.350109949707985 ], [ 7085365.671720641665161, 9275226.458669807761908 ], [ 7085034.066128584556282, 9275453.950254810974002 ], [ 7084868.765615268610418, 9275481.050979806110263 ], [ 7084628.067689814604819, 9275387.452994711697102 ], [ 7084482.968850672245026, 9275290.053924046456814 ], [ 7084307.366144465282559, 9275210.161097597330809 ], [ 7083990.360962869599462, 9275400.560620369389653 ], [ 7083519.058745181187987, 9275738.653860071673989 ], [ 7083398.556245161220431, 9275743.455735012888908 ], [ 7083240.85670767724514, 9275708.362801978364587 ], [ 7082928.359870743006468, 9275551.46466220729053 ], [ 7082836.757690671831369, 9275505.55542548187077 ], [ 7082354.853144077584147, 9275560.961011936888099 ], [ 7082307.453229388222098, 9275506.063950901851058 ], [ 7082240.659812722355127, 9275477.659716939553618 ], [ 7081922.450678588822484, 9275529.067186046391726 ], [ 7081706.752252905629575, 9275434.559868048876524 ], [ 7081648.551852155476809, 9275488.467151746153831 ], [ 7081593.356879290193319, 9275753.763449493795633 ], [ 7081500.147773777134717, 9275824.362474782392383 ], [ 7081404.447645137086511, 9275823.066630365327001 ], [ 7081305.651436099782586, 9275749.665262592956424 ], [ 7081222.650999169796705, 9275626.665445879101753 ], [ 7081081.447846848517656, 9275235.158626276999712 ], [ 7081010.750655219890177, 9275109.065887058153749 ], [ 7080908.152901840396225, 9275061.558219682425261 ], [ 7080847.943119798786938, 9275074.461771972477436 ], [ 7080719.748941715806723, 9275146.468433482572436 ], [ 7080629.145934806205332, 9275155.369613405317068 ], [ 7080537.850121669471264, 9275133.06208498030901 ], [ 7080498.248265460133553, 9275155.467911196872592 ], [ 7080475.847464342601597, 9275223.266087787225842 ], [ 7080473.945299902930856, 9275311.063780704513192 ], [ 7080389.152026186697185, 9275335.064699659124017 ], [ 7080335.449034261517227, 9275313.960906811058521 ], [ 7080287.249708648771048, 9275243.766253210604191 ], [ 7080250.547729739919305, 9275074.859718959778547 ], [ 7080210.639861591160297, 9274958.063955701887608 ], [ 7080178.944816361181438, 9274923.167469955980778 ], [ 7080023.04016319848597, 9274934.566986622288823 ], [ 7079851.138894631527364, 9274920.770623940974474 ], [ 7079768.346807179041207, 9274872.467098563909531 ], [ 7079699.341992791742086, 9274716.862356850877404 ], [ 7079519.846229840070009, 9274512.870065772905946 ], [ 7079304.343605921603739, 9274155.568207480013371 ], [ 7079145.238534331321716, 9273826.865717604756355 ], [ 7079015.631643816828728, 9273739.468124082311988 ], [ 7078877.133892400190234, 9273702.061147781088948 ], [ 7078841.315615033730865, 9273678.459782805293798 ], [ 7079148.880699544213712, 9273954.92456373013556 ], [ 7079094.594311578199267, 9274047.158501971513033 ], [ 7079061.00322680734098, 9274025.808627430349588 ], [ 7079048.648584482260048, 9274039.188587578013539 ], [ 7079281.071628003381193, 9274229.409717831760645 ], [ 7079205.457103861495852, 9274320.712392717599869 ], [ 7079128.665405513718724, 9274365.728397097438574 ], [ 7078776.794021747075021, 9274080.250134643167257 ], [ 7078462.683293182402849, 9273801.455518702045083 ], [ 7078547.866547847166657, 9273660.596552506089211 ], [ 7078675.109747897833586, 9273714.339909259229898 ], [ 7078718.004642602056265, 9273709.186578888446093 ], [ 7078813.836704179644585, 9273666.906764140352607 ], [ 7078819.790818018838763, 9273664.281547978520393 ], [ 7078345.629802029579878, 9273351.86365444585681 ], [ 7078217.136960628442466, 9273319.663285072892904 ], [ 7078201.455481584183872, 9273424.262653281912208 ], [ 7078209.875885871239007, 9273557.204648997634649 ], [ 7078386.649197215214372, 9273893.702863600105047 ], [ 7078353.459354724735022, 9274273.046850305050611 ], [ 7078329.226166673004627, 9274995.947984416037798 ], [ 7078416.326040541753173, 9275821.055219210684299 ], [ 7078616.634182561188936, 9277453.190054696053267 ], [ 7078681.780733918771148, 9277870.37273521348834 ], [ 7078763.259079850278795, 9278494.936256855726242 ], [ 7078805.489557665772736, 9278815.105526562780142 ], [ 7078789.083794090896845, 9278932.504737108945847 ], [ 7078742.983458392322063, 9279070.503023961558938 ], [ 7078628.125431448221207, 9279341.830913029611111 ], [ 7078514.290331311523914, 9279595.866541277617216 ], [ 7078420.793626461178064, 9279811.586432116106153 ], [ 7078415.427994406782091, 9279879.375884223729372 ], [ 7078407.908531739376485, 9280080.401186585426331 ], [ 7078396.521063169464469, 9280420.912387104704976 ], [ 7078343.78788966871798, 9280564.383611191064119 ], [ 7078087.649083569645882, 9281032.189715791493654 ], [ 7078196.445834780111909, 9280932.184385411441326 ], [ 7078324.349060442298651, 9280848.581750301644206 ], [ 7078465.145002945326269, 9280778.791542943567038 ], [ 7078632.649312150664628, 9280726.488213267177343 ], [ 7078764.749536447227001, 9280656.97892702370882 ], [ 7078818.852709568105638, 9280590.686582794412971 ], [ 7078946.149973052553833, 9280633.687896242365241 ], [ 7079520.759085409343243, 9280969.581774486228824 ], [ 7079856.251251298934221, 9281211.378279652446508 ], [ 7080572.362510833889246, 9281676.086919022724032 ], [ 7080799.363051755353808, 9281780.681848302483559 ], [ 7081006.465365839190781, 9281805.78014949709177 ], [ 7081418.966096865944564, 9281635.882336139678955 ], [ 7081720.162116822786629, 9281557.275122502818704 ], [ 7082256.573033552616835, 9281536.181349502876401 ], [ 7083064.377658020704985, 9281537.381077252328396 ], [ 7083174.073866507038474, 9281579.88026393391192 ], [ 7083866.48177982121706, 9282006.875053899362683 ], [ 7084319.482212469913065, 9282362.87074207700789 ], [ 7084802.684965411201119, 9282711.272563211619854 ], [ 7085176.189295884221792, 9283110.478964295238256 ], [ 7085208.881780093535781, 9283211.780147032812238 ], [ 7085174.38696700707078, 9283419.372200066223741 ], [ 7086327.292649077251554, 9282838.568205608054996 ], [ 7086322.49096258636564, 9282571.475510342046618 ], [ 7086303.984554696828127, 9281551.673994425684214 ] ], [ [ 7081784.553267668932676, 9280314.581068290397525 ], [ 7081713.783380342647433, 9279761.876874536275864 ], [ 7082611.677884632721543, 9279825.456246783956885 ], [ 7082594.054562383331358, 9280439.606728667393327 ], [ 7081784.553267668932676, 9280314.581068290397525 ] ], [ [ 7082810.991126650944352, 9278421.814376683905721 ], [ 7082751.330188293009996, 9278505.593844506889582 ], [ 7082706.533999035134912, 9278469.007749432697892 ], [ 7082516.451392048969865, 9278581.695366086438298 ], [ 7082193.178274226374924, 9278852.769446773454547 ], [ 7081933.30988687556237, 9279044.276465125381947 ], [ 7081877.602191733196378, 9278407.709308048710227 ], [ 7081771.204600136727095, 9278190.03717303276062 ], [ 7081882.894756695255637, 9278156.254043243825436 ], [ 7081812.415624881163239, 9277863.821682401001453 ], [ 7082062.615535768680274, 9277811.517861653119326 ], [ 7082147.658412686549127, 9277715.436399079859257 ], [ 7082238.128580331802368, 9277580.032387983053923 ], [ 7082325.936817659065127, 9277423.594489635899663 ], [ 7082252.459258600138128, 9277337.846889382228255 ], [ 7082403.814280154183507, 9277154.946407726034522 ], [ 7082522.092955285683274, 9277271.01567517966032 ], [ 7082645.040166812948883, 9277447.259180320426822 ], [ 7084169.841312289237976, 9277223.958089841529727 ], [ 7084396.122120702639222, 9277279.620564263314009 ], [ 7084622.403621454723179, 9277335.295221842825413 ], [ 7084669.071886534802616, 9277346.778852626681328 ], [ 7084727.366340928710997, 9277360.438138771802187 ], [ 7085430.553038366138935, 9277685.042976116761565 ], [ 7085977.955687313340604, 9277925.099290421232581 ], [ 7086248.916075093671679, 9278076.988868365064263 ], [ 7086214.451082780957222, 9278114.03778780810535 ], [ 7085222.044816142879426, 9279180.585865549743176 ], [ 7085173.067193550057709, 9279235.05343447253108 ], [ 7083416.703434630297124, 9278949.751443555578589 ], [ 7083411.152667302638292, 9278948.723807094618678 ], [ 7082810.991126650944352, 9278421.814376683905721 ] ] ] } },
{ "type": "Feature", "properties": { "lv_id": "LOC_021876", "id": 88734.0, "CD_SETOR": "240120605000011", "SITUACAO": "Rural", "CD_SIT": "5", "CD_TIPO": "0", "AREA_KM2": 0.326243962554218, "CD_REGIAO": "2", "NM_REGIAO": "Nordeste", "CD_UF": "24", "NM_UF": "Rio Grande do Norte", "CD_MUN": "2401206", "NM_MUN": "Arês", "CD_DIST": "240120605", "NM_DIST": "Arês", "CD_SUBDIST": "24012060500", "NM_SUBDIST": null, "CD_BAIRRO": null, "NM_BAIRRO": null, "CD_NU": null, "NM_NU": null, "CD_FCU": null, "NM_FCU": null, "CD_AGLOM": "240120600004", "NM_AGLOM": "Urucará", "CD_RGINT": "2401", "NM_RGINT": "Natal", "CD_RGI": "240003", "NM_RGI": "Canguaretama", "CD_CONCURB": null, "NM_CONCURB": null, "mun_code_x": "2401206", "index_right": 65654, "dist_m": 0.0, "local_id": 222465, "ano": 2022, "cod_localidade_ibge": 2401206, "NR_ZONA": "67", "nr_cep": 59170000.0, "nm_localidade": "AREZ", "nm_locvot": "ESCOLA MUNICIPAL ANTONIO FELIPE FERREIRA DA SILVA", "ds_endereco": "POVOADO DE URUCARA, S/N", "ds_bairro": "DISTRITO URUCARÁ", "pred_long": -35.239439, "pred_lat": -6.169612, "pred_dist": 0.0, "tse_long": -35.23944014, "tse_lat": -6.16961102, "long": -35.23944014, "lat": -6.16961102, "ID_UNICO": "LOC_021876", "SG_UF": "RN", "CD_MUNICIPIO": "16233", "NR_LOCAL_VOTACAO": "1058", "QT_SECOES_AGREGADAS": 0, "QT_ELEITORES_TRANSFERIDOS": 0, "CIRO GOMES (PDT) (NÃO ELEITO) 1T": 17.0, "CONSTITUINTE EYMAEL (DC) (NÃO ELEITO) 1T": 0.0, "FELIPE D AVILA (NOVO) (NÃO ELEITO) 1T": 0.0, "JAIR BOLSONARO (PL) (2º TURNO) 1T": 116.0, "LULA (PT) (2º TURNO) 1T": 473.0, "LÉO PÉRICLES (UP) (NÃO ELEITO) 1T": 0.0, "PADRE KELMON (PTB) (NÃO ELEITO) 1T": 0.0, "SIMONE TEBET (MDB) (NÃO ELEITO) 1T": 14.0, "SOFIA MANZANO (PCB) (NÃO ELEITO) 1T": 0.0, "SORAYA THRONICKE (UNIÃO) (NÃO ELEITO) 1T": 0.0, "VERA (PSTU) (NÃO ELEITO) 1T": 0.0, "Total_Votos_Validos 1T": 620.0, "Votos_Brancos 1T": 15.0, "Votos_Nulos 1T": 22.0, "Abstenções 1T": 182.0, "Eleitores_Aptos 1T": 839.0, "JAIR BOLSONARO (PL) (NÃO ELEITO) 2T": 154.0, "LULA (PT) (ELEITO) 2T": 499.0, "Total_Votos_Validos 2T": 653.0, "Votos_Brancos 2T": 7.0, "Votos_Nulos 2T": 15.0, "Abstenções 2T": 164.0, "Eleitores_Aptos 2T": 839.0, "mun_code_y": "2401206", "mun_code": "2401206" }, "geometry": { "type": "Polygon", "coordinates": [ [ [ 7078396.521063169464469, 9280420.912387104704976 ], [ 7078407.908531739376485, 9280080.401186585426331 ], [ 7078415.427994406782091, 9279879.375884223729372 ], [ 7078420.793626461178064, 9279811.586432116106153 ], [ 7078514.290331311523914, 9279595.866541277617216 ], [ 7078628.125431448221207, 9279341.830913029611111 ], [ 7078742.983458392322063, 9279070.503023961558938 ], [ 7078789.083794090896845, 9278932.504737108945847 ], [ 7078805.489557665772736, 9278815.105526562780142 ], [ 7078763.259079850278795, 9278494.936256855726242 ], [ 7078681.780733918771148, 9277870.37273521348834 ], [ 7078616.634182561188936, 9277453.190054696053267 ], [ 7078416.326040541753173, 9275821.055219210684299 ], [ 7078329.226166673004627, 9274995.947984416037798 ], [ 7078353.459354724735022, 9274273.046850305050611 ], [ 7078386.649197215214372, 9273893.702863600105047 ], [ 7078209.875885871239007, 9273557.204648997634649 ], [ 7078201.455481584183872, 9273424.262653281912208 ], [ 7078217.136960628442466, 9273319.663285072892904 ], [ 7078081.031527412123978, 9273311.969540474936366 ], [ 7078026.032712187618017, 9273308.869867254048586 ], [ 7077896.325385681353509, 9273249.260654048994184 ], [ 7077795.927003840915859, 9273118.467600584030151 ], [ 7077350.522054051049054, 9272876.164113810285926 ], [ 7077216.92781498003751, 9272714.468013010919094 ], [ 7076933.725947444327176, 9272670.067913167178631 ], [ 7076835.422186465002596, 9272673.967973005026579 ], [ 7076862.519336832687259, 9272756.171030992642045 ], [ 7076887.524826566688716, 9273306.071220215409994 ], [ 7075353.014459878206253, 9277018.166507638990879 ], [ 7075281.958049992099404, 9277637.720987463369966 ], [ 7075069.63519436866045, 9279140.860962707549334 ], [ 7075015.663950251415372, 9279602.32008015550673 ], [ 7074920.631635648198426, 9280459.296103559434414 ], [ 7074907.521095190197229, 9280544.723957873880863 ], [ 7074745.143884047865868, 9281602.42683513276279 ], [ 7074809.447059464640915, 9281611.517413867637515 ], [ 7076207.805755672976375, 9281809.193739863112569 ], [ 7076723.766757868230343, 9281594.248961692675948 ], [ 7077154.343810984864831, 9281511.286339160054922 ], [ 7077600.647352092899382, 9281360.889460328966379 ], [ 7077891.845725676976144, 9281133.989290814846754 ], [ 7078087.649083569645882, 9281032.189715791493654 ], [ 7078343.78788966871798, 9280564.383611191064119 ], [ 7078396.521063169464469, 9280420.912387104704976 ] ] ] } },
{ "type": "Feature", "properties": { "lv_id": "LOC_021877", "id": 88741.0, "CD_SETOR": "240120605000019", "SITUACAO": "Rural", "CD_SIT": "8", "CD_TIPO": "0", "AREA_KM2": 7.6361099053895076, "CD_REGIAO": "2", "NM_REGIAO": "Nordeste", "CD_UF": "24", "NM_UF": "Rio Grande do Norte", "CD_MUN": "2401206", "NM_MUN": "Arês", "CD_DIST": "240120605", "NM_DIST": "Arês", "CD_SUBDIST": "24012060500", "NM_SUBDIST": null, "CD_BAIRRO": null, "NM_BAIRRO": null, "CD_NU": null, "NM_NU": null, "CD_FCU": null, "NM_FCU": null, "CD_AGLOM": null, "NM_AGLOM": null, "CD_RGINT": "2401", "NM_RGINT": "Natal", "CD_RGI": "240003", "NM_RGI": "Canguaretama", "CD_CONCURB": null, "NM_CONCURB": null, "mun_code_x": "2401206", "index_right": 65660, "dist_m": 0.0, "local_id": 222471, "ano": 2022, "cod_localidade_ibge": 2401206, "NR_ZONA": "67", "nr_cep": 59170000.0, "nm_localidade": "AREZ", "nm_locvot": "ESCOLA MUNICIPAL MIGUEL FIGUEIREDO", "ds_endereco": "POVOADO MUNDO NOVO", "ds_bairro": "DISTRITO MUNDO NOVO", "pred_long": -35.29269, "pred_lat": -6.174023, "pred_dist": 0.0, "tse_long": -35.29259607, "tse_lat": -6.17407388, "long": -35.29259607, "lat": -6.17407388, "ID_UNICO": "LOC_021877", "SG_UF": "RN", "CD_MUNICIPIO": "16233", "NR_LOCAL_VOTACAO": "1082", "QT_SECOES_AGREGADAS": 1, "QT_ELEITORES_TRANSFERIDOS": 0, "CIRO GOMES (PDT) (NÃO ELEITO) 1T": 3.0, "CONSTITUINTE EYMAEL (DC) (NÃO ELEITO) 1T": 0.0, "FELIPE D AVILA (NOVO) (NÃO ELEITO) 1T": 0.0, "JAIR BOLSONARO (PL) (2º TURNO) 1T": 80.0, "LULA (PT) (2º TURNO) 1T": 207.0, "LÉO PÉRICLES (UP) (NÃO ELEITO) 1T": 0.0, "PADRE KELMON (PTB) (NÃO ELEITO) 1T": 1.0, "SIMONE TEBET (MDB) (NÃO ELEITO) 1T": 7.0, "SOFIA MANZANO (PCB) (NÃO ELEITO) 1T": 0.0, "SORAYA THRONICKE (UNIÃO) (NÃO ELEITO) 1T": 2.0, "VERA (PSTU) (NÃO ELEITO) 1T": 0.0, "Total_Votos_Validos 1T": 300.0, "Votos_Brancos 1T": 8.0, "Votos_Nulos 1T": 10.0, "Abstenções 1T": 48.0, "Eleitores_Aptos 1T": 366.0, "JAIR BOLSONARO (PL) (NÃO ELEITO) 2T": 95.0, "LULA (PT) (ELEITO) 2T": 222.0, "Total_Votos_Validos 2T": 317.0, "Votos_Brancos 2T": 4.0, "Votos_Nulos 2T": 8.0, "Abstenções 2T": 37.0, "Eleitores_Aptos 2T": 366.0, "mun_code_y": "2401206", "mun_code": "2401206" }, "geometry": { "type": "Polygon", "coordinates": [ [ [ 7073544.539444038644433, 9279256.646751802414656 ], [ 7074236.663791174069047, 9278842.265112087130547 ], [ 7074566.296373253688216, 9278945.023011250421405 ], [ 7074587.120885517448187, 9278975.488406421616673 ], [ 7074710.659936737269163, 9278976.326087854802608 ], [ 7074736.777830773033202, 9279017.001188250258565 ], [ 7074791.59271973092109, 9279030.66098416224122 ], [ 7074846.59924747608602, 9279049.523898797109723 ], [ 7074880.600662681274116, 9279032.717521468177438 ], [ 7074931.744484865106642, 9279082.91775369271636 ], [ 7075020.561286031268537, 9279079.7828727979213 ], [ 7075069.63519436866045, 9279140.860962707549334 ], [ 7075281.958049992099404, 9277637.720987463369966 ], [ 7075353.014459878206253, 9277018.166507638990879 ], [ 7076887.524826566688716, 9273306.071220215409994 ], [ 7076862.519336832687259, 9272756.171030992642045 ], [ 7076835.422186465002596, 9272673.967973005026579 ], [ 7076604.918002050369978, 9272743.66998422332108 ], [ 7070713.700984070077538, 9277266.399800166487694 ], [ 7069973.061447063460946, 9280475.954124810174108 ], [ 7069937.546710063703358, 9280629.800898622721434 ], [ 7069933.886017857119441, 9280645.64848106354475 ], [ 7069900.286306923255324, 9280791.177503628656268 ], [ 7069520.174981135874987, 9282437.17820829898119 ], [ 7070466.454205067828298, 9282165.618161274120212 ], [ 7073723.063704440370202, 9281230.876607913523912 ], [ 7074732.545822866261005, 9281600.643774459138513 ], [ 7074745.143884047865868, 9281602.42683513276279 ], [ 7074907.521095190197229, 9280544.723957873880863 ], [ 7074920.631635648198426, 9280459.296103559434414 ], [ 7075015.663950251415372, 9279602.32008015550673 ], [ 7073788.438814943656325, 9279813.580885607749224 ], [ 7073717.80287413392216, 9279661.64831193909049 ], [ 7073544.539444038644433, 9279256.646751802414656 ] ] ] } }
]
}
