{
"type": "FeatureCollection",
"name": "2403905",
"crs": { "type": "name", "properties": { "name": "urn:ogc:def:crs:EPSG::5880" } },
"features": [
{ "type": "Feature", "properties": { "lv_id": "LOC_022104", "id": 90060.0, "CD_SETOR": "240390505000001", "SITUACAO": "Urbana", "CD_SIT": "1", "CD_TIPO": "0", "AREA_KM2": 0.30632225205774599, "CD_REGIAO": "2", "NM_REGIAO": "Nordeste", "CD_UF": "24", "NM_UF": "Rio Grande do Norte", "CD_MUN": "2403905", "NM_MUN": "Francisco Dantas", "CD_DIST": "240390505", "NM_DIST": "Francisco Dantas", "CD_SUBDIST": "24039050500", "NM_SUBDIST": null, "CD_BAIRRO": null, "NM_BAIRRO": null, "CD_NU": null, "NM_NU": null, "CD_FCU": null, "NM_FCU": null, "CD_AGLOM": "240390500001", "NM_AGLOM": "Vila Menino Jesus", "CD_RGINT": "2403", "NM_RGINT": "Mossoró", "CD_RGI": "240010", "NM_RGI": "Pau dos Ferros", "CD_CONCURB": null, "NM_CONCURB": null, "mun_code_x": "2403905", "index_right": 65917, "dist_m": 0.0, "local_id": 224858, "ano": 2022, "cod_localidade_ibge": 2403905, "NR_ZONA": "40", "nr_cep": 59902000.0, "nm_localidade": "FRANCISCO DANTAS", "nm_locvot": "CENTRO COMUNITARIO INTEGRADO - CCI", "ds_endereco": "RUA FRANCISCO DANTAS NETO, 146", "ds_bairro": "CENTRO", "pred_long": -38.126, "pred_lat": -6.087188, "pred_dist": 0.0, "tse_long": -38.1243663, "tse_lat": -6.0905167, "long": -38.1243663, "lat": -6.0905167, "ID_UNICO": "LOC_022104", "SG_UF": "RN", "CD_MUNICIPIO": "16772", "NR_LOCAL_VOTACAO": "1066", "QT_SECOES_AGREGADAS": 0, "QT_ELEITORES_TRANSFERIDOS": 0, "CIRO GOMES (PDT) (NÃO ELEITO) 1T": 16.0, "CONSTITUINTE EYMAEL (DC) (NÃO ELEITO) 1T": 0.0, "FELIPE D AVILA (NOVO) (NÃO ELEITO) 1T": 0.0, "JAIR BOLSONARO (PL) (2º TURNO) 1T": 78.0, "LULA (PT) (2º TURNO) 1T": 415.0, "LÉO PÉRICLES (UP) (NÃO ELEITO) 1T": 0.0, "PADRE KELMON (PTB) (NÃO ELEITO) 1T": 0.0, "SIMONE TEBET (MDB) (NÃO ELEITO) 1T": 4.0, "SOFIA MANZANO (PCB) (NÃO ELEITO) 1T": 0.0, "SORAYA THRONICKE (UNIÃO) (NÃO ELEITO) 1T": 1.0, "VERA (PSTU) (NÃO ELEITO) 1T": 0.0, "Total_Votos_Validos 1T": 514.0, "Votos_Brancos 1T": 3.0, "Votos_Nulos 1T": 14.0, "Abstenções 1T": 104.0, "Eleitores_Aptos 1T": 635.0, "JAIR BOLSONARO (PL) (NÃO ELEITO) 2T": 88.0, "LULA (PT) (ELEITO) 2T": 440.0, "Total_Votos_Validos 2T": 528.0, "Votos_Brancos 2T": 2.0, "Votos_Nulos 2T": 8.0, "Abstenções 2T": 97.0, "Eleitores_Aptos 2T": 635.0, "mun_code_y": "2403905", "mun_code": "2403905" }, "geometry": { "type": "Polygon", "coordinates": [ [ [ 6767439.9228346478194, 9303346.78236542083323 ], [ 6767453.977983737364411, 9303315.227398114278913 ], [ 6767582.580300124362111, 9303165.719282438978553 ], [ 6767592.38831983692944, 9303080.326387945562601 ], [ 6767488.286027016118169, 9302803.31977417320013 ], [ 6767484.281832799315453, 9302657.419561121612787 ], [ 6767620.284526991657913, 9302331.022890880703926 ], [ 6767629.284200037829578, 9302221.418203882873058 ], [ 6767892.979784486815333, 9301715.014940643683076 ], [ 6768017.282588412985206, 9301407.613659676164389 ], [ 6768094.182433263398707, 9301131.717693272978067 ], [ 6768259.385640562511981, 9300993.11838480271399 ], [ 6768783.883439730852842, 9300735.1192109528929 ], [ 6769046.28644696995616, 9300661.115541519597173 ], [ 6769189.491097528487444, 9300583.914561901241541 ], [ 6769341.069258538074791, 9300560.569326022639871 ], [ 6769381.684013777412474, 9300554.31050207093358 ], [ 6769707.583562315441668, 9300557.510483141988516 ], [ 6769765.387030742131174, 9300458.516515264287591 ], [ 6769797.583152268081903, 9300311.713788306340575 ], [ 6769876.683109888806939, 9300120.81530437245965 ], [ 6769875.783589361235499, 9299992.816781312227249 ], [ 6769736.091282806359231, 9299881.113728210330009 ], [ 6769695.585453039966524, 9299794.214201690629125 ], [ 6769692.881588906049728, 9299700.712532270699739 ], [ 6769773.185951046645641, 9299643.410034485161304 ], [ 6769871.685938443988562, 9299640.604583440348506 ], [ 6767041.27031696587801, 9297297.506539713591337 ], [ 6766125.687004721723497, 9296539.750748939812183 ], [ 6765902.468236629851162, 9296355.010728001594543 ], [ 6763532.252966430969536, 9297298.315663028508425 ], [ 6761368.847503294236958, 9297538.21618240326643 ], [ 6759334.040835356339812, 9297945.82361775636673 ], [ 6754508.520150135271251, 9300129.540917549282312 ], [ 6752263.315711229108274, 9303405.957076448947191 ], [ 6752175.738421523012221, 9303533.779906326904893 ], [ 6751316.413747983053327, 9304787.859899941831827 ], [ 6750051.612973879091442, 9305976.771716434508562 ], [ 6750053.314140982925892, 9306125.87003218382597 ], [ 6749824.516028999350965, 9306319.570318119600415 ], [ 6749766.315380409359932, 9306499.366069035604596 ], [ 6750047.609907638281584, 9307133.669212743639946 ], [ 6750250.917143885977566, 9307254.571262830868363 ], [ 6750438.719452301040292, 9307226.372940741479397 ], [ 6750769.221594357863069, 9307517.470854066312313 ], [ 6750815.513825815171003, 9307753.870695328339934 ], [ 6750733.414669212885201, 9308288.669295068830252 ], [ 6750773.316383877769113, 9308812.868006775155663 ], [ 6750714.415118796750903, 9308964.173190308734775 ], [ 6750709.518927677534521, 9309200.368657823652029 ], [ 6750813.926357634365559, 9309462.177032062783837 ], [ 6751110.225471816025674, 9309644.071523997932673 ], [ 6751448.025264870375395, 9309772.875829244032502 ], [ 6751670.126531925052404, 9309743.872627241536975 ], [ 6751928.330440850928426, 9309569.877949964255095 ], [ 6752094.224380523897707, 9309576.971857445314527 ], [ 6752312.229284325614572, 9309720.773788522928953 ], [ 6752641.224657306447625, 9309832.471358805894852 ], [ 6752696.830917212180793, 9309986.467433737590909 ], [ 6752825.631125164218247, 9310098.071886947378516 ], [ 6753095.527535970322788, 9310148.1737240254879 ], [ 6753129.327179794199765, 9310233.670212913304567 ], [ 6752876.936200615018606, 9310620.574980057775974 ], [ 6752786.512270016595721, 9310874.146943148225546 ], [ 6752785.284639025107026, 9310925.021479645743966 ], [ 6752829.417705416679382, 9310953.580830877646804 ], [ 6752853.759742164053023, 9311155.223328206688166 ], [ 6752968.817563599906862, 9311326.017782146111131 ], [ 6753083.764199355617166, 9311420.3564413189888 ], [ 6753217.530945206061006, 9311430.548181245103478 ], [ 6753256.036928380839527, 9311433.478041522204876 ], [ 6753407.130787464790046, 9311566.072327941656113 ], [ 6753723.63344356790185, 9311790.67940180003643 ], [ 6753918.736759087070823, 9312157.976198337972164 ], [ 6753863.744636667892337, 9312448.177313743159175 ], [ 6753987.239128038287163, 9312795.08306498453021 ], [ 6754442.143996587023139, 9313024.675192300230265 ], [ 6754809.349979300051928, 9313290.877799877896905 ], [ 6754867.649885317310691, 9313452.074338085949421 ], [ 6754818.647108451463282, 9313848.081834316253662 ], [ 6754949.651515866629779, 9314150.67687851190567 ], [ 6755107.349144112318754, 9314278.877219289541245 ], [ 6755274.447424845770001, 9314325.97670679166913 ], [ 6756147.551307898014784, 9314336.681644069030881 ], [ 6756789.355798544362187, 9314451.580789195373654 ], [ 6756992.355806363746524, 9314561.381147503852844 ], [ 6757098.557248421013355, 9314690.982631785795093 ], [ 6757176.355790708214045, 9314821.277017736807466 ], [ 6757233.558435508050025, 9315136.377008903771639 ], [ 6757493.162548875436187, 9315653.377519020810723 ], [ 6757610.664151757955551, 9315771.082533851265907 ], [ 6757815.259898839518428, 9315810.783670531585813 ], [ 6758024.164013804867864, 9315535.279703464359045 ], [ 6758189.460724248550832, 9315513.474501624703407 ], [ 6758361.660902456380427, 9315531.879262205213308 ], [ 6758626.963645144365728, 9315735.776270968839526 ], [ 6760990.242644409649074, 9310430.62363793887198 ], [ 6761028.523412792943418, 9310344.650502333417535 ], [ 6761029.782420923933387, 9310341.822364410385489 ], [ 6761106.176488500088453, 9310170.259107815101743 ], [ 6761379.367937355302274, 9309556.656045533716679 ], [ 6761520.571714938618243, 9309239.553162937983871 ], [ 6762285.86657540127635, 9308692.646032571792603 ], [ 6762507.070826641283929, 9308500.047942018136382 ], [ 6762606.467806827276945, 9308328.346405250951648 ], [ 6762656.469020609743893, 9308166.344775281846523 ], [ 6762715.266409000381827, 9308110.149733981117606 ], [ 6762883.573749681003392, 9308087.247084770351648 ], [ 6762930.467285699211061, 9308031.145768780261278 ], [ 6762968.868904428556561, 9307890.251468513160944 ], [ 6763033.776746761053801, 9307839.747143218293786 ], [ 6763141.269780270755291, 9307794.249057276174426 ], [ 6763173.573077357374132, 9307695.040694057941437 ], [ 6762984.765510560944676, 9307505.944003693759441 ], [ 6762918.57434116024524, 9307382.54541751742363 ], [ 6762864.771166572347283, 9307172.240160463377833 ], [ 6762808.571622522547841, 9307100.744595117866993 ], [ 6762692.969890641048551, 9307067.439101653173566 ], [ 6762337.171002007089555, 9307077.249383121728897 ], [ 6762088.161557575687766, 9307017.247647166252136 ], [ 6761855.462832495570183, 9306892.641877161338925 ], [ 6761686.567572427913547, 9306672.440766433253884 ], [ 6761616.265784084796906, 9306534.442179799079895 ], [ 6761601.057446678169072, 9306413.145969269797206 ], [ 6761622.65788490884006, 9306098.046925919130445 ], [ 6761719.058555737137794, 9305870.447501979768276 ], [ 6761806.259849512949586, 9305523.946696670725942 ], [ 6761924.766969204880297, 9305228.844266962260008 ], [ 6762054.259943176992238, 9305109.93699349835515 ], [ 6762197.46339519880712, 9305051.13655037805438 ], [ 6762307.064416180364788, 9305084.539255630224943 ], [ 6762365.161331946961582, 9305219.942164555191994 ], [ 6762300.164178082719445, 9305295.040064245462418 ], [ 6762128.464985592290759, 9305390.644511116668582 ], [ 6762100.566459221765399, 9305471.042262667790055 ], [ 6762171.259817983955145, 9305638.841504057869315 ], [ 6762165.568807589821517, 9305876.03911760263145 ], [ 6762236.659706546925008, 9306044.643920676782727 ], [ 6762221.765791567973793, 9306163.537976136431098 ], [ 6762176.263316879048944, 9306262.24567748233676 ], [ 6762322.86595815140754, 9306325.1428038533777 ], [ 6762416.16813316103071, 9306414.644496517255902 ], [ 6762538.071111968718469, 9306696.446570137515664 ], [ 6762607.26391773018986, 9306804.048913957551122 ], [ 6762650.073083035647869, 9306821.0415995772928 ], [ 6762678.866355676203966, 9306774.543632619082928 ], [ 6762638.767966493032873, 9306629.740107530727983 ], [ 6762658.272191001102328, 9306458.745837152004242 ], [ 6762629.767825365997851, 9306295.543446656316519 ], [ 6762577.06912976782769, 9306132.543830521404743 ], [ 6762615.865863529033959, 9306009.938301965594292 ], [ 6762843.171102469787002, 9305936.742189576849341 ], [ 6763443.364825388416648, 9305819.938288878649473 ], [ 6764022.76926336903125, 9305827.944577453657985 ], [ 6764148.478110929019749, 9305782.23323735781014 ], [ 6764401.67235129699111, 9305778.238199636340141 ], [ 6764486.977526685222983, 9305806.335339358076453 ], [ 6764874.073776051402092, 9305838.433901058509946 ], [ 6765003.98224731348455, 9305737.341430205851793 ], [ 6765019.779781125485897, 9305657.931179158389568 ], [ 6764973.180923572741449, 9305491.740322511643171 ], [ 6764596.771271119825542, 9305188.832336992025375 ], [ 6764311.274790034629405, 9304454.530886713415384 ], [ 6764218.4702044185251, 9304146.830964522436261 ], [ 6764155.764993632212281, 9304063.236549578607082 ], [ 6764124.968202265910804, 9303820.931335374712944 ], [ 6763988.967697871848941, 9303702.932329358533025 ], [ 6763743.465290326625109, 9303551.535893300548196 ], [ 6763476.760933650657535, 9303510.233905738219619 ], [ 6763304.863300029188395, 9303399.33686095289886 ], [ 6763192.164155370555818, 9303244.329492330551147 ], [ 6763187.768431006930768, 9303086.43817650154233 ], [ 6763389.865428893826902, 9302529.326691914349794 ], [ 6763391.86839391477406, 9302162.027813535183668 ], [ 6763463.960751254111528, 9302160.031638488173485 ], [ 6763634.467376978136599, 9302216.134254490956664 ], [ 6764176.462732655927539, 9302176.827030513435602 ], [ 6764239.862886914983392, 9302284.52439253591001 ], [ 6764308.071372060105205, 9302574.731134140864015 ], [ 6764358.072622087784111, 9302640.232280947268009 ], [ 6764844.573076010681689, 9302772.93405188433826 ], [ 6765016.571558212861419, 9302889.824921013787389 ], [ 6765166.170712150633335, 9303056.025118289515376 ], [ 6765350.068719348870218, 9303160.52699076756835 ], [ 6765676.369533674791455, 9303181.728709144517779 ], [ 6765783.573303228244185, 9303130.325351573526859 ], [ 6765780.871533188968897, 9303032.829029276967049 ], [ 6765804.077230600640178, 9302996.031679322943091 ], [ 6765901.777692566625774, 9303041.7248365432024 ], [ 6766077.371365113183856, 9303280.324917217716575 ], [ 6766375.078246991150081, 9303576.223097920417786 ], [ 6766646.579479318112135, 9303806.12566183321178 ], [ 6766805.281410064548254, 9303862.529823768883944 ], [ 6767035.576619982719421, 9303892.82338747382164 ], [ 6767276.979480368085206, 9303898.325502306222916 ], [ 6767324.482858914881945, 9303872.532036300748587 ], [ 6767294.783499431796372, 9303672.62287201359868 ], [ 6767415.087214714847505, 9303402.544835885986686 ], [ 6767439.9228346478194, 9303346.78236542083323 ] ] ] } }
]
}
