{
"type": "FeatureCollection",
"name": "2404309",
"crs": { "type": "name", "properties": { "name": "urn:ogc:def:crs:EPSG::5880" } },
"features": [
{ "type": "Feature", "properties": { "lv_id": "LOC_022121", "id": 90118.0, "CD_SETOR": "240430905000001", "SITUACAO": "Urbana", "CD_SIT": "1", "CD_TIPO": "0", "AREA_KM2": 0.12520843613827901, "CD_REGIAO": "2", "NM_REGIAO": "Nordeste", "CD_UF": "24", "NM_UF": "Rio Grande do Norte", "CD_MUN": "2404309", "NM_MUN": "Governador Dix-Sept Rosado", "CD_DIST": "240430905", "NM_DIST": "Governador Dix-Sept Rosado", "CD_SUBDIST": "24043090500", "NM_SUBDIST": null, "CD_BAIRRO": "2404309001", "NM_BAIRRO": "Dix-Sept Rosado", "CD_NU": null, "NM_NU": null, "CD_FCU": null, "NM_FCU": null, "CD_AGLOM": "240430900001", "NM_AGLOM": "Agrovila do PCT Monte Alegre II", "CD_RGINT": "2403", "NM_RGINT": "Mossoró", "CD_RGI": "240009", "NM_RGI": "Mossoró", "CD_CONCURB": null, "NM_CONCURB": null, "mun_code_x": "2404309", "index_right": 65941, "dist_m": 76.397056782187235, "local_id": 225091, "ano": 2022, "cod_localidade_ibge": 2404309, "NR_ZONA": "49", "nr_cep": 59790000.0, "nm_localidade": "GOVERNADOR DIX-SEPT ROSADO", "nm_locvot": "ESCOLA MUNICIPAL EDUCANDARIO DIX SEPTIENSE", "ds_endereco": "RUA MANOEL JOAQUIM, 230", "ds_bairro": "CENTRO", "pred_long": -37.521905, "pred_lat": -5.456052, "pred_dist": 0.0, "tse_long": -37.52159952, "tse_lat": -5.45633086, "long": -37.52159952, "lat": -5.45633086, "ID_UNICO": "LOC_022121", "SG_UF": "RN", "CD_MUNICIPIO": "16837", "NR_LOCAL_VOTACAO": "1031", "QT_SECOES_AGREGADAS": 0, "QT_ELEITORES_TRANSFERIDOS": 0, "CIRO GOMES (PDT) (NÃO ELEITO) 1T": 122.0, "CONSTITUINTE EYMAEL (DC) (NÃO ELEITO) 1T": 0.0, "FELIPE D AVILA (NOVO) (NÃO ELEITO) 1T": 1.0, "JAIR BOLSONARO (PL) (2º TURNO) 1T": 468.0, "LULA (PT) (2º TURNO) 1T": 2182.0, "LÉO PÉRICLES (UP) (NÃO ELEITO) 1T": 1.0, "PADRE KELMON (PTB) (NÃO ELEITO) 1T": 3.0, "SIMONE TEBET (MDB) (NÃO ELEITO) 1T": 20.0, "SOFIA MANZANO (PCB) (NÃO ELEITO) 1T": 3.0, "SORAYA THRONICKE (UNIÃO) (NÃO ELEITO) 1T": 11.0, "VERA (PSTU) (NÃO ELEITO) 1T": 0.0, "Total_Votos_Validos 1T": 2811.0, "Votos_Brancos 1T": 67.0, "Votos_Nulos 1T": 92.0, "Abstenções 1T": 743.0, "Eleitores_Aptos 1T": 3713.0, "JAIR BOLSONARO (PL) (NÃO ELEITO) 2T": 565.0, "LULA (PT) (ELEITO) 2T": 2309.0, "Total_Votos_Validos 2T": 2874.0, "Votos_Brancos 2T": 34.0, "Votos_Nulos 2T": 89.0, "Abstenções 2T": 716.0, "Eleitores_Aptos 2T": 3713.0, "mun_code_y": "2404309", "mun_code": "2404309" }, "geometry": { "type": "Polygon", "coordinates": [ [ [ 6820575.536813041195273, 9365458.898028576746583 ], [ 6821035.545260608196259, 9367706.89556035399437 ], [ 6817564.03142567910254, 9369988.707034394145012 ], [ 6817207.829310265369713, 9369880.916926760226488 ], [ 6816868.731611183844507, 9369894.415154231712222 ], [ 6816698.824449599720538, 9369958.215505501255393 ], [ 6814912.792326929047704, 9371193.266649954020977 ], [ 6812442.10803747177124, 9372901.234956381842494 ], [ 6812258.117948654107749, 9373323.237367169931531 ], [ 6812035.008730220608413, 9374260.829801248386502 ], [ 6811529.359543180093169, 9374571.611441396176815 ], [ 6811307.939542981795967, 9374707.688500519841909 ], [ 6811242.069223599508405, 9374748.15868004783988 ], [ 6811179.929542624391615, 9374786.352107660844922 ], [ 6811176.210143636912107, 9374788.639778811484575 ], [ 6812649.187458228319883, 9376784.273072311654687 ], [ 6794045.15581788495183, 9388623.806498574092984 ], [ 6794337.248645077459514, 9388804.805328335613012 ], [ 6795000.063615757040679, 9389033.906238839030266 ], [ 6796974.151615891605616, 9390776.932005386799574 ], [ 6796976.273573416285217, 9390778.809259137138724 ], [ 6797399.874976811930537, 9391038.517761755734682 ], [ 6797495.377124725840986, 9391425.907686248421669 ], [ 6797479.68041546549648, 9391965.816814489662647 ], [ 6797342.276402381248772, 9392239.120117127895355 ], [ 6796991.779980428516865, 9392637.120925245806575 ], [ 6796797.474854656495154, 9392941.713418655097485 ], [ 6796721.079940327443182, 9393363.219019334763288 ], [ 6796507.375448854640126, 9394057.919125143438578 ], [ 6796573.987274508923292, 9395045.720544517040253 ], [ 6796703.282087931409478, 9395642.125652257353067 ], [ 6797112.551359838806093, 9396472.6899294834584 ], [ 6797258.49438688904047, 9396752.97403671965003 ], [ 6797373.817381212487817, 9397321.25738487765193 ], [ 6797600.380565380677581, 9398229.39890068769455 ], [ 6797558.590732842683792, 9398600.929047478362918 ], [ 6797340.474688072688878, 9398958.251928050071001 ], [ 6797320.897523306310177, 9398990.335735118016601 ], [ 6797192.268479025922716, 9399366.915287937968969 ], [ 6797062.589537437073886, 9399746.542866677045822 ], [ 6798918.298236320726573, 9399141.93630313128233 ], [ 6808606.852444350719452, 9395987.546434782445431 ], [ 6813222.120600413531065, 9394483.432207562029362 ], [ 6819613.985297303646803, 9392398.767727911472321 ], [ 6823421.599683246575296, 9391454.162649538367987 ], [ 6832742.98850866779685, 9389142.367979155853391 ], [ 6836923.154715581797063, 9388104.620220320299268 ], [ 6837201.183535488322377, 9387915.83685146830976 ], [ 6837932.350758304819465, 9387419.323177117854357 ], [ 6840716.862553519196808, 9385528.509633492678404 ], [ 6842894.795275290496647, 9384050.573152551427484 ], [ 6842903.7036805273965, 9384044.522460661828518 ], [ 6843327.573863240890205, 9383756.834812326356769 ], [ 6851101.59704736340791, 9378477.272697452455759 ], [ 6851061.599605897441506, 9378361.368823297321796 ], [ 6850960.499961471185088, 9378348.364153584465384 ], [ 6850971.493520454503596, 9378156.269745158031583 ], [ 6850893.901195136830211, 9377987.164890015497804 ], [ 6850675.992005009204149, 9377875.472660534083843 ], [ 6850525.898871494457126, 9377921.066450163722038 ], [ 6850316.390832525677979, 9377838.769098695367575 ], [ 6850214.396933953277767, 9377771.363531554117799 ], [ 6850212.994939208030701, 9377650.266758123412728 ], [ 6850332.898731974884868, 9377518.266426498070359 ], [ 6850715.893071366474032, 9377459.961140781641006 ], [ 6850767.997080128639936, 9377415.968686854466796 ], [ 6850777.392242331057787, 9377292.462287176400423 ], [ 6850938.499228611588478, 9377139.467197250574827 ], [ 6850869.197726386599243, 9376599.860108006745577 ], [ 6851215.691530484706163, 9375927.055279064923525 ], [ 6851297.898175362497568, 9375492.962573444470763 ], [ 6851283.692798691801727, 9375067.254237266257405 ], [ 6851107.990021526813507, 9374075.052249332889915 ], [ 6850926.088100966997445, 9373931.855669870972633 ], [ 6850693.390713009051979, 9373634.456832233816385 ], [ 6850501.780547184869647, 9372982.052195163443685 ], [ 6850314.584055418148637, 9372722.857869422063231 ], [ 6850250.781117233447731, 9372500.453076837584376 ], [ 6850310.985910676419735, 9372272.347271652892232 ], [ 6850484.789050381630659, 9372061.34535481967032 ], [ 6850572.982208862900734, 9371857.645520048215985 ], [ 6850613.98115536943078, 9371529.845886509865522 ], [ 6850540.980298727750778, 9371355.851669922471046 ], [ 6850344.084490242414176, 9371223.749230727553368 ], [ 6850358.28406316973269, 9370915.144840564578772 ], [ 6850237.28276876360178, 9370593.846448935568333 ], [ 6850301.978977560065687, 9370422.852128330618143 ], [ 6850178.182176996022463, 9370221.144952993839979 ], [ 6850275.074607660062611, 9370056.843758841976523 ], [ 6850427.382691510021687, 9369981.546916592866182 ], [ 6850545.976900741457939, 9369848.74342667683959 ], [ 6850555.978325299918652, 9369435.441444404423237 ], [ 6850884.980430179275572, 9368958.536585899069905 ], [ 6850944.977597195655107, 9368777.641406452283263 ], [ 6850953.47795330081135, 9368506.236142344772816 ], [ 6850636.374713655561209, 9368513.945076422765851 ], [ 6841239.832728301174939, 9368742.264147821813822 ], [ 6841177.34348371066153, 9368631.516785129904747 ], [ 6839157.455070910975337, 9365052.294207494705915 ], [ 6835835.492768170312047, 9359168.44248010404408 ], [ 6834274.979376499541104, 9356404.038436159491539 ], [ 6828677.762329443357885, 9358875.65618010237813 ], [ 6819200.413341598585248, 9358591.073911381885409 ], [ 6819169.918974140658975, 9358590.172274455428123 ], [ 6820089.440991177223623, 9363082.45557857863605 ], [ 6820575.536813041195273, 9365458.898028576746583 ] ] ] } }
]
}
