{
"type": "FeatureCollection",
"name": "2405504",
"crs": { "type": "name", "properties": { "name": "urn:ogc:def:crs:EPSG::5880" } },
"features": [
{ "type": "Feature", "properties": { "lv_id": "LOC_022186", "id": 90380.0, "CD_SETOR": "240550405000001", "SITUACAO": "Urbana", "CD_SIT": "1", "CD_TIPO": "0", "AREA_KM2": 0.20052045504573901, "CD_REGIAO": "2", "NM_REGIAO": "Nordeste", "CD_UF": "24", "NM_UF": "Rio Grande do Norte", "CD_MUN": "2405504", "NM_MUN": "Jardim de Angicos", "CD_DIST": "240550405", "NM_DIST": "Jardim de Angicos", "CD_SUBDIST": "24055040500", "NM_SUBDIST": null, "CD_BAIRRO": null, "NM_BAIRRO": null, "CD_NU": null, "NM_NU": null, "CD_FCU": null, "NM_FCU": null, "CD_AGLOM": null, "NM_AGLOM": null, "CD_RGINT": "2401", "NM_RGINT": "Natal", "CD_RGI": "240005", "NM_RGI": "João Câmara", "CD_CONCURB": null, "NM_CONCURB": null, "mun_code_x": "2405504", "index_right": 66015, "dist_m": 0.0, "local_id": 225787, "ano": 2022, "cod_localidade_ibge": 2405504, "NR_ZONA": "10", "nr_cep": 59544000.0, "nm_localidade": "JARDIM DE ANGICOS", "nm_locvot": "SECRETARIA  MUNICIPAL DE SAÚDE", "ds_endereco": "PRACA DA MATRIZ, 10", "ds_bairro": "CENTRO", "pred_long": -35.969346, "pred_lat": -5.6534025, "pred_dist": 0.0, "tse_long": -35.96954351, "tse_lat": -5.65273593, "long": -35.96954351, "lat": -5.65273593, "ID_UNICO": "LOC_022186", "SG_UF": "RN", "CD_MUNICIPIO": "17078", "NR_LOCAL_VOTACAO": "1058", "QT_SECOES_AGREGADAS": 3, "QT_ELEITORES_TRANSFERIDOS": 1, "CIRO GOMES (PDT) (NÃO ELEITO) 1T": 8.0, "CONSTITUINTE EYMAEL (DC) (NÃO ELEITO) 1T": 0.0, "FELIPE D AVILA (NOVO) (NÃO ELEITO) 1T": 0.0, "JAIR BOLSONARO (PL) (2º TURNO) 1T": 44.0, "LULA (PT) (2º TURNO) 1T": 170.0, "LÉO PÉRICLES (UP) (NÃO ELEITO) 1T": 0.0, "PADRE KELMON (PTB) (NÃO ELEITO) 1T": 0.0, "SIMONE TEBET (MDB) (NÃO ELEITO) 1T": 1.0, "SOFIA MANZANO (PCB) (NÃO ELEITO) 1T": 0.0, "SORAYA THRONICKE (UNIÃO) (NÃO ELEITO) 1T": 1.0, "VERA (PSTU) (NÃO ELEITO) 1T": 0.0, "Total_Votos_Validos 1T": 224.0, "Votos_Brancos 1T": 0.0, "Votos_Nulos 1T": 7.0, "Abstenções 1T": 30.0, "Eleitores_Aptos 1T": 261.0, "JAIR BOLSONARO (PL) (NÃO ELEITO) 2T": 44.0, "LULA (PT) (ELEITO) 2T": 166.0, "Total_Votos_Validos 2T": 210.0, "Votos_Brancos 2T": 0.0, "Votos_Nulos 2T": 3.0, "Abstenções 2T": 48.0, "Eleitores_Aptos 2T": 261.0, "mun_code_y": "2405504", "mun_code": "2405504" }, "geometry": { "type": "Polygon", "coordinates": [ [ [ 7000816.600605673156679, 9336647.727771276608109 ], [ 6996982.884755399078131, 9336800.831594485789537 ], [ 6996786.190145893022418, 9336840.131495390087366 ], [ 6992770.389653502963483, 9338264.45931407622993 ], [ 6992797.977097783237696, 9338333.812731698155403 ], [ 6992859.140427207574248, 9338433.343003557994962 ], [ 6992939.212736630812287, 9338505.899376371875405 ], [ 6993047.752289938740432, 9338558.496302476152778 ], [ 6993154.276221530511975, 9338545.839252592995763 ], [ 6993233.782382996752858, 9338729.130307927727699 ], [ 6993323.664739449508488, 9338895.592475321143866 ], [ 6993367.028157454915345, 9339046.385018225759268 ], [ 6993386.365377434529364, 9339203.011566495522857 ], [ 6993387.399256414733827, 9339406.431760342791677 ], [ 6993404.603942807763815, 9339582.858653893694282 ], [ 6993508.813725358806551, 9339721.588557546958327 ], [ 6993517.525965889915824, 9339848.111345153301954 ], [ 6993505.719999372959137, 9340021.879367355257273 ], [ 6993424.327690477482975, 9340124.892571501433849 ], [ 6993340.506043212488294, 9340434.392123315483332 ], [ 6993338.596599509939551, 9340546.444492902606726 ], [ 6993303.17419742513448, 9340615.499176520854235 ], [ 6993289.51145628746599, 9340747.673483561724424 ], [ 6993259.837149104103446, 9341000.544715948402882 ], [ 6993343.070586889982224, 9341158.470425078645349 ], [ 6993296.314711653627455, 9341260.703313905745745 ], [ 6993296.357507054693997, 9341320.424384094774723 ], [ 6993351.237799935042858, 9341488.4607675652951 ], [ 6993380.767880007624626, 9341633.222268030047417 ], [ 6993393.774901698343456, 9341767.19122077897191 ], [ 6993392.766207367181778, 9341941.57311431504786 ], [ 6993314.036951224319637, 9342131.751380421221256 ], [ 6993268.119102967903018, 9342261.9538195990026 ], [ 6993234.747558210045099, 9342419.775968344882131 ], [ 6993253.636757109314203, 9342721.526728825643659 ], [ 6993270.145616682246327, 9342853.529479786753654 ], [ 6993303.461026889272034, 9343011.128998694941401 ], [ 6993307.872338069602847, 9343125.921297203749418 ], [ 6993301.043931018561125, 9343223.975212240591645 ], [ 6993164.70295699313283, 9343252.460263865068555 ], [ 6993074.057485869154334, 9343318.728115743026137 ], [ 6993015.967486130073667, 9343400.77149099111557 ], [ 6992953.98184388037771, 9343471.745268974453211 ], [ 6992976.176694480702281, 9343761.016388729214668 ], [ 6993128.35821220651269, 9344106.497744923457503 ], [ 6993337.531832559965551, 9343894.7287931535393 ], [ 6993455.804291377775371, 9343689.368622146546841 ], [ 6993569.308476006612182, 9343390.616688130423427 ], [ 6993637.824995003640652, 9343165.00489105284214 ], [ 6993766.704604223370552, 9343080.159753426909447 ], [ 6993912.69598684553057, 9343091.908191043883562 ], [ 6994130.659260470420122, 9343125.732717737555504 ], [ 6994236.100889375433326, 9343280.684959737583995 ], [ 6994329.937979420647025, 9343436.009839676320553 ], [ 6994419.10035603120923, 9343540.206396479159594 ], [ 6994468.718844228424132, 9343541.257417181506753 ], [ 6994726.550761647522449, 9343454.15411438792944 ], [ 6994962.306374123319983, 9343413.250129349529743 ], [ 6995137.690111519768834, 9343437.670354083180428 ], [ 6995340.666125705465674, 9343489.885923024266958 ], [ 6995547.950569730252028, 9343508.952261192724109 ], [ 6995637.83641146402806, 9343476.294924380257726 ], [ 6995776.705272901803255, 9343370.872594939544797 ], [ 6995960.630260623991489, 9343309.489517943933606 ], [ 6996049.537687517702579, 9343362.409703396260738 ], [ 6996133.623613581061363, 9343465.051810011267662 ], [ 6996264.867678520269692, 9343517.565297046676278 ], [ 6996449.390037310309708, 9343545.788117751479149 ], [ 6996611.184548650868237, 9343546.910921428352594 ], [ 6996853.369614390656352, 9343541.255472984164953 ], [ 6996909.8386101257056, 9343579.719917805865407 ], [ 6996939.352835476398468, 9343590.228361461311579 ], [ 6996936.571890050545335, 9343766.319354079663754 ], [ 6996707.711007808335125, 9343766.985081806778908 ], [ 6996717.234051164239645, 9343904.694098927080631 ], [ 6996723.875178553164005, 9344241.877236442640424 ], [ 6996724.227982177399099, 9344464.957893440499902 ], [ 6996724.403310209512711, 9344673.566703775897622 ], [ 6996737.999821473844349, 9344780.7441501095891 ], [ 6996894.625502938404679, 9344808.92414266616106 ], [ 6996889.378136243671179, 9344841.129559330642223 ], [ 6996855.508219428360462, 9344908.086735172197223 ], [ 6996783.667678100056946, 9345218.501790406182408 ], [ 6996732.194621431641281, 9345435.02418247051537 ], [ 6996713.795592496171594, 9345593.751543708145618 ], [ 6996680.005821079015732, 9345882.703558433800936 ], [ 6996648.519462501630187, 9345993.166963394731283 ], [ 6996599.054150754585862, 9346148.801110036671162 ], [ 6996516.080617152154446, 9346475.769515041261911 ], [ 6996421.373736185021698, 9346799.057091431692243 ], [ 6996330.402387512847781, 9347118.162942491471767 ], [ 6996289.89698694832623, 9347314.055226888507605 ], [ 6996237.650627112947404, 9347506.256935765966773 ], [ 6996188.049011257477105, 9347657.824753895401955 ], [ 6996159.075579637661576, 9347723.590419121086597 ], [ 6996082.75474860984832, 9347888.146679479628801 ], [ 6996005.337891622446477, 9348016.236035315319896 ], [ 6995935.169316709041595, 9348127.883154099807143 ], [ 6995815.685862202197313, 9348273.495068969205022 ], [ 6995757.477352852001786, 9348396.926691880449653 ], [ 6995728.992050606757402, 9348478.904175207018852 ], [ 6995716.712542137131095, 9348584.715322501957417 ], [ 6995728.613107722252607, 9348722.218138163909316 ], [ 6995749.490849070250988, 9348899.995384693145752 ], [ 6995792.095281937159598, 9349028.439720155671239 ], [ 6995874.728576419875026, 9349200.267751457169652 ], [ 6995956.491918595507741, 9349343.739354187622666 ], [ 6996061.108809666708112, 9349474.343225898221135 ], [ 6996099.23347495496273, 9349582.658259637653828 ], [ 6996130.351831872016191, 9349715.510246550664306 ], [ 6996169.199414032511413, 9349848.136797966435552 ], [ 6996203.947529120370746, 9349972.774792101234198 ], [ 6996222.72396576218307, 9350081.685362467542291 ], [ 6996246.343928910791874, 9350222.883780905976892 ], [ 6996344.207026328891516, 9350386.148649167269468 ], [ 6996386.070205847732723, 9350490.288483561947942 ], [ 6996500.614444823935628, 9350693.583765216171741 ], [ 6996608.150542445480824, 9350921.4294338170439 ], [ 6996866.275551535189152, 9351392.02608354575932 ], [ 6996892.787004860118032, 9351500.70387807302177 ], [ 6996915.544095272198319, 9351613.548715146258473 ], [ 6996867.821749619208276, 9351700.167397223412991 ], [ 6996771.197621431201696, 9351962.658963294699788 ], [ 6996704.137699507176876, 9352049.868174366652966 ], [ 6996641.186476505361497, 9352145.066007968038321 ], [ 6996620.172121245414019, 9352218.709565572440624 ], [ 6996615.278148291632533, 9352441.888588175177574 ], [ 6996594.057044227607548, 9352637.181727608665824 ], [ 6996554.802233062684536, 9352747.870789458975196 ], [ 6996488.713705459609628, 9352867.494799399748445 ], [ 6996410.530342089943588, 9352971.257852902635932 ], [ 6996296.587857870385051, 9353173.433373080566525 ], [ 6996227.228972021490335, 9353313.42388902977109 ], [ 6996171.058365503326058, 9353505.72790053114295 ], [ 6996158.997192483395338, 9353619.645613830536604 ], [ 6996156.764397166669369, 9353931.942473746836185 ], [ 6996166.348840734921396, 9354122.237741256132722 ], [ 6996195.453638560138643, 9354575.512529080733657 ], [ 6996147.851435411721468, 9354795.935636090114713 ], [ 6996123.10600158572197, 9355003.494881963357329 ], [ 6996086.873636511154473, 9355215.466609425842762 ], [ 6996069.975350078195333, 9355426.837237371131778 ], [ 6996040.618693430908024, 9355610.202460270375013 ], [ 6996041.486986244097352, 9355768.326385036110878 ], [ 6996052.146448575891554, 9355995.075448788702488 ], [ 6996082.389822963625193, 9356099.589148567989469 ], [ 6996144.292712066322565, 9356227.461415611207485 ], [ 6996244.152990462258458, 9356329.859049260616302 ], [ 6996320.083250322379172, 9356408.652156310155988 ], [ 6996380.530425060540438, 9356487.916453178972006 ], [ 6996434.459231419488788, 9356607.930467791855335 ], [ 6996462.035742820240557, 9356753.067347794771194 ], [ 6996485.856478286907077, 9356902.381925022229552 ], [ 6996493.488407289609313, 9357027.855468580499291 ], [ 6996477.047126585617661, 9357125.675508616492152 ], [ 6996585.979432861320674, 9357142.648441810160875 ], [ 6996702.994269993156195, 9357171.530955616384745 ], [ 6996835.49266301561147, 9357199.954942835494876 ], [ 6996995.565219141542912, 9357243.748481079936028 ], [ 6997202.406874125823379, 9357298.30035175383091 ], [ 6997334.784199958667159, 9357322.665254173800349 ], [ 6997483.11818290874362, 9357362.764492299407721 ], [ 6997635.813080154359341, 9357418.950609872117639 ], [ 6997784.268660273402929, 9357463.110348137095571 ], [ 6997933.087435979396105, 9357519.415152499452233 ], [ 6998038.265165384858847, 9357540.555309107527137 ], [ 6998039.832349292933941, 9357541.064994232729077 ], [ 6998163.575958694331348, 9357530.990365477278829 ], [ 6998322.422737743705511, 9357543.766248995438218 ], [ 6998382.883688217960298, 9357558.276901308447123 ], [ 6998584.073350610211492, 9357622.106169914826751 ], [ 6998584.089358093217015, 9357513.281082915142179 ], [ 6998900.531171151436865, 9357591.117105474695563 ], [ 6998937.443430400453508, 9357504.692283185198903 ], [ 7003659.136664014309645, 9346454.751873148605227 ], [ 7003466.841016709804535, 9346248.544397693127394 ], [ 7003370.34205109719187, 9346177.546153688803315 ], [ 7003223.831293057650328, 9346120.652263121679425 ], [ 7002860.834629061631858, 9346108.848668547347188 ], [ 7002481.236524562351406, 9346016.047740383073688 ], [ 7002267.428388716652989, 9345885.444782 ], [ 7002208.426891375333071, 9345798.854154316708446 ], [ 7002183.929644705727696, 9345693.043904811143875 ], [ 7002194.833826426416636, 9345493.548523169010878 ], [ 7002281.033025874756277, 9345185.344905510544777 ], [ 7002330.531181123107672, 9344711.042118379846215 ], [ 7002322.92348175495863, 9344560.742000201717019 ], [ 7002282.9320501498878, 9344413.445139234885573 ], [ 7002146.931092279031873, 9344156.546311005949974 ], [ 7002043.726169632747769, 9344070.045155951753259 ], [ 7001796.12589580193162, 9343934.950801055878401 ], [ 7001639.529590662568808, 9343849.44900712184608 ], [ 7001530.928391480818391, 9343826.045761231333017 ], [ 7001385.122779688797891, 9343842.943684326484799 ], [ 7001292.22590671107173, 9343830.74593179859221 ], [ 7001193.920604302547872, 9343771.443123579025269 ], [ 7001116.919170290231705, 9343668.351307652890682 ], [ 7001025.518074008636177, 9343369.939766405150294 ], [ 7000806.01662755291909, 9342907.640650436282158 ], [ 7000646.814721459522843, 9342669.045595834031701 ], [ 7000433.915387745946646, 9342517.343948436900973 ], [ 7000390.111356036737561, 9342466.94208818860352 ], [ 7000240.419013461098075, 9342233.143916875123978 ], [ 7000182.769193167798221, 9342088.632139066234231 ], [ 7000155.816039714962244, 9342021.04415675625205 ], [ 7000816.600605673156679, 9336647.727771276608109 ] ] ] } },
{ "type": "Feature", "properties": { "lv_id": "LOC_022187", "id": 90382.0, "CD_SETOR": "240550405000003", "SITUACAO": "Rural", "CD_SIT": "8", "CD_TIPO": "0", "AREA_KM2": 105.17561672194991, "CD_REGIAO": "2", "NM_REGIAO": "Nordeste", "CD_UF": "24", "NM_UF": "Rio Grande do Norte", "CD_MUN": "2405504", "NM_MUN": "Jardim de Angicos", "CD_DIST": "240550405", "NM_DIST": "Jardim de Angicos", "CD_SUBDIST": "24055040500", "NM_SUBDIST": null, "CD_BAIRRO": null, "NM_BAIRRO": null, "CD_NU": null, "NM_NU": null, "CD_FCU": null, "NM_FCU": null, "CD_AGLOM": "240550400001", "NM_AGLOM": "Aldeia Indígena Nova Descoberta", "CD_RGINT": "2401", "NM_RGINT": "Natal", "CD_RGI": "240005", "NM_RGI": "João Câmara", "CD_CONCURB": null, "NM_CONCURB": null, "mun_code_x": "2405504", "index_right": 66014, "dist_m": 0.0, "local_id": 225786, "ano": 2022, "cod_localidade_ibge": 2405504, "NR_ZONA": "10", "nr_cep": 59544000.0, "nm_localidade": "JARDIM DE ANGICOS", "nm_locvot": "ESCOLA MUNICIPAL JOSE BONIFACIO", "ds_endereco": "POVOADO DE SERRINHA, S/N", "ds_bairro": "ZONA RURAL", "pred_long": -35.98083, "pred_lat": -5.506421, "pred_dist": 0.0, "tse_long": -35.98091934, "tse_lat": -5.50641099, "long": -35.98091934, "lat": -5.50641099, "ID_UNICO": "LOC_022187", "SG_UF": "RN", "CD_MUNICIPIO": "17078", "NR_LOCAL_VOTACAO": "1074", "QT_SECOES_AGREGADAS": 0, "QT_ELEITORES_TRANSFERIDOS": 1, "CIRO GOMES (PDT) (NÃO ELEITO) 1T": 29.0, "CONSTITUINTE EYMAEL (DC) (NÃO ELEITO) 1T": 0.0, "FELIPE D AVILA (NOVO) (NÃO ELEITO) 1T": 0.0, "JAIR BOLSONARO (PL) (2º TURNO) 1T": 89.0, "LULA (PT) (2º TURNO) 1T": 609.0, "LÉO PÉRICLES (UP) (NÃO ELEITO) 1T": 0.0, "PADRE KELMON (PTB) (NÃO ELEITO) 1T": 0.0, "SIMONE TEBET (MDB) (NÃO ELEITO) 1T": 9.0, "SOFIA MANZANO (PCB) (NÃO ELEITO) 1T": 0.0, "SORAYA THRONICKE (UNIÃO) (NÃO ELEITO) 1T": 1.0, "VERA (PSTU) (NÃO ELEITO) 1T": 0.0, "Total_Votos_Validos 1T": 737.0, "Votos_Brancos 1T": 6.0, "Votos_Nulos 1T": 24.0, "Abstenções 1T": 117.0, "Eleitores_Aptos 1T": 884.0, "JAIR BOLSONARO (PL) (NÃO ELEITO) 2T": 89.0, "LULA (PT) (ELEITO) 2T": 581.0, "Total_Votos_Validos 2T": 670.0, "Votos_Brancos 2T": 4.0, "Votos_Nulos 2T": 7.0, "Abstenções 2T": 203.0, "Eleitores_Aptos 2T": 884.0, "mun_code_y": "2405504", "mun_code": "2405504" }, "geometry": { "type": "Polygon", "coordinates": [ [ [ 6997933.087435979396105, 9357519.415152499452233 ], [ 6997784.268660273402929, 9357463.110348137095571 ], [ 6997635.813080154359341, 9357418.950609872117639 ], [ 6997483.11818290874362, 9357362.764492299407721 ], [ 6997334.784199958667159, 9357322.665254173800349 ], [ 6997202.406874125823379, 9357298.30035175383091 ], [ 6996995.565219141542912, 9357243.748481079936028 ], [ 6996835.49266301561147, 9357199.954942835494876 ], [ 6996702.994269993156195, 9357171.530955616384745 ], [ 6996585.979432861320674, 9357142.648441810160875 ], [ 6996477.047126585617661, 9357125.675508616492152 ], [ 6996493.488407289609313, 9357027.855468580499291 ], [ 6996485.856478286907077, 9356902.381925022229552 ], [ 6996462.035742820240557, 9356753.067347794771194 ], [ 6996434.459231419488788, 9356607.930467791855335 ], [ 6996380.530425060540438, 9356487.916453178972006 ], [ 6996320.083250322379172, 9356408.652156310155988 ], [ 6996244.152990462258458, 9356329.859049260616302 ], [ 6996144.292712066322565, 9356227.461415611207485 ], [ 6996082.389822963625193, 9356099.589148567989469 ], [ 6996052.146448575891554, 9355995.075448788702488 ], [ 6996041.486986244097352, 9355768.326385036110878 ], [ 6996040.618693430908024, 9355610.202460270375013 ], [ 6996069.975350078195333, 9355426.837237371131778 ], [ 6996086.873636511154473, 9355215.466609425842762 ], [ 6996123.10600158572197, 9355003.494881963357329 ], [ 6996147.851435411721468, 9354795.935636090114713 ], [ 6996195.453638560138643, 9354575.512529080733657 ], [ 6996166.348840734921396, 9354122.237741256132722 ], [ 6996156.764397166669369, 9353931.942473746836185 ], [ 6996158.997192483395338, 9353619.645613830536604 ], [ 6996171.058365503326058, 9353505.72790053114295 ], [ 6996227.228972021490335, 9353313.42388902977109 ], [ 6996296.587857870385051, 9353173.433373080566525 ], [ 6996410.530342089943588, 9352971.257852902635932 ], [ 6996488.713705459609628, 9352867.494799399748445 ], [ 6996554.802233062684536, 9352747.870789458975196 ], [ 6996594.057044227607548, 9352637.181727608665824 ], [ 6996615.278148291632533, 9352441.888588175177574 ], [ 6996620.172121245414019, 9352218.709565572440624 ], [ 6996641.186476505361497, 9352145.066007968038321 ], [ 6996704.137699507176876, 9352049.868174366652966 ], [ 6996771.197621431201696, 9351962.658963294699788 ], [ 6996867.821749619208276, 9351700.167397223412991 ], [ 6996915.544095272198319, 9351613.548715146258473 ], [ 6996892.787004860118032, 9351500.70387807302177 ], [ 6996866.275551535189152, 9351392.02608354575932 ], [ 6996608.150542445480824, 9350921.4294338170439 ], [ 6996500.614444823935628, 9350693.583765216171741 ], [ 6996386.070205847732723, 9350490.288483561947942 ], [ 6996344.207026328891516, 9350386.148649167269468 ], [ 6996246.343928910791874, 9350222.883780905976892 ], [ 6996222.72396576218307, 9350081.685362467542291 ], [ 6996203.947529120370746, 9349972.774792101234198 ], [ 6996169.199414032511413, 9349848.136797966435552 ], [ 6996130.351831872016191, 9349715.510246550664306 ], [ 6996099.23347495496273, 9349582.658259637653828 ], [ 6996061.108809666708112, 9349474.343225898221135 ], [ 6995956.491918595507741, 9349343.739354187622666 ], [ 6995874.728576419875026, 9349200.267751457169652 ], [ 6995792.095281937159598, 9349028.439720155671239 ], [ 6995749.490849070250988, 9348899.995384693145752 ], [ 6995728.613107722252607, 9348722.218138163909316 ], [ 6995716.712542137131095, 9348584.715322501957417 ], [ 6995728.992050606757402, 9348478.904175207018852 ], [ 6995757.477352852001786, 9348396.926691880449653 ], [ 6995815.685862202197313, 9348273.495068969205022 ], [ 6995935.169316709041595, 9348127.883154099807143 ], [ 6996005.337891622446477, 9348016.236035315319896 ], [ 6996082.75474860984832, 9347888.146679479628801 ], [ 6996159.075579637661576, 9347723.590419121086597 ], [ 6996188.049011257477105, 9347657.824753895401955 ], [ 6996237.650627112947404, 9347506.256935765966773 ], [ 6996289.89698694832623, 9347314.055226888507605 ], [ 6996330.402387512847781, 9347118.162942491471767 ], [ 6996421.373736185021698, 9346799.057091431692243 ], [ 6996516.080617152154446, 9346475.769515041261911 ], [ 6996599.054150754585862, 9346148.801110036671162 ], [ 6996648.519462501630187, 9345993.166963394731283 ], [ 6996680.005821079015732, 9345882.703558433800936 ], [ 6996713.795592496171594, 9345593.751543708145618 ], [ 6996732.194621431641281, 9345435.02418247051537 ], [ 6996783.667678100056946, 9345218.501790406182408 ], [ 6996855.508219428360462, 9344908.086735172197223 ], [ 6996889.378136243671179, 9344841.129559330642223 ], [ 6996894.625502938404679, 9344808.92414266616106 ], [ 6996737.999821473844349, 9344780.7441501095891 ], [ 6995286.50113223772496, 9344982.367086436599493 ], [ 6993779.790102938190103, 9345178.967234676703811 ], [ 6992409.982797809876502, 9345308.372547324746847 ], [ 6991150.381544442847371, 9345493.472817905247211 ], [ 6987556.767468703910708, 9345920.382035428658128 ], [ 6995250.939656641334295, 9365970.318431654945016 ], [ 6996100.239376679994166, 9364144.915887761861086 ], [ 6998823.070278254337609, 9357765.48107928596437 ], [ 6998843.427704592235386, 9357724.852704338729382 ], [ 6998900.531171151436865, 9357591.117105474695563 ], [ 6998584.089358093217015, 9357513.281082915142179 ], [ 6998584.073350610211492, 9357622.106169914826751 ], [ 6998382.883688217960298, 9357558.276901308447123 ], [ 6998322.422737743705511, 9357543.766248995438218 ], [ 6998163.575958694331348, 9357530.990365477278829 ], [ 6998039.832349292933941, 9357541.064994232729077 ], [ 6998038.265165384858847, 9357540.555309107527137 ], [ 6997933.087435979396105, 9357519.415152499452233 ] ] ] } },
{ "type": "Feature", "properties": { "lv_id": "LOC_022188", "id": 90384.0, "CD_SETOR": "240550405000008", "SITUACAO": "Rural", "CD_SIT": "8", "CD_TIPO": "0", "AREA_KM2": 36.55475896558233, "CD_REGIAO": "2", "NM_REGIAO": "Nordeste", "CD_UF": "24", "NM_UF": "Rio Grande do Norte", "CD_MUN": "2405504", "NM_MUN": "Jardim de Angicos", "CD_DIST": "240550405", "NM_DIST": "Jardim de Angicos", "CD_SUBDIST": "24055040500", "NM_SUBDIST": null, "CD_BAIRRO": null, "NM_BAIRRO": null, "CD_NU": null, "NM_NU": null, "CD_FCU": null, "NM_FCU": null, "CD_AGLOM": null, "NM_AGLOM": null, "CD_RGINT": "2401", "NM_RGINT": "Natal", "CD_RGI": "240005", "NM_RGI": "João Câmara", "CD_CONCURB": null, "NM_CONCURB": null, "mun_code_x": "2405504", "index_right": 66017, "dist_m": 0.0, "local_id": 225789, "ano": 2022, "cod_localidade_ibge": 2405504, "NR_ZONA": "10", "nr_cep": 59544000.0, "nm_localidade": "JARDIM DE ANGICOS", "nm_locvot": "ESCOLA MUNICIPAL JOSE AUGUSTA", "ds_endereco": "DISTRITO DE FAZENDA NOVA", "ds_bairro": "ZONA RURAL", "pred_long": -36.0425, "pred_lat": -5.6475645, "pred_dist": 0.0, "tse_long": -36.04340249, "tse_lat": -5.6472959, "long": -36.04340249, "lat": -5.6472959, "ID_UNICO": "LOC_022188", "SG_UF": "RN", "CD_MUNICIPIO": "17078", "NR_LOCAL_VOTACAO": "1082", "QT_SECOES_AGREGADAS": 0, "QT_ELEITORES_TRANSFERIDOS": 1, "CIRO GOMES (PDT) (NÃO ELEITO) 1T": 11.0, "CONSTITUINTE EYMAEL (DC) (NÃO ELEITO) 1T": 0.0, "FELIPE D AVILA (NOVO) (NÃO ELEITO) 1T": 1.0, "JAIR BOLSONARO (PL) (2º TURNO) 1T": 58.0, "LULA (PT) (2º TURNO) 1T": 195.0, "LÉO PÉRICLES (UP) (NÃO ELEITO) 1T": 0.0, "PADRE KELMON (PTB) (NÃO ELEITO) 1T": 0.0, "SIMONE TEBET (MDB) (NÃO ELEITO) 1T": 4.0, "SOFIA MANZANO (PCB) (NÃO ELEITO) 1T": 0.0, "SORAYA THRONICKE (UNIÃO) (NÃO ELEITO) 1T": 1.0, "VERA (PSTU) (NÃO ELEITO) 1T": 0.0, "Total_Votos_Validos 1T": 270.0, "Votos_Brancos 1T": 1.0, "Votos_Nulos 1T": 8.0, "Abstenções 1T": 33.0, "Eleitores_Aptos 1T": 312.0, "JAIR BOLSONARO (PL) (NÃO ELEITO) 2T": 54.0, "LULA (PT) (ELEITO) 2T": 179.0, "Total_Votos_Validos 2T": 233.0, "Votos_Brancos 2T": 4.0, "Votos_Nulos 2T": 3.0, "Abstenções 2T": 72.0, "Eleitores_Aptos 2T": 312.0, "mun_code_y": "2405504", "mun_code": "2405504" }, "geometry": { "type": "Polygon", "coordinates": [ [ [ 6996737.999821473844349, 9344780.7441501095891 ], [ 6996724.403310209512711, 9344673.566703775897622 ], [ 6996724.227982177399099, 9344464.957893440499902 ], [ 6996723.875178553164005, 9344241.877236442640424 ], [ 6996717.234051164239645, 9343904.694098927080631 ], [ 6996707.711007808335125, 9343766.985081806778908 ], [ 6996936.571890050545335, 9343766.319354079663754 ], [ 6996939.352835476398468, 9343590.228361461311579 ], [ 6996909.8386101257056, 9343579.719917805865407 ], [ 6996853.369614390656352, 9343541.255472984164953 ], [ 6996611.184548650868237, 9343546.910921428352594 ], [ 6996449.390037310309708, 9343545.788117751479149 ], [ 6996264.867678520269692, 9343517.565297046676278 ], [ 6996133.623613581061363, 9343465.051810011267662 ], [ 6996049.537687517702579, 9343362.409703396260738 ], [ 6995960.630260623991489, 9343309.489517943933606 ], [ 6995776.705272901803255, 9343370.872594939544797 ], [ 6995637.83641146402806, 9343476.294924380257726 ], [ 6995547.950569730252028, 9343508.952261192724109 ], [ 6995340.666125705465674, 9343489.885923024266958 ], [ 6995137.690111519768834, 9343437.670354083180428 ], [ 6994962.306374123319983, 9343413.250129349529743 ], [ 6994726.550761647522449, 9343454.15411438792944 ], [ 6994468.718844228424132, 9343541.257417181506753 ], [ 6994419.10035603120923, 9343540.206396479159594 ], [ 6994329.937979420647025, 9343436.009839676320553 ], [ 6994236.100889375433326, 9343280.684959737583995 ], [ 6994130.659260470420122, 9343125.732717737555504 ], [ 6993912.69598684553057, 9343091.908191043883562 ], [ 6993766.704604223370552, 9343080.159753426909447 ], [ 6993637.824995003640652, 9343165.00489105284214 ], [ 6993569.308476006612182, 9343390.616688130423427 ], [ 6993455.804291377775371, 9343689.368622146546841 ], [ 6993337.531832559965551, 9343894.7287931535393 ], [ 6993128.35821220651269, 9344106.497744923457503 ], [ 6992976.176694480702281, 9343761.016388729214668 ], [ 6992953.98184388037771, 9343471.745268974453211 ], [ 6993015.967486130073667, 9343400.77149099111557 ], [ 6993074.057485869154334, 9343318.728115743026137 ], [ 6993164.70295699313283, 9343252.460263865068555 ], [ 6993301.043931018561125, 9343223.975212240591645 ], [ 6993307.872338069602847, 9343125.921297203749418 ], [ 6993303.461026889272034, 9343011.128998694941401 ], [ 6993270.145616682246327, 9342853.529479786753654 ], [ 6993253.636757109314203, 9342721.526728825643659 ], [ 6993234.747558210045099, 9342419.775968344882131 ], [ 6993268.119102967903018, 9342261.9538195990026 ], [ 6993314.036951224319637, 9342131.751380421221256 ], [ 6993392.766207367181778, 9341941.57311431504786 ], [ 6993393.774901698343456, 9341767.19122077897191 ], [ 6993380.767880007624626, 9341633.222268030047417 ], [ 6993351.237799935042858, 9341488.4607675652951 ], [ 6993296.357507054693997, 9341320.424384094774723 ], [ 6993296.314711653627455, 9341260.703313905745745 ], [ 6993343.070586889982224, 9341158.470425078645349 ], [ 6993259.837149104103446, 9341000.544715948402882 ], [ 6993289.51145628746599, 9340747.673483561724424 ], [ 6993303.17419742513448, 9340615.499176520854235 ], [ 6993338.596599509939551, 9340546.444492902606726 ], [ 6993340.506043212488294, 9340434.392123315483332 ], [ 6993424.327690477482975, 9340124.892571501433849 ], [ 6993505.719999372959137, 9340021.879367355257273 ], [ 6993517.525965889915824, 9339848.111345153301954 ], [ 6993508.813725358806551, 9339721.588557546958327 ], [ 6993404.603942807763815, 9339582.858653893694282 ], [ 6993387.399256414733827, 9339406.431760342791677 ], [ 6993386.365377434529364, 9339203.011566495522857 ], [ 6993367.028157454915345, 9339046.385018225759268 ], [ 6993323.664739449508488, 9338895.592475321143866 ], [ 6993233.782382996752858, 9338729.130307927727699 ], [ 6993154.276221530511975, 9338545.839252592995763 ], [ 6993047.752289938740432, 9338558.496302476152778 ], [ 6992939.212736630812287, 9338505.899376371875405 ], [ 6992859.140427207574248, 9338433.343003557994962 ], [ 6992797.977097783237696, 9338333.812731698155403 ], [ 6992770.389653502963483, 9338264.45931407622993 ], [ 6990936.966651747003198, 9338914.450842007994652 ], [ 6990052.463909285143018, 9340064.257914563640952 ], [ 6987079.953193359076977, 9343703.073937006294727 ], [ 6986820.060005443170667, 9344000.577759707346559 ], [ 6987556.767468703910708, 9345920.382035428658128 ], [ 6991150.381544442847371, 9345493.472817905247211 ], [ 6992409.982797809876502, 9345308.372547324746847 ], [ 6993779.790102938190103, 9345178.967234676703811 ], [ 6995286.50113223772496, 9344982.367086436599493 ], [ 6996737.999821473844349, 9344780.7441501095891 ] ] ] } }
]
}
