{
"type": "FeatureCollection",
"name": "2406809",
"crs": { "type": "name", "properties": { "name": "urn:ogc:def:crs:EPSG::5880" } },
"features": [
{ "type": "Feature", "properties": { "lv_id": "LOC_022277", "id": 90705.0, "CD_SETOR": "240680905000002", "SITUACAO": "Urbana", "CD_SIT": "1", "CD_TIPO": "0", "AREA_KM2": 0.14663159052807601, "CD_REGIAO": "2", "NM_REGIAO": "Nordeste", "CD_UF": "24", "NM_UF": "Rio Grande do Norte", "CD_MUN": "2406809", "NM_MUN": "Lajes Pintadas", "CD_DIST": "240680905", "NM_DIST": "Lajes Pintadas", "CD_SUBDIST": "24068090500", "NM_SUBDIST": null, "CD_BAIRRO": null, "NM_BAIRRO": null, "CD_NU": null, "NM_NU": null, "CD_FCU": null, "NM_FCU": null, "CD_AGLOM": null, "NM_AGLOM": null, "CD_RGINT": "2401", "NM_RGINT": "Natal", "CD_RGI": "240004", "NM_RGI": "Santa Cruz", "CD_CONCURB": null, "NM_CONCURB": null, "mun_code_x": "2406809", "index_right": 66110, "dist_m": 37.363290671184728, "local_id": 226732, "ano": 2022, "cod_localidade_ibge": 2406809, "NR_ZONA": "68", "nr_cep": 59235000.0, "nm_localidade": "LAJES PINTADAS", "nm_locvot": "ESCOLA ESTADUAL VIRGILIO FURTADO", "ds_endereco": "TRAV JOAQUIM BERNARDINO DA SILVA, 352 ", "ds_bairro": "CENTRO", "pred_long": -36.115292, "pred_lat": -6.148823, "pred_dist": 0.0, "tse_long": -36.1152878, "tse_lat": -6.1488696, "long": -36.1152878, "lat": -6.1488696, "ID_UNICO": "LOC_022277", "SG_UF": "RN", "CD_MUNICIPIO": "17353", "NR_LOCAL_VOTACAO": "1023", "QT_SECOES_AGREGADAS": 0, "QT_ELEITORES_TRANSFERIDOS": 14, "CIRO GOMES (PDT) (NÃO ELEITO) 1T": 76.0, "CONSTITUINTE EYMAEL (DC) (NÃO ELEITO) 1T": 2.0, "FELIPE D AVILA (NOVO) (NÃO ELEITO) 1T": 0.0, "JAIR BOLSONARO (PL) (2º TURNO) 1T": 459.0, "LULA (PT) (2º TURNO) 1T": 1318.0, "LÉO PÉRICLES (UP) (NÃO ELEITO) 1T": 0.0, "PADRE KELMON (PTB) (NÃO ELEITO) 1T": 0.0, "SIMONE TEBET (MDB) (NÃO ELEITO) 1T": 20.0, "SOFIA MANZANO (PCB) (NÃO ELEITO) 1T": 0.0, "SORAYA THRONICKE (UNIÃO) (NÃO ELEITO) 1T": 2.0, "VERA (PSTU) (NÃO ELEITO) 1T": 0.0, "Total_Votos_Validos 1T": 1877.0, "Votos_Brancos 1T": 32.0, "Votos_Nulos 1T": 65.0, "Abstenções 1T": 386.0, "Eleitores_Aptos 1T": 2360.0, "JAIR BOLSONARO (PL) (NÃO ELEITO) 2T": 472.0, "LULA (PT) (ELEITO) 2T": 1383.0, "Total_Votos_Validos 2T": 1855.0, "Votos_Brancos 2T": 25.0, "Votos_Nulos 2T": 41.0, "Abstenções 2T": 439.0, "Eleitores_Aptos 2T": 2360.0, "mun_code_y": "2406809", "mun_code": "2406809" }, "geometry": { "type": "Polygon", "coordinates": [ [ [ 6979362.990818682126701, 9286962.384193789213896 ], [ 6979371.043892800807953, 9286953.367378167808056 ], [ 6979380.889342363923788, 9286940.937798630446196 ], [ 6979388.845139873214066, 9286932.33026734367013 ], [ 6979399.669431652873755, 9286922.385419804602861 ], [ 6979407.027105417102575, 9286914.111118627712131 ], [ 6979413.918652507476509, 9286906.478880073875189 ], [ 6979422.165927870199084, 9286901.005545983090997 ], [ 6979433.631462642922997, 9286893.046251360327005 ], [ 6979441.999206237494946, 9286884.842542845755816 ], [ 6979450.958565223030746, 9286876.10857124067843 ], [ 6979461.188137112185359, 9286866.601204121485353 ], [ 6979470.325232314877212, 9286857.548029096797109 ], [ 6979480.369414911605418, 9286848.464495569467545 ], [ 6979487.799192862585187, 9286842.380386745557189 ], [ 6979497.342132911086082, 9286833.209193967282772 ], [ 6979504.414815329946578, 9286825.362000027671456 ], [ 6979514.514619491994381, 9286814.605961211025715 ], [ 6979522.36046455707401, 9286805.688751170411706 ], [ 6979531.349939798936248, 9286798.206651736050844 ], [ 6979538.601855835877359, 9286789.413713520392776 ], [ 6979546.262310699559748, 9286780.9203374478966 ], [ 6979552.260430933907628, 9286773.735539700835943 ], [ 6979559.031717967242002, 9286765.480731766670942 ], [ 6979564.652106488123536, 9286755.570614986121655 ], [ 6979570.835585813038051, 9286747.96194563806057 ], [ 6979578.162591549567878, 9286738.423960929736495 ], [ 6979584.247255094349384, 9286730.505346933379769 ], [ 6979591.182886640541255, 9286721.189273031428456 ], [ 6979597.432291883975267, 9286712.220999650657177 ], [ 6979603.037880588322878, 9286705.559762742370367 ], [ 6979611.34514759387821, 9286694.851990444585681 ], [ 6979619.070734212175012, 9286685.312225878238678 ], [ 6979624.993303779512644, 9286678.860793001949787 ], [ 6979632.048711536452174, 9286670.491995226591825 ], [ 6979638.373954009264708, 9286660.465408371761441 ], [ 6979643.489603933878243, 9286650.363284528255463 ], [ 6979647.660718146711588, 9286638.819375209510326 ], [ 6979651.052671504206955, 9286631.188052948564291 ], [ 6979654.189745573326945, 9286621.871435420587659 ], [ 6979658.306347554549575, 9286611.698319148272276 ], [ 6979659.503292971290648, 9286600.973240736871958 ], [ 6979660.292436159215868, 9286589.635328285396099 ], [ 6979659.247887508012354, 9286577.094227582216263 ], [ 6979655.190008104778826, 9286567.879223097115755 ], [ 6979648.466975007206202, 9286559.785972323268652 ], [ 6979640.259743051603436, 9286552.357289742678404 ], [ 6979631.819529169239104, 9286546.931872639805079 ], [ 6979623.876740520820022, 9286541.814650107175112 ], [ 6979613.192924607545137, 9286538.541014298796654 ], [ 6979603.896578776650131, 9286538.388146279379725 ], [ 6979593.830132845789194, 9286539.398003008216619 ], [ 6979582.434060594066978, 9286543.074303397908807 ], [ 6979573.352644745260477, 9286547.090771408751607 ], [ 6979567.079643012955785, 9286555.340581832453609 ], [ 6979563.653842750005424, 9286564.968471365049481 ], [ 6979559.966802319511771, 9286576.078489895910025 ], [ 6979556.870232179760933, 9286586.959913529455662 ], [ 6979554.659371818415821, 9286597.498448062688112 ], [ 6979551.848467363975942, 9286607.639410754665732 ], [ 6979546.10415964666754, 9286616.811215940862894 ], [ 6979540.621467074379325, 9286624.512474182993174 ], [ 6979532.919468534179032, 9286631.742737237364054 ], [ 6979523.717962835915387, 9286638.50111486390233 ], [ 6979515.762219110503793, 9286643.744407046586275 ], [ 6979502.748464463278651, 9286650.085091141983867 ], [ 6979495.761941988021135, 9286654.158992428332567 ], [ 6979484.870225993916392, 9286661.379960104823112 ], [ 6979476.510114380158484, 9286666.114697879180312 ], [ 6979464.17950966861099, 9286672.014835393056273 ], [ 6979455.186540223658085, 9286676.028249947354198 ], [ 6979443.777418305166066, 9286678.973977500572801 ], [ 6979433.886755728162825, 9286678.933727715164423 ], [ 6979424.73757943790406, 9286677.198060251772404 ], [ 6979415.115306757390499, 9286672.531469784677029 ], [ 6979406.754067569971085, 9286666.476919274777174 ], [ 6979399.233872292563319, 9286658.723625976592302 ], [ 6979390.79396191611886, 9286649.945390274748206 ], [ 6979382.440614844672382, 9286640.433376356959343 ], [ 6979373.98351863026619, 9286631.133665760979056 ], [ 6979365.959022406488657, 9286622.863607302308083 ], [ 6979359.201676090247929, 9286613.727448740974069 ], [ 6979349.893488355912268, 9286602.460804905742407 ], [ 6979342.923381274566054, 9286595.942085145041347 ], [ 6979339.580293672159314, 9286583.884143924340606 ], [ 6979338.673170938156545, 9286572.487163940444589 ], [ 6979340.240889728069305, 9286560.914542097598314 ], [ 6979345.930575283244252, 9286549.749219667166471 ], [ 6979351.527568528428674, 9286538.795817662030458 ], [ 6979357.020938545465469, 9286531.41910002194345 ], [ 6979362.722600642591715, 9286524.65027903392911 ], [ 6979369.534665930084884, 9286517.971901617944241 ], [ 6979377.174130661413074, 9286512.205536127090454 ], [ 6979385.380007872357965, 9286505.480493810027838 ], [ 6979393.95354731194675, 9286497.47858664393425 ], [ 6979402.298160036094487, 9286488.242985406890512 ], [ 6979408.968634255230427, 9286480.293165158480406 ], [ 6979416.31995683349669, 9286471.496848085895181 ], [ 6979422.682564771734178, 9286462.942447021603584 ], [ 6979428.337564065121114, 9286454.086888426914811 ], [ 6979433.305213300511241, 9286445.880810940638185 ], [ 6979437.867367277853191, 9286437.467876899987459 ], [ 6979444.065446333959699, 9286426.610279576852918 ], [ 6979448.177789417095482, 9286416.646202621981502 ], [ 6979452.672285234555602, 9286405.50918478704989 ], [ 6979456.253193161450326, 9286394.20552359893918 ], [ 6979458.696710349991918, 9286385.016593782231212 ], [ 6979461.620823925361037, 9286375.28950671851635 ], [ 6979464.559814253821969, 9286365.677932931110263 ], [ 6979468.611347954720259, 9286353.198356406763196 ], [ 6979472.785751059651375, 9286341.758790193125606 ], [ 6979475.70027300529182, 9286331.405532646924257 ], [ 6979477.645966926589608, 9286322.233253950253129 ], [ 6979480.539847379550338, 9286311.254203926771879 ], [ 6979482.66057850047946, 9286301.345168806612492 ], [ 6979484.802141708321869, 9286288.709093879908323 ], [ 6979487.281323281116784, 9286276.908616537228227 ], [ 6979492.335454072803259, 9286261.251440022140741 ], [ 6979495.944724613800645, 9286247.116023637354374 ], [ 6979498.151587726548314, 9286236.461595738306642 ], [ 6979499.27689413074404, 9286223.233056657016277 ], [ 6979501.600878368131816, 9286213.108368845656514 ], [ 6979503.515372568741441, 9286199.632968811318278 ], [ 6979504.648277195170522, 9286186.299755791202188 ], [ 6979505.780790847726166, 9286172.9549526181072 ], [ 6979506.043113761581481, 9286164.453897712752223 ], [ 6979534.352294041775167, 9286058.442808600142598 ], [ 6979528.967498587444425, 9286066.08292805030942 ], [ 6979447.460661994293332, 9286145.312842713668942 ], [ 6979241.320270773023367, 9286334.612159749493003 ], [ 6979165.357347683981061, 9286388.896915901452303 ], [ 6979036.864327983930707, 9286475.636190049350262 ], [ 6979099.794073530472815, 9286716.134869787842035 ], [ 6979108.414146982133389, 9286747.192980038002133 ], [ 6979126.067710175178945, 9286810.768794482573867 ], [ 6979139.340322471223772, 9286864.398170072585344 ], [ 6979029.614834544248879, 9286896.305896256119013 ], [ 6979074.458562872372568, 9287046.074042201042175 ], [ 6978990.189457884058356, 9287065.447004400193691 ], [ 6978982.122483227401972, 9287067.317725017666817 ], [ 6978958.108086232095957, 9287072.877231007441878 ], [ 6978897.385644269175828, 9287086.949673628434539 ], [ 6978808.383708465844393, 9287110.239092139527202 ], [ 6978778.23400080576539, 9287158.857822917401791 ], [ 6978748.279766242951155, 9287224.523366861045361 ], [ 6978713.369419356808066, 9287287.326503174379468 ], [ 6978709.594502980820835, 9287292.081480612978339 ], [ 6978708.572953645139933, 9287293.681761048734188 ], [ 6978645.56933980807662, 9287381.135923581197858 ], [ 6978638.808673032559454, 9287390.73543993383646 ], [ 6978767.456899465993047, 9287361.029684169217944 ], [ 6978887.645255086012185, 9287356.258448785170913 ], [ 6979025.817303031682968, 9287413.369723552837968 ], [ 6979213.278461677953601, 9287282.297142935916781 ], [ 6979215.674579336307943, 9287149.881245849654078 ], [ 6979217.817577199079096, 9287148.034588444977999 ], [ 6979221.562298817560077, 9287145.728324040770531 ], [ 6979226.065344784408808, 9287142.57300877943635 ], [ 6979238.6517235012725, 9287131.316508015617728 ], [ 6979250.326830687001348, 9287123.66366626881063 ], [ 6979259.395450294017792, 9287115.552719002589583 ], [ 6979270.793957373127341, 9287104.544727420434356 ], [ 6979276.788433451205492, 9287097.244250781834126 ], [ 6979286.183913225308061, 9287086.616461765021086 ], [ 6979291.484897565096617, 9287079.443578446283937 ], [ 6979296.051183799281716, 9287071.146731503307819 ], [ 6979302.341983224265277, 9287060.065891427919269 ], [ 6979307.355297461152077, 9287049.874667963013053 ], [ 6979313.433224551379681, 9287038.383285947144032 ], [ 6979322.026023380458355, 9287023.895844558253884 ], [ 6979329.213204811327159, 9287012.79659279063344 ], [ 6979335.49365774448961, 9287001.402823558077216 ], [ 6979341.038321193307638, 9286992.551151851192117 ], [ 6979348.545148316770792, 9286982.079259470105171 ], [ 6979355.292138989083469, 9286973.082945555448532 ], [ 6979356.266728471964598, 9286971.739391462877393 ], [ 6979362.990818682126701, 9286962.384193789213896 ] ] ] } },
{ "type": "Feature", "properties": { "lv_id": "LOC_022278", "id": 90706.0, "CD_SETOR": "240680905000003", "SITUACAO": "Rural", "CD_SIT": "8", "CD_TIPO": "0", "AREA_KM2": 48.047353695416376, "CD_REGIAO": "2", "NM_REGIAO": "Nordeste", "CD_UF": "24", "NM_UF": "Rio Grande do Norte", "CD_MUN": "2406809", "NM_MUN": "Lajes Pintadas", "CD_DIST": "240680905", "NM_DIST": "Lajes Pintadas", "CD_SUBDIST": "24068090500", "NM_SUBDIST": null, "CD_BAIRRO": null, "NM_BAIRRO": null, "CD_NU": null, "NM_NU": null, "CD_FCU": null, "NM_FCU": null, "CD_AGLOM": null, "NM_AGLOM": null, "CD_RGINT": "2401", "NM_RGINT": "Natal", "CD_RGI": "240004", "NM_RGI": "Santa Cruz", "CD_CONCURB": null, "NM_CONCURB": null, "mun_code_x": "2406809", "index_right": 66111, "dist_m": 225.51612740556507, "local_id": 226733, "ano": 2022, "cod_localidade_ibge": 2406809, "NR_ZONA": "68", "nr_cep": 59235000.0, "nm_localidade": "LAJES PINTADAS", "nm_locvot": "ESCOLA MUNICIPAL SÃO JOSÉ", "ds_endereco": "RUA LUIZ ZEFERINO GOMES, 74", "ds_bairro": "CENTRO", "pred_long": -36.118766, "pred_lat": -6.148955, "pred_dist": 0.0, "tse_long": -36.1186872, "tse_lat": -6.1489715, "long": -36.1186872, "lat": -6.1489715, "ID_UNICO": "LOC_022278", "SG_UF": "RN", "CD_MUNICIPIO": "17353", "NR_LOCAL_VOTACAO": "1031", "QT_SECOES_AGREGADAS": 0, "QT_ELEITORES_TRANSFERIDOS": 22, "CIRO GOMES (PDT) (NÃO ELEITO) 1T": 23.0, "CONSTITUINTE EYMAEL (DC) (NÃO ELEITO) 1T": 0.0, "FELIPE D AVILA (NOVO) (NÃO ELEITO) 1T": 0.0, "JAIR BOLSONARO (PL) (2º TURNO) 1T": 150.0, "LULA (PT) (2º TURNO) 1T": 483.0, "LÉO PÉRICLES (UP) (NÃO ELEITO) 1T": 0.0, "PADRE KELMON (PTB) (NÃO ELEITO) 1T": 0.0, "SIMONE TEBET (MDB) (NÃO ELEITO) 1T": 9.0, "SOFIA MANZANO (PCB) (NÃO ELEITO) 1T": 0.0, "SORAYA THRONICKE (UNIÃO) (NÃO ELEITO) 1T": 2.0, "VERA (PSTU) (NÃO ELEITO) 1T": 0.0, "Total_Votos_Validos 1T": 667.0, "Votos_Brancos 1T": 8.0, "Votos_Nulos 1T": 18.0, "Abstenções 1T": 110.0, "Eleitores_Aptos 1T": 803.0, "JAIR BOLSONARO (PL) (NÃO ELEITO) 2T": 140.0, "LULA (PT) (ELEITO) 2T": 496.0, "Total_Votos_Validos 2T": 636.0, "Votos_Brancos 2T": 12.0, "Votos_Nulos 2T": 15.0, "Abstenções 2T": 140.0, "Eleitores_Aptos 2T": 803.0, "mun_code_y": "2406809", "mun_code": "2406809" }, "geometry": { "type": "Polygon", "coordinates": [ [ [ 6979669.94928715005517, 9285945.774169201031327 ], [ 6979805.975407015532255, 9285765.927569704130292 ], [ 6979709.32761375233531, 9285709.766470598056912 ], [ 6979591.47117964271456, 9285544.160148553550243 ], [ 6979557.393786676228046, 9285465.240483064204454 ], [ 6979523.768753579817712, 9285263.840551426634192 ], [ 6979429.594052752479911, 9284998.541124606505036 ], [ 6979373.423905883915722, 9284727.246733237057924 ], [ 6979138.786252303048968, 9283477.607989531010389 ], [ 6978534.462283252738416, 9283827.594369253143668 ], [ 6978404.623832391574979, 9283843.729956023395061 ], [ 6978320.851700522005558, 9283825.348491352051497 ], [ 6976821.025667836889625, 9282721.933739708736539 ], [ 6975874.447455799207091, 9282064.624693464487791 ], [ 6975609.661774225533009, 9282629.546342894434929 ], [ 6975125.775699242949486, 9283661.734928615391254 ], [ 6974448.218082269653678, 9285107.471098065376282 ], [ 6974431.177368143573403, 9285143.834937443956733 ], [ 6974374.241254134103656, 9285147.38706349208951 ], [ 6974315.680579048581421, 9285151.039876351132989 ], [ 6971829.505914992652833, 9285307.107479510828853 ], [ 6966843.345586846582592, 9285619.754440708085895 ], [ 6966769.945953821763396, 9285674.050875151529908 ], [ 6966666.043495640158653, 9286057.05704640224576 ], [ 6966648.139153354801238, 9286267.558917852118611 ], [ 6966655.741685007698834, 9286537.363438969478011 ], [ 6966786.049074463546276, 9286763.757788153365254 ], [ 6966933.646105282008648, 9286929.763135012239218 ], [ 6966985.747262981720269, 9287088.25594986975193 ], [ 6967015.149263449013233, 9287287.459193812683225 ], [ 6966991.451938419602811, 9287468.160393949598074 ], [ 6967035.548149812035263, 9288021.85640949010849 ], [ 6967116.655314774252474, 9288235.159349465742707 ], [ 6967179.85986799839884, 9288291.474732156842947 ], [ 6967244.854579091072083, 9288349.365810170769691 ], [ 6967434.951551672071218, 9288415.556745629757643 ], [ 6968168.957904704846442, 9288525.061958089470863 ], [ 6968429.455492503941059, 9288666.756783731281757 ], [ 6968625.862700013443828, 9288956.765776952728629 ], [ 6968941.956348924897611, 9289170.358499655500054 ], [ 6969532.262568027712405, 9289421.054829375818372 ], [ 6969854.464880846440792, 9289521.962895570322871 ], [ 6970154.365064621903002, 9289548.364445667713881 ], [ 6970550.071185234002769, 9289502.563218196853995 ], [ 6970739.472747217863798, 9289541.954528361558914 ], [ 6970923.274692289531231, 9289640.756243022158742 ], [ 6971114.076547155156732, 9289796.162710554897785 ], [ 6971533.074203287251294, 9289856.057813130319118 ], [ 6971721.374937394633889, 9289918.659101493656635 ], [ 6971914.075369299389422, 9289940.350717371329665 ], [ 6972804.284106323495507, 9290336.358750825747848 ], [ 6972938.583139348775148, 9290785.652238007634878 ], [ 6973195.683251198381186, 9290998.156008301302791 ], [ 6973405.580997159704566, 9291108.554503001272678 ], [ 6973640.390063648112118, 9291315.054084794595838 ], [ 6973789.192866459488869, 9291748.659999763593078 ], [ 6973937.994472246617079, 9291951.558321489021182 ], [ 6974004.393355345353484, 9291865.45607066527009 ], [ 6974232.187364291399717, 9291651.060376493260264 ], [ 6974327.48114328738302, 9291678.672058930620551 ], [ 6974350.466463202610612, 9291635.726257571950555 ], [ 6974317.701070304960012, 9291536.160738315433264 ], [ 6974278.216309337876737, 9291525.233548890799284 ], [ 6974268.338390119373798, 9291398.406970011070371 ], [ 6974488.170654989778996, 9291140.528393264859915 ], [ 6974624.693426312878728, 9291071.776670278981328 ], [ 6975084.021532518789172, 9291223.116281749680638 ], [ 6975153.847367512993515, 9291146.124981358647346 ], [ 6975414.621003899723291, 9291038.796000087633729 ], [ 6975627.670740922912955, 9291006.645291823893785 ], [ 6975670.028815479949117, 9291049.559624534100294 ], [ 6975956.316824649460614, 9291151.883716681972146 ], [ 6976059.728979106992483, 9291145.944780193269253 ], [ 6976167.111159010790288, 9291131.696153093129396 ], [ 6976335.286224712617695, 9291008.804755195975304 ], [ 6976368.314767677336931, 9290911.372776765376329 ], [ 6976549.496835697442293, 9290525.044806800782681 ], [ 6976627.525462903082371, 9290451.808414807543159 ], [ 6976613.181153310462832, 9290348.548417108133435 ], [ 6976778.105429629795253, 9290336.638335047289729 ], [ 6976825.479893300682306, 9290283.420269468799233 ], [ 6976941.282134756445885, 9290290.299115259200335 ], [ 6976902.72067987266928, 9290193.60838657617569 ], [ 6976922.555959244258702, 9290098.258196027949452 ], [ 6977080.843470130115747, 9290027.115843234583735 ], [ 6977201.115221340209246, 9289921.972757276147604 ], [ 6977191.899001006036997, 9289801.255488071590662 ], [ 6977164.488064140081406, 9289705.933390237390995 ], [ 6977183.067480089142919, 9289597.016284294426441 ], [ 6977137.166015105322003, 9289413.34903172031045 ], [ 6977077.081126094795763, 9289409.491853557527065 ], [ 6977077.037640249356627, 9289372.025110490620136 ], [ 6977151.51501087564975, 9289270.711957098916173 ], [ 6977132.089068340137601, 9289089.701519211754203 ], [ 6977096.467728613875806, 9289047.677987199276686 ], [ 6977059.746755048632622, 9288940.06968074478209 ], [ 6977079.649688303470612, 9288794.997171001508832 ], [ 6977133.448729763738811, 9288700.809233663603663 ], [ 6977175.399904898367822, 9288580.045461889356375 ], [ 6977187.207342528738081, 9288398.295209892094135 ], [ 6977326.931410521268845, 9288307.816876422613859 ], [ 6977554.719097778201103, 9288115.192804984748363 ], [ 6977716.953761305660009, 9287985.236714214086533 ], [ 6977728.805610969662666, 9287952.27867429330945 ], [ 6977903.057497885078192, 9287788.056615872308612 ], [ 6977916.736598659306765, 9287752.078977642580867 ], [ 6978221.006955461576581, 9287628.822741551324725 ], [ 6978291.080424642190337, 9287556.262692920863628 ], [ 6978337.299322691746056, 9287538.918393747881055 ], [ 6978415.355252183973789, 9287490.208945887163281 ], [ 6978500.420207804068923, 9287462.343646351248026 ], [ 6978515.193844969384372, 9287450.57393342256546 ], [ 6978543.542914115823805, 9287427.979358801618218 ], [ 6978638.808673032559454, 9287390.73543993383646 ], [ 6978645.56933980807662, 9287381.135923581197858 ], [ 6978708.572953645139933, 9287293.681761048734188 ], [ 6978709.594502980820835, 9287292.081480612978339 ], [ 6978713.369419356808066, 9287287.326503174379468 ], [ 6978748.279766242951155, 9287224.523366861045361 ], [ 6978778.23400080576539, 9287158.857822917401791 ], [ 6978808.383708465844393, 9287110.239092139527202 ], [ 6978897.385644269175828, 9287086.949673628434539 ], [ 6978958.108086232095957, 9287072.877231007441878 ], [ 6978982.122483227401972, 9287067.317725017666817 ], [ 6978990.189457884058356, 9287065.447004400193691 ], [ 6979074.458562872372568, 9287046.074042201042175 ], [ 6979029.614834544248879, 9286896.305896256119013 ], [ 6979139.340322471223772, 9286864.398170072585344 ], [ 6979126.067710175178945, 9286810.768794482573867 ], [ 6979108.414146982133389, 9286747.192980038002133 ], [ 6979099.794073530472815, 9286716.134869787842035 ], [ 6979036.864327983930707, 9286475.636190049350262 ], [ 6979165.357347683981061, 9286388.896915901452303 ], [ 6979241.320270773023367, 9286334.612159749493003 ], [ 6979447.460661994293332, 9286145.312842713668942 ], [ 6979528.967498587444425, 9286066.08292805030942 ], [ 6979534.352294041775167, 9286058.442808600142598 ], [ 6979669.94928715005517, 9285945.774169201031327 ] ] ] } },
{ "type": "Feature", "properties": { "lv_id": "LOC_022279", "id": 90707.0, "CD_SETOR": "240680905000004", "SITUACAO": "Rural", "CD_SIT": "8", "CD_TIPO": "0", "AREA_KM2": 44.443155744370941, "CD_REGIAO": "2", "NM_REGIAO": "Nordeste", "CD_UF": "24", "NM_UF": "Rio Grande do Norte", "CD_MUN": "2406809", "NM_MUN": "Lajes Pintadas", "CD_DIST": "240680905", "NM_DIST": "Lajes Pintadas", "CD_SUBDIST": "24068090500", "NM_SUBDIST": null, "CD_BAIRRO": null, "NM_BAIRRO": null, "CD_NU": null, "NM_NU": null, "CD_FCU": null, "NM_FCU": null, "CD_AGLOM": "240680900001", "NM_AGLOM": "Barro Preto", "CD_RGINT": "2401", "NM_RGINT": "Natal", "CD_RGI": "240004", "NM_RGI": "Santa Cruz", "CD_CONCURB": null, "NM_CONCURB": null, "mun_code_x": "2406809", "index_right": 66113, "dist_m": 135.73322504785574, "local_id": 226735, "ano": 2022, "cod_localidade_ibge": 2406809, "NR_ZONA": "68", "nr_cep": 59235000.0, "nm_localidade": "LAJES PINTADAS", "nm_locvot": "ESCOLA MUNICIPAL SANTA MARTA", "ds_endereco": "COMUNIDADE BARROS PRETO", "ds_bairro": "ZONA RURAL", "pred_long": -36.090107, "pred_lat": -6.164909, "pred_dist": 0.0, "tse_long": -36.0900579, "tse_lat": -6.1649341, "long": -36.0900579, "lat": -6.1649341, "ID_UNICO": "LOC_022279", "SG_UF": "RN", "CD_MUNICIPIO": "17353", "NR_LOCAL_VOTACAO": "1040", "QT_SECOES_AGREGADAS": 0, "QT_ELEITORES_TRANSFERIDOS": 24, "CIRO GOMES (PDT) (NÃO ELEITO) 1T": 14.0, "CONSTITUINTE EYMAEL (DC) (NÃO ELEITO) 1T": 1.0, "FELIPE D AVILA (NOVO) (NÃO ELEITO) 1T": 0.0, "JAIR BOLSONARO (PL) (2º TURNO) 1T": 152.0, "LULA (PT) (2º TURNO) 1T": 222.0, "LÉO PÉRICLES (UP) (NÃO ELEITO) 1T": 0.0, "PADRE KELMON (PTB) (NÃO ELEITO) 1T": 0.0, "SIMONE TEBET (MDB) (NÃO ELEITO) 1T": 4.0, "SOFIA MANZANO (PCB) (NÃO ELEITO) 1T": 0.0, "SORAYA THRONICKE (UNIÃO) (NÃO ELEITO) 1T": 0.0, "VERA (PSTU) (NÃO ELEITO) 1T": 0.0, "Total_Votos_Validos 1T": 393.0, "Votos_Brancos 1T": 3.0, "Votos_Nulos 1T": 8.0, "Abstenções 1T": 70.0, "Eleitores_Aptos 1T": 474.0, "JAIR BOLSONARO (PL) (NÃO ELEITO) 2T": 165.0, "LULA (PT) (ELEITO) 2T": 215.0, "Total_Votos_Validos 2T": 380.0, "Votos_Brancos 2T": 2.0, "Votos_Nulos 2T": 6.0, "Abstenções 2T": 86.0, "Eleitores_Aptos 2T": 474.0, "mun_code_y": "2406809", "mun_code": "2406809" }, "geometry": { "type": "Polygon", "coordinates": [ [ [ 6983129.108158504590392, 9281359.202491028234363 ], [ 6976890.680259997025132, 9279896.014654338359833 ], [ 6975881.314807642251253, 9282049.963890459388494 ], [ 6975874.447455799207091, 9282064.624693464487791 ], [ 6976821.025667836889625, 9282721.933739708736539 ], [ 6978320.851700522005558, 9283825.348491352051497 ], [ 6978404.623832391574979, 9283843.729956023395061 ], [ 6978534.462283252738416, 9283827.594369253143668 ], [ 6979138.786252303048968, 9283477.607989531010389 ], [ 6979373.423905883915722, 9284727.246733237057924 ], [ 6979429.594052752479911, 9284998.541124606505036 ], [ 6979523.768753579817712, 9285263.840551426634192 ], [ 6979557.393786676228046, 9285465.240483064204454 ], [ 6979591.47117964271456, 9285544.160148553550243 ], [ 6979709.32761375233531, 9285709.766470598056912 ], [ 6979805.975407015532255, 9285765.927569704130292 ], [ 6979669.94928715005517, 9285945.774169201031327 ], [ 6979534.352294041775167, 9286058.442808600142598 ], [ 6979506.043113761581481, 9286164.453897712752223 ], [ 6979505.780790847726166, 9286172.9549526181072 ], [ 6979504.648277195170522, 9286186.299755791202188 ], [ 6979503.515372568741441, 9286199.632968811318278 ], [ 6979501.600878368131816, 9286213.108368845656514 ], [ 6979499.27689413074404, 9286223.233056657016277 ], [ 6979498.151587726548314, 9286236.461595738306642 ], [ 6979495.944724613800645, 9286247.116023637354374 ], [ 6979492.335454072803259, 9286261.251440022140741 ], [ 6979487.281323281116784, 9286276.908616537228227 ], [ 6979484.802141708321869, 9286288.709093879908323 ], [ 6979482.66057850047946, 9286301.345168806612492 ], [ 6979480.539847379550338, 9286311.254203926771879 ], [ 6979477.645966926589608, 9286322.233253950253129 ], [ 6979475.70027300529182, 9286331.405532646924257 ], [ 6979472.785751059651375, 9286341.758790193125606 ], [ 6979468.611347954720259, 9286353.198356406763196 ], [ 6979464.559814253821969, 9286365.677932931110263 ], [ 6979461.620823925361037, 9286375.28950671851635 ], [ 6979458.696710349991918, 9286385.016593782231212 ], [ 6979456.253193161450326, 9286394.20552359893918 ], [ 6979452.672285234555602, 9286405.50918478704989 ], [ 6979448.177789417095482, 9286416.646202621981502 ], [ 6979444.065446333959699, 9286426.610279576852918 ], [ 6979437.867367277853191, 9286437.467876899987459 ], [ 6979433.305213300511241, 9286445.880810940638185 ], [ 6979428.337564065121114, 9286454.086888426914811 ], [ 6979422.682564771734178, 9286462.942447021603584 ], [ 6979416.31995683349669, 9286471.496848085895181 ], [ 6979408.968634255230427, 9286480.293165158480406 ], [ 6979402.298160036094487, 9286488.242985406890512 ], [ 6979393.95354731194675, 9286497.47858664393425 ], [ 6979385.380007872357965, 9286505.480493810027838 ], [ 6979377.174130661413074, 9286512.205536127090454 ], [ 6979369.534665930084884, 9286517.971901617944241 ], [ 6979362.722600642591715, 9286524.65027903392911 ], [ 6979357.020938545465469, 9286531.41910002194345 ], [ 6979351.527568528428674, 9286538.795817662030458 ], [ 6979345.930575283244252, 9286549.749219667166471 ], [ 6979340.240889728069305, 9286560.914542097598314 ], [ 6979338.673170938156545, 9286572.487163940444589 ], [ 6979339.580293672159314, 9286583.884143924340606 ], [ 6979342.923381274566054, 9286595.942085145041347 ], [ 6979349.893488355912268, 9286602.460804905742407 ], [ 6979359.201676090247929, 9286613.727448740974069 ], [ 6979365.959022406488657, 9286622.863607302308083 ], [ 6979373.98351863026619, 9286631.133665760979056 ], [ 6979382.440614844672382, 9286640.433376356959343 ], [ 6979390.79396191611886, 9286649.945390274748206 ], [ 6979399.233872292563319, 9286658.723625976592302 ], [ 6979406.754067569971085, 9286666.476919274777174 ], [ 6979415.115306757390499, 9286672.531469784677029 ], [ 6979424.73757943790406, 9286677.198060251772404 ], [ 6979433.886755728162825, 9286678.933727715164423 ], [ 6979443.777418305166066, 9286678.973977500572801 ], [ 6979455.186540223658085, 9286676.028249947354198 ], [ 6979464.17950966861099, 9286672.014835393056273 ], [ 6979476.510114380158484, 9286666.114697879180312 ], [ 6979484.870225993916392, 9286661.379960104823112 ], [ 6979495.761941988021135, 9286654.158992428332567 ], [ 6979502.748464463278651, 9286650.085091141983867 ], [ 6979515.762219110503793, 9286643.744407046586275 ], [ 6979523.717962835915387, 9286638.50111486390233 ], [ 6979532.919468534179032, 9286631.742737237364054 ], [ 6979540.621467074379325, 9286624.512474182993174 ], [ 6979546.10415964666754, 9286616.811215940862894 ], [ 6979551.848467363975942, 9286607.639410754665732 ], [ 6979554.659371818415821, 9286597.498448062688112 ], [ 6979556.870232179760933, 9286586.959913529455662 ], [ 6979559.966802319511771, 9286576.078489895910025 ], [ 6979563.653842750005424, 9286564.968471365049481 ], [ 6979567.079643012955785, 9286555.340581832453609 ], [ 6979573.352644745260477, 9286547.090771408751607 ], [ 6979582.434060594066978, 9286543.074303397908807 ], [ 6979593.830132845789194, 9286539.398003008216619 ], [ 6979603.896578776650131, 9286538.388146279379725 ], [ 6979613.192924607545137, 9286538.541014298796654 ], [ 6979623.876740520820022, 9286541.814650107175112 ], [ 6979631.819529169239104, 9286546.931872639805079 ], [ 6979640.259743051603436, 9286552.357289742678404 ], [ 6979648.466975007206202, 9286559.785972323268652 ], [ 6979655.190008104778826, 9286567.879223097115755 ], [ 6979659.247887508012354, 9286577.094227582216263 ], [ 6979660.292436159215868, 9286589.635328285396099 ], [ 6979659.503292971290648, 9286600.973240736871958 ], [ 6979658.306347554549575, 9286611.698319148272276 ], [ 6979654.189745573326945, 9286621.871435420587659 ], [ 6979651.052671504206955, 9286631.188052948564291 ], [ 6979647.660718146711588, 9286638.819375209510326 ], [ 6979643.489603933878243, 9286650.363284528255463 ], [ 6979638.373954009264708, 9286660.465408371761441 ], [ 6979632.048711536452174, 9286670.491995226591825 ], [ 6979624.993303779512644, 9286678.860793001949787 ], [ 6979619.070734212175012, 9286685.312225878238678 ], [ 6979611.34514759387821, 9286694.851990444585681 ], [ 6979603.037880588322878, 9286705.559762742370367 ], [ 6979597.432291883975267, 9286712.220999650657177 ], [ 6979591.182886640541255, 9286721.189273031428456 ], [ 6979584.247255094349384, 9286730.505346933379769 ], [ 6979578.162591549567878, 9286738.423960929736495 ], [ 6979570.835585813038051, 9286747.96194563806057 ], [ 6979564.652106488123536, 9286755.570614986121655 ], [ 6979559.031717967242002, 9286765.480731766670942 ], [ 6979552.260430933907628, 9286773.735539700835943 ], [ 6979546.262310699559748, 9286780.9203374478966 ], [ 6979538.601855835877359, 9286789.413713520392776 ], [ 6979531.349939798936248, 9286798.206651736050844 ], [ 6979522.36046455707401, 9286805.688751170411706 ], [ 6979514.514619491994381, 9286814.605961211025715 ], [ 6979504.414815329946578, 9286825.362000027671456 ], [ 6979497.342132911086082, 9286833.209193967282772 ], [ 6979487.799192862585187, 9286842.380386745557189 ], [ 6979480.369414911605418, 9286848.464495569467545 ], [ 6979470.325232314877212, 9286857.548029096797109 ], [ 6979461.188137112185359, 9286866.601204121485353 ], [ 6979450.958565223030746, 9286876.10857124067843 ], [ 6979441.999206237494946, 9286884.842542845755816 ], [ 6979433.631462642922997, 9286893.046251360327005 ], [ 6979422.165927870199084, 9286901.005545983090997 ], [ 6979413.918652507476509, 9286906.478880073875189 ], [ 6979407.027105417102575, 9286914.111118627712131 ], [ 6979399.669431652873755, 9286922.385419804602861 ], [ 6979388.845139873214066, 9286932.33026734367013 ], [ 6979380.889342363923788, 9286940.937798630446196 ], [ 6979371.043892800807953, 9286953.367378167808056 ], [ 6979362.990818682126701, 9286962.384193789213896 ], [ 6979356.266728471964598, 9286971.739391462877393 ], [ 6979355.292138989083469, 9286973.082945555448532 ], [ 6979348.545148316770792, 9286982.079259470105171 ], [ 6979341.038321193307638, 9286992.551151851192117 ], [ 6979335.49365774448961, 9287001.402823558077216 ], [ 6979329.213204811327159, 9287012.79659279063344 ], [ 6979322.026023380458355, 9287023.895844558253884 ], [ 6979313.433224551379681, 9287038.383285947144032 ], [ 6979307.355297461152077, 9287049.874667963013053 ], [ 6979302.341983224265277, 9287060.065891427919269 ], [ 6979296.051183799281716, 9287071.146731503307819 ], [ 6979291.484897565096617, 9287079.443578446283937 ], [ 6979286.183913225308061, 9287086.616461765021086 ], [ 6979276.788433451205492, 9287097.244250781834126 ], [ 6979270.793957373127341, 9287104.544727420434356 ], [ 6979259.395450294017792, 9287115.552719002589583 ], [ 6979250.326830687001348, 9287123.66366626881063 ], [ 6979238.6517235012725, 9287131.316508015617728 ], [ 6979226.065344784408808, 9287142.57300877943635 ], [ 6979221.562298817560077, 9287145.728324040770531 ], [ 6979217.817577199079096, 9287148.034588444977999 ], [ 6979215.674579336307943, 9287149.881245849654078 ], [ 6979213.278461677953601, 9287282.297142935916781 ], [ 6979025.817303031682968, 9287413.369723552837968 ], [ 6978887.645255086012185, 9287356.258448785170913 ], [ 6978767.456899465993047, 9287361.029684169217944 ], [ 6978638.808673032559454, 9287390.73543993383646 ], [ 6978543.542914115823805, 9287427.979358801618218 ], [ 6978515.193844969384372, 9287450.57393342256546 ], [ 6978500.420207804068923, 9287462.343646351248026 ], [ 6978415.355252183973789, 9287490.208945887163281 ], [ 6978337.299322691746056, 9287538.918393747881055 ], [ 6978291.080424642190337, 9287556.262692920863628 ], [ 6978221.006955461576581, 9287628.822741551324725 ], [ 6977916.736598659306765, 9287752.078977642580867 ], [ 6977903.057497885078192, 9287788.056615872308612 ], [ 6977728.805610969662666, 9287952.27867429330945 ], [ 6977716.953761305660009, 9287985.236714214086533 ], [ 6977554.719097778201103, 9288115.192804984748363 ], [ 6977326.931410521268845, 9288307.816876422613859 ], [ 6977187.207342528738081, 9288398.295209892094135 ], [ 6977175.399904898367822, 9288580.045461889356375 ], [ 6977133.448729763738811, 9288700.809233663603663 ], [ 6977079.649688303470612, 9288794.997171001508832 ], [ 6977059.746755048632622, 9288940.06968074478209 ], [ 6977096.467728613875806, 9289047.677987199276686 ], [ 6977132.089068340137601, 9289089.701519211754203 ], [ 6977151.51501087564975, 9289270.711957098916173 ], [ 6977077.037640249356627, 9289372.025110490620136 ], [ 6977077.081126094795763, 9289409.491853557527065 ], [ 6977137.166015105322003, 9289413.34903172031045 ], [ 6977183.067480089142919, 9289597.016284294426441 ], [ 6977164.488064140081406, 9289705.933390237390995 ], [ 6977191.899001006036997, 9289801.255488071590662 ], [ 6977201.115221340209246, 9289921.972757276147604 ], [ 6977080.843470130115747, 9290027.115843234583735 ], [ 6976922.555959244258702, 9290098.258196027949452 ], [ 6976902.72067987266928, 9290193.60838657617569 ], [ 6976941.282134756445885, 9290290.299115259200335 ], [ 6976825.479893300682306, 9290283.420269468799233 ], [ 6976778.105429629795253, 9290336.638335047289729 ], [ 6976613.181153310462832, 9290348.548417108133435 ], [ 6976627.525462903082371, 9290451.808414807543159 ], [ 6976549.496835697442293, 9290525.044806800782681 ], [ 6976368.314767677336931, 9290911.372776765376329 ], [ 6976335.286224712617695, 9291008.804755195975304 ], [ 6976167.111159010790288, 9291131.696153093129396 ], [ 6976059.728979106992483, 9291145.944780193269253 ], [ 6975956.316824649460614, 9291151.883716681972146 ], [ 6975670.028815479949117, 9291049.559624534100294 ], [ 6975627.670740922912955, 9291006.645291823893785 ], [ 6975414.621003899723291, 9291038.796000087633729 ], [ 6975153.847367512993515, 9291146.124981358647346 ], [ 6975084.021532518789172, 9291223.116281749680638 ], [ 6974624.693426312878728, 9291071.776670278981328 ], [ 6974488.170654989778996, 9291140.528393264859915 ], [ 6974268.338390119373798, 9291398.406970011070371 ], [ 6974278.216309337876737, 9291525.233548890799284 ], [ 6974317.701070304960012, 9291536.160738315433264 ], [ 6974350.466463202610612, 9291635.726257571950555 ], [ 6974327.48114328738302, 9291678.672058930620551 ], [ 6974232.187364291399717, 9291651.060376493260264 ], [ 6974004.393355345353484, 9291865.45607066527009 ], [ 6973937.994472246617079, 9291951.558321489021182 ], [ 6974063.591340632177889, 9292065.456521153450012 ], [ 6974365.395054874941707, 9292153.951964123174548 ], [ 6974469.288846320472658, 9292166.457990456372499 ], [ 6974861.397244575433433, 9292049.854101996868849 ], [ 6975009.596541645936668, 9292061.157563520595431 ], [ 6975177.295011638663709, 9292114.753927316516638 ], [ 6975353.698199339210987, 9292202.952199889346957 ], [ 6975504.898892183788121, 9292330.658231183886528 ], [ 6976020.095533217303455, 9292911.950448306277394 ], [ 6976125.501464352011681, 9292986.75581082329154 ], [ 6976297.097248980775476, 9293047.758705640211701 ], [ 6976553.407619334757328, 9293087.350793706253171 ], [ 6976963.100939454510808, 9293196.25287152454257 ], [ 6977202.203945562243462, 9293289.253782879561186 ], [ 6977417.50558864325285, 9293465.451757168397307 ], [ 6977593.110134760849178, 9293658.557658370584249 ], [ 6977915.41081309504807, 9293820.152562133967876 ], [ 6978451.419139941222966, 9293946.95073039457202 ], [ 6978640.211123881861567, 9293964.957458959892392 ], [ 6978758.514688918367028, 9293953.952328013256192 ], [ 6978911.012874590232968, 9293860.549824388697743 ], [ 6979181.222126572392881, 9293606.956166101619601 ], [ 6979261.315297670662403, 9293426.247649865224957 ], [ 6979079.31076499260962, 9292314.747751953080297 ], [ 6979119.914250176399946, 9292184.349170804023743 ], [ 6979218.508290010504425, 9292131.248720871284604 ], [ 6979314.215292918495834, 9292120.947618700563908 ], [ 6979474.317467126064003, 9292162.941176136955619 ], [ 6979669.11937152966857, 9292327.9410758651793 ], [ 6979886.813024692237377, 9292512.242546912282705 ], [ 6980054.5172418076545, 9292690.247563373297453 ], [ 6980271.218951827846467, 9292771.343940664082766 ], [ 6981365.420524501241744, 9292636.443972492590547 ], [ 6981514.426410882733762, 9292667.241911225020885 ], [ 6981975.526790118776262, 9292626.039686173200607 ], [ 6982127.223861055448651, 9292629.736576901748776 ], [ 6982228.226661574095488, 9292673.638932725414634 ], [ 6982373.429734843783081, 9292844.145714474841952 ], [ 6982437.730714155361056, 9292892.84209443628788 ], [ 6982601.032445983029902, 9292917.446044560521841 ], [ 6982667.233384508639574, 9292907.739745616912842 ], [ 6982684.829321375116706, 9292872.438865963369608 ], [ 6982699.030141526833177, 9292713.039901126176119 ], [ 6982726.531872117891908, 9292642.345081988722086 ], [ 6983069.63524900469929, 9292341.938826408237219 ], [ 6983213.636077912524343, 9292279.040598168969154 ], [ 6983202.933489887043834, 9290207.532486505806446 ], [ 6983348.014229709282517, 9285233.723061656579375 ], [ 6983367.514895014464855, 9284562.01969226449728 ], [ 6983129.108158504590392, 9281359.202491028234363 ] ] ] } }
]
}
