{
"type": "FeatureCollection",
"name": "2407708",
"crs": { "type": "name", "properties": { "name": "urn:ogc:def:crs:EPSG::5880" } },
"features": [
{ "type": "Feature", "properties": { "lv_id": "LOC_022367", "id": 91067.0, "CD_SETOR": "240770805000005", "SITUACAO": "Urbana", "CD_SIT": "2", "CD_TIPO": "0", "AREA_KM2": 0.33360641742459801, "CD_REGIAO": "2", "NM_REGIAO": "Nordeste", "CD_UF": "24", "NM_UF": "Rio Grande do Norte", "CD_MUN": "2407708", "NM_MUN": "Montanhas", "CD_DIST": "240770805", "NM_DIST": "Montanhas", "CD_SUBDIST": "24077080500", "NM_SUBDIST": null, "CD_BAIRRO": null, "NM_BAIRRO": null, "CD_NU": null, "NM_NU": null, "CD_FCU": null, "NM_FCU": null, "CD_AGLOM": null, "NM_AGLOM": null, "CD_RGINT": "2401", "NM_RGINT": "Natal", "CD_RGI": "240003", "NM_RGI": "Canguaretama", "CD_CONCURB": null, "NM_CONCURB": null, "mun_code_x": "2407708", "index_right": 66218, "dist_m": 106.64816995865313, "local_id": 227778, "ano": 2022, "cod_localidade_ibge": 2407708, "NR_ZONA": "12", "nr_cep": 59198000.0, "nm_localidade": "MONTANHAS", "nm_locvot": "ESCOLA MUNICIPAL GRIMALDE RIBEIRO", "ds_endereco": "RUA DA CONCORDIA, S/N", "ds_bairro": "CENTRO", "pred_long": -35.2864646, "pred_lat": -6.4857178, "pred_dist": 0.0, "tse_long": -35.29036747, "tse_lat": -6.48395316, "long": -35.29036747, "lat": -6.48395316, "ID_UNICO": "LOC_022367", "SG_UF": "RN", "CD_MUNICIPIO": "17531", "NR_LOCAL_VOTACAO": "1031", "QT_SECOES_AGREGADAS": 1, "QT_ELEITORES_TRANSFERIDOS": 0, "CIRO GOMES (PDT) (NÃO ELEITO) 1T": 42.0, "CONSTITUINTE EYMAEL (DC) (NÃO ELEITO) 1T": 1.0, "FELIPE D AVILA (NOVO) (NÃO ELEITO) 1T": 0.0, "JAIR BOLSONARO (PL) (2º TURNO) 1T": 254.0, "LULA (PT) (2º TURNO) 1T": 939.0, "LÉO PÉRICLES (UP) (NÃO ELEITO) 1T": 1.0, "PADRE KELMON (PTB) (NÃO ELEITO) 1T": 0.0, "SIMONE TEBET (MDB) (NÃO ELEITO) 1T": 16.0, "SOFIA MANZANO (PCB) (NÃO ELEITO) 1T": 0.0, "SORAYA THRONICKE (UNIÃO) (NÃO ELEITO) 1T": 1.0, "VERA (PSTU) (NÃO ELEITO) 1T": 0.0, "Total_Votos_Validos 1T": 1254.0, "Votos_Brancos 1T": 18.0, "Votos_Nulos 1T": 34.0, "Abstenções 1T": 313.0, "Eleitores_Aptos 1T": 1619.0, "JAIR BOLSONARO (PL) (NÃO ELEITO) 2T": 288.0, "LULA (PT) (ELEITO) 2T": 993.0, "Total_Votos_Validos 2T": 1281.0, "Votos_Brancos 2T": 11.0, "Votos_Nulos 2T": 32.0, "Abstenções 2T": 295.0, "Eleitores_Aptos 2T": 1619.0, "mun_code_y": "2407708", "mun_code": "2407708" }, "geometry": { "type": "Polygon", "coordinates": [ [ [ 7069274.399148675613105, 9244362.58838396705687 ], [ 7069165.797636041417718, 9244196.467719288542867 ], [ 7069110.045147865079343, 9244096.448607791215181 ], [ 7069087.541017883457243, 9244049.142352238297462 ], [ 7069064.933749959804118, 9243983.149072280153632 ], [ 7069044.745128409005702, 9243862.15911465883255 ], [ 7069042.566810455173254, 9243851.857038732618093 ], [ 7069023.765322902239859, 9243813.864698449149728 ], [ 7069011.806982949376106, 9243800.940859345719218 ], [ 7068987.122595553286374, 9243774.678780963644385 ], [ 7068961.158521836623549, 9243734.212850693613291 ], [ 7068918.699327890761197, 9243646.126260180026293 ], [ 7068883.867823242209852, 9243575.761400824412704 ], [ 7068660.62611694727093, 9244459.669695032760501 ], [ 7068292.997229006141424, 9244597.507083466276526 ], [ 7067854.373357349075377, 9244527.509229535236955 ], [ 7067023.555180201306939, 9244384.322170501574874 ], [ 7066498.410893689841032, 9244283.447899794206023 ], [ 7065782.688158765435219, 9244206.239655654877424 ], [ 7065524.995878493413329, 9244160.155267829075456 ], [ 7065392.031079033389688, 9244141.197078581899405 ], [ 7065279.173538401722908, 9244118.771357798948884 ], [ 7065185.915895354002714, 9244081.630892220884562 ], [ 7065104.971675040200353, 9244044.945395197719336 ], [ 7065048.840050002560019, 9244004.525873618200421 ], [ 7064997.243473812937737, 9243938.075500523671508 ], [ 7064963.111435651779175, 9243855.416548918932676 ], [ 7064917.204651067964733, 9243754.807870734483004 ], [ 7064851.802107041701674, 9243684.906523725017905 ], [ 7064830.007992286235094, 9243686.106445731595159 ], [ 7065965.419846259057522, 9247190.92278578132391 ], [ 7065999.740867250598967, 9247296.885094705969095 ], [ 7066525.326607588678598, 9248919.727890433743596 ], [ 7066536.1197769343853, 9248952.922491537407041 ], [ 7066651.421177932992578, 9249002.828008104115725 ], [ 7067240.626050804741681, 9249009.718977402895689 ], [ 7067343.431863508187234, 9249049.515462815761566 ], [ 7067474.435663026757538, 9249200.623775074258447 ], [ 7067645.435574450530112, 9249231.420136462897062 ], [ 7067831.730549569241703, 9249135.920752715319395 ], [ 7068070.531785842962563, 9249151.121932009235024 ], [ 7068306.828199423849583, 9248959.321126351132989 ], [ 7068784.53201811760664, 9248776.520138118416071 ], [ 7068915.239262599498034, 9248777.212079502642155 ], [ 7069412.541583019308746, 9248946.51202236674726 ], [ 7069654.734521826729178, 9249029.017737604677677 ], [ 7070430.340563286095858, 9248934.208306977525353 ], [ 7070542.641601657494903, 9248841.414413582533598 ], [ 7070608.348629874177277, 9248700.710027163848281 ], [ 7070553.936629977077246, 9248094.410485656931996 ], [ 7070576.544584626331925, 9247678.413114864379168 ], [ 7070703.502403242513537, 9245342.469683302566409 ], [ 7070714.03857284411788, 9245148.39792600646615 ], [ 7070860.915467398241162, 9245015.33437268435955 ], [ 7070817.186130261048675, 9245005.9474724419415 ], [ 7070775.72432001773268, 9245004.447983743622899 ], [ 7070718.535375913605094, 9245004.507894529029727 ], [ 7070668.889632363803685, 9244997.705055182799697 ], [ 7070822.379455923102796, 9244861.45988074503839 ], [ 7070951.569860594347119, 9244631.865647532045841 ], [ 7070929.446421966888011, 9244209.884454043582082 ], [ 7070913.262723514810205, 9244076.72071267105639 ], [ 7070605.668968304991722, 9243961.484129762277007 ], [ 7070453.002066809684038, 9244022.07287660241127 ], [ 7069696.201964776962996, 9244313.418123658746481 ], [ 7069630.242140796035528, 9244344.730088805779815 ], [ 7069392.664884850382805, 9244433.627652432769537 ], [ 7069356.79701129719615, 9244333.140829883515835 ], [ 7069274.399148675613105, 9244362.58838396705687 ] ] ] } },
{ "type": "Feature", "properties": { "lv_id": "LOC_022368", "id": 91065.0, "CD_SETOR": "240770805000003", "SITUACAO": "Urbana", "CD_SIT": "2", "CD_TIPO": "0", "AREA_KM2": 0.43083697259491899, "CD_REGIAO": "2", "NM_REGIAO": "Nordeste", "CD_UF": "24", "NM_UF": "Rio Grande do Norte", "CD_MUN": "2407708", "NM_MUN": "Montanhas", "CD_DIST": "240770805", "NM_DIST": "Montanhas", "CD_SUBDIST": "24077080500", "NM_SUBDIST": null, "CD_BAIRRO": null, "NM_BAIRRO": null, "CD_NU": null, "NM_NU": null, "CD_FCU": null, "NM_FCU": null, "CD_AGLOM": null, "NM_AGLOM": null, "CD_RGINT": "2401", "NM_RGINT": "Natal", "CD_RGI": "240003", "NM_RGI": "Canguaretama", "CD_CONCURB": null, "NM_CONCURB": null, "mun_code_x": "2407708", "index_right": 66219, "dist_m": 57.008957155895381, "local_id": 227779, "ano": 2022, "cod_localidade_ibge": 2407708, "NR_ZONA": "12", "nr_cep": 59198000.0, "nm_localidade": "MONTANHAS", "nm_locvot": "ESCOLA MUNICIPAL BELO HORIZONTE", "ds_endereco": "AV. AUGUSTO GOMES, S/N", "ds_bairro": "CIDADE NOVA", "pred_long": -35.286937, "pred_lat": -6.492149, "pred_dist": 0.0, "tse_long": -35.28694824, "tse_lat": -6.49206858, "long": -35.28694824, "lat": -6.49206858, "ID_UNICO": "LOC_022368", "SG_UF": "RN", "CD_MUNICIPIO": "17531", "NR_LOCAL_VOTACAO": "1112", "QT_SECOES_AGREGADAS": 0, "QT_ELEITORES_TRANSFERIDOS": 0, "CIRO GOMES (PDT) (NÃO ELEITO) 1T": 21.0, "CONSTITUINTE EYMAEL (DC) (NÃO ELEITO) 1T": 0.0, "FELIPE D AVILA (NOVO) (NÃO ELEITO) 1T": 0.0, "JAIR BOLSONARO (PL) (2º TURNO) 1T": 178.0, "LULA (PT) (2º TURNO) 1T": 772.0, "LÉO PÉRICLES (UP) (NÃO ELEITO) 1T": 0.0, "PADRE KELMON (PTB) (NÃO ELEITO) 1T": 0.0, "SIMONE TEBET (MDB) (NÃO ELEITO) 1T": 6.0, "SOFIA MANZANO (PCB) (NÃO ELEITO) 1T": 0.0, "SORAYA THRONICKE (UNIÃO) (NÃO ELEITO) 1T": 3.0, "VERA (PSTU) (NÃO ELEITO) 1T": 0.0, "Total_Votos_Validos 1T": 980.0, "Votos_Brancos 1T": 20.0, "Votos_Nulos 1T": 36.0, "Abstenções 1T": 254.0, "Eleitores_Aptos 1T": 1290.0, "JAIR BOLSONARO (PL) (NÃO ELEITO) 2T": 198.0, "LULA (PT) (ELEITO) 2T": 801.0, "Total_Votos_Validos 2T": 999.0, "Votos_Brancos 2T": 14.0, "Votos_Nulos 2T": 39.0, "Abstenções 2T": 238.0, "Eleitores_Aptos 2T": 1290.0, "mun_code_y": "2407708", "mun_code": "2407708" }, "geometry": { "type": "Polygon", "coordinates": [ [ [ 7067423.907594753429294, 9237903.884883988648653 ], [ 7066734.100572681054473, 9237955.495216757059097 ], [ 7066202.100415991619229, 9237906.887706546112895 ], [ 7064322.086802733130753, 9237997.298441203311086 ], [ 7063972.647172376513481, 9238132.394879899919033 ], [ 7063669.590545968152583, 9238291.194114787504077 ], [ 7063186.909852152690291, 9238706.336906375363469 ], [ 7063200.283409198746085, 9238746.49739483743906 ], [ 7064609.092798086814582, 9243016.307667454704642 ], [ 7064830.007992286235094, 9243686.106445731595159 ], [ 7064851.802107041701674, 9243684.906523725017905 ], [ 7064917.204651067964733, 9243754.807870734483004 ], [ 7064963.111435651779175, 9243855.416548918932676 ], [ 7064997.243473812937737, 9243938.075500523671508 ], [ 7065048.840050002560019, 9244004.525873618200421 ], [ 7065104.971675040200353, 9244044.945395197719336 ], [ 7065185.915895354002714, 9244081.630892220884562 ], [ 7065279.173538401722908, 9244118.771357798948884 ], [ 7065392.031079033389688, 9244141.197078581899405 ], [ 7065524.995878493413329, 9244160.155267829075456 ], [ 7065782.688158765435219, 9244206.239655654877424 ], [ 7066498.410893689841032, 9244283.447899794206023 ], [ 7067023.555180201306939, 9244384.322170501574874 ], [ 7067854.373357349075377, 9244527.509229535236955 ], [ 7068292.997229006141424, 9244597.507083466276526 ], [ 7068660.62611694727093, 9244459.669695032760501 ], [ 7068883.867823242209852, 9243575.761400824412704 ], [ 7068918.699327890761197, 9243646.126260180026293 ], [ 7068961.158521836623549, 9243734.212850693613291 ], [ 7068987.122595553286374, 9243774.678780963644385 ], [ 7069011.806982949376106, 9243800.940859345719218 ], [ 7069023.765322902239859, 9243813.864698449149728 ], [ 7069042.566810455173254, 9243851.857038732618093 ], [ 7069044.745128409005702, 9243862.15911465883255 ], [ 7069064.933749959804118, 9243983.149072280153632 ], [ 7069087.541017883457243, 9244049.142352238297462 ], [ 7069110.045147865079343, 9244096.448607791215181 ], [ 7069165.797636041417718, 9244196.467719288542867 ], [ 7069274.399148675613105, 9244362.58838396705687 ], [ 7069356.79701129719615, 9244333.140829883515835 ], [ 7069392.664884850382805, 9244433.627652432769537 ], [ 7069630.242140796035528, 9244344.730088805779815 ], [ 7069696.201964776962996, 9244313.418123658746481 ], [ 7070453.002066809684038, 9244022.07287660241127 ], [ 7070605.668968304991722, 9243961.484129762277007 ], [ 7070913.262723514810205, 9244076.72071267105639 ], [ 7070929.446421966888011, 9244209.884454043582082 ], [ 7070951.569860594347119, 9244631.865647532045841 ], [ 7070822.379455923102796, 9244861.45988074503839 ], [ 7070668.889632363803685, 9244997.705055182799697 ], [ 7070718.535375913605094, 9245004.507894529029727 ], [ 7070775.72432001773268, 9245004.447983743622899 ], [ 7070817.186130261048675, 9245005.9474724419415 ], [ 7070860.915467398241162, 9245015.33437268435955 ], [ 7072253.736767668277025, 9243753.290492611005902 ], [ 7076172.347995018586516, 9240202.873669886961579 ], [ 7076060.646733026951551, 9239890.771762140095234 ], [ 7075818.8526257192716, 9239519.770030751824379 ], [ 7075544.043085247278214, 9239212.579111890867352 ], [ 7075253.840740330517292, 9239054.66963198967278 ], [ 7074867.845655992627144, 9238957.974337283521891 ], [ 7072938.536932994611561, 9238880.581493021920323 ], [ 7071099.121327931061387, 9237974.280679374933243 ], [ 7070686.775488887913525, 9237861.336867334321141 ], [ 7070536.276244970969856, 9237820.096911896020174 ], [ 7069549.210880992934108, 9237877.087357899174094 ], [ 7068431.205247063189745, 9237828.490136651322246 ], [ 7067423.907594753429294, 9237903.884883988648653 ] ] ] } }
]
}
