{
"type": "FeatureCollection",
"name": "2408706",
"crs": { "type": "name", "properties": { "name": "urn:ogc:def:crs:EPSG::5880" } },
"features": [
{ "type": "Feature", "properties": { "lv_id": "LOC_022633", "id": 92860.0, "CD_SETOR": "240870605000001", "SITUACAO": "Urbana", "CD_SIT": "1", "CD_TIPO": "0", "AREA_KM2": 0.412037964896872, "CD_REGIAO": "2", "NM_REGIAO": "Nordeste", "CD_UF": "24", "NM_UF": "Rio Grande do Norte", "CD_MUN": "2408706", "NM_MUN": "Paraú", "CD_DIST": "240870605", "NM_DIST": "Paraú", "CD_SUBDIST": "24087060500", "NM_SUBDIST": null, "CD_BAIRRO": null, "NM_BAIRRO": null, "CD_NU": null, "NM_NU": null, "CD_FCU": null, "NM_FCU": null, "CD_AGLOM": null, "NM_AGLOM": null, "CD_RGINT": "2403", "NM_RGINT": "Mossoró", "CD_RGI": "240011", "NM_RGI": "Açu", "CD_CONCURB": null, "NM_CONCURB": null, "mun_code_x": "2408706", "index_right": 66578, "dist_m": 0.0, "local_id": 230936, "ano": 2022, "cod_localidade_ibge": 2408706, "NR_ZONA": "54", "nr_cep": 59660000.0, "nm_localidade": "PARAÚ", "nm_locvot": "ESCOLA ESTADUAL LUIZ GONDIM", "ds_endereco": "RUA PADRE AMARO, 55", "ds_bairro": "CENTRO", "pred_long": -37.100596, "pred_lat": -5.77394, "pred_dist": 0.0, "tse_long": -37.10065745, "tse_lat": -5.77395418, "long": -37.10065745, "lat": -5.77395418, "ID_UNICO": "LOC_022633", "SG_UF": "RN", "CD_MUNICIPIO": "17736", "NR_LOCAL_VOTACAO": "1023", "QT_SECOES_AGREGADAS": 0, "QT_ELEITORES_TRANSFERIDOS": 4, "CIRO GOMES (PDT) (NÃO ELEITO) 1T": 34.0, "CONSTITUINTE EYMAEL (DC) (NÃO ELEITO) 1T": 0.0, "FELIPE D AVILA (NOVO) (NÃO ELEITO) 1T": 2.0, "JAIR BOLSONARO (PL) (2º TURNO) 1T": 280.0, "LULA (PT) (2º TURNO) 1T": 797.0, "LÉO PÉRICLES (UP) (NÃO ELEITO) 1T": 0.0, "PADRE KELMON (PTB) (NÃO ELEITO) 1T": 1.0, "SIMONE TEBET (MDB) (NÃO ELEITO) 1T": 12.0, "SOFIA MANZANO (PCB) (NÃO ELEITO) 1T": 0.0, "SORAYA THRONICKE (UNIÃO) (NÃO ELEITO) 1T": 6.0, "VERA (PSTU) (NÃO ELEITO) 1T": 0.0, "Total_Votos_Validos 1T": 1132.0, "Votos_Brancos 1T": 9.0, "Votos_Nulos 1T": 24.0, "Abstenções 1T": 176.0, "Eleitores_Aptos 1T": 1341.0, "JAIR BOLSONARO (PL) (NÃO ELEITO) 2T": 283.0, "LULA (PT) (ELEITO) 2T": 746.0, "Total_Votos_Validos 2T": 1029.0, "Votos_Brancos 2T": 8.0, "Votos_Nulos 2T": 23.0, "Abstenções 2T": 281.0, "Eleitores_Aptos 2T": 1341.0, "mun_code_y": "2408706", "mun_code": "2408706" }, "geometry": { "type": "Polygon", "coordinates": [ [ [ 6875868.841065062209964, 9338459.184180105105042 ], [ 6876037.941937646828592, 9338120.637141775339842 ], [ 6876669.135615136474371, 9336856.79359444975853 ], [ 6877142.839659417048097, 9336703.092020584270358 ], [ 6880313.153703656978905, 9335674.187745165079832 ], [ 6883275.45769327506423, 9333667.275345893576741 ], [ 6878251.506656930781901, 9320041.948601674288511 ], [ 6871075.478617757558823, 9322408.771785050630569 ], [ 6871049.656809745356441, 9322408.870188370347023 ], [ 6867815.567793851718307, 9322421.278450164943933 ], [ 6865835.057732690125704, 9323264.675178118050098 ], [ 6860862.742755541577935, 9328329.205237712711096 ], [ 6862591.15963176637888, 9328817.702550502493978 ], [ 6857606.636287864297628, 9332337.223606087267399 ], [ 6858523.763733394443989, 9339680.847081393003464 ], [ 6858382.363819520920515, 9340659.442203203216195 ], [ 6860247.963320270180702, 9339724.337862078100443 ], [ 6860932.965191177092493, 9340385.635705050081015 ], [ 6861155.775548361241817, 9340508.434024712070823 ], [ 6861958.872038122266531, 9340638.938797332346439 ], [ 6862275.276493532583117, 9340639.841052392497659 ], [ 6862762.973727993667126, 9340471.138416714966297 ], [ 6862934.679531276226044, 9339975.836856201291084 ], [ 6863018.476608106866479, 9339817.729594454169273 ], [ 6863211.476093655452132, 9339803.330496050417423 ], [ 6863455.48093527648598, 9340063.129907937720418 ], [ 6863666.080152861773968, 9340397.229395177215338 ], [ 6863884.881453515961766, 9340699.235571978613734 ], [ 6863960.880269722081721, 9340926.636116351932287 ], [ 6864025.288598710671067, 9341035.029700096696615 ], [ 6864148.390257610008121, 9341041.029533384367824 ], [ 6864336.587405833415687, 9340964.132102513685822 ], [ 6864610.692821552976966, 9340900.435456307604909 ], [ 6864708.784291844815016, 9340957.927033254876733 ], [ 6866256.997484870254993, 9342730.329309871420264 ], [ 6866832.607029046863317, 9343583.03570463322103 ], [ 6867112.007075218483806, 9343855.732977041974664 ], [ 6867434.108331706374884, 9344086.140751779079437 ], [ 6867854.009174023754895, 9344350.84078935533762 ], [ 6868147.808798430487514, 9344499.232136739417911 ], [ 6868506.31818531639874, 9344770.234691042453051 ], [ 6869031.021491388790309, 9345640.942264024168253 ], [ 6869292.719250075519085, 9345893.342803854495287 ], [ 6869699.618735861964524, 9346146.13962777517736 ], [ 6869896.625048256479204, 9346228.932490438222885 ], [ 6870531.029324653558433, 9346374.840790940448642 ], [ 6871195.932790763676167, 9346605.63708009570837 ], [ 6871418.027208557352424, 9347330.434892201796174 ], [ 6871428.126003859564662, 9347350.237047357484698 ], [ 6871437.729987546801567, 9347331.131778324022889 ], [ 6875867.438066187314689, 9338461.996444033458829 ], [ 6875868.841065062209964, 9338459.184180105105042 ] ], [ [ 6871812.46691238693893, 9332780.86754858866334 ], [ 6871842.185805285349488, 9332810.007674846798182 ], [ 6871682.820295931771398, 9332940.576183935627341 ], [ 6871640.018714907579124, 9332979.594003034755588 ], [ 6871621.832593071274459, 9332991.966071713715792 ], [ 6871613.891184333711863, 9333007.958291037008166 ], [ 6871609.558661825023592, 9333027.617817796766758 ], [ 6871619.366060853935778, 9333042.782472245395184 ], [ 6871574.621703334152699, 9333075.255077520385385 ], [ 6871574.459020059555769, 9333075.375341411679983 ], [ 6871530.33698539249599, 9333108.291015969589353 ], [ 6871561.612705467268825, 9333154.653354004025459 ], [ 6871451.473044780083001, 9333235.990341935306787 ], [ 6871490.275521008297801, 9333299.489735567942262 ], [ 6871386.037746258080006, 9333359.907782699912786 ], [ 6871335.471905041486025, 9333386.965388637036085 ], [ 6871259.446017840877175, 9333236.684624288231134 ], [ 6871305.656192744150758, 9333208.844309980049729 ], [ 6871232.504296728409827, 9333080.294814212247729 ], [ 6871103.792774712666869, 9332854.129245983436704 ], [ 6871103.547444874420762, 9332853.697911873459816 ], [ 6871174.33339358959347, 9332812.625863026827574 ], [ 6871189.313379877246916, 9332806.92868378944695 ], [ 6871262.174227933399379, 9332985.627846891060472 ], [ 6871535.81666926946491, 9332816.610395831987262 ], [ 6871709.144826894626021, 9332703.495659215375781 ], [ 6871840.165057100355625, 9332628.101753439754248 ], [ 6871874.527265979908407, 9332611.161871071904898 ], [ 6871812.46691238693893, 9332780.86754858866334 ] ], [ [ 6870666.192242975346744, 9332995.565600503236055 ], [ 6870718.86665047518909, 9333075.687545660883188 ], [ 6870785.631446028128266, 9333170.812243722379208 ], [ 6870844.156372665427625, 9333160.521054249256849 ], [ 6870911.559961715713143, 9333167.741737673059106 ], [ 6870970.492732760496438, 9333246.663163831457496 ], [ 6871062.000205045565963, 9333199.9100610781461 ], [ 6871107.908650194294751, 9333285.85586060769856 ], [ 6871124.730253321118653, 9333317.306639939546585 ], [ 6871220.729844368062913, 9333259.731268735602498 ], [ 6871293.266013756394386, 9333405.879288604483008 ], [ 6871288.862262851558626, 9333408.364797042682767 ], [ 6871284.458173625171185, 9333410.838771432638168 ], [ 6871242.742595953866839, 9333434.389748582616448 ], [ 6871311.137117197737098, 9333565.13624457269907 ], [ 6871358.519209671765566, 9333537.942764583975077 ], [ 6871383.774412586353719, 9333589.124364919960499 ], [ 6871409.02953808195889, 9333640.306070687249303 ], [ 6871363.937324675731361, 9333665.861617786809802 ], [ 6871389.817248279228806, 9333714.924014581367373 ], [ 6871295.997004520148039, 9333763.349144032225013 ], [ 6871191.082564026117325, 9333820.783141369000077 ], [ 6871185.353704314678907, 9333808.660087876021862 ], [ 6871116.698616134002805, 9333678.048225071281195 ], [ 6871009.026149681769311, 9333740.053874237462878 ], [ 6870963.42480699159205, 9333795.553750406950712 ], [ 6870912.342608828097582, 9333751.98394462838769 ], [ 6870842.716821124777198, 9333828.257354956120253 ], [ 6870852.404733610339463, 9333864.733110660687089 ], [ 6870868.213890176266432, 9333897.206693787127733 ], [ 6870774.793172835372388, 9333939.2459184397012 ], [ 6870731.187530133873224, 9333953.143856208771467 ], [ 6870680.454916521906853, 9333564.407748566940427 ], [ 6870678.918613899499178, 9333554.319012543186545 ], [ 6870283.325787072069943, 9333162.319997400045395 ], [ 6870329.264876705594361, 9333127.864082397893071 ], [ 6870330.403340069577098, 9333127.010770756751299 ], [ 6870626.262737076729536, 9333024.846119005233049 ], [ 6870666.192242975346744, 9332995.565600503236055 ] ] ] } },
{ "type": "Feature", "properties": { "lv_id": "LOC_022634", "id": 92860.0, "CD_SETOR": "240870605000001", "SITUACAO": "Urbana", "CD_SIT": "1", "CD_TIPO": "0", "AREA_KM2": 0.412037964896872, "CD_REGIAO": "2", "NM_REGIAO": "Nordeste", "CD_UF": "24", "NM_UF": "Rio Grande do Norte", "CD_MUN": "2408706", "NM_MUN": "Paraú", "CD_DIST": "240870605", "NM_DIST": "Paraú", "CD_SUBDIST": "24087060500", "NM_SUBDIST": null, "CD_BAIRRO": null, "NM_BAIRRO": null, "CD_NU": null, "NM_NU": null, "CD_FCU": null, "NM_FCU": null, "CD_AGLOM": null, "NM_AGLOM": null, "CD_RGINT": "2403", "NM_RGINT": "Mossoró", "CD_RGI": "240011", "NM_RGI": "Açu", "CD_CONCURB": null, "NM_CONCURB": null, "mun_code_x": "2408706", "index_right": 66579, "dist_m": 0.0, "local_id": 230937, "ano": 2022, "cod_localidade_ibge": 2408706, "NR_ZONA": "54", "nr_cep": 59660000.0, "nm_localidade": "PARAÚ", "nm_locvot": "ESCOLA MUNICIPAL DE PRIMEIRO GRAU PADRE AMARO", "ds_endereco": "RUA ALFERES TONHO, 448", "ds_bairro": "CENTRO", "pred_long": -37.101745, "pred_lat": -5.776991, "pred_dist": 0.0, "tse_long": -37.10167312, "tse_lat": -5.7770307, "long": -37.10167312, "lat": -5.7770307, "ID_UNICO": "LOC_022634", "SG_UF": "RN", "CD_MUNICIPIO": "17736", "NR_LOCAL_VOTACAO": "1031", "QT_SECOES_AGREGADAS": 0, "QT_ELEITORES_TRANSFERIDOS": 4, "CIRO GOMES (PDT) (NÃO ELEITO) 1T": 48.0, "CONSTITUINTE EYMAEL (DC) (NÃO ELEITO) 1T": 0.0, "FELIPE D AVILA (NOVO) (NÃO ELEITO) 1T": 5.0, "JAIR BOLSONARO (PL) (2º TURNO) 1T": 292.0, "LULA (PT) (2º TURNO) 1T": 891.0, "LÉO PÉRICLES (UP) (NÃO ELEITO) 1T": 0.0, "PADRE KELMON (PTB) (NÃO ELEITO) 1T": 0.0, "SIMONE TEBET (MDB) (NÃO ELEITO) 1T": 11.0, "SOFIA MANZANO (PCB) (NÃO ELEITO) 1T": 0.0, "SORAYA THRONICKE (UNIÃO) (NÃO ELEITO) 1T": 4.0, "VERA (PSTU) (NÃO ELEITO) 1T": 0.0, "Total_Votos_Validos 1T": 1251.0, "Votos_Brancos 1T": 21.0, "Votos_Nulos 1T": 38.0, "Abstenções 1T": 259.0, "Eleitores_Aptos 1T": 1569.0, "JAIR BOLSONARO (PL) (NÃO ELEITO) 2T": 316.0, "LULA (PT) (ELEITO) 2T": 864.0, "Total_Votos_Validos 2T": 1180.0, "Votos_Brancos 2T": 22.0, "Votos_Nulos 2T": 30.0, "Abstenções 2T": 337.0, "Eleitores_Aptos 2T": 1569.0, "mun_code_y": "2408706", "mun_code": "2408706" }, "geometry": { "type": "Polygon", "coordinates": [ [ [ 6871709.144826894626021, 9332703.495659215375781 ], [ 6871535.81666926946491, 9332816.610395831987262 ], [ 6871262.174227933399379, 9332985.627846891060472 ], [ 6871189.313379877246916, 9332806.92868378944695 ], [ 6871174.33339358959347, 9332812.625863026827574 ], [ 6871103.547444874420762, 9332853.697911873459816 ], [ 6871103.792774712666869, 9332854.129245983436704 ], [ 6871097.91441445518285, 9332856.958765707910061 ], [ 6870977.820292687043548, 9332926.770949017256498 ], [ 6870816.930211875587702, 9333016.723964136093855 ], [ 6870712.238849478773773, 9332888.398801179602742 ], [ 6870688.989030418917537, 9332858.040118867531419 ], [ 6870398.753286300227046, 9333075.741373455151916 ], [ 6870330.403340069577098, 9333127.010770756751299 ], [ 6870329.264876705594361, 9333127.864082397893071 ], [ 6870283.325787072069943, 9333162.319997400045395 ], [ 6870678.918613899499178, 9333554.319012543186545 ], [ 6870680.454916521906853, 9333564.407748566940427 ], [ 6870731.187530133873224, 9333953.143856208771467 ], [ 6870811.925272661261261, 9334198.03713314794004 ], [ 6871150.596974730491638, 9333947.742876030504704 ], [ 6871199.213144982233644, 9333974.44177944585681 ], [ 6871272.459156207740307, 9334007.497341547161341 ], [ 6871330.071216901764274, 9334028.839160254225135 ], [ 6871434.938586404547095, 9334077.705588176846504 ], [ 6871535.134913854300976, 9333852.577281383797526 ], [ 6871544.140748450532556, 9333843.398834457620978 ], [ 6871547.637555290013552, 9333839.832163313403726 ], [ 6871560.140522257424891, 9333827.098561927676201 ], [ 6871399.462616863660514, 9333521.317376052960753 ], [ 6871455.81531151290983, 9333491.698743756860495 ], [ 6871396.038263851776719, 9333379.025929326191545 ], [ 6871386.037746258080006, 9333359.907782699912786 ], [ 6871490.275521008297801, 9333299.489735567942262 ], [ 6871451.473044780083001, 9333235.990341935306787 ], [ 6871561.612705467268825, 9333154.653354004025459 ], [ 6871530.33698539249599, 9333108.291015969589353 ], [ 6871574.459020059555769, 9333075.375341411679983 ], [ 6871574.621703334152699, 9333075.255077520385385 ], [ 6871619.366060853935778, 9333042.782472245395184 ], [ 6871609.558661825023592, 9333027.617817796766758 ], [ 6871613.891184333711863, 9333007.958291037008166 ], [ 6871621.832593071274459, 9332991.966071713715792 ], [ 6871640.018714907579124, 9332979.594003034755588 ], [ 6871682.820295931771398, 9332940.576183935627341 ], [ 6871842.185805285349488, 9332810.007674846798182 ], [ 6871812.46691238693893, 9332780.86754858866334 ], [ 6871874.527265979908407, 9332611.161871071904898 ], [ 6871840.165057100355625, 9332628.101753439754248 ], [ 6871709.144826894626021, 9332703.495659215375781 ] ] ] } }
]
}
