{
"type": "FeatureCollection",
"name": "2408409",
"crs": { "type": "name", "properties": { "name": "urn:ogc:def:crs:EPSG::5880" } },
"features": [
{ "type": "Feature", "properties": { "lv_id": "LOC_022625", "id": 92831.0, "CD_SETOR": "240840905000001", "SITUACAO": "Urbana", "CD_SIT": "2", "CD_TIPO": "0", "AREA_KM2": 0.48448765849265601, "CD_REGIAO": "2", "NM_REGIAO": "Nordeste", "CD_UF": "24", "NM_UF": "Rio Grande do Norte", "CD_MUN": "2408409", "NM_MUN": "Olho d'Água do Borges", "CD_DIST": "240840905", "NM_DIST": "Olho d'Água do Borges", "CD_SUBDIST": "24084090500", "NM_SUBDIST": null, "CD_BAIRRO": null, "NM_BAIRRO": null, "CD_NU": null, "NM_NU": null, "CD_FCU": null, "NM_FCU": null, "CD_AGLOM": null, "NM_AGLOM": null, "CD_RGINT": "2403", "NM_RGINT": "Mossoró", "CD_RGI": "240010", "NM_RGI": "Pau dos Ferros", "CD_CONCURB": null, "NM_CONCURB": null, "mun_code_x": "2408409", "index_right": 66573, "dist_m": 167.5153168671462, "local_id": 230876, "ano": 2022, "cod_localidade_ibge": 2408409, "NR_ZONA": "39", "nr_cep": 59730000.0, "nm_localidade": "OLHO DÁGUA DO BORGES", "nm_locvot": "ESCOLA ESTADUAL 20 DE SETEMBRO", "ds_endereco": "RUA RAIMUNDO NONATO DE OLIVEIRA, S/N", "ds_bairro": "CENTRO", "pred_long": -37.709251, "pred_lat": -5.954026, "pred_dist": 0.0, "tse_long": -37.70912419, "tse_lat": -5.95397367, "long": -37.70912419, "lat": -5.95397367, "ID_UNICO": "LOC_022625", "SG_UF": "RN", "CD_MUNICIPIO": "17671", "NR_LOCAL_VOTACAO": "1040", "QT_SECOES_AGREGADAS": 0, "QT_ELEITORES_TRANSFERIDOS": 0, "CIRO GOMES (PDT) (NÃO ELEITO) 1T": 86.0, "CONSTITUINTE EYMAEL (DC) (NÃO ELEITO) 1T": 1.0, "FELIPE D AVILA (NOVO) (NÃO ELEITO) 1T": 4.0, "JAIR BOLSONARO (PL) (2º TURNO) 1T": 320.0, "LULA (PT) (2º TURNO) 1T": 1669.0, "LÉO PÉRICLES (UP) (NÃO ELEITO) 1T": 0.0, "PADRE KELMON (PTB) (NÃO ELEITO) 1T": 1.0, "SIMONE TEBET (MDB) (NÃO ELEITO) 1T": 21.0, "SOFIA MANZANO (PCB) (NÃO ELEITO) 1T": 3.0, "SORAYA THRONICKE (UNIÃO) (NÃO ELEITO) 1T": 6.0, "VERA (PSTU) (NÃO ELEITO) 1T": 0.0, "Total_Votos_Validos 1T": 2111.0, "Votos_Brancos 1T": 44.0, "Votos_Nulos 1T": 63.0, "Abstenções 1T": 479.0, "Eleitores_Aptos 1T": 2697.0, "JAIR BOLSONARO (PL) (NÃO ELEITO) 2T": 371.0, "LULA (PT) (ELEITO) 2T": 1741.0, "Total_Votos_Validos 2T": 2112.0, "Votos_Brancos 2T": 37.0, "Votos_Nulos 2T": 44.0, "Abstenções 2T": 504.0, "Eleitores_Aptos 2T": 2697.0, "mun_code_y": "2408409", "mun_code": "2408409" }, "geometry": { "type": "Polygon", "coordinates": [ [ [ 6802887.360407436266541, 9312846.28209612891078 ], [ 6803038.360142149031162, 9312560.879152139648795 ], [ 6803306.379112675786018, 9312359.978656087070704 ], [ 6803431.432709451764822, 9312035.319054909050465 ], [ 6803473.518479248508811, 9311839.009739553555846 ], [ 6803446.707488862797618, 9311555.675895603373647 ], [ 6803444.46906407456845, 9311241.610283337533474 ], [ 6803290.552883490920067, 9311116.070139290764928 ], [ 6803179.149732260033488, 9310992.872096374630928 ], [ 6802890.549274228513241, 9310941.970237663015723 ], [ 6802707.358116473071277, 9310635.676658188924193 ], [ 6802605.046372814103961, 9310546.070811757817864 ], [ 6802591.949616436846554, 9310369.771609058603644 ], [ 6802651.748947182670236, 9310271.475208459421992 ], [ 6802636.253860116936266, 9310162.674653666093946 ], [ 6802487.850273285992444, 9309998.174356438219547 ], [ 6802550.353487389162183, 9309862.970393417403102 ], [ 6802669.249822206795216, 9309864.271257966756821 ], [ 6802707.55584510974586, 9309809.676378771662712 ], [ 6802669.748852405697107, 9309712.874709000810981 ], [ 6802744.047154922038317, 9309528.26900945045054 ], [ 6802741.448075503110886, 9309430.271190533414483 ], [ 6802874.354344508610666, 9309293.073628121986985 ], [ 6803349.35458399541676, 9309088.77397265098989 ], [ 6803443.74928973801434, 9308988.266648422926664 ], [ 6803439.447988349944353, 9308836.97315376624465 ], [ 6803376.456024267710745, 9308625.072579829022288 ], [ 6803395.852810620330274, 9308370.863975958898664 ], [ 6803318.351673292927444, 9308270.571926355361938 ], [ 6803189.250014930032194, 9308224.965079722926021 ], [ 6803149.354575937613845, 9308047.964626882225275 ], [ 6803184.75023309327662, 9307895.765995679423213 ], [ 6803299.051413507200778, 9307883.669881086796522 ], [ 6803335.553555706515908, 9307766.860952574759722 ], [ 6803312.353146135807037, 9307567.161816684529185 ], [ 6803368.152591725811362, 9307347.463325964286923 ], [ 6803507.846153412014246, 9307299.159149836748838 ], [ 6803579.247595622204244, 9307163.663348533213139 ], [ 6803567.750240446068347, 9306901.257907694205642 ], [ 6803610.252065527252853, 9306681.963585795834661 ], [ 6803604.847797313705087, 9306481.765787493437529 ], [ 6803550.250633125193417, 9306256.256749100983143 ], [ 6803539.942587318830192, 9306051.76356665045023 ], [ 6803594.951657761819661, 9305796.461947876960039 ], [ 6803595.944145293906331, 9305671.755759626626968 ], [ 6803639.185220737010241, 9305353.792840028181672 ], [ 6803624.345341845415533, 9305096.654448185116053 ], [ 6803664.342459434643388, 9304944.251868160441518 ], [ 6803664.244816879741848, 9304779.457343645393848 ], [ 6803597.747528217732906, 9304603.358939113095403 ], [ 6803552.649971485137939, 9304404.154767015948892 ], [ 6803519.440127269364893, 9304134.758703839033842 ], [ 6803244.137315599247813, 9304051.457586104050279 ], [ 6803104.743665372021496, 9304233.75637392513454 ], [ 6802917.240225095301867, 9304301.555629080161452 ], [ 6802699.443135754205287, 9304486.163065077736974 ], [ 6802543.141095450147986, 9304510.2583665587008 ], [ 6802485.344517394900322, 9304551.658497197553515 ], [ 6802404.041710159741342, 9304685.863666357472539 ], [ 6802295.440301251597703, 9304781.560772385448217 ], [ 6802143.342509005218744, 9304883.161577431485057 ], [ 6801831.334942758083344, 9305042.055485598742962 ], [ 6801800.438296272419393, 9305108.955351211130619 ], [ 6801797.937314460985363, 9305492.559464681893587 ], [ 6801747.039409117773175, 9305553.163006694987416 ], [ 6801479.436924126930535, 9305583.657905476167798 ], [ 6801417.333285765722394, 9305704.458904389292002 ], [ 6801364.932750077918172, 9305943.661216391250491 ], [ 6801268.836959050968289, 9306012.263355348259211 ], [ 6801098.333657159470022, 9306003.763519890606403 ], [ 6800725.239451652392745, 9305758.96286897547543 ], [ 6800622.338317071087658, 9306072.06976761110127 ], [ 6800567.532184528186917, 9306072.669828148558736 ], [ 6800477.235605558380485, 9306003.570060962811112 ], [ 6800417.736987117677927, 9305987.371379533782601 ], [ 6800389.028486832976341, 9306018.170354656875134 ], [ 6800329.328501485288143, 9306204.563988011330366 ], [ 6800310.239681599661708, 9306383.772938385605812 ], [ 6800320.135330986231565, 9306517.871622420847416 ], [ 6800351.232119505293667, 9306582.466928096488118 ], [ 6800435.834709543734789, 9306651.565850542858243 ], [ 6800485.030014880932868, 9306727.865826938301325 ], [ 6800377.335833019576967, 9306891.765060288831592 ], [ 6800302.832043003290892, 9306971.268706412985921 ], [ 6799876.734490138478577, 9307152.97032879665494 ], [ 6799866.533392422832549, 9307218.875995209440589 ], [ 6799770.531802614219487, 9307382.476862732321024 ], [ 6799766.435315266251564, 9307442.067091729491949 ], [ 6799792.330352359451354, 9307524.975186944007874 ], [ 6799947.140557276085019, 9307788.976436773315072 ], [ 6799947.338550354354084, 9307839.072444779798388 ], [ 6799915.035480896942317, 9307909.375416211783886 ], [ 6799813.934146653860807, 9308318.972901156172156 ], [ 6799605.037106370553374, 9308458.779695630073547 ], [ 6799479.435156021267176, 9308510.071181513369083 ], [ 6799341.134622761979699, 9308522.673749042674899 ], [ 6799120.835565083660185, 9308676.379547458142042 ], [ 6799080.53816155064851, 9308713.281919276341796 ], [ 6799041.23170967400074, 9308896.17379879578948 ], [ 6798962.034267520532012, 9308859.380479067564011 ], [ 6798535.636532257311046, 9308981.583701489493251 ], [ 6798352.826623843051493, 9308989.484590297564864 ], [ 6798106.534892339259386, 9309164.681640081107616 ], [ 6797696.123770100995898, 9309163.880005829036236 ], [ 6797298.522528856992722, 9309309.682076739147305 ], [ 6796990.519331822171807, 9309487.878434028476477 ], [ 6796744.630121254362166, 9309581.342771718278527 ], [ 6796668.224140634760261, 9309610.380160270258784 ], [ 6796462.319664870388806, 9309711.089621579274535 ], [ 6796367.023674082010984, 9309725.187879232689738 ], [ 6796336.925862958654761, 9309793.983533702790737 ], [ 6796280.617129071615636, 9309856.180396348237991 ], [ 6796238.117844673804939, 9309958.086646316573024 ], [ 6796286.618955618701875, 9310077.789075957611203 ], [ 6796486.618962104432285, 9310251.68425078317523 ], [ 6796740.927458437159657, 9310397.983577283099294 ], [ 6796945.231538997963071, 9310547.08829321525991 ], [ 6797051.02440976165235, 9310638.590715158730745 ], [ 6797093.032972593791783, 9310758.283105446025729 ], [ 6797057.932543605566025, 9310897.089791947975755 ], [ 6796934.031138493679464, 9311088.582947766408324 ], [ 6796874.523296870291233, 9311278.492261279374361 ], [ 6796898.426342244260013, 9311445.892664073035121 ], [ 6796849.624972680583596, 9311554.888349816203117 ], [ 6796827.828514857217669, 9311696.589573338627815 ], [ 6796836.73082887660712, 9311790.291781965643167 ], [ 6796788.833482124842703, 9311886.293006140738726 ], [ 6797023.629042117856443, 9311897.985137457028031 ], [ 6797451.08933861926198, 9311651.14516057446599 ], [ 6797833.211887991055846, 9311627.549963101744652 ], [ 6798045.527055695652962, 9311536.956344479694963 ], [ 6797988.452052208594978, 9311285.096601659432054 ], [ 6798361.969930527731776, 9311469.491726446896791 ], [ 6798565.139663391746581, 9311539.147740768268704 ], [ 6798845.441153224557638, 9311470.585391413420439 ], [ 6799324.843837507069111, 9311788.610673755407333 ], [ 6799780.304103731177747, 9311991.835694827139378 ], [ 6799948.838942949660122, 9312091.449540950357914 ], [ 6800092.983708566986024, 9312138.335292020812631 ], [ 6800331.862413527444005, 9312210.140331942588091 ], [ 6800698.950858369469643, 9312265.208144970238209 ], [ 6800933.917709961533546, 9312393.827540468424559 ], [ 6800919.066464578732848, 9312669.399460775777698 ], [ 6801105.907388562336564, 9312973.48675250262022 ], [ 6801360.510108933784068, 9313320.00756623595953 ], [ 6801243.327388845384121, 9313580.170297184959054 ], [ 6801559.911690007895231, 9313712.401060180738568 ], [ 6801682.575090745463967, 9313967.014939235523343 ], [ 6801715.987624048255384, 9314243.586711671203375 ], [ 6801704.109194792807102, 9314648.18496922031045 ], [ 6802811.654761675745249, 9314771.33618595264852 ], [ 6802720.55021558329463, 9314942.64423113130033 ], [ 6802737.254046079702675, 9315083.807909648865461 ], [ 6802805.557538039982319, 9315187.037961589172482 ], [ 6803658.902267571538687, 9315430.349407529458404 ], [ 6803854.519644466228783, 9315477.038625130429864 ], [ 6804030.570292545482516, 9315246.190279407426715 ], [ 6803949.369918186217546, 9315113.620109954848886 ], [ 6803964.478286404162645, 9314868.321069641038775 ], [ 6804137.84727085288614, 9314786.703068315982819 ], [ 6804249.27551079262048, 9314672.856881348416209 ], [ 6803898.978918610140681, 9314673.255777010694146 ], [ 6803899.868309958837926, 9314630.416259014979005 ], [ 6803899.879050577059388, 9314630.024637890979648 ], [ 6803990.105882389470935, 9314629.443770807236433 ], [ 6803989.195621153339744, 9314598.212240530177951 ], [ 6803902.732591574080288, 9314590.349623000249267 ], [ 6803921.926942138001323, 9314187.165038350969553 ], [ 6803502.712397516705096, 9314200.089923448860645 ], [ 6803409.672660823911428, 9314141.784326499328017 ], [ 6803234.770609623752534, 9314136.512113869190216 ], [ 6803154.922060498036444, 9313404.1508684810251 ], [ 6802887.360407436266541, 9312846.28209612891078 ] ] ] } },
{ "type": "Feature", "properties": { "lv_id": "LOC_022626", "id": 92837.0, "CD_SETOR": "240840905000008", "SITUACAO": "Urbana", "CD_SIT": "1", "CD_TIPO": "0", "AREA_KM2": 0.36094739196609599, "CD_REGIAO": "2", "NM_REGIAO": "Nordeste", "CD_UF": "24", "NM_UF": "Rio Grande do Norte", "CD_MUN": "2408409", "NM_MUN": "Olho d'Água do Borges", "CD_DIST": "240840905", "NM_DIST": "Olho d'Água do Borges", "CD_SUBDIST": "24084090500", "NM_SUBDIST": null, "CD_BAIRRO": null, "NM_BAIRRO": null, "CD_NU": null, "NM_NU": null, "CD_FCU": null, "NM_FCU": null, "CD_AGLOM": null, "NM_AGLOM": null, "CD_RGINT": "2403", "NM_RGINT": "Mossoró", "CD_RGI": "240010", "NM_RGI": "Pau dos Ferros", "CD_CONCURB": null, "NM_CONCURB": null, "mun_code_x": "2408409", "index_right": 66572, "dist_m": 0.0, "local_id": 230875, "ano": 2022, "cod_localidade_ibge": 2408409, "NR_ZONA": "39", "nr_cep": 59730000.0, "nm_localidade": "OLHO DÁGUA DO BORGES", "nm_locvot": "UNIDADE PRÓ INFÂNCIA PROFESSORA RITA FIRMO  DE SOUZA", "ds_endereco": "RUA JOSÉ DIAS SALES - CONJUNTO JOAQUIM TAVARES", "ds_bairro": "CENTRO", "pred_long": -37.69991, "pred_lat": -5.958954, "pred_dist": 0.0, "tse_long": -37.69988814, "tse_lat": -5.95890728, "long": -37.69988814, "lat": -5.95890728, "ID_UNICO": "LOC_022626", "SG_UF": "RN", "CD_MUNICIPIO": "17671", "NR_LOCAL_VOTACAO": "1112", "QT_SECOES_AGREGADAS": 0, "QT_ELEITORES_TRANSFERIDOS": 0, "CIRO GOMES (PDT) (NÃO ELEITO) 1T": 41.0, "CONSTITUINTE EYMAEL (DC) (NÃO ELEITO) 1T": 0.0, "FELIPE D AVILA (NOVO) (NÃO ELEITO) 1T": 2.0, "JAIR BOLSONARO (PL) (2º TURNO) 1T": 181.0, "LULA (PT) (2º TURNO) 1T": 1043.0, "LÉO PÉRICLES (UP) (NÃO ELEITO) 1T": 1.0, "PADRE KELMON (PTB) (NÃO ELEITO) 1T": 1.0, "SIMONE TEBET (MDB) (NÃO ELEITO) 1T": 12.0, "SOFIA MANZANO (PCB) (NÃO ELEITO) 1T": 0.0, "SORAYA THRONICKE (UNIÃO) (NÃO ELEITO) 1T": 4.0, "VERA (PSTU) (NÃO ELEITO) 1T": 0.0, "Total_Votos_Validos 1T": 1285.0, "Votos_Brancos 1T": 23.0, "Votos_Nulos 1T": 38.0, "Abstenções 1T": 276.0, "Eleitores_Aptos 1T": 1622.0, "JAIR BOLSONARO (PL) (NÃO ELEITO) 2T": 220.0, "LULA (PT) (ELEITO) 2T": 1060.0, "Total_Votos_Validos 2T": 1280.0, "Votos_Brancos 2T": 12.0, "Votos_Nulos 2T": 39.0, "Abstenções 2T": 291.0, "Eleitores_Aptos 2T": 1622.0, "mun_code_y": "2408409", "mun_code": "2408409" }, "geometry": { "type": "Polygon", "coordinates": [ [ [ 6807253.75920840818435, 9304096.250519329681993 ], [ 6806987.663713091984391, 9304206.445039147511125 ], [ 6806447.856874976307154, 9304236.04825166426599 ], [ 6806301.658811924979091, 9304262.443983644247055 ], [ 6806025.060655681416392, 9304230.148072415962815 ], [ 6805820.458758318796754, 9304146.854161899536848 ], [ 6805391.551176368258893, 9304058.356346342712641 ], [ 6804813.551209466531873, 9303970.64933143183589 ], [ 6804383.550736152566969, 9303979.451151039451361 ], [ 6804164.151198130100965, 9303924.848265130072832 ], [ 6804107.044759433716536, 9303885.852869549766183 ], [ 6803957.743854943662882, 9304039.754417885094881 ], [ 6803691.540784263052046, 9304144.952855596318841 ], [ 6803519.440127269364893, 9304134.758703839033842 ], [ 6803552.649971485137939, 9304404.154767015948892 ], [ 6803597.747528217732906, 9304603.358939113095403 ], [ 6803664.244816879741848, 9304779.457343645393848 ], [ 6803664.342459434643388, 9304944.251868160441518 ], [ 6803624.345341845415533, 9305096.654448185116053 ], [ 6803639.185220737010241, 9305353.792840028181672 ], [ 6803595.944145293906331, 9305671.755759626626968 ], [ 6803594.951657761819661, 9305796.461947876960039 ], [ 6803539.942587318830192, 9306051.76356665045023 ], [ 6803550.250633125193417, 9306256.256749100983143 ], [ 6803604.847797313705087, 9306481.765787493437529 ], [ 6803610.252065527252853, 9306681.963585795834661 ], [ 6803567.750240446068347, 9306901.257907694205642 ], [ 6803579.247595622204244, 9307163.663348533213139 ], [ 6803507.846153412014246, 9307299.159149836748838 ], [ 6803368.152591725811362, 9307347.463325964286923 ], [ 6803312.353146135807037, 9307567.161816684529185 ], [ 6803335.553555706515908, 9307766.860952574759722 ], [ 6803299.051413507200778, 9307883.669881086796522 ], [ 6803184.75023309327662, 9307895.765995679423213 ], [ 6803149.354575937613845, 9308047.964626882225275 ], [ 6803189.250014930032194, 9308224.965079722926021 ], [ 6803318.351673292927444, 9308270.571926355361938 ], [ 6803395.852810620330274, 9308370.863975958898664 ], [ 6803376.456024267710745, 9308625.072579829022288 ], [ 6803439.447988349944353, 9308836.97315376624465 ], [ 6803443.74928973801434, 9308988.266648422926664 ], [ 6803349.35458399541676, 9309088.77397265098989 ], [ 6802874.354344508610666, 9309293.073628121986985 ], [ 6802741.448075503110886, 9309430.271190533414483 ], [ 6802744.047154922038317, 9309528.26900945045054 ], [ 6802669.748852405697107, 9309712.874709000810981 ], [ 6802707.55584510974586, 9309809.676378771662712 ], [ 6802669.249822206795216, 9309864.271257966756821 ], [ 6802550.353487389162183, 9309862.970393417403102 ], [ 6802487.850273285992444, 9309998.174356438219547 ], [ 6802636.253860116936266, 9310162.674653666093946 ], [ 6802651.748947182670236, 9310271.475208459421992 ], [ 6802591.949616436846554, 9310369.771609058603644 ], [ 6802605.046372814103961, 9310546.070811757817864 ], [ 6802707.358116473071277, 9310635.676658188924193 ], [ 6802890.549274228513241, 9310941.970237663015723 ], [ 6803179.149732260033488, 9310992.872096374630928 ], [ 6803290.552883490920067, 9311116.070139290764928 ], [ 6803444.46906407456845, 9311241.610283337533474 ], [ 6803446.707488862797618, 9311555.675895603373647 ], [ 6803473.518479248508811, 9311839.009739553555846 ], [ 6803431.432709451764822, 9312035.319054909050465 ], [ 6803306.379112675786018, 9312359.978656087070704 ], [ 6803038.360142149031162, 9312560.879152139648795 ], [ 6802887.360407436266541, 9312846.28209612891078 ], [ 6803154.922060498036444, 9313404.1508684810251 ], [ 6803234.770609623752534, 9314136.512113869190216 ], [ 6803409.672660823911428, 9314141.784326499328017 ], [ 6803502.712397516705096, 9314200.089923448860645 ], [ 6803921.926942138001323, 9314187.165038350969553 ], [ 6803902.732591574080288, 9314590.349623000249267 ], [ 6803989.195621153339744, 9314598.212240530177951 ], [ 6803990.105882389470935, 9314629.443770807236433 ], [ 6803899.879050577059388, 9314630.024637890979648 ], [ 6803899.868309958837926, 9314630.416259014979005 ], [ 6803898.978918610140681, 9314673.255777010694146 ], [ 6804249.27551079262048, 9314672.856881348416209 ], [ 6804137.84727085288614, 9314786.703068315982819 ], [ 6803964.478286404162645, 9314868.321069641038775 ], [ 6803949.369918186217546, 9315113.620109954848886 ], [ 6804030.570292545482516, 9315246.190279407426715 ], [ 6803854.519644466228783, 9315477.038625130429864 ], [ 6803658.902267571538687, 9315430.349407529458404 ], [ 6802805.557538039982319, 9315187.037961589172482 ], [ 6802737.254046079702675, 9315083.807909648865461 ], [ 6802720.55021558329463, 9314942.64423113130033 ], [ 6802811.654761675745249, 9314771.33618595264852 ], [ 6801704.109194792807102, 9314648.18496922031045 ], [ 6801715.987624048255384, 9314243.586711671203375 ], [ 6801682.575090745463967, 9313967.014939235523343 ], [ 6801559.911690007895231, 9313712.401060180738568 ], [ 6801243.327388845384121, 9313580.170297184959054 ], [ 6801360.510108933784068, 9313320.00756623595953 ], [ 6801105.907388562336564, 9312973.48675250262022 ], [ 6800919.066464578732848, 9312669.399460775777698 ], [ 6800933.917709961533546, 9312393.827540468424559 ], [ 6800698.950858369469643, 9312265.208144970238209 ], [ 6800331.862413527444005, 9312210.140331942588091 ], [ 6800092.983708566986024, 9312138.335292020812631 ], [ 6799948.838942949660122, 9312091.449540950357914 ], [ 6799780.304103731177747, 9311991.835694827139378 ], [ 6799324.843837507069111, 9311788.610673755407333 ], [ 6798845.441153224557638, 9311470.585391413420439 ], [ 6798565.139663391746581, 9311539.147740768268704 ], [ 6798361.969930527731776, 9311469.491726446896791 ], [ 6797988.452052208594978, 9311285.096601659432054 ], [ 6798045.527055695652962, 9311536.956344479694963 ], [ 6797833.211887991055846, 9311627.549963101744652 ], [ 6797451.08933861926198, 9311651.14516057446599 ], [ 6797023.629042117856443, 9311897.985137457028031 ], [ 6796788.833482124842703, 9311886.293006140738726 ], [ 6796689.625016143545508, 9312085.493748420849442 ], [ 6796548.030830371193588, 9312821.895847206935287 ], [ 6796646.827087041921914, 9313131.789788991212845 ], [ 6796623.234782637096941, 9313212.896135289222002 ], [ 6796530.934069071896374, 9313383.490505643188953 ], [ 6796503.332192954607308, 9313559.09205206297338 ], [ 6796551.734492903575301, 9313678.598344583064318 ], [ 6796637.935653124935925, 9313750.291699012741446 ], [ 6796775.035426731221378, 9313820.497929025441408 ], [ 6796816.23239545058459, 9313906.691306993365288 ], [ 6796773.037857744842768, 9313978.49145863763988 ], [ 6796653.637367940507829, 9314102.594626052305102 ], [ 6796438.125924054533243, 9314249.693523962050676 ], [ 6796350.029640406370163, 9314339.598870605230331 ], [ 6796301.535992704331875, 9314454.800237249583006 ], [ 6796322.833351168781519, 9314528.301531106233597 ], [ 6796723.634449362754822, 9314782.998075816780329 ], [ 6796764.934408645145595, 9314875.89748240634799 ], [ 6796735.633735578507185, 9314984.196224695071578 ], [ 6796722.630088126286864, 9315226.605257425457239 ], [ 6796750.736387003213167, 9315319.904614485800266 ], [ 6796855.938711261376739, 9315384.200193528085947 ], [ 6797154.234387557953596, 9315426.702632155269384 ], [ 6797214.239343185909092, 9315498.897122748196125 ], [ 6797220.634420724585652, 9315733.895087644457817 ], [ 6797269.541766675189137, 9315873.402169542387128 ], [ 6797506.638771276921034, 9316042.003943413496017 ], [ 6797870.946892433799803, 9316156.39644562266767 ], [ 6798073.945878317579627, 9316541.60423231869936 ], [ 6798294.444845041260123, 9316770.09759783372283 ], [ 6798555.749737245962024, 9316879.596425311639905 ], [ 6800909.357197075150907, 9319925.908603474497795 ], [ 6800923.058873806148767, 9319943.505337402224541 ], [ 6810256.302066791802645, 9316280.470469878986478 ], [ 6809994.742124694399536, 9314899.429136259481311 ], [ 6809157.382480756379664, 9310480.860626151785254 ], [ 6807128.963069530203938, 9307616.660863248631358 ], [ 6807252.101359778083861, 9304143.068739393725991 ], [ 6807253.75920840818435, 9304096.250519329681993 ] ] ] } }
]
}
