{
"type": "FeatureCollection",
"name": "2410504",
"crs": { "type": "name", "properties": { "name": "urn:ogc:def:crs:EPSG::5880" } },
"features": [
{ "type": "Feature", "properties": { "lv_id": "LOC_022758", "id": 93250.0, "CD_SETOR": "241050405000002", "SITUACAO": "Urbana", "CD_SIT": "1", "CD_TIPO": "0", "AREA_KM2": 0.42597708392935302, "CD_REGIAO": "2", "NM_REGIAO": "Nordeste", "CD_UF": "24", "NM_UF": "Rio Grande do Norte", "CD_MUN": "2410504", "NM_MUN": "Rafael Fernandes", "CD_DIST": "241050405", "NM_DIST": "Rafael Fernandes", "CD_SUBDIST": "24105040500", "NM_SUBDIST": null, "CD_BAIRRO": null, "NM_BAIRRO": null, "CD_NU": null, "NM_NU": null, "CD_FCU": null, "NM_FCU": null, "CD_AGLOM": "241050400002", "NM_AGLOM": "Sítio Cacimbas", "CD_RGINT": "2403", "NM_RGINT": "Mossoró", "CD_RGI": "240010", "NM_RGI": "Pau dos Ferros", "CD_CONCURB": null, "NM_CONCURB": null, "mun_code_x": "2410504", "index_right": 66730, "dist_m": 9.968577837346869, "local_id": 232339, "ano": 2022, "cod_localidade_ibge": 2410504, "NR_ZONA": "65", "nr_cep": 59990000.0, "nm_localidade": "RAFAEL FERNANDES", "nm_locvot": "ESCOLA ESTADUAL MANO MARCELINO", "ds_endereco": "RUA JOSE MARTINS DE OLIVEIRA, 213", "ds_bairro": "CENTRO", "pred_long": -38.224995, "pred_lat": -6.194648, "pred_dist": 0.0, "tse_long": -38.2254717, "tse_lat": -6.1942383, "long": -38.2254717, "lat": -6.1942383, "ID_UNICO": "LOC_022758", "SG_UF": "RN", "CD_MUNICIPIO": "18090", "NR_LOCAL_VOTACAO": "1040", "QT_SECOES_AGREGADAS": 0, "QT_ELEITORES_TRANSFERIDOS": 0, "CIRO GOMES (PDT) (NÃO ELEITO) 1T": 15.0, "CONSTITUINTE EYMAEL (DC) (NÃO ELEITO) 1T": 0.0, "FELIPE D AVILA (NOVO) (NÃO ELEITO) 1T": 0.0, "JAIR BOLSONARO (PL) (2º TURNO) 1T": 124.0, "LULA (PT) (2º TURNO) 1T": 705.0, "LÉO PÉRICLES (UP) (NÃO ELEITO) 1T": 0.0, "PADRE KELMON (PTB) (NÃO ELEITO) 1T": 0.0, "SIMONE TEBET (MDB) (NÃO ELEITO) 1T": 5.0, "SOFIA MANZANO (PCB) (NÃO ELEITO) 1T": 1.0, "SORAYA THRONICKE (UNIÃO) (NÃO ELEITO) 1T": 0.0, "VERA (PSTU) (NÃO ELEITO) 1T": 0.0, "Total_Votos_Validos 1T": 850.0, "Votos_Brancos 1T": 8.0, "Votos_Nulos 1T": 34.0, "Abstenções 1T": 171.0, "Eleitores_Aptos 1T": 1063.0, "JAIR BOLSONARO (PL) (NÃO ELEITO) 2T": 135.0, "LULA (PT) (ELEITO) 2T": 740.0, "Total_Votos_Validos 2T": 875.0, "Votos_Brancos 2T": 5.0, "Votos_Nulos 2T": 27.0, "Abstenções 2T": 156.0, "Eleitores_Aptos 2T": 1063.0, "mun_code_y": "2410504", "mun_code": "2410504" }, "geometry": { "type": "Polygon", "coordinates": [ [ [ 6741949.130641156807542, 9283795.324330450966954 ], [ 6741516.988438254222274, 9285180.858219800516963 ], [ 6741475.239584347233176, 9285314.729680119082332 ], [ 6741473.858384341001511, 9285315.574374116957188 ], [ 6740332.531904993578792, 9286018.128566898405552 ], [ 6741117.242942716926336, 9287531.33464677631855 ], [ 6740506.636004641652107, 9288868.838934576138854 ], [ 6741038.741977440193295, 9290409.244747865945101 ], [ 6740673.238928413949907, 9290660.645294040441513 ], [ 6739854.438814827241004, 9290805.143288379535079 ], [ 6743058.256967785768211, 9292689.940127052366734 ], [ 6744169.799228149466217, 9292650.68210381641984 ], [ 6744193.558951297774911, 9292649.842368952929974 ], [ 6744479.461084671318531, 9292639.741572519764304 ], [ 6747723.981636450625956, 9293496.232559660449624 ], [ 6749085.086208153516054, 9292850.533062333241105 ], [ 6751405.789432689547539, 9291732.123591857030988 ], [ 6751936.491292678751051, 9291153.517039410769939 ], [ 6752508.797635084018111, 9290412.818425185978413 ], [ 6752655.589732056483626, 9289997.820253575220704 ], [ 6752642.989156052470207, 9289855.217723913490772 ], [ 6752401.095039657317102, 9289779.716507775709033 ], [ 6752220.793711150065064, 9289633.017644241452217 ], [ 6752161.986905528232455, 9289561.11197392269969 ], [ 6752141.290945433080196, 9289292.912789231166244 ], [ 6751748.78704381454736, 9288957.413005512207747 ], [ 6751483.581558113917708, 9288822.31516881659627 ], [ 6750156.88219778239727, 9287870.617682449519634 ], [ 6749013.67016339302063, 9286059.316489329561591 ], [ 6748972.867414269596338, 9285994.718967474997044 ], [ 6748925.219773615710437, 9285973.890693739056587 ], [ 6746013.456958404742181, 9284701.413088265806437 ], [ 6744742.652595285326242, 9283991.019986089318991 ], [ 6742769.035533904097974, 9282887.722236167639494 ], [ 6742779.235728656873107, 9283141.722747154533863 ], [ 6741949.130641156807542, 9283795.324330450966954 ] ] ] } }
]
}
