{
"type": "FeatureCollection",
"name": "2410306",
"crs": { "type": "name", "properties": { "name": "urn:ogc:def:crs:EPSG::5880" } },
"features": [
{ "type": "Feature", "properties": { "lv_id": "LOC_022746", "id": 93203.0, "CD_SETOR": "241030605000001", "SITUACAO": "Urbana", "CD_SIT": "1", "CD_TIPO": "0", "AREA_KM2": 0.29927672806292499, "CD_REGIAO": "2", "NM_REGIAO": "Nordeste", "CD_UF": "24", "NM_UF": "Rio Grande do Norte", "CD_MUN": "2410306", "NM_MUN": "Serra Caiada", "CD_DIST": "241030605", "NM_DIST": "Serra Caiada", "CD_SUBDIST": "24103060500", "NM_SUBDIST": null, "CD_BAIRRO": null, "NM_BAIRRO": null, "CD_NU": null, "NM_NU": null, "CD_FCU": null, "NM_FCU": null, "CD_AGLOM": "241030600001", "NM_AGLOM": "Agrovila do PA Três Corações", "CD_RGINT": "2401", "NM_RGINT": "Natal", "CD_RGI": "240002", "NM_RGI": "Santo Antônio - Passa e Fica - Nova Cruz", "CD_CONCURB": null, "NM_CONCURB": null, "mun_code_x": "2410306", "index_right": 66717, "dist_m": 0.0, "local_id": 232217, "ano": 2022, "cod_localidade_ibge": 2410306, "NR_ZONA": "53", "nr_cep": 59245000.0, "nm_localidade": "SERRA CAIADA", "nm_locvot": "ESCOLA MUNICIPAL FRANCISCO HERMÍNIO FERREIRA DA SILVA", "ds_endereco": "RUA JOÃO CAMILO DE ANDRADE, 165", "ds_bairro": "CENTRO", "pred_long": -35.71043, "pred_lat": -6.10557, "pred_dist": 0.0, "tse_long": -35.71041056, "tse_lat": -6.1054397, "long": -35.71041056, "lat": -6.1054397, "ID_UNICO": "LOC_022746", "SG_UF": "RN", "CD_MUNICIPIO": "18058", "NR_LOCAL_VOTACAO": "1074", "QT_SECOES_AGREGADAS": 0, "QT_ELEITORES_TRANSFERIDOS": 0, "CIRO GOMES (PDT) (NÃO ELEITO) 1T": 36.0, "CONSTITUINTE EYMAEL (DC) (NÃO ELEITO) 1T": 0.0, "FELIPE D AVILA (NOVO) (NÃO ELEITO) 1T": 1.0, "JAIR BOLSONARO (PL) (2º TURNO) 1T": 369.0, "LULA (PT) (2º TURNO) 1T": 1006.0, "LÉO PÉRICLES (UP) (NÃO ELEITO) 1T": 0.0, "PADRE KELMON (PTB) (NÃO ELEITO) 1T": 0.0, "SIMONE TEBET (MDB) (NÃO ELEITO) 1T": 20.0, "SOFIA MANZANO (PCB) (NÃO ELEITO) 1T": 1.0, "SORAYA THRONICKE (UNIÃO) (NÃO ELEITO) 1T": 1.0, "VERA (PSTU) (NÃO ELEITO) 1T": 0.0, "Total_Votos_Validos 1T": 1434.0, "Votos_Brancos 1T": 12.0, "Votos_Nulos 1T": 42.0, "Abstenções 1T": 383.0, "Eleitores_Aptos 1T": 1871.0, "JAIR BOLSONARO (PL) (NÃO ELEITO) 2T": 418.0, "LULA (PT) (ELEITO) 2T": 1048.0, "Total_Votos_Validos 2T": 1466.0, "Votos_Brancos 2T": 10.0, "Votos_Nulos 2T": 31.0, "Abstenções 2T": 364.0, "Eleitores_Aptos 2T": 1871.0, "mun_code_y": "2410306", "mun_code": "2410306" }, "geometry": { "type": "MultiPolygon", "coordinates": [ [ [ [ 7021566.975849512964487, 9286285.632352421060205 ], [ 7021560.104239493608475, 9286286.134240927174687 ], [ 7015216.287001132033765, 9286751.075025083497167 ], [ 7013171.233990523964167, 9286900.780829718336463 ], [ 7011827.226216157898307, 9288142.779800035059452 ], [ 7011463.8671994805336, 9294022.29629684984684 ], [ 7011767.733836819417775, 9294535.246363578364253 ], [ 7011847.840071474201977, 9294670.475282050669193 ], [ 7011886.565297236666083, 9294643.775472210720181 ], [ 7021644.759503846056759, 9286400.585728019475937 ], [ 7021674.393501722253859, 9286430.542980875819921 ], [ 7021939.753295198082924, 9286773.247000336647034 ], [ 7022145.145735859870911, 9287056.378900764510036 ], [ 7022381.00017443485558, 9287349.660646570846438 ], [ 7022571.037474239245057, 9287667.771727278828621 ], [ 7022782.437425904907286, 9288113.830104261636734 ], [ 7022981.206355543807149, 9288388.664434988051653 ], [ 7023047.971161061897874, 9288474.419690111652017 ], [ 7023143.835685424506664, 9288712.456497747451067 ], [ 7023228.537678368389606, 9289139.51244062371552 ], [ 7023299.595715747214854, 9289345.02015957608819 ], [ 7023353.26063041575253, 9289436.212227787822485 ], [ 7023382.565440639853477, 9289489.833277706056833 ], [ 7023190.701596103608608, 9289659.13820162974298 ], [ 7023429.364206223748624, 9290456.664018174633384 ], [ 7023554.796320895664394, 9290712.717353045940399 ], [ 7023817.692658851854503, 9290617.528338024392724 ], [ 7023858.056552674621344, 9290731.068582175299525 ], [ 7023926.896857546642423, 9290710.374055096879601 ], [ 7023942.913203002884984, 9290778.051554571837187 ], [ 7024014.091848807409406, 9290752.092427738010883 ], [ 7024076.204657373949885, 9290736.230005254969001 ], [ 7024150.192726448178291, 9290732.043740952387452 ], [ 7024177.772203108295798, 9290747.674528704956174 ], [ 7024218.043242316693068, 9290806.37943753041327 ], [ 7024247.148888578638434, 9290836.200570372864604 ], [ 7024268.614482086151838, 9290867.408883225172758 ], [ 7024617.620370786637068, 9290626.636447722092271 ], [ 7024765.156859459355474, 9290748.620756015181541 ], [ 7024787.840688548050821, 9290763.243791693821549 ], [ 7024937.74539258889854, 9290877.219980960711837 ], [ 7025100.506447907537222, 9291007.37539685331285 ], [ 7025169.627265292219818, 9291086.240637497976422 ], [ 7025209.820846660993993, 9291099.851147657260299 ], [ 7025312.83335330709815, 9291391.975101355463266 ], [ 7025359.227564828470349, 9291566.418035225942731 ], [ 7025391.094179421663284, 9291686.255210094153881 ], [ 7025468.847816150635481, 9292106.856521490961313 ], [ 7025600.074665016494691, 9292506.743137408047915 ], [ 7025943.725516241043806, 9292888.904447808861732 ], [ 7028291.663336222991347, 9292008.017876219004393 ], [ 7028749.944675881415606, 9291814.862550744786859 ], [ 7029689.914782193489373, 9291414.1619544159621 ], [ 7029823.397875018417835, 9291305.250087309628725 ], [ 7030106.337463682517409, 9291100.158642884343863 ], [ 7030389.091619196347892, 9290866.818443648517132 ], [ 7030666.141838429495692, 9290700.384868605062366 ], [ 7030874.008173638023436, 9290482.944636834785342 ], [ 7031148.361790521070361, 9290130.895118759945035 ], [ 7031348.263833338394761, 9290013.396189492195845 ], [ 7031452.298557229340076, 9289946.150087330490351 ], [ 7031946.293516010046005, 9289907.831820717081428 ], [ 7032098.449627607129514, 9289958.724010717123747 ], [ 7032421.787279506213963, 9290063.733747288584709 ], [ 7032816.859890708699822, 9290207.320806998759508 ], [ 7033488.000989673659205, 9290415.27175222709775 ], [ 7034082.750954493880272, 9290575.528698293492198 ], [ 7034504.375981111079454, 9290719.141285967081785 ], [ 7034579.261129042133689, 9290688.216482199728489 ], [ 7034708.652511794120073, 9290600.970616089180112 ], [ 7034794.189495698548853, 9290555.455357350409031 ], [ 7035400.619310474954545, 9290185.785954371094704 ], [ 7035460.996209203265607, 9290632.434693625196815 ], [ 7036293.499713188037276, 9290507.74169415794313 ], [ 7035569.688414842821658, 9289916.895659236237407 ], [ 7035233.734723309054971, 9289642.670750800520182 ], [ 7034778.708474447019398, 9289271.265691787004471 ], [ 7033303.842138767242432, 9288067.522488981485367 ], [ 7033013.379449704661965, 9287830.474482474848628 ], [ 7032980.37684937287122, 9287803.538189502432942 ], [ 7032851.532478341832757, 9287698.38374038040638 ], [ 7031621.598476766608655, 9286694.717564970254898 ], [ 7031610.183278737589717, 9286614.312402728945017 ], [ 7031487.86313467938453, 9285752.788807168602943 ], [ 7031361.951888784766197, 9284611.967762522399426 ], [ 7030552.854101712815464, 9282898.575037816539407 ], [ 7030108.509304586797953, 9281957.718183394521475 ], [ 7029142.744990766979754, 9282317.415923129767179 ], [ 7027004.442723553627729, 9283113.638854237273335 ], [ 7022765.918874310329556, 9282299.155323097482324 ], [ 7022649.567859491333365, 9282686.16271260753274 ], [ 7022057.22803988493979, 9284655.969459678977728 ], [ 7021566.975849512964487, 9286285.632352421060205 ] ] ], [ [ [ 7020268.271924237720668, 9289539.941456520929933 ], [ 7020318.070676728151739, 9289308.060878166928887 ], [ 7019538.303090445697308, 9288880.256382105872035 ], [ 7019462.941108778119087, 9288936.703228192403913 ], [ 7019770.874018894508481, 9289407.997526666149497 ], [ 7020268.271924237720668, 9289539.941456520929933 ] ] ] ] } },
{ "type": "Feature", "properties": { "lv_id": "LOC_022747", "id": 93205.0, "CD_SETOR": "241030605000003", "SITUACAO": "Urbana", "CD_SIT": "1", "CD_TIPO": "0", "AREA_KM2": 0.14799512325155201, "CD_REGIAO": "2", "NM_REGIAO": "Nordeste", "CD_UF": "24", "NM_UF": "Rio Grande do Norte", "CD_MUN": "2410306", "NM_MUN": "Serra Caiada", "CD_DIST": "241030605", "NM_DIST": "Serra Caiada", "CD_SUBDIST": "24103060500", "NM_SUBDIST": null, "CD_BAIRRO": null, "NM_BAIRRO": null, "CD_NU": null, "NM_NU": null, "CD_FCU": null, "NM_FCU": null, "CD_AGLOM": "241030600002", "NM_AGLOM": "Agrovila do PA Potengi", "CD_RGINT": "2401", "NM_RGINT": "Natal", "CD_RGI": "240002", "NM_RGI": "Santo Antônio - Passa e Fica - Nova Cruz", "CD_CONCURB": null, "NM_CONCURB": null, "mun_code_x": "2410306", "index_right": 66718, "dist_m": 13.674778613587449, "local_id": 232218, "ano": 2022, "cod_localidade_ibge": 2410306, "NR_ZONA": "53", "nr_cep": 59245000.0, "nm_localidade": "SERRA CAIADA", "nm_locvot": "ESCOLA MUNICIPAL EUCLIDES LINS DE OLIVEIRA", "ds_endereco": "AV. EUCLIDES LINS DE OLIVEIRA, S/N", "ds_bairro": "B. DA SAUDADE", "pred_long": -35.711266, "pred_lat": -6.099941, "pred_dist": 0.0, "tse_long": -35.7112383, "tse_lat": -6.09985861, "long": -35.7112383, "lat": -6.09985861, "ID_UNICO": "LOC_022747", "SG_UF": "RN", "CD_MUNICIPIO": "18058", "NR_LOCAL_VOTACAO": "1058", "QT_SECOES_AGREGADAS": 0, "QT_ELEITORES_TRANSFERIDOS": 4, "CIRO GOMES (PDT) (NÃO ELEITO) 1T": 54.0, "CONSTITUINTE EYMAEL (DC) (NÃO ELEITO) 1T": 1.0, "FELIPE D AVILA (NOVO) (NÃO ELEITO) 1T": 0.0, "JAIR BOLSONARO (PL) (2º TURNO) 1T": 626.0, "LULA (PT) (2º TURNO) 1T": 1748.0, "LÉO PÉRICLES (UP) (NÃO ELEITO) 1T": 0.0, "PADRE KELMON (PTB) (NÃO ELEITO) 1T": 1.0, "SIMONE TEBET (MDB) (NÃO ELEITO) 1T": 23.0, "SOFIA MANZANO (PCB) (NÃO ELEITO) 1T": 0.0, "SORAYA THRONICKE (UNIÃO) (NÃO ELEITO) 1T": 3.0, "VERA (PSTU) (NÃO ELEITO) 1T": 0.0, "Total_Votos_Validos 1T": 2456.0, "Votos_Brancos 1T": 17.0, "Votos_Nulos 1T": 71.0, "Abstenções 1T": 488.0, "Eleitores_Aptos 1T": 3032.0, "JAIR BOLSONARO (PL) (NÃO ELEITO) 2T": 672.0, "LULA (PT) (ELEITO) 2T": 1819.0, "Total_Votos_Validos 2T": 2491.0, "Votos_Brancos 2T": 18.0, "Votos_Nulos 2T": 50.0, "Abstenções 2T": 473.0, "Eleitores_Aptos 2T": 3032.0, "mun_code_y": "2410306", "mun_code": "2410306" }, "geometry": { "type": "Polygon", "coordinates": [ [ [ 7024247.148888578638434, 9290836.200570372864604 ], [ 7024218.043242316693068, 9290806.37943753041327 ], [ 7024177.772203108295798, 9290747.674528704956174 ], [ 7024150.192726448178291, 9290732.043740952387452 ], [ 7024076.204657373949885, 9290736.230005254969001 ], [ 7024014.091848807409406, 9290752.092427738010883 ], [ 7023942.913203002884984, 9290778.051554571837187 ], [ 7023926.896857546642423, 9290710.374055096879601 ], [ 7023858.056552674621344, 9290731.068582175299525 ], [ 7023817.692658851854503, 9290617.528338024392724 ], [ 7023554.796320895664394, 9290712.717353045940399 ], [ 7023429.364206223748624, 9290456.664018174633384 ], [ 7023190.701596103608608, 9289659.13820162974298 ], [ 7023382.565440639853477, 9289489.833277706056833 ], [ 7023353.26063041575253, 9289436.212227787822485 ], [ 7023299.595715747214854, 9289345.02015957608819 ], [ 7023228.537678368389606, 9289139.51244062371552 ], [ 7023143.835685424506664, 9288712.456497747451067 ], [ 7023047.971161061897874, 9288474.419690111652017 ], [ 7022981.206355543807149, 9288388.664434988051653 ], [ 7022782.437425904907286, 9288113.830104261636734 ], [ 7022571.037474239245057, 9287667.771727278828621 ], [ 7022381.00017443485558, 9287349.660646570846438 ], [ 7022145.145735859870911, 9287056.378900764510036 ], [ 7021939.753295198082924, 9286773.247000336647034 ], [ 7021674.393501722253859, 9286430.542980875819921 ], [ 7021644.759503846056759, 9286400.585728019475937 ], [ 7011886.565297236666083, 9294643.775472210720181 ], [ 7011847.840071474201977, 9294670.475282050669193 ], [ 7013862.218585766851902, 9298071.613740710541606 ], [ 7014602.221165876835585, 9298133.654073476791382 ], [ 7016223.803933870978653, 9298269.605969436466694 ], [ 7016229.035505764186382, 9298270.046803310513496 ], [ 7016318.20420893188566, 9298277.521570432931185 ], [ 7016324.946269078180194, 9298278.086165901273489 ], [ 7016493.14299104642123, 9298292.189605789259076 ], [ 7016500.488608395680785, 9298287.202085727825761 ], [ 7016825.815792222507298, 9298066.269714081659913 ], [ 7017686.555270737968385, 9297481.704553373157978 ], [ 7018045.038384859450161, 9297238.220503941178322 ], [ 7020365.695162328891456, 9295661.670928899198771 ], [ 7023001.984895301051438, 9294151.387676317244768 ], [ 7025318.393486218526959, 9294385.186511915177107 ], [ 7025319.154171550646424, 9294385.079417955130339 ], [ 7026859.351744478568435, 9294178.281163426116109 ], [ 7026910.736301409080625, 9294171.380259679630399 ], [ 7026916.816032487899065, 9294169.686257662251592 ], [ 7035092.006147325970232, 9291894.340845683589578 ], [ 7035606.785798636265099, 9291750.963222412392497 ], [ 7035632.858639383688569, 9291743.711723119020462 ], [ 7035700.750110321678221, 9291724.798380490392447 ], [ 7035885.956589813344181, 9291673.211837263777852 ], [ 7035994.0055180080235, 9291638.02738044783473 ], [ 7036700.922110229730606, 9291407.855769472196698 ], [ 7037162.707144233398139, 9291217.321895966306329 ], [ 7036293.499713188037276, 9290507.74169415794313 ], [ 7035460.996209203265607, 9290632.434693625196815 ], [ 7035400.619310474954545, 9290185.785954371094704 ], [ 7034794.189495698548853, 9290555.455357350409031 ], [ 7034708.652511794120073, 9290600.970616089180112 ], [ 7034579.261129042133689, 9290688.216482199728489 ], [ 7034504.375981111079454, 9290719.141285967081785 ], [ 7034082.750954493880272, 9290575.528698293492198 ], [ 7033488.000989673659205, 9290415.27175222709775 ], [ 7032816.859890708699822, 9290207.320806998759508 ], [ 7032421.787279506213963, 9290063.733747288584709 ], [ 7032098.449627607129514, 9289958.724010717123747 ], [ 7031946.293516010046005, 9289907.831820717081428 ], [ 7031452.298557229340076, 9289946.150087330490351 ], [ 7031348.263833338394761, 9290013.396189492195845 ], [ 7031148.361790521070361, 9290130.895118759945035 ], [ 7030874.008173638023436, 9290482.944636834785342 ], [ 7030666.141838429495692, 9290700.384868605062366 ], [ 7030389.091619196347892, 9290866.818443648517132 ], [ 7030106.337463682517409, 9291100.158642884343863 ], [ 7029823.397875018417835, 9291305.250087309628725 ], [ 7029689.914782193489373, 9291414.1619544159621 ], [ 7028749.944675881415606, 9291814.862550744786859 ], [ 7028291.663336222991347, 9292008.017876219004393 ], [ 7025943.725516241043806, 9292888.904447808861732 ], [ 7025600.074665016494691, 9292506.743137408047915 ], [ 7025468.847816150635481, 9292106.856521490961313 ], [ 7025391.094179421663284, 9291686.255210094153881 ], [ 7025359.227564828470349, 9291566.418035225942731 ], [ 7025312.83335330709815, 9291391.975101355463266 ], [ 7025209.820846660993993, 9291099.851147657260299 ], [ 7025169.627265292219818, 9291086.240637497976422 ], [ 7025100.506447907537222, 9291007.37539685331285 ], [ 7024937.74539258889854, 9290877.219980960711837 ], [ 7024787.840688548050821, 9290763.243791693821549 ], [ 7024765.156859459355474, 9290748.620756015181541 ], [ 7024617.620370786637068, 9290626.636447722092271 ], [ 7024268.614482086151838, 9290867.408883225172758 ], [ 7024247.148888578638434, 9290836.200570372864604 ] ], [ [ 7019462.941108778119087, 9288936.703228192403913 ], [ 7019538.303090445697308, 9288880.256382105872035 ], [ 7020318.070676728151739, 9289308.060878166928887 ], [ 7020268.271924237720668, 9289539.941456520929933 ], [ 7019770.874018894508481, 9289407.997526666149497 ], [ 7019462.941108778119087, 9288936.703228192403913 ] ] ] } }
]
}
