{
"type": "FeatureCollection",
"name": "2414704",
"crs": { "type": "name", "properties": { "name": "urn:ogc:def:crs:EPSG::5880" } },
"features": [
{ "type": "Feature", "properties": { "lv_id": "LOC_022952", "id": 94395.0, "CD_SETOR": "241470405000001", "SITUACAO": "Urbana", "CD_SIT": "1", "CD_TIPO": "0", "AREA_KM2": 0.078762998387870001, "CD_REGIAO": "2", "NM_REGIAO": "Nordeste", "CD_UF": "24", "NM_UF": "Rio Grande do Norte", "CD_MUN": "2414704", "NM_MUN": "Várzea", "CD_DIST": "241470405", "NM_DIST": "Várzea", "CD_SUBDIST": "24147040500", "NM_SUBDIST": null, "CD_BAIRRO": null, "NM_BAIRRO": null, "CD_NU": null, "NM_NU": null, "CD_FCU": null, "NM_FCU": null, "CD_AGLOM": "241470400001", "NM_AGLOM": "Tabocas", "CD_RGINT": "2401", "NM_RGINT": "Natal", "CD_RGI": "240002", "NM_RGI": "Santo Antônio - Passa e Fica - Nova Cruz", "CD_CONCURB": null, "NM_CONCURB": null, "mun_code_x": "2414704", "index_right": 66975, "dist_m": 13.266731263568797, "local_id": 234751, "ano": 2022, "cod_localidade_ibge": 2414704, "NR_ZONA": "13", "nr_cep": 59183000.0, "nm_localidade": "VÁRZEA", "nm_locvot": "ESCOLA ESTADUAL DOM JOAQUIM DE ALMEIDA", "ds_endereco": "RUA DOM JOAQUIM DE ALMEIDA, S/N", "ds_bairro": "CENTRO", "pred_long": -35.375059, "pred_lat": -6.347462, "pred_dist": 0.0, "tse_long": -35.37511515, "tse_lat": -6.34747669, "long": -35.37511515, "lat": -6.34747669, "ID_UNICO": "LOC_022952", "SG_UF": "RN", "CD_MUNICIPIO": "18910", "NR_LOCAL_VOTACAO": "1023", "QT_SECOES_AGREGADAS": 0, "QT_ELEITORES_TRANSFERIDOS": 8, "CIRO GOMES (PDT) (NÃO ELEITO) 1T": 72.0, "CONSTITUINTE EYMAEL (DC) (NÃO ELEITO) 1T": 0.0, "FELIPE D AVILA (NOVO) (NÃO ELEITO) 1T": 0.0, "JAIR BOLSONARO (PL) (2º TURNO) 1T": 689.0, "LULA (PT) (2º TURNO) 1T": 1445.0, "LÉO PÉRICLES (UP) (NÃO ELEITO) 1T": 0.0, "PADRE KELMON (PTB) (NÃO ELEITO) 1T": 1.0, "SIMONE TEBET (MDB) (NÃO ELEITO) 1T": 20.0, "SOFIA MANZANO (PCB) (NÃO ELEITO) 1T": 0.0, "SORAYA THRONICKE (UNIÃO) (NÃO ELEITO) 1T": 3.0, "VERA (PSTU) (NÃO ELEITO) 1T": 0.0, "Total_Votos_Validos 1T": 2230.0, "Votos_Brancos 1T": 21.0, "Votos_Nulos 1T": 64.0, "Abstenções 1T": 391.0, "Eleitores_Aptos 1T": 2706.0, "JAIR BOLSONARO (PL) (NÃO ELEITO) 2T": 777.0, "LULA (PT) (ELEITO) 2T": 1440.0, "Total_Votos_Validos 2T": 2217.0, "Votos_Brancos 2T": 15.0, "Votos_Nulos 2T": 50.0, "Abstenções 2T": 424.0, "Eleitores_Aptos 2T": 2706.0, "mun_code_y": "2414704", "mun_code": "2414704" }, "geometry": { "type": "Polygon", "coordinates": [ [ [ 7067254.6402986664325, 9254343.735451990738511 ], [ 7065709.639837194234133, 9255090.739249400794506 ], [ 7065665.774931123480201, 9255096.177699659019709 ], [ 7064260.228503154590726, 9255270.342498388141394 ], [ 7063785.926689919084311, 9254368.549429465085268 ], [ 7063636.819026254117489, 9254221.547936264425516 ], [ 7063482.725958553142846, 9254245.740352608263493 ], [ 7063188.122173984535038, 9254181.344165110960603 ], [ 7062900.823001657612622, 9254004.748765375465155 ], [ 7062742.315195786766708, 9253843.441804442554712 ], [ 7062291.312021764926612, 9253929.445333819836378 ], [ 7062148.399896920658648, 9253956.723757481202483 ], [ 7062111.182124803774059, 9253963.830354522913694 ], [ 7061723.84045322984457, 9254037.750978156924248 ], [ 7060243.908064235933125, 9254320.149150812998414 ], [ 7058835.602064976468682, 9256119.766582792624831 ], [ 7056333.594882387667894, 9257255.067023929208517 ], [ 7056933.100595566444099, 9259750.376587865874171 ], [ 7057443.214260349981487, 9261873.076172642409801 ], [ 7058332.412856942042708, 9263199.678138680756092 ], [ 7058866.617935035377741, 9263996.683385437354445 ], [ 7061140.139705214649439, 9269208.789924932643771 ], [ 7062520.45750429853797, 9272372.902963675558567 ], [ 7063528.070587115362287, 9275241.604882132261992 ], [ 7063091.659078823402524, 9272831.299280704930425 ], [ 7062493.545717220753431, 9269530.68989691324532 ], [ 7062479.213580426760018, 9269489.41732619702816 ], [ 7062459.355174289084971, 9269432.290086379274726 ], [ 7062328.645322367548943, 9269314.890455491840839 ], [ 7062258.052991246804595, 9269281.188077587634325 ], [ 7062192.752833010628819, 9269220.891227662563324 ], [ 7062152.248065883293748, 9269156.287763154134154 ], [ 7062120.149921284988523, 9269061.391483908519149 ], [ 7062084.742712296545506, 9269042.791691953316331 ], [ 7062084.251493339426816, 9268949.985637847334146 ], [ 7062063.752234072424471, 9268907.792199427261949 ], [ 7061972.145421385765076, 9268825.090779384598136 ], [ 7061942.761777821928263, 9268771.391237653791904 ], [ 7061938.443563415668905, 9268763.484561687335372 ], [ 7061938.443775992840528, 9268607.587684897705913 ], [ 7061887.040923145599663, 9268583.093735398724675 ], [ 7061863.649584507569671, 9268547.491896867752075 ], [ 7061858.241400330327451, 9268491.389900600537658 ], [ 7061871.445916119031608, 9268344.889003444463015 ], [ 7061818.950117678381503, 9268131.493341725319624 ], [ 7061816.449677135795355, 9268065.189137870445848 ], [ 7061848.345628265291452, 9267997.484365459531546 ], [ 7061872.546378189697862, 9267973.384135769680142 ], [ 7061880.344888320192695, 9267929.892155207693577 ], [ 7061866.149253509938717, 9267890.690166233107448 ], [ 7061814.547744339331985, 9267859.589066956192255 ], [ 7061755.241584182716906, 9267795.682637272402644 ], [ 7061714.341973469592631, 9267797.292028859257698 ], [ 7061675.73890058323741, 9267782.2911934312433 ], [ 7061505.436777626164258, 9267613.283975303173065 ], [ 7061500.346587585285306, 9267563.787676326930523 ], [ 7061536.441593134775758, 9267439.686262281611562 ], [ 7061443.039959727786481, 9267231.086207911372185 ], [ 7061437.936232589185238, 9267178.387462310492992 ], [ 7061445.442494055256248, 9267128.185747947543859 ], [ 7061477.438459945842624, 9267060.582033663988113 ], [ 7061456.94375691562891, 9267018.286418562754989 ], [ 7061451.439756854437292, 9266962.084325481206179 ], [ 7061570.139036587439477, 9266774.884309260174632 ], [ 7061565.04316284134984, 9266725.283352300524712 ], [ 7061522.841686927713454, 9266693.884748818352818 ], [ 7061409.440255418419838, 9266695.090830106288195 ], [ 7061344.93911318667233, 9266737.484684683382511 ], [ 7061296.944735453464091, 9266719.583048621192575 ], [ 7061285.338020078837872, 9266584.488229721784592 ], [ 7061355.734231017529964, 9266413.583903132006526 ], [ 7061622.336149113252759, 9266060.881510572507977 ], [ 7062003.145744314417243, 9265619.985949408262968 ], [ 7062111.936611843295395, 9265624.680345807224512 ], [ 7062228.239702025428414, 9265592.379067361354828 ], [ 7062438.546329727396369, 9265417.28399302251637 ], [ 7062563.24023743905127, 9265366.077700076624751 ], [ 7062930.246757508255541, 9265036.672480335459113 ], [ 7063274.245646553114057, 9264809.970111671835184 ], [ 7063458.347329750657082, 9264787.369940344244242 ], [ 7063649.7492780610919, 9264713.973650395870209 ], [ 7064014.248580876737833, 9264696.276501020416617 ], [ 7063534.945116233080626, 9262457.462454423308372 ], [ 7063481.641530070453882, 9262170.668218648061156 ], [ 7063497.324941040948033, 9262027.741273928433657 ], [ 7063502.24076927267015, 9261982.971904654055834 ], [ 7063591.637170523405075, 9261781.570685222744942 ], [ 7063692.840274549089372, 9261667.367778124287724 ], [ 7063660.44252098724246, 9261553.369814444333315 ], [ 7063656.433940578252077, 9261449.160875923931599 ], [ 7063618.738621002063155, 9261340.666086379438639 ], [ 7063635.236673257313669, 9261197.160420959815383 ], [ 7063603.339644121006131, 9261099.558997798711061 ], [ 7063661.835305547341704, 9260954.365958914160728 ], [ 7063613.038930165581405, 9260851.968223817646503 ], [ 7063599.139876062050462, 9260775.561182713136077 ], [ 7063634.735070083290339, 9260697.161485202610493 ], [ 7063618.332996625453234, 9260422.96029063500464 ], [ 7063583.589539974927902, 9260352.907981125637889 ], [ 7063548.83486804831773, 9260282.856287559494376 ], [ 7063532.409148105420172, 9260271.08863478526473 ], [ 7063411.237762691453099, 9260184.267395721748471 ], [ 7063422.22934652492404, 9260040.867294453084469 ], [ 7063462.934107961133122, 9259945.85749651491642 ], [ 7063418.433372209779918, 9259804.865982621908188 ], [ 7063358.329231193289161, 9259691.85970040038228 ], [ 7063449.133500454947352, 9259528.665517568588257 ], [ 7063483.238381955772638, 9259263.664093501865864 ], [ 7063519.729953949339688, 9259201.654935466125607 ], [ 7063780.235078191384673, 9259036.953989665955305 ], [ 7063840.836927125230432, 9259018.258529048413038 ], [ 7063860.536531250923872, 9258884.651456193998456 ], [ 7063866.633240599185228, 9258203.153704626485705 ], [ 7063883.636018932797015, 9258065.1579405721277 ], [ 7063750.129221436567605, 9257781.059291947633028 ], [ 7063758.633653606288135, 9257679.658938460052013 ], [ 7064001.83430253714323, 9257366.751221757382154 ], [ 7064083.130730926990509, 9257161.654642796143889 ], [ 7064109.534277508035302, 9257021.754706833511591 ], [ 7064989.827613849192858, 9256272.3541304115206 ], [ 7065577.736386858858168, 9255771.779850706458092 ], [ 7065753.159585669636726, 9255622.413604455068707 ], [ 7066639.527736481279135, 9254867.615316018462181 ], [ 7067254.6402986664325, 9254343.735451990738511 ] ] ] } }
]
}
