{
"type": "FeatureCollection",
"name": "2500502",
"crs": { "type": "name", "properties": { "name": "urn:ogc:def:crs:EPSG::5880" } },
"features": [
{ "type": "Feature", "properties": { "lv_id": "LOC_023012", "id": 94601.0, "CD_SETOR": "250050205000003", "SITUACAO": "Urbana", "CD_SIT": "1", "CD_TIPO": "0", "AREA_KM2": 0.202340775187976, "CD_REGIAO": "2", "NM_REGIAO": "Nordeste", "CD_UF": "25", "NM_UF": "Paraíba", "CD_MUN": "2500502", "NM_MUN": "Alagoinha", "CD_DIST": "250050205", "NM_DIST": "Alagoinha", "CD_SUBDIST": "25005020500", "NM_SUBDIST": null, "CD_BAIRRO": null, "NM_BAIRRO": null, "CD_NU": null, "NM_NU": null, "CD_FCU": null, "NM_FCU": null, "CD_AGLOM": "250050200001", "NM_AGLOM": "Agrovila do PA Senhor do Bomfim", "CD_RGINT": "2501", "NM_RGINT": "João Pessoa", "CD_RGI": "250002", "NM_RGI": "Guarabira", "CD_CONCURB": null, "NM_CONCURB": null, "mun_code_x": "2500502", "index_right": 47661, "dist_m": 0.0, "local_id": 235441, "ano": 2022, "cod_localidade_ibge": 2500502, "NR_ZONA": "9", "nr_cep": 58390000.0, "nm_localidade": "ALAGOINHA", "nm_locvot": "ESCOLA ESTADUAL ENSINO FUNDAMENTAL E MÉDIO AGENOR CLEMENTE DOS SANTOS", "ds_endereco": "PB 075", "ds_bairro": "CENTRO", "pred_long": -35.542252, "pred_lat": -6.9447642, "pred_dist": 0.0, "tse_long": -35.54209756, "tse_lat": -6.94480132, "long": -35.54209756, "lat": -6.94480132, "ID_UNICO": "LOC_023012", "SG_UF": "PB", "CD_MUNICIPIO": "19097", "NR_LOCAL_VOTACAO": "1074", "QT_SECOES_AGREGADAS": 0, "QT_ELEITORES_TRANSFERIDOS": 6, "CIRO GOMES (PDT) (NÃO ELEITO) 1T": 84.0, "CONSTITUINTE EYMAEL (DC) (NÃO ELEITO) 1T": 0.0, "FELIPE D AVILA (NOVO) (NÃO ELEITO) 1T": 4.0, "JAIR BOLSONARO (PL) (2º TURNO) 1T": 554.0, "LULA (PT) (2º TURNO) 1T": 2769.0, "LÉO PÉRICLES (UP) (NÃO ELEITO) 1T": 1.0, "PADRE KELMON (PTB) (NÃO ELEITO) 1T": 2.0, "SIMONE TEBET (MDB) (NÃO ELEITO) 1T": 49.0, "SOFIA MANZANO (PCB) (NÃO ELEITO) 1T": 2.0, "SORAYA THRONICKE (UNIÃO) (NÃO ELEITO) 1T": 13.0, "VERA (PSTU) (NÃO ELEITO) 1T": 1.0, "Total_Votos_Validos 1T": 3479.0, "Votos_Brancos 1T": 54.0, "Votos_Nulos 1T": 118.0, "Abstenções 1T": 795.0, "Eleitores_Aptos 1T": 4446.0, "JAIR BOLSONARO (PL) (NÃO ELEITO) 2T": 619.0, "LULA (PT) (ELEITO) 2T": 2811.0, "Total_Votos_Validos 2T": 3430.0, "Votos_Brancos 2T": 60.0, "Votos_Nulos 2T": 188.0, "Abstenções 2T": 768.0, "Eleitores_Aptos 2T": 4446.0, "mun_code_y": "2500502", "mun_code": "2500502" }, "geometry": { "type": "Polygon", "coordinates": [ [ [ 7039148.726720752194524, 9191608.963287884369493 ], [ 7039097.755116669461131, 9191515.539857439696789 ], [ 7039070.738335469737649, 9191477.493553606793284 ], [ 7039016.588983127847314, 9191434.408067654818296 ], [ 7039004.798368321731687, 9191438.103103887289762 ], [ 7038933.717657401226461, 9191433.335302604362369 ], [ 7038888.649471271783113, 9191431.509252896532416 ], [ 7038877.946367868222296, 9191434.149415181949735 ], [ 7038873.842322139069438, 9191629.250041270628572 ], [ 7038872.38302958663553, 9191684.03504465892911 ], [ 7038870.790293084457517, 9191755.815028715878725 ], [ 7038895.117644750513136, 9191816.309016851708293 ], [ 7038949.05760258063674, 9191893.453006600961089 ], [ 7038987.287411868572235, 9191942.745938127860427 ], [ 7038901.395417225547135, 9192017.207305109128356 ], [ 7038860.5349858738482, 9192055.909931968897581 ], [ 7038933.763925151899457, 9192153.900628017261624 ], [ 7038889.419782616198063, 9192190.876926500350237 ], [ 7038836.486052030697465, 9192119.185741100460291 ], [ 7038823.81274148914963, 9192077.077330883592367 ], [ 7038823.399663577787578, 9192070.053162476047873 ], [ 7038810.528755757957697, 9192051.924315975978971 ], [ 7038683.06354527361691, 9192136.138618726283312 ], [ 7038691.032107578590512, 9192170.051695842295885 ], [ 7038695.175994665361941, 9192208.337971778586507 ], [ 7038705.872216828167439, 9192316.014802515506744 ], [ 7038703.977529484778643, 9192326.596596578136086 ], [ 7038700.039812140166759, 9192338.119107460603118 ], [ 7038695.361330356448889, 9192345.318338261917233 ], [ 7038687.17419502697885, 9192351.862969659268856 ], [ 7038668.251841669902205, 9192358.197463773190975 ], [ 7038646.508040715008974, 9192362.186520354822278 ], [ 7038630.822909767739475, 9192374.213205670937896 ], [ 7038615.977351899258792, 9192388.813777003437281 ], [ 7038588.577758659608662, 9192412.305065749213099 ], [ 7038191.028548578731716, 9191971.898012977093458 ], [ 7038167.190673382952809, 9191858.952789336442947 ], [ 7038132.829183406196535, 9191856.312405800446868 ], [ 7038122.241979071870446, 9191855.922137290239334 ], [ 7038116.611984200775623, 9191855.606294892728329 ], [ 7038109.650416710413992, 9191855.749625258147717 ], [ 7038102.191944411024451, 9191855.912321818992496 ], [ 7038092.403215521946549, 9191857.888026786968112 ], [ 7038079.019115323200822, 9191858.677308473736048 ], [ 7038066.173698618076742, 9191860.248502004891634 ], [ 7038051.906002910807729, 9191864.52821715734899 ], [ 7038044.68694547843188, 9191867.474301973357797 ], [ 7038036.187773421406746, 9191870.202638003975153 ], [ 7038027.911838304251432, 9191872.119361333549023 ], [ 7038018.650743192061782, 9191874.877385415136814 ], [ 7038011.461173679679632, 9191878.881217023357749 ], [ 7038003.135269701480865, 9191886.12932651117444 ], [ 7037990.057167886756361, 9191894.90080901235342 ], [ 7037979.497064095921814, 9191903.294876910746098 ], [ 7037970.867191120050848, 9191908.960629362612963 ], [ 7037962.895642424933612, 9191912.471273384988308 ], [ 7037950.476996768265963, 9191918.540661513805389 ], [ 7037932.574957492761314, 9191926.964803447946906 ], [ 7037917.648091705515981, 9191933.667179014533758 ], [ 7037911.149157023057342, 9191935.782238764688373 ], [ 7037899.665331261232495, 9191939.69735505618155 ], [ 7037885.053444111719728, 9191947.981599472463131 ], [ 7037876.47351541928947, 9191955.239517571404576 ], [ 7037863.903297027572989, 9191963.99108506180346 ], [ 7037849.524077421054244, 9191971.998589375987649 ], [ 7037827.216287348419428, 9191984.061884239315987 ], [ 7037783.481360018253326, 9192005.198458960279822 ], [ 7037751.861163339577615, 9192018.68337538652122 ], [ 7037730.537233952432871, 9192030.161294968798757 ], [ 7037711.853476269170642, 9192037.812746081501245 ], [ 7037693.971353472210467, 9192046.759470151737332 ], [ 7037682.071246379055083, 9192053.087711026892066 ], [ 7037667.987684387713671, 9192061.886416865512729 ], [ 7037662.087584047578275, 9192066.642734255641699 ], [ 7037655.26490818336606, 9192073.29677271284163 ], [ 7037632.987854167819023, 9192099.729202043265104 ], [ 7037607.492952338419855, 9192127.613429326564074 ], [ 7037591.714100589975715, 9192145.274969419464469 ], [ 7037580.686796559020877, 9192154.757396383211017 ], [ 7037565.639248684048653, 9192164.664034148678184 ], [ 7037548.824103473685682, 9192174.907132059335709 ], [ 7037535.207075159996748, 9192182.896241709589958 ], [ 7037512.014876693487167, 9192198.437730802223086 ], [ 7037484.598824166692793, 9192216.017087092623115 ], [ 7037462.340212974697351, 9192229.660356536507607 ], [ 7037409.528105416335166, 9192258.084338219836354 ], [ 7037367.245782181620598, 9192283.957062568515539 ], [ 7037349.739789706654847, 9192296.088567234575748 ], [ 7037326.608825888484716, 9192313.233095642179251 ], [ 7037308.504560977220535, 9192329.378964385017753 ], [ 7037295.924357205629349, 9192344.518462087959051 ], [ 7037277.759082080796361, 9192359.07252324000001 ], [ 7037257.653647850267589, 9192376.099092546850443 ], [ 7037227.464371982030571, 9192394.041842868551612 ], [ 7037207.705329518765211, 9192413.184200303629041 ], [ 7037191.813898459076881, 9192427.917211841791868 ], [ 7037179.01954890601337, 9192437.468021996319294 ], [ 7037161.34110532514751, 9192444.811970414593816 ], [ 7037142.05737217143178, 9192450.089034918695688 ], [ 7037127.698128448799253, 9192451.986157244071364 ], [ 7037106.779216873459518, 9192454.12699980288744 ], [ 7037089.648313033394516, 9192456.132005268707871 ], [ 7037074.385642493143678, 9192460.717239998281002 ], [ 7037060.210060524754226, 9192467.121874401345849 ], [ 7037046.236921625211835, 9192472.459759267047048 ], [ 7037029.004631428048015, 9192478.459747301414609 ], [ 7037013.477736171334982, 9192482.787599937990308 ], [ 7036997.38274526130408, 9192485.275833556428552 ], [ 7036982.475413358770311, 9192485.856108577921987 ], [ 7036968.857619212940335, 9192487.189050573855639 ], [ 7036957.52480511367321, 9192488.700667705386877 ], [ 7036947.288863942958415, 9192492.287289723753929 ], [ 7036930.798019045032561, 9192497.723102558404207 ], [ 7036915.840451731346548, 9192503.634465146809816 ], [ 7036901.085698720067739, 9192508.199815053492785 ], [ 7036891.174533464945853, 9192513.914736710488796 ], [ 7036881.081373281776905, 9192521.230825331062078 ], [ 7036870.073253895156085, 9192524.579839011654258 ], [ 7036855.785961757414043, 9192528.068112002685666 ], [ 7036844.463365131057799, 9192529.846901345998049 ], [ 7036825.880100383423269, 9192533.490725789219141 ], [ 7036810.607586289756, 9192537.820180352777243 ], [ 7036793.628766207024455, 9192543.79848114028573 ], [ 7036779.10713367909193, 9192548.098690198734403 ], [ 7036766.119146324694157, 9192552.595186842605472 ], [ 7036752.532830574549735, 9192561.105979558080435 ], [ 7036731.482195874676108, 9192566.451470386236906 ], [ 7036704.835897887125611, 9192571.223485998809338 ], [ 7036679.581346655264497, 9192579.129466744139791 ], [ 7036667.426431331783533, 9192585.455174634233117 ], [ 7036641.978420918807387, 9192601.885866614058614 ], [ 7036617.496814472600818, 9192623.340364182367921 ], [ 7036594.822483296506107, 9192639.139422552660108 ], [ 7036576.940130005590618, 9192654.740345910191536 ], [ 7036569.142067046836019, 9192662.502135042101145 ], [ 7036561.618432423099875, 9192670.788473008200526 ], [ 7036557.180535240098834, 9192673.881660163402557 ], [ 7036549.16901233792305, 9192676.066694933921099 ], [ 7036537.825465215370059, 9192677.299269121140242 ], [ 7036527.964503465220332, 9192677.682941878214478 ], [ 7036516.824240359477699, 9192677.581155400723219 ], [ 7036507.736254289746284, 9192677.934749681502581 ], [ 7036497.520303489640355, 9192682.334832375869155 ], [ 7036476.05321482848376, 9192690.093157280236483 ], [ 7036469.077605955302715, 9192692.761459017172456 ], [ 7036458.475977290421724, 9192693.441544620320201 ], [ 7036444.746421205811203, 9192698.501895746216178 ], [ 7036426.630083485506475, 9192707.991474820300937 ], [ 7036417.552672322839499, 9192715.267710637301207 ], [ 7036406.849568572826684, 9192719.942672511562705 ], [ 7036392.622265532612801, 9192725.289960715919733 ], [ 7036380.487695099785924, 9192732.149875631555915 ], [ 7036357.213182565756142, 9192745.563367085531354 ], [ 7036332.883541384711862, 9192757.703066883608699 ], [ 7036308.085121370851994, 9192771.175760343670845 ], [ 7036291.513024409301579, 9192781.14032968878746 ], [ 7036274.138082204386592, 9192790.065655969083309 ], [ 7036253.189064536243677, 9192798.07116967625916 ], [ 7036241.04465770535171, 9192804.675373468548059 ], [ 7036228.178319334052503, 9192812.354826463386416 ], [ 7036201.654638830572367, 9192833.631925825029612 ], [ 7036182.970401580445468, 9192847.937032036483288 ], [ 7036177.050285376608372, 9192851.890580929815769 ], [ 7036167.007250286638737, 9192853.875223880633712 ], [ 7036159.400571824982762, 9192853.635849682614207 ], [ 7036149.449271705001593, 9192851.370044467970729 ], [ 7036140.858168806880713, 9192851.704178994521499 ], [ 7036125.036158325150609, 9192854.972381500527263 ], [ 7036107.244919616729021, 9192859.666851591318846 ], [ 7036091.758667434565723, 9192865.062860602512956 ], [ 7036074.749358313158154, 9192870.250480577349663 ], [ 7036063.954601863399148, 9192872.53193398937583 ], [ 7036035.735861578024924, 9192897.20230527035892 ], [ 7036019.494589283131063, 9192907.723828628659248 ], [ 7034706.633875033818185, 9195193.363050274550915 ], [ 7036874.558469249866903, 9196583.870379375293851 ], [ 7040519.045510238036513, 9194846.450155137106776 ], [ 7047136.587799128144979, 9194466.891778254881501 ], [ 7047131.70029712934047, 9194406.37219194509089 ], [ 7047108.770998770371079, 9194347.19669646024704 ], [ 7047034.881818851456046, 9194079.125123599544168 ], [ 7047024.16744011733681, 9193935.399258745834231 ], [ 7047026.943083048798144, 9193866.536735974252224 ], [ 7047133.911220567300916, 9193526.167234363034368 ], [ 7047146.597068728879094, 9193404.972843220457435 ], [ 7047090.728603106923401, 9193195.186948077753186 ], [ 7047082.512410853989422, 9193094.471621753647923 ], [ 7047083.958737267181277, 9193039.153058202937245 ], [ 7047116.656651334837079, 9192936.606141116470098 ], [ 7047233.117774030193686, 9192706.674336520954967 ], [ 7047318.148783531039953, 9192564.24465905316174 ], [ 7047201.166783818975091, 9192536.66451277770102 ], [ 7047123.473637453280389, 9192519.329535676166415 ], [ 7047029.622640294022858, 9192498.528541279956698 ], [ 7047006.493325254879892, 9192496.103389836847782 ], [ 7046984.76388846617192, 9192495.858658526092768 ], [ 7046961.292757871560752, 9192492.597040135413408 ], [ 7046927.389916323125362, 9192479.766588589176536 ], [ 7046900.130462593398988, 9192464.266658574342728 ], [ 7046876.127577607519925, 9192452.353030305355787 ], [ 7046851.665396459400654, 9192445.463160498067737 ], [ 7046832.74992112070322, 9192446.784769197925925 ], [ 7046812.97097891010344, 9192449.234413774684072 ], [ 7046796.968827211298048, 9192439.464337967336178 ], [ 7046786.182911703363061, 9192424.135328352451324 ], [ 7046786.189839893020689, 9192402.458923848345876 ], [ 7046789.285439984872937, 9192384.31712755933404 ], [ 7046796.124564338475466, 9192360.569170877337456 ], [ 7046799.09176919888705, 9192342.828182803466916 ], [ 7046793.512845155782998, 9192311.638033924624324 ], [ 7046783.59992721863091, 9192276.740817556157708 ], [ 7046766.080273838713765, 9192253.107213601469994 ], [ 7046742.481301010586321, 9192235.881270289421082 ], [ 7046716.590479278936982, 9192223.762375932186842 ], [ 7046655.990364020690322, 9192210.33498634211719 ], [ 7046589.363623617216945, 9192200.658936889842153 ], [ 7046531.651391202583909, 9192193.882176237180829 ], [ 7046479.075410258956254, 9192189.244428060948849 ], [ 7046434.281823820434511, 9192189.412800706923008 ], [ 7046389.997850683517754, 9192186.441400621086359 ], [ 7046342.612423880025744, 9192189.667893989011645 ], [ 7046296.780383577570319, 9192195.615810224786401 ], [ 7046261.717033993452787, 9192204.367186084389687 ], [ 7046210.334208289161325, 9192235.932664804160595 ], [ 7046191.913623224012554, 9192247.246138887479901 ], [ 7046195.511635974980891, 9192197.305329386144876 ], [ 7046199.986428085714579, 9192135.083890384063125 ], [ 7046203.187382748350501, 9192090.641463320702314 ], [ 7046212.491278634406626, 9191996.707277346402407 ], [ 7046200.852219703607261, 9191964.951822429895401 ], [ 7046196.635835340246558, 9191942.451706582680345 ], [ 7046192.670133706182241, 9191912.957197770476341 ], [ 7046190.72310102917254, 9191875.281609574332833 ], [ 7046201.465148417279124, 9191840.310956990346313 ], [ 7046221.9080501338467, 9191798.500025218352675 ], [ 7046227.268366013653576, 9191786.055630844086409 ], [ 7046224.222796063870192, 9191765.535249846056104 ], [ 7046217.012005684897304, 9191741.382850330322981 ], [ 7046205.961006199941039, 9191721.757720321416855 ], [ 7045878.407640272751451, 9191566.000371336936951 ], [ 7045836.25596291385591, 9191556.066883493214846 ], [ 7045788.582514841109514, 9191516.444288734346628 ], [ 7045718.702642134390771, 9191392.620168289169669 ], [ 7045695.918252825737, 9191292.26066131144762 ], [ 7045693.097436538897455, 9191278.44874169677496 ], [ 7045686.937009887769818, 9191226.143598649650812 ], [ 7045676.010339833796024, 9191134.202123533934355 ], [ 7045667.009679699316621, 9191056.678024439141154 ], [ 7045666.329634469002485, 9191049.068334009498358 ], [ 7045648.997694371268153, 9191003.614666625857353 ], [ 7045627.706988825462759, 9190950.703032048419118 ], [ 7045618.096261274069548, 9190915.074620692059398 ], [ 7045578.41837992053479, 9190781.281927172094584 ], [ 7045569.80972246080637, 9190755.311099188402295 ], [ 7045557.870018285699189, 9190710.042461317032576 ], [ 7045509.396525142714381, 9190556.654526390135288 ], [ 7045473.078337203711271, 9190440.075983367860317 ], [ 7045458.775388788431883, 9190403.80534147284925 ], [ 7045444.123440587893128, 9190354.173355411738157 ], [ 7045441.492921411991119, 9190338.71291315741837 ], [ 7045439.872598578222096, 9190331.675620138645172 ], [ 7045439.810726432129741, 9190326.626020120456815 ], [ 7045439.87774870917201, 9190290.770319430157542 ], [ 7045439.749970551580191, 9190281.427916314452887 ], [ 7045437.942283412441611, 9190277.564213763922453 ], [ 7045417.504528786987066, 9190253.710156179964542 ], [ 7045413.628678845241666, 9190248.693586859852076 ], [ 7045409.071535185910761, 9190238.337398961186409 ], [ 7045361.404230089858174, 9190104.790277948603034 ], [ 7045345.427696346305311, 9190053.802085908129811 ], [ 7045335.107733746059239, 9190023.044737752526999 ], [ 7045332.473998153582215, 9190015.826043596491218 ], [ 7045329.874815048649907, 9190011.225121647119522 ], [ 7045300.092887135222554, 9189965.294656010344625 ], [ 7045295.344498047605157, 9189959.159943262115121 ], [ 7045291.586893090978265, 9189957.211915573105216 ], [ 7045271.342841187492013, 9189947.854784175753593 ], [ 7045248.06739529594779, 9189935.880952451378107 ], [ 7045215.939461533911526, 9189919.458208216354251 ], [ 7045188.394530206918716, 9189903.158529825508595 ], [ 7045166.033082276582718, 9189888.215546917170286 ], [ 7045119.682582420296967, 9189923.684663511812687 ], [ 7045086.256213083863258, 9189948.741112304851413 ], [ 7044820.764346631243825, 9190146.529772020876408 ], [ 7044729.94603097718209, 9190213.852543609216809 ], [ 7044576.394251736812294, 9190329.761291652917862 ], [ 7044560.404833592474461, 9190325.777977297082543 ], [ 7044373.747676255181432, 9190087.262138586491346 ], [ 7044362.764671380631626, 9190087.215101050212979 ], [ 7044236.796534241177142, 9190173.058244301006198 ], [ 7044168.497495502233505, 9190216.670512899756432 ], [ 7044133.176630784757435, 9190225.293667135760188 ], [ 7044109.288817942142487, 9190235.599168891087174 ], [ 7044054.346451542340219, 9190259.924443665891886 ], [ 7044028.578228048980236, 9190253.56541888974607 ], [ 7043919.168488607741892, 9190226.398740557953715 ], [ 7043896.90075312834233, 9190216.748315455392003 ], [ 7043875.450092677026987, 9190216.540644826367497 ], [ 7043847.263092457316816, 9190215.141762908548117 ], [ 7043756.347409848123789, 9190190.66152154840529 ], [ 7043698.248408567160368, 9190179.539104962721467 ], [ 7043676.251247128471732, 9190168.586167337372899 ], [ 7043532.655143763870001, 9190142.164695747196674 ], [ 7043413.005908217281103, 9190127.644040666520596 ], [ 7043402.499980072490871, 9190123.329741830006242 ], [ 7043362.636641843244433, 9190081.766327625140548 ], [ 7043351.401393235661089, 9190071.14875990524888 ], [ 7043307.917361114174128, 9190049.281481076031923 ], [ 7043258.59465417265892, 9190035.173547422513366 ], [ 7043162.786964795552194, 9190021.488933820277452 ], [ 7043112.644465831108391, 9190014.233779398724437 ], [ 7043096.059490636922419, 9190015.74441434815526 ], [ 7043076.743644807487726, 9190009.517087804153562 ], [ 7043062.721570316702127, 9190013.255227986723185 ], [ 7042811.62679336592555, 9190245.66012211702764 ], [ 7042787.030009270645678, 9190282.65738126821816 ], [ 7042769.800978349521756, 9190303.350841755047441 ], [ 7042741.401123641058803, 9190330.324195338413119 ], [ 7042734.120943828485906, 9190337.988238729536533 ], [ 7042712.930848909541965, 9190368.974191522225738 ], [ 7042695.734110950492322, 9190383.613912347704172 ], [ 7042638.660850702784956, 9190427.014154776930809 ], [ 7042627.210825446993113, 9190436.959547942504287 ], [ 7042602.975740834139287, 9190467.563840791583061 ], [ 7042583.523645807057619, 9190492.568818248808384 ], [ 7042539.903782619163394, 9190532.113423014059663 ], [ 7042529.844282675534487, 9190540.549429479986429 ], [ 7042320.520296833477914, 9190567.708210628479719 ], [ 7042126.649747881107032, 9190591.537976728752255 ], [ 7042117.592050361447036, 9190590.658487001433969 ], [ 7042100.983583093620837, 9190578.051495730876923 ], [ 7042095.545198197476566, 9190562.016543475911021 ], [ 7042087.439050953835249, 9190518.315993003547192 ], [ 7042074.963192230090499, 9190504.185716610401869 ], [ 7042033.694352565333247, 9190479.22863581776619 ], [ 7041987.554294068366289, 9190455.567816523835063 ], [ 7041965.204619948752224, 9190436.016124214977026 ], [ 7041933.027338789775968, 9190405.920181645080447 ], [ 7041878.258389033377171, 9190358.318977057933807 ], [ 7041835.271613907068968, 9190314.865985129028559 ], [ 7041808.716634433716536, 9190290.637389402836561 ], [ 7041758.113918608985841, 9190249.286517273634672 ], [ 7041733.735013842582703, 9190237.06534812413156 ], [ 7041719.913614194840193, 9190223.604884035885334 ], [ 7041711.776463029906154, 9190205.836967080831528 ], [ 7041693.231905835680664, 9190131.133368615061045 ], [ 7041682.020219206809998, 9190079.163906335830688 ], [ 7041680.915949061512947, 9190056.791394896805286 ], [ 7041674.84245003759861, 9190035.753881324082613 ], [ 7041661.130715095438063, 9189998.709738785400987 ], [ 7041616.2937135649845, 9189842.5536068379879 ], [ 7041608.231089621782303, 9189806.906331529840827 ], [ 7041602.780593567527831, 9189788.556322798132896 ], [ 7041594.721030173823237, 9189778.269127812236547 ], [ 7041583.273642162792385, 9189776.785163227468729 ], [ 7041563.209272410720587, 9189787.591097794473171 ], [ 7041520.554023863747716, 9189813.666156088933349 ], [ 7041501.405523790977895, 9189817.813918843865395 ], [ 7041484.095508811995387, 9189816.000704484060407 ], [ 7041448.132661847397685, 9189808.516331696882844 ], [ 7041420.373739961534739, 9189807.600819854065776 ], [ 7041406.529654148034751, 9189806.769249461591244 ], [ 7041374.842579329386353, 9189793.438060255721211 ], [ 7041350.869298948906362, 9189785.147015552967787 ], [ 7041322.19655117765069, 9189770.545719372108579 ], [ 7041298.855797982774675, 9189762.311418259516358 ], [ 7041284.03823424782604, 9189756.874284524470568 ], [ 7041252.182386443018913, 9189739.73245033249259 ], [ 7041230.070423281751573, 9189731.531568046659231 ], [ 7041190.676664283499122, 9189722.249611577019095 ], [ 7041034.09085843898356, 9189685.537077726796269 ], [ 7040926.587456093169749, 9189659.577912390232086 ], [ 7040896.858728094957769, 9189657.761886335909367 ], [ 7040880.201747588813305, 9189650.790770253166556 ], [ 7040807.628626247867942, 9189630.773543573915958 ], [ 7040787.763703959062696, 9189619.179686652496457 ], [ 7040737.962040828540921, 9189582.83955860696733 ], [ 7040719.620577044785023, 9189566.868469694629312 ], [ 7040708.522357199341059, 9189562.100605733692646 ], [ 7040697.41309645306319, 9189557.333177033811808 ], [ 7040663.496197974309325, 9189528.588031128048897 ], [ 7040636.927241396158934, 9189528.417408088222146 ], [ 7040541.776753080077469, 9189831.76878266222775 ], [ 7040492.267659571021795, 9189973.184538150206208 ], [ 7040453.784844445064664, 9190076.415418541058898 ], [ 7040445.161297771148384, 9190125.061045158654451 ], [ 7040307.932164961472154, 9190723.285553289577365 ], [ 7040237.770337108522654, 9190761.986957218497992 ], [ 7040012.7332668825984, 9190874.991619262844324 ], [ 7039974.467921476811171, 9190792.032814044505358 ], [ 7039926.483947440050542, 9190871.179799076169729 ], [ 7039912.470277177169919, 9190887.239829117432237 ], [ 7039892.616527342237532, 9190903.271880986168981 ], [ 7039835.471519462764263, 9190941.148910066112876 ], [ 7039823.278436611406505, 9190961.711207015439868 ], [ 7039803.495390348136425, 9190992.543089587241411 ], [ 7039783.197729701176286, 9191003.355429152026772 ], [ 7039753.46895645186305, 9191015.082934256643057 ], [ 7039733.911511205136776, 9191023.573749767616391 ], [ 7039721.715622708201408, 9191033.988218264654279 ], [ 7039709.340246992185712, 9191042.896825652569532 ], [ 7039687.975017569027841, 9191068.530117696151137 ], [ 7039673.565107653848827, 9191082.917826343327761 ], [ 7039648.830171715468168, 9191092.797649590298533 ], [ 7039615.950324524194002, 9191099.07363822683692 ], [ 7039589.84122272580862, 9191107.726936502382159 ], [ 7039657.655162124894559, 9191206.847839292138815 ], [ 7039672.120440906845033, 9191379.399821361526847 ], [ 7039551.870500712655485, 9191461.014661520719528 ], [ 7039528.691303860396147, 9191416.068434897810221 ], [ 7039383.765551098622382, 9191451.782179581001401 ], [ 7039378.000165743753314, 9191506.548067208379507 ], [ 7039307.128146603703499, 9191535.347560953348875 ], [ 7039208.916994545608759, 9191578.628425359725952 ], [ 7039148.726720752194524, 9191608.963287884369493 ] ] ] } },
{ "type": "Feature", "properties": { "lv_id": "LOC_023013", "id": 94599.0, "CD_SETOR": "250050205000001", "SITUACAO": "Urbana", "CD_SIT": "1", "CD_TIPO": "0", "AREA_KM2": 0.082364222619293007, "CD_REGIAO": "2", "NM_REGIAO": "Nordeste", "CD_UF": "25", "NM_UF": "Paraíba", "CD_MUN": "2500502", "NM_MUN": "Alagoinha", "CD_DIST": "250050205", "NM_DIST": "Alagoinha", "CD_SUBDIST": "25005020500", "NM_SUBDIST": null, "CD_BAIRRO": null, "NM_BAIRRO": null, "CD_NU": null, "NM_NU": null, "CD_FCU": null, "NM_FCU": null, "CD_AGLOM": null, "NM_AGLOM": null, "CD_RGINT": "2501", "NM_RGINT": "João Pessoa", "CD_RGI": "250002", "NM_RGI": "Guarabira", "CD_CONCURB": null, "NM_CONCURB": null, "mun_code_x": "2500502", "index_right": 47660, "dist_m": 10.588442036157373, "local_id": 235440, "ano": 2022, "cod_localidade_ibge": 2500502, "NR_ZONA": "9", "nr_cep": 58390000.0, "nm_localidade": "ALAGOINHA", "nm_locvot": "GRUPO ESCOLAR MUNICIPAL JOSÉ BARBOSA DE LUCENA", "ds_endereco": "RUA ESCRITOR MONTEIRO LOBATO, 126, CENTRO", "ds_bairro": "CONJUNTO LUIZ GEMINIANO", "pred_long": -35.545798, "pred_lat": -6.949449, "pred_dist": 0.0, "tse_long": -35.54599684, "tse_lat": -6.9495311, "long": -35.54599684, "lat": -6.9495311, "ID_UNICO": "LOC_023013", "SG_UF": "PB", "CD_MUNICIPIO": "19097", "NR_LOCAL_VOTACAO": "1180", "QT_SECOES_AGREGADAS": 0, "QT_ELEITORES_TRANSFERIDOS": 544, "CIRO GOMES (PDT) (NÃO ELEITO) 1T": 31.0, "CONSTITUINTE EYMAEL (DC) (NÃO ELEITO) 1T": 0.0, "FELIPE D AVILA (NOVO) (NÃO ELEITO) 1T": 2.0, "JAIR BOLSONARO (PL) (2º TURNO) 1T": 211.0, "LULA (PT) (2º TURNO) 1T": 1191.0, "LÉO PÉRICLES (UP) (NÃO ELEITO) 1T": 0.0, "PADRE KELMON (PTB) (NÃO ELEITO) 1T": 0.0, "SIMONE TEBET (MDB) (NÃO ELEITO) 1T": 26.0, "SOFIA MANZANO (PCB) (NÃO ELEITO) 1T": 0.0, "SORAYA THRONICKE (UNIÃO) (NÃO ELEITO) 1T": 5.0, "VERA (PSTU) (NÃO ELEITO) 1T": 0.0, "Total_Votos_Validos 1T": 1466.0, "Votos_Brancos 1T": 11.0, "Votos_Nulos 1T": 63.0, "Abstenções 1T": 394.0, "Eleitores_Aptos 1T": 1934.0, "JAIR BOLSONARO (PL) (NÃO ELEITO) 2T": 232.0, "LULA (PT) (ELEITO) 2T": 1233.0, "Total_Votos_Validos 2T": 1465.0, "Votos_Brancos 2T": 14.0, "Votos_Nulos 2T": 87.0, "Abstenções 2T": 368.0, "Eleitores_Aptos 2T": 1934.0, "mun_code_y": "2500502", "mun_code": "2500502" }, "geometry": { "type": "Polygon", "coordinates": [ [ [ 7038863.036426481790841, 9191440.130536586046219 ], [ 7038841.735772160813212, 9191456.519892645999789 ], [ 7038766.187456445768476, 9191530.730503764003515 ], [ 7038716.628640790469944, 9191587.40273105353117 ], [ 7038695.50600446946919, 9191606.996564418077469 ], [ 7038687.27778631541878, 9191608.71385471150279 ], [ 7038651.849333331920207, 9191654.943392919376493 ], [ 7038618.763026682659984, 9191708.901286890730262 ], [ 7038615.771506819874048, 9191715.674122931435704 ], [ 7038604.686771597713232, 9191719.899889308959246 ], [ 7038586.337438540533185, 9191724.152890127152205 ], [ 7038576.893027890473604, 9191664.46422953158617 ], [ 7038556.235884846188128, 9191668.807253686711192 ], [ 7038542.881950997747481, 9191674.995005985721946 ], [ 7038522.023362522944808, 9191692.250898478552699 ], [ 7038501.646301514469087, 9191708.510496731847525 ], [ 7038494.046063808724284, 9191678.73776863515377 ], [ 7038481.1760996542871, 9191681.974183347076178 ], [ 7038462.457958562299609, 9191697.947971390560269 ], [ 7038436.041504862718284, 9191721.960204686969519 ], [ 7038414.968427123501897, 9191737.37406875193119 ], [ 7038394.084676122292876, 9191744.460362678393722 ], [ 7038371.667333029210567, 9191750.198398742824793 ], [ 7038338.502923365682364, 9191745.03302669338882 ], [ 7038318.824323806911707, 9191734.233477687463164 ], [ 7038309.332391440868378, 9191728.087065305560827 ], [ 7038307.367963314056396, 9191726.173802986741066 ], [ 7038305.403980737552047, 9191724.272160133346915 ], [ 7038299.750297699123621, 9191720.454697404056787 ], [ 7038277.028907588683069, 9191721.724498733878136 ], [ 7038272.589246495626867, 9191723.899057257920504 ], [ 7038261.263009509071708, 9191739.130596345290542 ], [ 7038231.557618781924248, 9191707.659919988363981 ], [ 7038216.318960543721914, 9191691.520743796601892 ], [ 7038212.865329828113317, 9191686.244424823671579 ], [ 7038209.748467552475631, 9191680.233516998589039 ], [ 7038198.565703480504453, 9191660.852584445849061 ], [ 7038193.230752288363874, 9191648.621196979656816 ], [ 7038186.970874277874827, 9191635.052773471921682 ], [ 7038177.857065479271114, 9191626.366572927683592 ], [ 7038163.360238645225763, 9191612.269848328083754 ], [ 7038141.396278897300363, 9191590.90059076808393 ], [ 7038125.015745657496154, 9191565.462017485871911 ], [ 7038123.963914337567985, 9191561.104459373280406 ], [ 7038116.321283411234617, 9191559.924620170146227 ], [ 7038114.798626664094627, 9191617.107173355296254 ], [ 7038167.190673382952809, 9191858.952789336442947 ], [ 7038191.028548578731716, 9191971.898012977093458 ], [ 7038588.577758659608662, 9192412.305065749213099 ], [ 7038615.977351899258792, 9192388.813777003437281 ], [ 7038630.822909767739475, 9192374.213205670937896 ], [ 7038646.508040715008974, 9192362.186520354822278 ], [ 7038668.251841669902205, 9192358.197463773190975 ], [ 7038687.17419502697885, 9192351.862969659268856 ], [ 7038695.361330356448889, 9192345.318338261917233 ], [ 7038700.039812140166759, 9192338.119107460603118 ], [ 7038703.977529484778643, 9192326.596596578136086 ], [ 7038705.872216828167439, 9192316.014802515506744 ], [ 7038695.175994665361941, 9192208.337971778586507 ], [ 7038691.032107578590512, 9192170.051695842295885 ], [ 7038683.06354527361691, 9192136.138618726283312 ], [ 7038810.528755757957697, 9192051.924315975978971 ], [ 7038823.399663577787578, 9192070.053162476047873 ], [ 7038823.81274148914963, 9192077.077330883592367 ], [ 7038836.486052030697465, 9192119.185741100460291 ], [ 7038889.419782616198063, 9192190.876926500350237 ], [ 7038933.763925151899457, 9192153.900628017261624 ], [ 7038860.5349858738482, 9192055.909931968897581 ], [ 7038901.395417225547135, 9192017.207305109128356 ], [ 7038987.287411868572235, 9191942.745938127860427 ], [ 7038949.05760258063674, 9191893.453006600961089 ], [ 7038895.117644750513136, 9191816.309016851708293 ], [ 7038870.790293084457517, 9191755.815028715878725 ], [ 7038872.38302958663553, 9191684.03504465892911 ], [ 7038873.842322139069438, 9191629.250041270628572 ], [ 7038877.946367868222296, 9191434.149415181949735 ], [ 7038863.036426481790841, 9191440.130536586046219 ] ] ] } },
{ "type": "Feature", "properties": { "lv_id": "LOC_023014", "id": 94604.0, "CD_SETOR": "250050205000006", "SITUACAO": "Urbana", "CD_SIT": "1", "CD_TIPO": "0", "AREA_KM2": 0.177097696247312, "CD_REGIAO": "2", "NM_REGIAO": "Nordeste", "CD_UF": "25", "NM_UF": "Paraíba", "CD_MUN": "2500502", "NM_MUN": "Alagoinha", "CD_DIST": "250050205", "NM_DIST": "Alagoinha", "CD_SUBDIST": "25005020500", "NM_SUBDIST": null, "CD_BAIRRO": null, "NM_BAIRRO": null, "CD_NU": null, "NM_NU": null, "CD_FCU": null, "NM_FCU": null, "CD_AGLOM": "250050200003", "NM_AGLOM": "Barro de Fátima", "CD_RGINT": "2501", "NM_RGINT": "João Pessoa", "CD_RGI": "250002", "NM_RGI": "Guarabira", "CD_CONCURB": null, "NM_CONCURB": null, "mun_code_x": "2500502", "index_right": 47662, "dist_m": 0.0, "local_id": 235442, "ano": 2022, "cod_localidade_ibge": 2500502, "NR_ZONA": "9", "nr_cep": 58390000.0, "nm_localidade": "ALAGOINHA", "nm_locvot": "ESCOLA MUNICIPAL CARLOS MARTINS BELTRÃO", "ds_endereco": "RUA PREFEITO JOSÉ JACINTO, S/N, CONJ. CLÓCIO BELTRÃO, ", "ds_bairro": "CONJUNTO CLÓCIO BELTRÃO", "pred_long": -35.544552, "pred_lat": -6.954616, "pred_dist": 0.0, "tse_long": -35.54458993, "tse_lat": -6.95495213, "long": -35.54458993, "lat": -6.95495213, "ID_UNICO": "LOC_023014", "SG_UF": "PB", "CD_MUNICIPIO": "19097", "NR_LOCAL_VOTACAO": "1198", "QT_SECOES_AGREGADAS": 0, "QT_ELEITORES_TRANSFERIDOS": 2, "CIRO GOMES (PDT) (NÃO ELEITO) 1T": 44.0, "CONSTITUINTE EYMAEL (DC) (NÃO ELEITO) 1T": 0.0, "FELIPE D AVILA (NOVO) (NÃO ELEITO) 1T": 1.0, "JAIR BOLSONARO (PL) (2º TURNO) 1T": 292.0, "LULA (PT) (2º TURNO) 1T": 1312.0, "LÉO PÉRICLES (UP) (NÃO ELEITO) 1T": 0.0, "PADRE KELMON (PTB) (NÃO ELEITO) 1T": 2.0, "SIMONE TEBET (MDB) (NÃO ELEITO) 1T": 40.0, "SOFIA MANZANO (PCB) (NÃO ELEITO) 1T": 1.0, "SORAYA THRONICKE (UNIÃO) (NÃO ELEITO) 1T": 9.0, "VERA (PSTU) (NÃO ELEITO) 1T": 0.0, "Total_Votos_Validos 1T": 1701.0, "Votos_Brancos 1T": 37.0, "Votos_Nulos 1T": 76.0, "Abstenções 1T": 460.0, "Eleitores_Aptos 1T": 2274.0, "JAIR BOLSONARO (PL) (NÃO ELEITO) 2T": 323.0, "LULA (PT) (ELEITO) 2T": 1371.0, "Total_Votos_Validos 2T": 1694.0, "Votos_Brancos 2T": 35.0, "Votos_Nulos 2T": 104.0, "Abstenções 2T": 441.0, "Eleitores_Aptos 2T": 2274.0, "mun_code_y": "2500502", "mun_code": "2500502" }, "geometry": { "type": "Polygon", "coordinates": [ [ [ 7040453.784844445064664, 9190076.415418541058898 ], [ 7040492.267659571021795, 9189973.184538150206208 ], [ 7040541.776753080077469, 9189831.76878266222775 ], [ 7040636.927241396158934, 9189528.417408088222146 ], [ 7040663.496197974309325, 9189528.588031128048897 ], [ 7040697.41309645306319, 9189557.333177033811808 ], [ 7040708.522357199341059, 9189562.100605733692646 ], [ 7040719.620577044785023, 9189566.868469694629312 ], [ 7040737.962040828540921, 9189582.83955860696733 ], [ 7040787.763703959062696, 9189619.179686652496457 ], [ 7040807.628626247867942, 9189630.773543573915958 ], [ 7040880.201747588813305, 9189650.790770253166556 ], [ 7040896.858728094957769, 9189657.761886335909367 ], [ 7040926.587456093169749, 9189659.577912390232086 ], [ 7041034.09085843898356, 9189685.537077726796269 ], [ 7041190.676664283499122, 9189722.249611577019095 ], [ 7041230.070423281751573, 9189731.531568046659231 ], [ 7041252.182386443018913, 9189739.73245033249259 ], [ 7041284.03823424782604, 9189756.874284524470568 ], [ 7041298.855797982774675, 9189762.311418259516358 ], [ 7041322.19655117765069, 9189770.545719372108579 ], [ 7041350.869298948906362, 9189785.147015552967787 ], [ 7041374.842579329386353, 9189793.438060255721211 ], [ 7041406.529654148034751, 9189806.769249461591244 ], [ 7041420.373739961534739, 9189807.600819854065776 ], [ 7041448.132661847397685, 9189808.516331696882844 ], [ 7041484.095508811995387, 9189816.000704484060407 ], [ 7041501.405523790977895, 9189817.813918843865395 ], [ 7041520.554023863747716, 9189813.666156088933349 ], [ 7041563.209272410720587, 9189787.591097794473171 ], [ 7041583.273642162792385, 9189776.785163227468729 ], [ 7041594.721030173823237, 9189778.269127812236547 ], [ 7041602.780593567527831, 9189788.556322798132896 ], [ 7041608.231089621782303, 9189806.906331529840827 ], [ 7041616.2937135649845, 9189842.5536068379879 ], [ 7041661.130715095438063, 9189998.709738785400987 ], [ 7041674.84245003759861, 9190035.753881324082613 ], [ 7041680.915949061512947, 9190056.791394896805286 ], [ 7041682.020219206809998, 9190079.163906335830688 ], [ 7041693.231905835680664, 9190131.133368615061045 ], [ 7041711.776463029906154, 9190205.836967080831528 ], [ 7041719.913614194840193, 9190223.604884035885334 ], [ 7041733.735013842582703, 9190237.06534812413156 ], [ 7041758.113918608985841, 9190249.286517273634672 ], [ 7041808.716634433716536, 9190290.637389402836561 ], [ 7041835.271613907068968, 9190314.865985129028559 ], [ 7041878.258389033377171, 9190358.318977057933807 ], [ 7041933.027338789775968, 9190405.920181645080447 ], [ 7041965.204619948752224, 9190436.016124214977026 ], [ 7041987.554294068366289, 9190455.567816523835063 ], [ 7042033.694352565333247, 9190479.22863581776619 ], [ 7042074.963192230090499, 9190504.185716610401869 ], [ 7042087.439050953835249, 9190518.315993003547192 ], [ 7042095.545198197476566, 9190562.016543475911021 ], [ 7042100.983583093620837, 9190578.051495730876923 ], [ 7042117.592050361447036, 9190590.658487001433969 ], [ 7042126.649747881107032, 9190591.537976728752255 ], [ 7042320.520296833477914, 9190567.708210628479719 ], [ 7042529.844282675534487, 9190540.549429479986429 ], [ 7042539.903782619163394, 9190532.113423014059663 ], [ 7042583.523645807057619, 9190492.568818248808384 ], [ 7042602.975740834139287, 9190467.563840791583061 ], [ 7042627.210825446993113, 9190436.959547942504287 ], [ 7042638.660850702784956, 9190427.014154776930809 ], [ 7042695.734110950492322, 9190383.613912347704172 ], [ 7042712.930848909541965, 9190368.974191522225738 ], [ 7042734.120943828485906, 9190337.988238729536533 ], [ 7042741.401123641058803, 9190330.324195338413119 ], [ 7042769.800978349521756, 9190303.350841755047441 ], [ 7042787.030009270645678, 9190282.65738126821816 ], [ 7042811.62679336592555, 9190245.66012211702764 ], [ 7043062.721570316702127, 9190013.255227986723185 ], [ 7043076.743644807487726, 9190009.517087804153562 ], [ 7043096.059490636922419, 9190015.74441434815526 ], [ 7043112.644465831108391, 9190014.233779398724437 ], [ 7043162.786964795552194, 9190021.488933820277452 ], [ 7043258.59465417265892, 9190035.173547422513366 ], [ 7043307.917361114174128, 9190049.281481076031923 ], [ 7043351.401393235661089, 9190071.14875990524888 ], [ 7043362.636641843244433, 9190081.766327625140548 ], [ 7043402.499980072490871, 9190123.329741830006242 ], [ 7043413.005908217281103, 9190127.644040666520596 ], [ 7043532.655143763870001, 9190142.164695747196674 ], [ 7043676.251247128471732, 9190168.586167337372899 ], [ 7043698.248408567160368, 9190179.539104962721467 ], [ 7043756.347409848123789, 9190190.66152154840529 ], [ 7043847.263092457316816, 9190215.141762908548117 ], [ 7043875.450092677026987, 9190216.540644826367497 ], [ 7043896.90075312834233, 9190216.748315455392003 ], [ 7043919.168488607741892, 9190226.398740557953715 ], [ 7044028.578228048980236, 9190253.56541888974607 ], [ 7044054.346451542340219, 9190259.924443665891886 ], [ 7044109.288817942142487, 9190235.599168891087174 ], [ 7044133.176630784757435, 9190225.293667135760188 ], [ 7044168.497495502233505, 9190216.670512899756432 ], [ 7044236.796534241177142, 9190173.058244301006198 ], [ 7044362.764671380631626, 9190087.215101050212979 ], [ 7044373.747676255181432, 9190087.262138586491346 ], [ 7044560.404833592474461, 9190325.777977297082543 ], [ 7044576.394251736812294, 9190329.761291652917862 ], [ 7044729.94603097718209, 9190213.852543609216809 ], [ 7044820.764346631243825, 9190146.529772020876408 ], [ 7045086.256213083863258, 9189948.741112304851413 ], [ 7045119.682582420296967, 9189923.684663511812687 ], [ 7045166.033082276582718, 9189888.215546917170286 ], [ 7045188.394530206918716, 9189903.158529825508595 ], [ 7045215.939461533911526, 9189919.458208216354251 ], [ 7045248.06739529594779, 9189935.880952451378107 ], [ 7045271.342841187492013, 9189947.854784175753593 ], [ 7045291.586893090978265, 9189957.211915573105216 ], [ 7045295.344498047605157, 9189959.159943262115121 ], [ 7045300.092887135222554, 9189965.294656010344625 ], [ 7045329.874815048649907, 9190011.225121647119522 ], [ 7045332.473998153582215, 9190015.826043596491218 ], [ 7045335.107733746059239, 9190023.044737752526999 ], [ 7045345.427696346305311, 9190053.802085908129811 ], [ 7045361.404230089858174, 9190104.790277948603034 ], [ 7045409.071535185910761, 9190238.337398961186409 ], [ 7045413.628678845241666, 9190248.693586859852076 ], [ 7045417.504528786987066, 9190253.710156179964542 ], [ 7045437.942283412441611, 9190277.564213763922453 ], [ 7045439.749970551580191, 9190281.427916314452887 ], [ 7045439.87774870917201, 9190290.770319430157542 ], [ 7045439.810726432129741, 9190326.626020120456815 ], [ 7045439.872598578222096, 9190331.675620138645172 ], [ 7045441.492921411991119, 9190338.71291315741837 ], [ 7045444.123440587893128, 9190354.173355411738157 ], [ 7045458.775388788431883, 9190403.80534147284925 ], [ 7045473.078337203711271, 9190440.075983367860317 ], [ 7045509.396525142714381, 9190556.654526390135288 ], [ 7045557.870018285699189, 9190710.042461317032576 ], [ 7045569.80972246080637, 9190755.311099188402295 ], [ 7045578.41837992053479, 9190781.281927172094584 ], [ 7045618.096261274069548, 9190915.074620692059398 ], [ 7045627.706988825462759, 9190950.703032048419118 ], [ 7045648.997694371268153, 9191003.614666625857353 ], [ 7045666.329634469002485, 9191049.068334009498358 ], [ 7045667.009679699316621, 9191056.678024439141154 ], [ 7045676.010339833796024, 9191134.202123533934355 ], [ 7045686.937009887769818, 9191226.143598649650812 ], [ 7045693.097436538897455, 9191278.44874169677496 ], [ 7045695.918252825737, 9191292.26066131144762 ], [ 7045718.702642134390771, 9191392.620168289169669 ], [ 7045788.582514841109514, 9191516.444288734346628 ], [ 7045836.25596291385591, 9191556.066883493214846 ], [ 7045878.407640272751451, 9191566.000371336936951 ], [ 7046205.961006199941039, 9191721.757720321416855 ], [ 7046217.012005684897304, 9191741.382850330322981 ], [ 7046224.222796063870192, 9191765.535249846056104 ], [ 7046227.268366013653576, 9191786.055630844086409 ], [ 7046221.9080501338467, 9191798.500025218352675 ], [ 7046201.465148417279124, 9191840.310956990346313 ], [ 7046190.72310102917254, 9191875.281609574332833 ], [ 7046192.670133706182241, 9191912.957197770476341 ], [ 7046196.635835340246558, 9191942.451706582680345 ], [ 7046200.852219703607261, 9191964.951822429895401 ], [ 7046212.491278634406626, 9191996.707277346402407 ], [ 7046203.187382748350501, 9192090.641463320702314 ], [ 7046199.986428085714579, 9192135.083890384063125 ], [ 7046195.511635974980891, 9192197.305329386144876 ], [ 7046191.913623224012554, 9192247.246138887479901 ], [ 7046210.334208289161325, 9192235.932664804160595 ], [ 7046261.717033993452787, 9192204.367186084389687 ], [ 7046296.780383577570319, 9192195.615810224786401 ], [ 7046342.612423880025744, 9192189.667893989011645 ], [ 7046389.997850683517754, 9192186.441400621086359 ], [ 7046434.281823820434511, 9192189.412800706923008 ], [ 7046479.075410258956254, 9192189.244428060948849 ], [ 7046531.651391202583909, 9192193.882176237180829 ], [ 7046589.363623617216945, 9192200.658936889842153 ], [ 7046655.990364020690322, 9192210.33498634211719 ], [ 7046716.590479278936982, 9192223.762375932186842 ], [ 7046742.481301010586321, 9192235.881270289421082 ], [ 7046766.080273838713765, 9192253.107213601469994 ], [ 7046783.59992721863091, 9192276.740817556157708 ], [ 7046793.512845155782998, 9192311.638033924624324 ], [ 7046799.09176919888705, 9192342.828182803466916 ], [ 7046796.124564338475466, 9192360.569170877337456 ], [ 7046789.285439984872937, 9192384.31712755933404 ], [ 7046786.189839893020689, 9192402.458923848345876 ], [ 7046786.182911703363061, 9192424.135328352451324 ], [ 7046796.968827211298048, 9192439.464337967336178 ], [ 7046812.97097891010344, 9192449.234413774684072 ], [ 7046832.74992112070322, 9192446.784769197925925 ], [ 7046851.665396459400654, 9192445.463160498067737 ], [ 7046876.127577607519925, 9192452.353030305355787 ], [ 7046900.130462593398988, 9192464.266658574342728 ], [ 7046927.389916323125362, 9192479.766588589176536 ], [ 7046961.292757871560752, 9192492.597040135413408 ], [ 7046984.76388846617192, 9192495.858658526092768 ], [ 7047006.493325254879892, 9192496.103389836847782 ], [ 7047029.622640294022858, 9192498.528541279956698 ], [ 7047123.473637453280389, 9192519.329535676166415 ], [ 7047201.166783818975091, 9192536.66451277770102 ], [ 7047318.148783531039953, 9192564.24465905316174 ], [ 7047441.147204805165529, 9192355.193537270650268 ], [ 7047536.965939672663808, 9192140.846552880480886 ], [ 7047604.851298280991614, 9191948.452612679451704 ], [ 7047660.324705772101879, 9191824.671105775982141 ], [ 7047673.777028666809201, 9191780.266467206180096 ], [ 7047683.209570554085076, 9191731.99104430899024 ], [ 7047680.021827233955264, 9191658.679073633626103 ], [ 7047659.426886080764234, 9191582.77730980142951 ], [ 7047655.949192699044943, 9191532.387908531352878 ], [ 7047667.565458239987493, 9191460.428859243169427 ], [ 7047683.598794031888247, 9191328.306241326034069 ], [ 7047696.198631192557514, 9191264.387868775054812 ], [ 7047700.278175693936646, 9191210.966523259878159 ], [ 7047715.861384288407862, 9191112.552656104788184 ], [ 7047721.165469966828823, 9191072.552892914041877 ], [ 7047729.145770172588527, 9191035.137523308396339 ], [ 7047732.769345351494849, 9191000.605392994359136 ], [ 7047743.36189578846097, 9190964.403139639645815 ], [ 7047760.909350611269474, 9190925.879324205219746 ], [ 7047790.770679100416601, 9190876.022578779608011 ], [ 7047806.42749481741339, 9190854.44184754230082 ], [ 7047824.62562158703804, 9190829.362027199938893 ], [ 7047847.895035466179252, 9190804.735337633639574 ], [ 7047976.330091236159205, 9190723.515688344836235 ], [ 7048204.222316265106201, 9190601.454606110230088 ], [ 7048300.656177753582597, 9190547.588389681652188 ], [ 7048366.832569187507033, 9190510.625252719968557 ], [ 7048433.026853093877435, 9190471.262789431959391 ], [ 7048485.271662659011781, 9190435.229675941169262 ], [ 7048515.434734092094004, 9190392.099148817360401 ], [ 7048538.138470841571689, 9190325.033327570185065 ], [ 7048531.479223899543285, 9190230.979750376194715 ], [ 7048509.89873949624598, 9190176.688245473429561 ], [ 7048483.603143837302923, 9190132.035442251712084 ], [ 7048415.987018865533173, 9190079.795093977823853 ], [ 7048394.58903874643147, 9190059.177998570725322 ], [ 7048353.711770474910736, 9190032.700875874608755 ], [ 7048314.804520557634532, 9189963.000337522476912 ], [ 7048296.761360530741513, 9189901.806613875553012 ], [ 7048298.825495967641473, 9189821.207826711237431 ], [ 7047322.991510127671063, 9188490.866596587002277 ], [ 7046005.712928377091885, 9186695.563101172447205 ], [ 7045908.04883839096874, 9186588.468990499153733 ], [ 7041954.14234577678144, 9182202.659542927518487 ], [ 7041914.779156581498682, 9182184.172837285324931 ], [ 7041857.121761150658131, 9182144.202227549627423 ], [ 7041775.636568298563361, 9182044.500544726848602 ], [ 7041695.174811969511211, 9181924.484452057629824 ], [ 7041647.310782593674958, 9181888.131419636309147 ], [ 7041591.526266301050782, 9181890.650416677817702 ], [ 7041554.383540575392544, 9181922.739593636244535 ], [ 7041517.102764901705086, 9181995.371348218992352 ], [ 7041482.448575332760811, 9182084.099931992590427 ], [ 7041459.261079231277108, 9182170.291873048990965 ], [ 7041436.379408173263073, 9182219.973012806847692 ], [ 7041397.351043763570487, 9182256.767856553196907 ], [ 7041378.352669301442802, 9182287.161611847579479 ], [ 7041366.850151110440493, 9182312.126653764396906 ], [ 7041351.765598210506141, 9182343.36663119867444 ], [ 7041325.410174716264009, 9182360.852735010907054 ], [ 7041291.139970133081079, 9182352.208765756338835 ], [ 7041252.455761670134962, 9182331.553681846708059 ], [ 7041189.488081216812134, 9182331.340420285239816 ], [ 7041131.244673385284841, 9182350.271868415176868 ], [ 7041087.512665148824453, 9182390.952459305524826 ], [ 7041065.481453251093626, 9182418.427682377398014 ], [ 7041041.636842230334878, 9182449.035318907350302 ], [ 7041033.627497440204024, 9182487.082995479926467 ], [ 7041004.978114348836243, 9182540.31882886774838 ], [ 7040984.036373074166477, 9182570.799963895231485 ], [ 7040957.659795576706529, 9182609.677280016243458 ], [ 7040944.725331099703908, 9182645.905707892030478 ], [ 7040953.550594751723111, 9182692.366448676213622 ], [ 7040963.766961868852377, 9182726.528855623677373 ], [ 7040974.994081359356642, 9182761.663929078727961 ], [ 7040973.710725306533277, 9182798.386787328869104 ], [ 7040963.067879639565945, 9182842.671460598707199 ], [ 7040958.43894044496119, 9182891.769765071570873 ], [ 7040943.630134576931596, 9182951.511398464441299 ], [ 7040921.385293200612068, 9182996.300234502181411 ], [ 7040890.842286545783281, 9183050.645464586094022 ], [ 7040871.917730274610221, 9183126.865883937105536 ], [ 7040866.558101291768253, 9183181.090224027633667 ], [ 7040885.960666274651885, 9183226.039763273671269 ], [ 7040888.849141865968704, 9183269.708791958168149 ], [ 7040879.737337939441204, 9183304.750044822692871 ], [ 7040871.984918895177543, 9183348.896915305405855 ], [ 7040879.527640402317047, 9183388.274086836725473 ], [ 7040881.275411339476705, 9183427.914719760417938 ], [ 7040869.080729620531201, 9183459.027349177747965 ], [ 7040845.593663018196821, 9183497.765967426821589 ], [ 7040833.359179509803653, 9183527.855899348855019 ], [ 7040830.872715213336051, 9183559.539941733703017 ], [ 7040824.141482837498188, 9183604.65883925370872 ], [ 7040795.959801162593067, 9183646.666361097246408 ], [ 7040774.487553682178259, 9183664.946778355166316 ], [ 7040746.339136971160769, 9183685.573547253385186 ], [ 7040723.726519891992211, 9183699.825474973767996 ], [ 7040682.483445928432047, 9183731.221426339820027 ], [ 7040638.488675624132156, 9183765.798126103356481 ], [ 7040579.434280311688781, 9183832.623589951545 ], [ 7040555.777904861606658, 9183867.306101899594069 ], [ 7040535.32194079272449, 9183908.961586583405733 ], [ 7040532.755880136042833, 9183938.611570723354816 ], [ 7040515.775466980412602, 9183970.947613192722201 ], [ 7040491.61882827617228, 9183994.44216962531209 ], [ 7040452.497343294322491, 9184029.815061097964644 ], [ 7040435.517161965370178, 9184062.162502555176616 ], [ 7040414.45946085639298, 9184111.987742457538843 ], [ 7040397.737563779577613, 9184150.434769494459033 ], [ 7040375.921780798584223, 9184182.984109142795205 ], [ 7040346.940894106402993, 9184206.691482432186604 ], [ 7040309.840284464880824, 9184244.009010516107082 ], [ 7040289.164885270409286, 9184280.598047222942114 ], [ 7040256.606261965818703, 9184332.981985922902822 ], [ 7040237.244243037886918, 9184355.239496679976583 ], [ 7040204.372355445288122, 9184356.720126323401928 ], [ 7040181.344197932630777, 9184339.425419406965375 ], [ 7040149.443898771889508, 9184340.867783347144723 ], [ 7040124.814600860700011, 9184375.587093833833933 ], [ 7040074.539440342225134, 9184421.638718938454986 ], [ 7040046.967523395083845, 9184455.472778983414173 ], [ 7040025.892749283462763, 9184482.906253337860107 ], [ 7039986.051518583670259, 9184502.012686287984252 ], [ 7039960.675425531342626, 9184519.455657618120313 ], [ 7039941.531722607091069, 9184546.789629429578781 ], [ 7039928.014927703887224, 9184569.805608792230487 ], [ 7039909.011527292430401, 9184600.194649718701839 ], [ 7039883.175393857061863, 9184607.47260002605617 ], [ 7039851.684170960448682, 9184618.057060709223151 ], [ 7039825.987960605882108, 9184628.378482561558485 ], [ 7039803.273719640448689, 9184640.607443144544959 ], [ 7039778.896618459373713, 9184659.011523820459843 ], [ 7039755.272547608241439, 9184683.158132618293166 ], [ 7039735.347774435766041, 9184703.749306404963136 ], [ 7039721.511250093579292, 9184719.655323436483741 ], [ 7039714.889637531712651, 9184745.413675574585795 ], [ 7039706.79557497613132, 9184776.268986856564879 ], [ 7039702.44898471981287, 9184792.813981654122472 ], [ 7039694.075063062831759, 9184822.725987335667014 ], [ 7039675.688196647912264, 9184867.346021754667163 ], [ 7039670.599985593929887, 9184883.873593952506781 ], [ 7039657.148684266023338, 9184930.31262662820518 ], [ 7039641.086876302957535, 9184961.58593263104558 ], [ 7039623.425796836614609, 9184978.677853552624583 ], [ 7039599.750609969720244, 9184990.944024726748466 ], [ 7039569.260767031461, 9185008.272829825058579 ], [ 7037190.300481211394072, 9188402.433866657316685 ], [ 7037088.187881536781788, 9188448.94687881320715 ], [ 7036984.069333502091467, 9188482.133222194388509 ], [ 7036881.008440879173577, 9188522.980589022859931 ], [ 7036834.221189857460558, 9188542.811274642124772 ], [ 7036741.015842669643462, 9188573.963755749166012 ], [ 7036655.788072695955634, 9188620.186185494065285 ], [ 7036567.833986923098564, 9188671.145703235641122 ], [ 7036515.146633668802679, 9188740.564400024712086 ], [ 7036447.01415079087019, 9188842.281755194067955 ], [ 7036360.16912174411118, 9189002.639628320932388 ], [ 7036333.151140842586756, 9189055.496753957122564 ], [ 7036308.049236550927162, 9189085.135909358039498 ], [ 7036278.245773918926716, 9189141.196635745465755 ], [ 7036254.441883763298392, 9189166.921898283064365 ], [ 7036214.10257594101131, 9189200.332594614475965 ], [ 7036198.846131820231676, 9189220.289997236803174 ], [ 7036185.926762774586678, 9189244.949837928637862 ], [ 7036169.071587244048715, 9189277.116967974230647 ], [ 7036141.822814335115254, 9189341.547695895656943 ], [ 7036104.168928956612945, 9189419.532592596486211 ], [ 7036046.135714935138822, 9189517.709132755175233 ], [ 7035994.812765751034021, 9189584.754643419757485 ], [ 7035969.170387798920274, 9189602.080229198560119 ], [ 7035937.418994637206197, 9189613.524163169786334 ], [ 7035888.09299984946847, 9189625.758979342877865 ], [ 7035840.914223495870829, 9189653.303211648017168 ], [ 7035794.004031924530864, 9189703.96748754568398 ], [ 7035744.166528647765517, 9189771.709780992940068 ], [ 7035713.522149679251015, 9189808.532713457942009 ], [ 7035709.767303813248873, 9189823.351147929206491 ], [ 7035716.116337423212826, 9189834.62208360619843 ], [ 7035740.210213468410075, 9189848.958547307178378 ], [ 7035755.740622600540519, 9189860.592514902353287 ], [ 7035764.296482543461025, 9189888.729737665504217 ], [ 7035773.921657067723572, 9189907.563674800097942 ], [ 7035795.717702974565327, 9189936.650215055793524 ], [ 7035810.962367107160389, 9189983.759382160380483 ], [ 7035818.728824413381517, 9190027.344113394618034 ], [ 7035811.089157686568797, 9190053.891165591776371 ], [ 7035785.385542206466198, 9190086.634873170405626 ], [ 7035759.839777850545943, 9190173.336039129644632 ], [ 7035743.921719903126359, 9190211.817774416878819 ], [ 7035728.763172930106521, 9190234.073745699599385 ], [ 7035725.048464548774064, 9190249.658450905233622 ], [ 7035724.985863752663136, 9190282.029748609289527 ], [ 7035731.892228252254426, 9190339.528622223064303 ], [ 7035730.272637470625341, 9190369.656906452029943 ], [ 7035716.68021959066391, 9190411.119364090263844 ], [ 7035670.313016319647431, 9190507.998003287240863 ], [ 7035623.324992745183408, 9190624.167978677898645 ], [ 7035574.462672383524477, 9190697.256194831803441 ], [ 7035538.843614581972361, 9190721.205140590667725 ], [ 7035507.918910201638937, 9190734.918363258242607 ], [ 7035492.462611862458289, 9190736.742597876116633 ], [ 7035476.555369357578456, 9190738.630945673212409 ], [ 7035448.696482877247036, 9190755.296177286654711 ], [ 7035428.634583061560988, 9190766.212266301736236 ], [ 7035413.866793691180646, 9190763.786138428375125 ], [ 7035399.798379803076386, 9190760.564843840897083 ], [ 7035376.027719037607312, 9190778.58312352001667 ], [ 7035334.358078118413687, 9190798.171656806021929 ], [ 7035304.960631985217333, 9190813.36079877614975 ], [ 7035266.487861884757876, 9190822.015789395198226 ], [ 7035248.985163127072155, 9190807.386563053354621 ], [ 7035231.016315568238497, 9190765.026504646986723 ], [ 7035216.248537275008857, 9190762.600355569273233 ], [ 7035184.71587756741792, 9190762.479815389961004 ], [ 7035143.867663915269077, 9190750.424415860325098 ], [ 7035128.763273454271257, 9190723.357346469536424 ], [ 7035114.907948235981166, 9190674.647533243522048 ], [ 7035091.296079492196441, 9190654.125135011970997 ], [ 7035082.841193683445454, 9190628.299849722534418 ], [ 7035069.562765599228442, 9190609.631823405623436 ], [ 7035027.626448340713978, 9190606.11246681958437 ], [ 7034962.503644651733339, 9190609.023425905033946 ], [ 7034918.008151387795806, 9190631.048730786889791 ], [ 7034888.789375169202685, 9190667.044991459697485 ], [ 7034868.367120982147753, 9190686.444738376885653 ], [ 7034839.601291662082076, 9190682.341989452019334 ], [ 7034814.349377105943859, 9190674.995849203318357 ], [ 7034763.10696960799396, 9190676.516036123037338 ], [ 7034714.010006044059992, 9190677.173045272007585 ], [ 7034687.072251352481544, 9190664.50583559460938 ], [ 7034632.975315396673977, 9190634.549589930102229 ], [ 7034561.126631662249565, 9190600.771172834560275 ], [ 7034484.056133006699383, 9190564.916092172265053 ], [ 7034448.561555029824376, 9190541.064551593735814 ], [ 7034434.393993803299963, 9190535.54360961727798 ], [ 7034416.200585925020278, 9190538.661029871553183 ], [ 7034388.633795265108347, 9190528.333808204159141 ], [ 7034365.57888425514102, 9190520.890575621277094 ], [ 7034334.537415621802211, 9190498.389709485694766 ], [ 7034304.428147081285715, 9190446.557407766580582 ], [ 7034281.056996271014214, 9190398.278627458959818 ], [ 7034236.186584871262312, 9190377.93421645835042 ], [ 7034214.331065144389868, 9190364.278247522190213 ], [ 7034205.97552676871419, 9190340.753757497295737 ], [ 7034204.202034904621542, 9190299.986704036593437 ], [ 7034183.437004413455725, 9190260.844251099973917 ], [ 7034151.766410273499787, 9190240.683611325919628 ], [ 7034091.599024901166558, 9190222.564725464209914 ], [ 7034065.057375578209758, 9190236.082920307293534 ], [ 7034055.649792743846774, 9190255.774008136242628 ], [ 7034059.452588984742761, 9190275.63651923649013 ], [ 7034081.315194372087717, 9190323.21731660887599 ], [ 7034089.210696576163173, 9190352.914084976539016 ], [ 7034089.857384874485433, 9190384.487298304215074 ], [ 7034109.455113488249481, 9190413.669814512133598 ], [ 7034124.620612781494856, 9190425.317884344607592 ], [ 7034147.304545706138015, 9190441.256805619224906 ], [ 7034156.030903443694115, 9190456.285479443147779 ], [ 7034148.150040538981557, 9190477.441135140135884 ], [ 7034124.25218897126615, 9190517.812438225373626 ], [ 7034111.389176638796926, 9190542.280149292200804 ], [ 7034115.951530979014933, 9190555.4234947450459 ], [ 7034120.612903654575348, 9190568.84220714122057 ], [ 7034137.062232135795057, 9190626.674656175076962 ], [ 7034157.370821246877313, 9190722.877664782106876 ], [ 7034192.489541382528841, 9190805.3106520306319 ], [ 7034215.219648908823729, 9190855.92985943518579 ], [ 7034210.772377168759704, 9190888.492809016257524 ], [ 7034197.979124959558249, 9190914.505021898075938 ], [ 7034170.555212263017893, 9190958.119571281597018 ], [ 7034135.012984992004931, 9191000.549375021830201 ], [ 7034119.223568485118449, 9191025.142381519079208 ], [ 7034119.059636885300279, 9191055.211472384631634 ], [ 7034127.919572265818715, 9191107.220218136906624 ], [ 7034143.899816883727908, 9191154.286421911790967 ], [ 7034152.652027804404497, 9191187.033235488459468 ], [ 7034164.139084812253714, 9191231.994195267558098 ], [ 7034165.120024479925632, 9191288.207329781726003 ], [ 7034169.02655472792685, 9191344.294928178191185 ], [ 7034163.021738845854998, 9191374.61472643725574 ], [ 7034165.484340844675899, 9191397.624359279870987 ], [ 7034170.453193679451942, 9191427.458776263520122 ], [ 7034164.967299658805132, 9191453.139573713764548 ], [ 7034164.015260104089975, 9191481.703663509339094 ], [ 7034153.377217044122517, 9191506.840390412136912 ], [ 7034131.710842332802713, 9191564.830766273662448 ], [ 7034105.717463535256684, 9191641.522605042904615 ], [ 7034085.905048531480134, 9191657.825213246047497 ], [ 7034063.225550091825426, 9191675.786693314090371 ], [ 7034002.606561340391636, 9191731.674061961472034 ], [ 7033979.425294887274504, 9191741.441221313551068 ], [ 7033951.49938103556633, 9191753.219506464898586 ], [ 7033891.497792609035969, 9191755.903077149763703 ], [ 7033864.527362869121134, 9191759.418833762407303 ], [ 7033842.547113632783294, 9191776.584878820925951 ], [ 7033796.198270341381431, 9191823.353392537683249 ], [ 7033753.043304884806275, 9191876.140140399336815 ], [ 7033722.08405061531812, 9191906.045323505997658 ], [ 7033685.203451104462147, 9191934.668304525315762 ], [ 7033656.503155928105116, 9191949.047236237674952 ], [ 7033630.699280356988311, 9191962.533994974568486 ], [ 7033620.43198339920491, 9191979.174199365079403 ], [ 7033601.37672740034759, 9191996.202692233026028 ], [ 7033566.629875196143985, 9192010.362869173288345 ], [ 7034914.375268320553005, 9192981.31042967364192 ], [ 7036019.494589283131063, 9192907.723828628659248 ], [ 7036035.735861578024924, 9192897.20230527035892 ], [ 7036063.954601863399148, 9192872.53193398937583 ], [ 7036074.749358313158154, 9192870.250480577349663 ], [ 7036091.758667434565723, 9192865.062860602512956 ], [ 7036107.244919616729021, 9192859.666851591318846 ], [ 7036125.036158325150609, 9192854.972381500527263 ], [ 7036140.858168806880713, 9192851.704178994521499 ], [ 7036149.449271705001593, 9192851.370044467970729 ], [ 7036159.400571824982762, 9192853.635849682614207 ], [ 7036167.007250286638737, 9192853.875223880633712 ], [ 7036177.050285376608372, 9192851.890580929815769 ], [ 7036182.970401580445468, 9192847.937032036483288 ], [ 7036201.654638830572367, 9192833.631925825029612 ], [ 7036228.178319334052503, 9192812.354826463386416 ], [ 7036241.04465770535171, 9192804.675373468548059 ], [ 7036253.189064536243677, 9192798.07116967625916 ], [ 7036274.138082204386592, 9192790.065655969083309 ], [ 7036291.513024409301579, 9192781.14032968878746 ], [ 7036308.085121370851994, 9192771.175760343670845 ], [ 7036332.883541384711862, 9192757.703066883608699 ], [ 7036357.213182565756142, 9192745.563367085531354 ], [ 7036380.487695099785924, 9192732.149875631555915 ], [ 7036392.622265532612801, 9192725.289960715919733 ], [ 7036406.849568572826684, 9192719.942672511562705 ], [ 7036417.552672322839499, 9192715.267710637301207 ], [ 7036426.630083485506475, 9192707.991474820300937 ], [ 7036444.746421205811203, 9192698.501895746216178 ], [ 7036458.475977290421724, 9192693.441544620320201 ], [ 7036469.077605955302715, 9192692.761459017172456 ], [ 7036476.05321482848376, 9192690.093157280236483 ], [ 7036497.520303489640355, 9192682.334832375869155 ], [ 7036507.736254289746284, 9192677.934749681502581 ], [ 7036516.824240359477699, 9192677.581155400723219 ], [ 7036527.964503465220332, 9192677.682941878214478 ], [ 7036537.825465215370059, 9192677.299269121140242 ], [ 7036549.16901233792305, 9192676.066694933921099 ], [ 7036557.180535240098834, 9192673.881660163402557 ], [ 7036561.618432423099875, 9192670.788473008200526 ], [ 7036569.142067046836019, 9192662.502135042101145 ], [ 7036576.940130005590618, 9192654.740345910191536 ], [ 7036594.822483296506107, 9192639.139422552660108 ], [ 7036617.496814472600818, 9192623.340364182367921 ], [ 7036641.978420918807387, 9192601.885866614058614 ], [ 7036667.426431331783533, 9192585.455174634233117 ], [ 7036679.581346655264497, 9192579.129466744139791 ], [ 7036704.835897887125611, 9192571.223485998809338 ], [ 7036731.482195874676108, 9192566.451470386236906 ], [ 7036752.532830574549735, 9192561.105979558080435 ], [ 7036766.119146324694157, 9192552.595186842605472 ], [ 7036779.10713367909193, 9192548.098690198734403 ], [ 7036793.628766207024455, 9192543.79848114028573 ], [ 7036810.607586289756, 9192537.820180352777243 ], [ 7036825.880100383423269, 9192533.490725789219141 ], [ 7036844.463365131057799, 9192529.846901345998049 ], [ 7036855.785961757414043, 9192528.068112002685666 ], [ 7036870.073253895156085, 9192524.579839011654258 ], [ 7036881.081373281776905, 9192521.230825331062078 ], [ 7036891.174533464945853, 9192513.914736710488796 ], [ 7036901.085698720067739, 9192508.199815053492785 ], [ 7036915.840451731346548, 9192503.634465146809816 ], [ 7036930.798019045032561, 9192497.723102558404207 ], [ 7036947.288863942958415, 9192492.287289723753929 ], [ 7036957.52480511367321, 9192488.700667705386877 ], [ 7036968.857619212940335, 9192487.189050573855639 ], [ 7036982.475413358770311, 9192485.856108577921987 ], [ 7036997.38274526130408, 9192485.275833556428552 ], [ 7037013.477736171334982, 9192482.787599937990308 ], [ 7037029.004631428048015, 9192478.459747301414609 ], [ 7037046.236921625211835, 9192472.459759267047048 ], [ 7037060.210060524754226, 9192467.121874401345849 ], [ 7037074.385642493143678, 9192460.717239998281002 ], [ 7037089.648313033394516, 9192456.132005268707871 ], [ 7037106.779216873459518, 9192454.12699980288744 ], [ 7037127.698128448799253, 9192451.986157244071364 ], [ 7037142.05737217143178, 9192450.089034918695688 ], [ 7037161.34110532514751, 9192444.811970414593816 ], [ 7037179.01954890601337, 9192437.468021996319294 ], [ 7037191.813898459076881, 9192427.917211841791868 ], [ 7037207.705329518765211, 9192413.184200303629041 ], [ 7037227.464371982030571, 9192394.041842868551612 ], [ 7037257.653647850267589, 9192376.099092546850443 ], [ 7037277.759082080796361, 9192359.07252324000001 ], [ 7037295.924357205629349, 9192344.518462087959051 ], [ 7037308.504560977220535, 9192329.378964385017753 ], [ 7037326.608825888484716, 9192313.233095642179251 ], [ 7037349.739789706654847, 9192296.088567234575748 ], [ 7037367.245782181620598, 9192283.957062568515539 ], [ 7037409.528105416335166, 9192258.084338219836354 ], [ 7037462.340212974697351, 9192229.660356536507607 ], [ 7037484.598824166692793, 9192216.017087092623115 ], [ 7037512.014876693487167, 9192198.437730802223086 ], [ 7037535.207075159996748, 9192182.896241709589958 ], [ 7037548.824103473685682, 9192174.907132059335709 ], [ 7037565.639248684048653, 9192164.664034148678184 ], [ 7037580.686796559020877, 9192154.757396383211017 ], [ 7037591.714100589975715, 9192145.274969419464469 ], [ 7037607.492952338419855, 9192127.613429326564074 ], [ 7037632.987854167819023, 9192099.729202043265104 ], [ 7037655.26490818336606, 9192073.29677271284163 ], [ 7037662.087584047578275, 9192066.642734255641699 ], [ 7037667.987684387713671, 9192061.886416865512729 ], [ 7037682.071246379055083, 9192053.087711026892066 ], [ 7037693.971353472210467, 9192046.759470151737332 ], [ 7037711.853476269170642, 9192037.812746081501245 ], [ 7037730.537233952432871, 9192030.161294968798757 ], [ 7037751.861163339577615, 9192018.68337538652122 ], [ 7037783.481360018253326, 9192005.198458960279822 ], [ 7037827.216287348419428, 9191984.061884239315987 ], [ 7037849.524077421054244, 9191971.998589375987649 ], [ 7037863.903297027572989, 9191963.99108506180346 ], [ 7037876.47351541928947, 9191955.239517571404576 ], [ 7037885.053444111719728, 9191947.981599472463131 ], [ 7037899.665331261232495, 9191939.69735505618155 ], [ 7037911.149157023057342, 9191935.782238764688373 ], [ 7037917.648091705515981, 9191933.667179014533758 ], [ 7037932.574957492761314, 9191926.964803447946906 ], [ 7037950.476996768265963, 9191918.540661513805389 ], [ 7037962.895642424933612, 9191912.471273384988308 ], [ 7037970.867191120050848, 9191908.960629362612963 ], [ 7037979.497064095921814, 9191903.294876910746098 ], [ 7037990.057167886756361, 9191894.90080901235342 ], [ 7038003.135269701480865, 9191886.12932651117444 ], [ 7038011.461173679679632, 9191878.881217023357749 ], [ 7038018.650743192061782, 9191874.877385415136814 ], [ 7038027.911838304251432, 9191872.119361333549023 ], [ 7038036.187773421406746, 9191870.202638003975153 ], [ 7038044.68694547843188, 9191867.474301973357797 ], [ 7038051.906002910807729, 9191864.52821715734899 ], [ 7038066.173698618076742, 9191860.248502004891634 ], [ 7038079.019115323200822, 9191858.677308473736048 ], [ 7038092.403215521946549, 9191857.888026786968112 ], [ 7038102.191944411024451, 9191855.912321818992496 ], [ 7038109.650416710413992, 9191855.749625258147717 ], [ 7038116.611984200775623, 9191855.606294892728329 ], [ 7038122.241979071870446, 9191855.922137290239334 ], [ 7038132.829183406196535, 9191856.312405800446868 ], [ 7038167.190673382952809, 9191858.952789336442947 ], [ 7038114.798626664094627, 9191617.107173355296254 ], [ 7038116.321283411234617, 9191559.924620170146227 ], [ 7038123.963914337567985, 9191561.104459373280406 ], [ 7038125.015745657496154, 9191565.462017485871911 ], [ 7038141.396278897300363, 9191590.90059076808393 ], [ 7038163.360238645225763, 9191612.269848328083754 ], [ 7038177.857065479271114, 9191626.366572927683592 ], [ 7038186.970874277874827, 9191635.052773471921682 ], [ 7038193.230752288363874, 9191648.621196979656816 ], [ 7038198.565703480504453, 9191660.852584445849061 ], [ 7038209.748467552475631, 9191680.233516998589039 ], [ 7038212.865329828113317, 9191686.244424823671579 ], [ 7038216.318960543721914, 9191691.520743796601892 ], [ 7038231.557618781924248, 9191707.659919988363981 ], [ 7038261.263009509071708, 9191739.130596345290542 ], [ 7038272.589246495626867, 9191723.899057257920504 ], [ 7038277.028907588683069, 9191721.724498733878136 ], [ 7038299.750297699123621, 9191720.454697404056787 ], [ 7038305.403980737552047, 9191724.272160133346915 ], [ 7038307.367963314056396, 9191726.173802986741066 ], [ 7038309.332391440868378, 9191728.087065305560827 ], [ 7038318.824323806911707, 9191734.233477687463164 ], [ 7038338.502923365682364, 9191745.03302669338882 ], [ 7038371.667333029210567, 9191750.198398742824793 ], [ 7038394.084676122292876, 9191744.460362678393722 ], [ 7038414.968427123501897, 9191737.37406875193119 ], [ 7038436.041504862718284, 9191721.960204686969519 ], [ 7038462.457958562299609, 9191697.947971390560269 ], [ 7038481.1760996542871, 9191681.974183347076178 ], [ 7038494.046063808724284, 9191678.73776863515377 ], [ 7038501.646301514469087, 9191708.510496731847525 ], [ 7038522.023362522944808, 9191692.250898478552699 ], [ 7038542.881950997747481, 9191674.995005985721946 ], [ 7038556.235884846188128, 9191668.807253686711192 ], [ 7038576.893027890473604, 9191664.46422953158617 ], [ 7038586.337438540533185, 9191724.152890127152205 ], [ 7038604.686771597713232, 9191719.899889308959246 ], [ 7038615.771506819874048, 9191715.674122931435704 ], [ 7038618.763026682659984, 9191708.901286890730262 ], [ 7038651.849333331920207, 9191654.943392919376493 ], [ 7038687.27778631541878, 9191608.71385471150279 ], [ 7038695.50600446946919, 9191606.996564418077469 ], [ 7038716.628640790469944, 9191587.40273105353117 ], [ 7038766.187456445768476, 9191530.730503764003515 ], [ 7038841.735772160813212, 9191456.519892645999789 ], [ 7038863.036426481790841, 9191440.130536586046219 ], [ 7038877.946367868222296, 9191434.149415181949735 ], [ 7038888.649471271783113, 9191431.509252896532416 ], [ 7038933.717657401226461, 9191433.335302604362369 ], [ 7039004.798368321731687, 9191438.103103887289762 ], [ 7039016.588983127847314, 9191434.408067654818296 ], [ 7039070.738335469737649, 9191477.493553606793284 ], [ 7039097.755116669461131, 9191515.539857439696789 ], [ 7039148.726720752194524, 9191608.963287884369493 ], [ 7039208.916994545608759, 9191578.628425359725952 ], [ 7039307.128146603703499, 9191535.347560953348875 ], [ 7039378.000165743753314, 9191506.548067208379507 ], [ 7039383.765551098622382, 9191451.782179581001401 ], [ 7039528.691303860396147, 9191416.068434897810221 ], [ 7039551.870500712655485, 9191461.014661520719528 ], [ 7039672.120440906845033, 9191379.399821361526847 ], [ 7039657.655162124894559, 9191206.847839292138815 ], [ 7039589.84122272580862, 9191107.726936502382159 ], [ 7039615.950324524194002, 9191099.07363822683692 ], [ 7039648.830171715468168, 9191092.797649590298533 ], [ 7039673.565107653848827, 9191082.917826343327761 ], [ 7039687.975017569027841, 9191068.530117696151137 ], [ 7039709.340246992185712, 9191042.896825652569532 ], [ 7039721.715622708201408, 9191033.988218264654279 ], [ 7039733.911511205136776, 9191023.573749767616391 ], [ 7039753.46895645186305, 9191015.082934256643057 ], [ 7039783.197729701176286, 9191003.355429152026772 ], [ 7039803.495390348136425, 9190992.543089587241411 ], [ 7039823.278436611406505, 9190961.711207015439868 ], [ 7039835.471519462764263, 9190941.148910066112876 ], [ 7039892.616527342237532, 9190903.271880986168981 ], [ 7039912.470277177169919, 9190887.239829117432237 ], [ 7039926.483947440050542, 9190871.179799076169729 ], [ 7039974.467921476811171, 9190792.032814044505358 ], [ 7040012.7332668825984, 9190874.991619262844324 ], [ 7040237.770337108522654, 9190761.986957218497992 ], [ 7040307.932164961472154, 9190723.285553289577365 ], [ 7040445.161297771148384, 9190125.061045158654451 ], [ 7040453.784844445064664, 9190076.415418541058898 ] ] ] } }
]
}
