{
"type": "FeatureCollection",
"name": "2501203",
"crs": { "type": "name", "properties": { "name": "urn:ogc:def:crs:EPSG::5880" } },
"features": [
{ "type": "Feature", "properties": { "lv_id": "LOC_023091", "id": 94971.0, "CD_SETOR": "250120305000001", "SITUACAO": "Urbana", "CD_SIT": "1", "CD_TIPO": "0", "AREA_KM2": 0.084168186278585994, "CD_REGIAO": "2", "NM_REGIAO": "Nordeste", "CD_UF": "25", "NM_UF": "Paraíba", "CD_MUN": "2501203", "NM_MUN": "Areial", "CD_DIST": "250120305", "NM_DIST": "Areial", "CD_SUBDIST": "25012030500", "NM_SUBDIST": null, "CD_BAIRRO": null, "NM_BAIRRO": null, "CD_NU": null, "NM_NU": null, "CD_FCU": null, "NM_FCU": null, "CD_AGLOM": null, "NM_AGLOM": null, "CD_RGINT": "2502", "NM_RGINT": "Campina Grande", "CD_RGI": "250005", "NM_RGI": "Campina Grande", "CD_CONCURB": null, "NM_CONCURB": null, "mun_code_x": "2501203", "index_right": 47749, "dist_m": 0.0, "local_id": 236350, "ano": 2022, "cod_localidade_ibge": 2501203, "NR_ZONA": "19", "nr_cep": 58140000.0, "nm_localidade": "AREIAL", "nm_locvot": "ESCOLA MUNICIPAL FRANCISCO APOLINÁRIO DA SILVA", "ds_endereco": "RUA JOAQUIM FONSECA S/N", "ds_bairro": "CENTRO", "pred_long": -35.925233, "pred_lat": -7.051587, "pred_dist": 0.0, "tse_long": -35.9273229, "tse_lat": -7.0493292, "long": -35.9273229, "lat": -7.0493292, "ID_UNICO": "LOC_023091", "SG_UF": "PB", "CD_MUNICIPIO": "19232", "NR_LOCAL_VOTACAO": "1040", "QT_SECOES_AGREGADAS": 0, "QT_ELEITORES_TRANSFERIDOS": 0, "CIRO GOMES (PDT) (NÃO ELEITO) 1T": 101.0, "CONSTITUINTE EYMAEL (DC) (NÃO ELEITO) 1T": 1.0, "FELIPE D AVILA (NOVO) (NÃO ELEITO) 1T": 2.0, "JAIR BOLSONARO (PL) (2º TURNO) 1T": 655.0, "LULA (PT) (2º TURNO) 1T": 2238.0, "LÉO PÉRICLES (UP) (NÃO ELEITO) 1T": 2.0, "PADRE KELMON (PTB) (NÃO ELEITO) 1T": 2.0, "SIMONE TEBET (MDB) (NÃO ELEITO) 1T": 99.0, "SOFIA MANZANO (PCB) (NÃO ELEITO) 1T": 0.0, "SORAYA THRONICKE (UNIÃO) (NÃO ELEITO) 1T": 6.0, "VERA (PSTU) (NÃO ELEITO) 1T": 1.0, "Total_Votos_Validos 1T": 3107.0, "Votos_Brancos 1T": 81.0, "Votos_Nulos 1T": 144.0, "Abstenções 1T": 780.0, "Eleitores_Aptos 1T": 4112.0, "JAIR BOLSONARO (PL) (NÃO ELEITO) 2T": 759.0, "LULA (PT) (ELEITO) 2T": 2398.0, "Total_Votos_Validos 2T": 3157.0, "Votos_Brancos 2T": 63.0, "Votos_Nulos 2T": 198.0, "Abstenções 2T": 694.0, "Eleitores_Aptos 2T": 4112.0, "mun_code_y": "2501203", "mun_code": "2501203" }, "geometry": { "type": "Polygon", "coordinates": [ [ [ 6992333.51145706884563, 9179772.50155421718955 ], [ 6991708.121967487968504, 9179507.351585242897272 ], [ 6991382.748558616265655, 9179745.625702425837517 ], [ 6991383.557088335044682, 9179745.373775342479348 ], [ 6991396.557589194737375, 9179741.28240443021059 ], [ 6991406.454944595694542, 9179743.371982887387276 ], [ 6991412.110084978863597, 9179747.286241244524717 ], [ 6991432.288449817337096, 9179784.71489529311657 ], [ 6991459.169922618195415, 9179837.883337264880538 ], [ 6991471.400238176807761, 9179859.690284501761198 ], [ 6991488.108869148418307, 9179885.863517560064793 ], [ 6991506.845320171676576, 9179913.606940748170018 ], [ 6991515.563221235759556, 9179925.646158630028367 ], [ 6991537.85887414496392, 9179964.386381404474378 ], [ 6991587.896530247293413, 9180040.018975516781211 ], [ 6991600.852655118331313, 9180060.567294362932444 ], [ 6991616.029366908594966, 9180077.302594099193811 ], [ 6991687.179847202263772, 9180171.101487716659904 ], [ 6991751.082091600634158, 9180270.53417681157589 ], [ 6991772.050318448804319, 9180305.204669158905745 ], [ 6991792.537991498596966, 9180337.42073367536068 ], [ 6991808.258340521715581, 9180358.268719909712672 ], [ 6991968.622773943468928, 9180512.776426343247294 ], [ 6991994.685160549357533, 9180534.037008594721556 ], [ 6992025.67165813781321, 9180551.925595795735717 ], [ 6992048.265508079901338, 9180561.663190416991711 ], [ 6992077.233664449304342, 9180568.077103767544031 ], [ 6992156.2539476538077, 9180586.126315841451287 ], [ 6992254.093299206346273, 9180608.857650492340326 ], [ 6992335.700610122643411, 9180630.092712191864848 ], [ 6992401.138590380549431, 9180650.897291006520391 ], [ 6992475.691546039655805, 9180672.405617060139775 ], [ 6992550.325412046164274, 9180696.035722490400076 ], [ 6992603.865358017385006, 9180722.595902943983674 ], [ 6992624.762053873389959, 9180740.887263121083379 ], [ 6992651.349552976898849, 9180775.92234112508595 ], [ 6992668.577591739594936, 9180856.928861232474446 ], [ 6992713.440014753490686, 9181053.559039410203695 ], [ 6992727.634155878797174, 9181081.654670046642423 ], [ 6992738.327247858978808, 9181150.188602467998862 ], [ 6992749.627977116964757, 9181181.566178202629089 ], [ 6992766.935989009216428, 9181264.706695020198822 ], [ 6992786.696363972499967, 9181359.410189917311072 ], [ 6992794.128878101706505, 9181395.18733137473464 ], [ 6992791.620920710265636, 9181435.587208839133382 ], [ 6992776.294769805856049, 9181510.434394184499979 ], [ 6992763.538557393476367, 9181573.51270323805511 ], [ 6992756.23832773976028, 9181620.472440052777529 ], [ 6992744.013630313798785, 9181670.804090455174446 ], [ 6992742.157948197796941, 9181701.634120235219598 ], [ 6992743.367800886742771, 9181733.413823598995805 ], [ 6992734.190715569071472, 9181763.609686978161335 ], [ 6992730.218475010246038, 9181785.894368207082152 ], [ 6992736.747817356139421, 9181851.408076886087656 ], [ 6992734.00078728236258, 9181911.985750740393996 ], [ 6992736.427227343432605, 9181949.013136798515916 ], [ 6992741.086395410820842, 9182214.986313559114933 ], [ 6992743.309019489213824, 9182342.287505364045501 ], [ 6992767.667044354602695, 9182425.144710535183549 ], [ 6992812.325968605466187, 9182616.479918820783496 ], [ 6992830.432031787931919, 9182694.284395955502987 ], [ 6992886.106214365921915, 9182776.989264871925116 ], [ 6992962.955993552692235, 9182858.888242674991488 ], [ 6992991.711450029164553, 9182898.080685367807746 ], [ 6993010.55733354203403, 9182915.3852943405509 ], [ 6993152.179620571434498, 9183160.258527612313628 ], [ 6993172.996519902721047, 9183202.951297879219055 ], [ 6993349.586012350395322, 9183509.435929030179977 ], [ 6993421.722014095634222, 9183634.634509421885014 ], [ 6993460.503709165379405, 9183748.882325980812311 ], [ 6993467.214731686748564, 9183768.665002195164561 ], [ 6993496.134021254256368, 9183891.665773592889309 ], [ 6993501.652229260653257, 9183930.700184458866715 ], [ 6993499.150836105458438, 9183971.100668216124177 ], [ 6993508.589109245687723, 9184006.802280651405454 ], [ 6993514.709830216132104, 9184035.212065083906054 ], [ 6993519.234146850183606, 9184074.284874092787504 ], [ 6993523.375265484675765, 9184130.348696870729327 ], [ 6993535.798375020734966, 9184164.878616945818067 ], [ 6993556.050889912992716, 9184192.743403851985931 ], [ 6993589.448214469477534, 9184221.146296929568052 ], [ 6993632.736369162797928, 9184243.884458826854825 ], [ 6993679.944348660297692, 9184263.278275921940804 ], [ 6993711.533183070831001, 9184270.548091163858771 ], [ 6993745.19280525483191, 9184230.14143637008965 ], [ 6993781.136349566280842, 9184193.687429299578071 ], [ 6993809.367672165855765, 9184169.316761180758476 ], [ 6993827.318172724917531, 9184154.899141483008862 ], [ 6993855.294282602146268, 9184137.203377973288298 ], [ 6993876.065044787712395, 9184117.857969058677554 ], [ 6993899.404211814515293, 9184094.813749112188816 ], [ 6993908.085396670736372, 9184084.666800618171692 ], [ 6993927.913058732636273, 9184054.465728068724275 ], [ 6993945.143396170809865, 9184029.241797311231494 ], [ 6993966.216046677902341, 9184001.54717911593616 ], [ 6993972.143625340424478, 9183991.680581338703632 ], [ 6993974.904488427564502, 9183984.606909986585379 ], [ 6993976.799990233033895, 9183975.41842845082283 ], [ 6993979.883260782808065, 9183963.73400004953146 ], [ 6993984.692139604128897, 9183950.032178046181798 ], [ 6993992.466744509525597, 9183933.77740035392344 ], [ 6994000.18792534340173, 9183921.646898986771703 ], [ 6994013.003737630322576, 9183903.920233687385917 ], [ 6994024.733517593704164, 9183891.367927841842175 ], [ 6994039.274724442511797, 9183873.36561213247478 ], [ 6994048.875965290702879, 9183859.79228451102972 ], [ 6994056.844651308842003, 9183849.521684683859348 ], [ 6994068.041430643759668, 9183840.694096580147743 ], [ 6994087.520273637026548, 9183827.807782826945186 ], [ 6994102.20148859359324, 9183818.148954359814525 ], [ 6994112.160633421503007, 9183811.377964444458485 ], [ 6994120.557811989448965, 9183808.894017411395907 ], [ 6994126.894457609392703, 9183805.723210779950023 ], [ 6994132.84220068063587, 9183800.75594294257462 ], [ 6994137.83323311060667, 9183792.725199034437537 ], [ 6994145.127356715500355, 9183779.252421401441097 ], [ 6994153.126141894608736, 9183767.447784136980772 ], [ 6994163.206518916413188, 9183752.810737755149603 ], [ 6994174.003452744334936, 9183740.154891934245825 ], [ 6994187.501255486160517, 9183728.161160469055176 ], [ 6994195.022672789171338, 9183720.671350447461009 ], [ 6994201.066005440428853, 9183712.983130469918251 ], [ 6994209.82442868500948, 9183694.692811472341418 ], [ 6994218.911229544319212, 9183673.115202905610204 ], [ 6994232.64751167409122, 9183649.651094552129507 ], [ 6994245.952712773345411, 9183626.482284421101213 ], [ 6994257.990286182612181, 9183605.162254758179188 ], [ 6994267.845716542564332, 9183590.42921213619411 ], [ 6994277.995865290053189, 9183579.087111266329885 ], [ 6994289.485911839641631, 9183567.217164488509297 ], [ 6994298.404990097507834, 9183559.266853619366884 ], [ 6994305.555474242195487, 9183550.165558226406574 ], [ 6994309.090784798376262, 9183542.237331174314022 ], [ 6994312.398626107722521, 9183528.906649285927415 ], [ 6994316.035633774474263, 9183507.365111647173762 ], [ 6994318.360779164358974, 9183483.017650181427598 ], [ 6994317.705058830790222, 9183463.73205366358161 ], [ 6994317.364778213202953, 9183460.888618716970086 ], [ 6994316.510318048298359, 9183453.826625218614936 ], [ 6994315.105488374829292, 9183442.175884503871202 ], [ 6994313.460130117833614, 9183415.763846958056092 ], [ 6994314.067828328348696, 9183396.266889227554202 ], [ 6994315.461482994258404, 9183378.249146573245525 ], [ 6994317.805557355284691, 9183359.05670622177422 ], [ 6994321.181274746544659, 9183345.769810721278191 ], [ 6994334.787395169958472, 9183319.767309229820967 ], [ 6994341.120147002860904, 9183306.319725966081023 ], [ 6994349.141850120387971, 9183282.332761324942112 ], [ 6994361.192793527618051, 9183251.489931868389249 ], [ 6994368.15030992589891, 9183239.063263354822993 ], [ 6994379.736558668315411, 9183223.624410763382912 ], [ 6994390.593071087263525, 9183211.093541782349348 ], [ 6994396.126036860980093, 9183203.947339197620749 ], [ 6994402.168225828558207, 9183188.385873517021537 ], [ 6994408.196173646487296, 9183174.485486241057515 ], [ 6994412.86993195861578, 9183163.935261961072683 ], [ 6994417.692240120843053, 9183158.163503719493747 ], [ 6994424.970896998420358, 9183150.694361435249448 ], [ 6994439.343609651550651, 9183143.694305645301938 ], [ 6994448.338127522729337, 9183140.641153955832124 ], [ 6994471.078078996390104, 9183142.003711700439453 ], [ 6994486.226256422698498, 9183143.18348753452301 ], [ 6994502.328394490294158, 9183142.990999106317759 ], [ 6994523.315420731902122, 9183147.394000818952918 ], [ 6994545.669661166146398, 9183152.278341256082058 ], [ 6994563.275359684601426, 9183154.698565606027842 ], [ 6994573.794646659865975, 9183153.943755391985178 ], [ 6994583.934227069839835, 9183151.635959582403302 ], [ 6994592.559024685993791, 9183150.1995470225811 ], [ 6994602.923122256062925, 9183152.922792036086321 ], [ 6994614.738436507061124, 9183154.266166161745787 ], [ 6994629.406638397835195, 9183154.454202177003026 ], [ 6994647.863938884809613, 9183153.682967023923993 ], [ 6994665.604952688328922, 9183152.683931645005941 ], [ 6994682.154046700336039, 9183151.742557713761926 ], [ 6994696.802726209163666, 9183153.742852753028274 ], [ 6994707.229088354855776, 9183156.649487305432558 ], [ 6994717.565907772630453, 9183157.492588633671403 ], [ 6994730.973861525766551, 9183155.360384456813335 ], [ 6994748.292340545915067, 9183152.554512394592166 ], [ 6994774.808472568169236, 9183146.513353360816836 ], [ 6994793.753549156710505, 9183140.834406992420554 ], [ 6994812.797129351645708, 9183134.547794334590435 ], [ 6994849.376205857843161, 9183120.98768014088273 ], [ 6994878.358590726740658, 9183107.988161580637097 ], [ 6994906.015669837594032, 9183095.028199657797813 ], [ 6994928.447172230109572, 9183080.725692162290215 ], [ 6994939.514820426702499, 9183072.00666031986475 ], [ 6994948.69393187854439, 9183057.240841459482908 ], [ 6994957.367389395833015, 9183042.262302126735449 ], [ 6994962.571749022230506, 9183032.585380209609866 ], [ 6994968.287681230343878, 9183018.046279836446047 ], [ 6994971.769514420069754, 9183002.61807562969625 ], [ 6994976.537654012441635, 9182977.989514937624335 ], [ 6994978.561225587502122, 9182963.175063094124198 ], [ 6994980.348322071135044, 9182941.564836081117392 ], [ 6994983.589628812856972, 9182919.817102445289493 ], [ 6994987.717366100288928, 9182907.127668801695108 ], [ 6994994.384750597178936, 9182896.093538170680404 ], [ 6995004.471075370907784, 9182885.414953619241714 ], [ 6995015.525380873121321, 9182875.476973200216889 ], [ 6995030.201340524479747, 9182865.410580385476351 ], [ 6995041.755919517017901, 9182857.288008904084563 ], [ 6995055.752215964719653, 9182847.375598574057221 ], [ 6995064.594471188262105, 9182836.837946552783251 ], [ 6995075.324690320529044, 9182823.324157176539302 ], [ 6995082.513938565738499, 9182814.092934153974056 ], [ 6995095.641735196113586, 9182797.049104042351246 ], [ 6995106.326788134872913, 9182786.707241129130125 ], [ 6995120.468730587512255, 9182777.718110701069236 ], [ 6995135.937229420058429, 9182770.175693342462182 ], [ 6995151.850877264514565, 9182762.128320137038827 ], [ 6995171.899887812323868, 9182748.567622052505612 ], [ 6995197.020464378409088, 9182729.108990410342813 ], [ 6995232.877561614848673, 9182703.568151282146573 ], [ 6995252.335174338892102, 9182690.157926959916949 ], [ 6995270.311125967651606, 9182679.069437818601727 ], [ 6995295.888975641690195, 9182666.107607768848538 ], [ 6995317.705612033605576, 9182653.093784965574741 ], [ 6995330.078784895129502, 9182643.82445184327662 ], [ 6995348.371361277997494, 9182629.437221109867096 ], [ 6995371.099892973899841, 9182614.820323372259736 ], [ 6995397.730055074207485, 9182597.555739855393767 ], [ 6995415.037726981565356, 9182588.083843786269426 ], [ 6995433.408773167990148, 9182579.824971096590161 ], [ 6995453.385014108382165, 9182576.84585290774703 ], [ 6995466.187319041229784, 9182572.170052131637931 ], [ 6995497.101836636662483, 9182562.311093293130398 ], [ 6995518.782267428003252, 9182555.015725782141089 ], [ 6995556.134125152602792, 9182540.576089302077889 ], [ 6995589.920381325297058, 9182530.640740601345897 ], [ 6995644.120471166446805, 9182513.249813098460436 ], [ 6995666.334754723124206, 9182505.167189430445433 ], [ 6995699.646227155812085, 9182491.475851925089955 ], [ 6995714.581886768341064, 9182482.722517302259803 ], [ 6995732.482941907830536, 9182474.028626522049308 ], [ 6995782.764914067462087, 9182449.275342518463731 ], [ 6995810.545577582903206, 9182434.357780866324902 ], [ 6995852.839621189050376, 9182409.762378461658955 ], [ 6995865.181644004769623, 9182402.293773451820016 ], [ 6995891.457248525694013, 9182389.954316368326545 ], [ 6995920.1965396348387, 9182374.662673879414797 ], [ 6995928.534441201016307, 9182363.95796593464911 ], [ 6995952.77982702665031, 9182306.742911351844668 ], [ 6995962.437494175508618, 9182285.407594429329038 ], [ 6995991.451130410656333, 9182207.09264949709177 ], [ 6996004.847945629619062, 9182195.971351906657219 ], [ 6996014.314666103571653, 9182219.249117964878678 ], [ 6996136.740641240030527, 9182129.24643249809742 ], [ 6996132.30524683278054, 9182151.541175406426191 ], [ 6996130.510178340598941, 9182193.220537880435586 ], [ 6996132.367888644337654, 9182276.217387463897467 ], [ 6996174.877253181301057, 9182265.118834182620049 ], [ 6996214.384663680568337, 9182259.67589982226491 ], [ 6996313.64259192161262, 9182282.99693132378161 ], [ 6996380.051416289061308, 9182297.89255129173398 ], [ 6996448.005432229489088, 9182401.221788572147489 ], [ 6996487.857774226926267, 9182441.684622388333082 ], [ 6996492.703273190185428, 9182451.914231548085809 ], [ 6996498.675704865716398, 9182458.929786968976259 ], [ 6996506.15044848062098, 9182463.297424715012312 ], [ 6996512.55669981893152, 9182480.829495843499899 ], [ 6996522.776131719350815, 9182491.071784919127822 ], [ 6996532.748638432472944, 9182496.864112025126815 ], [ 6996537.167636688798666, 9182514.763458324596286 ], [ 6996544.938866914249957, 9182531.55755010060966 ], [ 6996555.984212962910533, 9182550.7101985309273 ], [ 6996554.535007540136576, 9182563.750024003908038 ], [ 6996556.759112655185163, 9182577.437397425994277 ], [ 6996565.45854758284986, 9182591.896155457943678 ], [ 6996559.120261587202549, 9182606.0426419172436 ], [ 6996553.205100918188691, 9182628.685337137430906 ], [ 6996558.661392106674612, 9182652.339649492874742 ], [ 6996611.99650742765516, 9182656.070804663002491 ], [ 6996634.001595659181476, 9182727.547528501600027 ], [ 6996711.277498282492161, 9182744.718254102393985 ], [ 6996722.337414854206145, 9182781.964319972321391 ], [ 6996838.41575008071959, 9182754.559249326586723 ], [ 6996834.504258150234818, 9182737.789723752066493 ], [ 6996830.050421357154846, 9182675.434932358562946 ], [ 6996821.642937606200576, 9182546.745834553614259 ], [ 6996820.018107963725924, 9182514.546394841745496 ], [ 6996814.469990128651261, 9182462.082278165966272 ], [ 6996795.270818415097892, 9182452.082996722310781 ], [ 6996730.724082910455763, 9182418.452113378793001 ], [ 6996679.175477140583098, 9182395.443861847743392 ], [ 6996644.749572606757283, 9182381.330675659701228 ], [ 6996581.689436322078109, 9182351.022039785981178 ], [ 6996585.451566770672798, 9182298.290992587804794 ], [ 6996587.536002192646265, 9182265.948304481804371 ], [ 6996585.725470618344843, 9182190.299110980704427 ], [ 6996616.934761978685856, 9182206.464351551607251 ], [ 6996658.391105582006276, 9182101.604170439764857 ], [ 6996662.298061567358673, 9182103.450384275987744 ], [ 6996756.016068182885647, 9182149.085481084883213 ], [ 6996780.695647596381605, 9182088.506069757044315 ], [ 6996805.104136400856078, 9182034.74251707829535 ], [ 6996870.013910902664065, 9182064.258646234869957 ], [ 6997310.153469206765294, 9182274.933193704113364 ], [ 6997323.594403184950352, 9182246.121441641822457 ], [ 6997384.185897406190634, 9182062.900879357010126 ], [ 6997407.142791354097426, 9181996.311990737915039 ], [ 6997418.178656805306673, 9181959.242708299309015 ], [ 6997313.428783619776368, 9181955.148259481415153 ], [ 6997271.187709866091609, 9181951.233422698453069 ], [ 6997284.375725670717657, 9181910.004554208368063 ], [ 6997321.543601599521935, 9181781.486198810860515 ], [ 6997346.508684176020324, 9181705.830253483727574 ], [ 6997234.090467208996415, 9181643.593696355819702 ], [ 6997167.97475909627974, 9181626.238558121025562 ], [ 6997050.799423080869019, 9181533.782435769215226 ], [ 6997028.150589852593839, 9181515.381615290418267 ], [ 6997034.051807078532875, 9181504.294118879362941 ], [ 6997057.757665765471756, 9181465.201140254735947 ], [ 6997058.329469208605587, 9181464.249882148578763 ], [ 6997071.574669289402664, 9181443.958370491862297 ], [ 6997084.002923020161688, 9181430.074411537498236 ], [ 6997115.386781373992562, 9181403.57478884793818 ], [ 6997147.117235546000302, 9181382.682673951610923 ], [ 6997198.148856177926064, 9181347.802502995356917 ], [ 6997270.438672862946987, 9181304.154034443199635 ], [ 6997285.904050677083433, 9181295.111146416515112 ], [ 6997303.682624964043498, 9181287.290906807407737 ], [ 6997329.155597418546677, 9181279.160676799714565 ], [ 6997351.158678155392408, 9181273.394825123250484 ], [ 6997365.857915756292641, 9181265.136468168348074 ], [ 6997375.552637055516243, 9181258.430981943383813 ], [ 6997388.734414733946323, 9181248.942305458709598 ], [ 6997410.564366041682661, 9181238.351727874949574 ], [ 6997443.329495498910546, 9181226.326640516519547 ], [ 6997476.093465739861131, 9181216.299135487526655 ], [ 6997505.371367861516774, 9181210.239376356825233 ], [ 6997529.549077203497291, 9181216.548796106129885 ], [ 6997548.768533075228333, 9181218.381708225235343 ], [ 6997563.825631894171238, 9181212.548239812254906 ], [ 6997583.557404341176152, 9181201.156189383938909 ], [ 6997609.897036205045879, 9181183.003992684185505 ], [ 6997654.035024653188884, 9181157.843370396643877 ], [ 6997676.885983510874212, 9181144.460343627259135 ], [ 6997706.826084188185632, 9181115.494989382103086 ], [ 6997741.00526296813041, 9181076.226018102839589 ], [ 6997763.550791054964066, 9181052.82010336779058 ], [ 6997791.865489011630416, 9181031.095017893239856 ], [ 6997827.082451530732214, 9181014.665225807577372 ], [ 6997848.370051670819521, 9181006.092696815729141 ], [ 6997881.215813178569078, 9180999.661648593842983 ], [ 6997894.742490554228425, 9180996.6049386523664 ], [ 6997908.280648875981569, 9180993.559390561655164 ], [ 6997926.693928550928831, 9180985.574485667049885 ], [ 6997931.35256183706224, 9180991.467936780303717 ], [ 6997940.678251369856298, 9181019.398217530921102 ], [ 6997952.82893162034452, 9181052.398838810622692 ], [ 6997964.318858436308801, 9181080.547171762213111 ], [ 6997974.567776156589389, 9181099.649768205359578 ], [ 6997986.321973735466599, 9181117.637091381475329 ], [ 6998006.905023729428649, 9181151.994759183377028 ], [ 6998015.044819273985922, 9181166.823911169543862 ], [ 6998025.327133759856224, 9181184.775481576099992 ], [ 6998038.421039577573538, 9181197.891011409461498 ], [ 6998056.16585629247129, 9181223.648246385157108 ], [ 6998073.507847175002098, 9181248.701061652973294 ], [ 6998093.442855621688068, 9181273.328130755573511 ], [ 6998114.531864067539573, 9181316.597821922972798 ], [ 6998126.167234821245074, 9181339.584096232429147 ], [ 6998134.906817930750549, 9181360.568912459537387 ], [ 6998154.150297502987087, 9181390.542296815663576 ], [ 6998163.775703875347972, 9181411.562485726550221 ], [ 6998188.519105503335595, 9181435.004462331533432 ], [ 6998210.761870434507728, 9181469.402845595031977 ], [ 6998240.113295119255781, 9181515.662578156217933 ], [ 6998268.698989524506032, 9181572.277264252305031 ], [ 6998292.648044081404805, 9181622.126494940370321 ], [ 6998308.199974868446589, 9181652.138893058523536 ], [ 6998322.487611160613596, 9181682.630083641037345 ], [ 6998328.25201069097966, 9181694.613275241106749 ], [ 6998329.986757376231253, 9181701.247504059225321 ], [ 6998330.429816363379359, 9181707.931816661730409 ], [ 6998331.105426442809403, 9181712.597826734185219 ], [ 6998336.437579017132521, 9181720.49791556969285 ], [ 6998354.071644317358732, 9181745.969782091677189 ], [ 6998378.169629736803472, 9181778.868188070133328 ], [ 6998388.540062770247459, 9181792.473085733130574 ], [ 6998401.307229595258832, 9181802.535595314577222 ], [ 6998414.763510890305042, 9181809.795552685856819 ], [ 6998435.800055862404406, 9181813.172774076461792 ], [ 6998461.593596281483769, 9181816.911444138735533 ], [ 6998477.460831335745752, 9181821.580839162692428 ], [ 6998486.642518258653581, 9181830.400279929861426 ], [ 6998503.128357358276844, 9181850.121273268014193 ], [ 6998513.63357144035399, 9181859.435301100835204 ], [ 6998526.488040073774755, 9181867.729100380092859 ], [ 6998542.162688128650188, 9181871.697514664381742 ], [ 6998565.778716863133013, 9181870.236057039350271 ], [ 6998586.900593899190426, 9181869.184877302497625 ], [ 6998595.252056114375591, 9181872.473204346373677 ], [ 6998596.554499117657542, 9181879.658550560474396 ], [ 6998595.565400777384639, 9181913.425441399216652 ], [ 6998595.476635701954365, 9182117.716485075652599 ], [ 6998638.42434908170253, 9182119.280730755999684 ], [ 6998895.115163845010102, 9182138.216735130175948 ], [ 6998969.811503341421485, 9182147.168274037539959 ], [ 6998981.506986496970057, 9182067.711582569405437 ], [ 6998990.458153726533055, 9182038.037381270900369 ], [ 6998989.589404653757811, 9182015.271351017057896 ], [ 6998989.307112677022815, 9181987.592783126980066 ], [ 6999000.08304425701499, 9181965.17667655646801 ], [ 6999049.156042149290442, 9181889.973192241042852 ], [ 6999068.409548499621451, 9181846.054472422227263 ], [ 6999067.979399463161826, 9181793.94403525441885 ], [ 6998984.77782753482461, 9181564.225583432242274 ], [ 6999045.455547257326543, 9181447.837928468361497 ], [ 6999077.036899850703776, 9181422.186711935326457 ], [ 6999112.278959486633539, 9181411.039636939764023 ], [ 6999153.155435149557889, 9181385.015953930094838 ], [ 6999221.462169909849763, 9181346.53350936062634 ], [ 6999306.876021872274578, 9181309.001294668763876 ], [ 6999405.093204844743013, 9181241.667129892855883 ], [ 6999425.645811811089516, 9181211.541536452248693 ], [ 6999437.162800579331815, 9181188.294248148798943 ], [ 6999434.373802836053073, 9181155.810827810317278 ], [ 6999414.42652209289372, 9181120.75292307510972 ], [ 6999388.339244723320007, 9181046.825822055339813 ], [ 6999385.675046025775373, 9181017.613061420619488 ], [ 6999373.714778385125101, 9180988.749620977789164 ], [ 6999372.658144824206829, 9180961.100561870262027 ], [ 6999302.479773418046534, 9180910.071452623233199 ], [ 6999250.081467076204717, 9180877.88847147859633 ], [ 6999174.820062518119812, 9180815.651376839727163 ], [ 6999110.408306133933365, 9180793.714898880571127 ], [ 6999055.467701572924852, 9180776.30054790712893 ], [ 6998979.406820505857468, 9180733.642833720892668 ], [ 6998853.542026184499264, 9180645.682359846308827 ], [ 6998802.441181123256683, 9180606.945747638121247 ], [ 6998732.07124619372189, 9180652.431881301105022 ], [ 6998657.070021875202656, 9180576.748321881517768 ], [ 6998654.246519128791988, 9180552.920318489894271 ], [ 6998655.84605617262423, 9180505.679771741852164 ], [ 6998653.903469560667872, 9180470.191366443410516 ], [ 6998671.294422496110201, 9180444.730391755700111 ], [ 6998691.089799288660288, 9180402.0560511816293 ], [ 6998703.524903654120862, 9180381.154557298868895 ], [ 6998720.927444217726588, 9180337.783231588080525 ], [ 6998723.711084058508277, 9180320.078943146392703 ], [ 6998722.951099501922727, 9180281.408536361530423 ], [ 6998713.147455953992903, 9180200.823869643732905 ], [ 6998713.213967585936189, 9180107.160964479669929 ], [ 6998720.147247484885156, 9180006.018502786755562 ], [ 6998720.75545409321785, 9179951.394482305273414 ], [ 6998717.36038364097476, 9179851.954188412055373 ], [ 6998722.770766797475517, 9179811.02297562174499 ], [ 6998715.320128316059709, 9179788.513062803074718 ], [ 6998705.866257136687636, 9179774.617787698283792 ], [ 6998695.389395209029317, 9179764.037613745778799 ], [ 6998692.964080039411783, 9179751.506797909736633 ], [ 6998693.013853897340596, 9179661.503144677728415 ], [ 6998707.450973698869348, 9179573.623044090345502 ], [ 6998721.030155325308442, 9179510.422439582645893 ], [ 6998759.467471255920827, 9179432.898169625550508 ], [ 6998769.125701625831425, 9179406.203712977468967 ], [ 6998818.070109719410539, 9179291.254285601899028 ], [ 6998832.340552544221282, 9179250.465834805741906 ], [ 6998850.777101701125503, 9179235.903904238715768 ], [ 6998869.163934780284762, 9179209.938207119703293 ], [ 6998874.280735524371266, 9179190.249621784314513 ], [ 6998884.554749673232436, 9179148.176225321367383 ], [ 6998912.199964388273656, 9179038.038055485114455 ], [ 6998925.251681291498244, 9179004.126114076003432 ], [ 6998928.461403232067823, 9178984.012189092114568 ], [ 6998926.137387340888381, 9178966.634008836001158 ], [ 6998969.342885554768145, 9178940.921634212136269 ], [ 6999074.643207835964859, 9178906.683002814650536 ], [ 6999088.232410926371813, 9178897.199042286723852 ], [ 6999111.422143843024969, 9178875.122543511912227 ], [ 6999141.264217530377209, 9178832.472597517073154 ], [ 6999174.298471693880856, 9178799.559309663251042 ], [ 6999219.737798186950386, 9178747.904285525903106 ], [ 6999282.111722308211029, 9178716.94960773549974 ], [ 6999310.577370044775307, 9178690.613575242459774 ], [ 6999330.887515270151198, 9178653.990505024790764 ], [ 6999332.045885099098086, 9178603.443351719528437 ], [ 6999320.592634194530547, 9178587.593488136306405 ], [ 6999238.586448034271598, 9178551.690809924155474 ], [ 6999278.883027356117964, 9178470.303484193980694 ], [ 6999320.114192301407456, 9178413.305760305374861 ], [ 6999347.028533976525068, 9178347.097209367901087 ], [ 6999394.588234283030033, 9178293.116293497383595 ], [ 6999409.989418725483119, 9178250.167822796851397 ], [ 6999409.612271877937019, 9178199.680232550948858 ], [ 6999322.835100701078773, 9178108.851642914116383 ], [ 6996094.92861904297024, 9178878.21629804931581 ], [ 6992333.51145706884563, 9179772.50155421718955 ] ] ] } },
{ "type": "Feature", "properties": { "lv_id": "LOC_023093", "id": 94976.0, "CD_SETOR": "250120305000006", "SITUACAO": "Rural", "CD_SIT": "8", "CD_TIPO": "0", "AREA_KM2": 5.7699031588481553, "CD_REGIAO": "2", "NM_REGIAO": "Nordeste", "CD_UF": "25", "NM_UF": "Paraíba", "CD_MUN": "2501203", "NM_MUN": "Areial", "CD_DIST": "250120305", "NM_DIST": "Areial", "CD_SUBDIST": "25012030500", "NM_SUBDIST": null, "CD_BAIRRO": null, "NM_BAIRRO": null, "CD_NU": null, "NM_NU": null, "CD_FCU": null, "NM_FCU": null, "CD_AGLOM": null, "NM_AGLOM": null, "CD_RGINT": "2502", "NM_RGINT": "Campina Grande", "CD_RGI": "250005", "NM_RGI": "Campina Grande", "CD_CONCURB": null, "NM_CONCURB": null, "mun_code_x": "2501203", "index_right": 47750, "dist_m": 1850.557173431697, "local_id": 236351, "ano": 2022, "cod_localidade_ibge": 2501203, "NR_ZONA": "19", "nr_cep": 58140000.0, "nm_localidade": "AREIAL", "nm_locvot": "ESCOLA MUNICIPAL DE ENSINO FUNDAMENTAL GERALDO LUÍS DE ARAÚJO", "ds_endereco": "RUA MIGUEL GOMES SN", "ds_bairro": "CENTRO", "pred_long": -35.920178, "pred_lat": -7.045611, "pred_dist": 0.0, "tse_long": -35.9201794, "tse_lat": -7.0453623, "long": -35.9201794, "lat": -7.0453623, "ID_UNICO": "LOC_023093", "SG_UF": "PB", "CD_MUNICIPIO": "19232", "NR_LOCAL_VOTACAO": "1066", "QT_SECOES_AGREGADAS": 1, "QT_ELEITORES_TRANSFERIDOS": 6, "CIRO GOMES (PDT) (NÃO ELEITO) 1T": 38.0, "CONSTITUINTE EYMAEL (DC) (NÃO ELEITO) 1T": 0.0, "FELIPE D AVILA (NOVO) (NÃO ELEITO) 1T": 4.0, "JAIR BOLSONARO (PL) (2º TURNO) 1T": 374.0, "LULA (PT) (2º TURNO) 1T": 1062.0, "LÉO PÉRICLES (UP) (NÃO ELEITO) 1T": 1.0, "PADRE KELMON (PTB) (NÃO ELEITO) 1T": 1.0, "SIMONE TEBET (MDB) (NÃO ELEITO) 1T": 44.0, "SOFIA MANZANO (PCB) (NÃO ELEITO) 1T": 0.0, "SORAYA THRONICKE (UNIÃO) (NÃO ELEITO) 1T": 4.0, "VERA (PSTU) (NÃO ELEITO) 1T": 0.0, "Total_Votos_Validos 1T": 1528.0, "Votos_Brancos 1T": 27.0, "Votos_Nulos 1T": 66.0, "Abstenções 1T": 334.0, "Eleitores_Aptos 1T": 1955.0, "JAIR BOLSONARO (PL) (NÃO ELEITO) 2T": 424.0, "LULA (PT) (ELEITO) 2T": 1104.0, "Total_Votos_Validos 2T": 1528.0, "Votos_Brancos 2T": 31.0, "Votos_Nulos 2T": 82.0, "Abstenções 2T": 314.0, "Eleitores_Aptos 2T": 1955.0, "mun_code_y": "2501203", "mun_code": "2501203" }, "geometry": { "type": "Polygon", "coordinates": [ [ [ 6997563.825631894171238, 9181212.548239812254906 ], [ 6997548.768533075228333, 9181218.381708225235343 ], [ 6997529.549077203497291, 9181216.548796106129885 ], [ 6997505.371367861516774, 9181210.239376356825233 ], [ 6997476.093465739861131, 9181216.299135487526655 ], [ 6997443.329495498910546, 9181226.326640516519547 ], [ 6997410.564366041682661, 9181238.351727874949574 ], [ 6997388.734414733946323, 9181248.942305458709598 ], [ 6997375.552637055516243, 9181258.430981943383813 ], [ 6997365.857915756292641, 9181265.136468168348074 ], [ 6997351.158678155392408, 9181273.394825123250484 ], [ 6997329.155597418546677, 9181279.160676799714565 ], [ 6997303.682624964043498, 9181287.290906807407737 ], [ 6997285.904050677083433, 9181295.111146416515112 ], [ 6997270.438672862946987, 9181304.154034443199635 ], [ 6997198.148856177926064, 9181347.802502995356917 ], [ 6997147.117235546000302, 9181382.682673951610923 ], [ 6997115.386781373992562, 9181403.57478884793818 ], [ 6997084.002923020161688, 9181430.074411537498236 ], [ 6997071.574669289402664, 9181443.958370491862297 ], [ 6997058.329469208605587, 9181464.249882148578763 ], [ 6997057.757665765471756, 9181465.201140254735947 ], [ 6997034.051807078532875, 9181504.294118879362941 ], [ 6997028.150589852593839, 9181515.381615290418267 ], [ 6997050.799423080869019, 9181533.782435769215226 ], [ 6997167.97475909627974, 9181626.238558121025562 ], [ 6997234.090467208996415, 9181643.593696355819702 ], [ 6997346.508684176020324, 9181705.830253483727574 ], [ 6997321.543601599521935, 9181781.486198810860515 ], [ 6997284.375725670717657, 9181910.004554208368063 ], [ 6997271.187709866091609, 9181951.233422698453069 ], [ 6997313.428783619776368, 9181955.148259481415153 ], [ 6997418.178656805306673, 9181959.242708299309015 ], [ 6997407.142791354097426, 9181996.311990737915039 ], [ 6997384.185897406190634, 9182062.900879357010126 ], [ 6997323.594403184950352, 9182246.121441641822457 ], [ 6997310.153469206765294, 9182274.933193704113364 ], [ 6996870.013910902664065, 9182064.258646234869957 ], [ 6996805.104136400856078, 9182034.74251707829535 ], [ 6996780.695647596381605, 9182088.506069757044315 ], [ 6996756.016068182885647, 9182149.085481084883213 ], [ 6996662.298061567358673, 9182103.450384275987744 ], [ 6996658.391105582006276, 9182101.604170439764857 ], [ 6996616.934761978685856, 9182206.464351551607251 ], [ 6996585.725470618344843, 9182190.299110980704427 ], [ 6996587.536002192646265, 9182265.948304481804371 ], [ 6996585.451566770672798, 9182298.290992587804794 ], [ 6996581.689436322078109, 9182351.022039785981178 ], [ 6996644.749572606757283, 9182381.330675659701228 ], [ 6996679.175477140583098, 9182395.443861847743392 ], [ 6996730.724082910455763, 9182418.452113378793001 ], [ 6996795.270818415097892, 9182452.082996722310781 ], [ 6996814.469990128651261, 9182462.082278165966272 ], [ 6996820.018107963725924, 9182514.546394841745496 ], [ 6996821.642937606200576, 9182546.745834553614259 ], [ 6996830.050421357154846, 9182675.434932358562946 ], [ 6996834.504258150234818, 9182737.789723752066493 ], [ 6996838.41575008071959, 9182754.559249326586723 ], [ 6996722.337414854206145, 9182781.964319972321391 ], [ 6996711.277498282492161, 9182744.718254102393985 ], [ 6996634.001595659181476, 9182727.547528501600027 ], [ 6996611.99650742765516, 9182656.070804663002491 ], [ 6996558.661392106674612, 9182652.339649492874742 ], [ 6996553.205100918188691, 9182628.685337137430906 ], [ 6996559.120261587202549, 9182606.0426419172436 ], [ 6996565.45854758284986, 9182591.896155457943678 ], [ 6996556.759112655185163, 9182577.437397425994277 ], [ 6996554.535007540136576, 9182563.750024003908038 ], [ 6996555.984212962910533, 9182550.7101985309273 ], [ 6996544.938866914249957, 9182531.55755010060966 ], [ 6996537.167636688798666, 9182514.763458324596286 ], [ 6996532.748638432472944, 9182496.864112025126815 ], [ 6996522.776131719350815, 9182491.071784919127822 ], [ 6996512.55669981893152, 9182480.829495843499899 ], [ 6996506.15044848062098, 9182463.297424715012312 ], [ 6996498.675704865716398, 9182458.929786968976259 ], [ 6996492.703273190185428, 9182451.914231548085809 ], [ 6996487.857774226926267, 9182441.684622388333082 ], [ 6996448.005432229489088, 9182401.221788572147489 ], [ 6996380.051416289061308, 9182297.89255129173398 ], [ 6996313.64259192161262, 9182282.99693132378161 ], [ 6996214.384663680568337, 9182259.67589982226491 ], [ 6996174.877253181301057, 9182265.118834182620049 ], [ 6996132.367888644337654, 9182276.217387463897467 ], [ 6996130.510178340598941, 9182193.220537880435586 ], [ 6996132.30524683278054, 9182151.541175406426191 ], [ 6996136.740641240030527, 9182129.24643249809742 ], [ 6996014.314666103571653, 9182219.249117964878678 ], [ 6996004.847945629619062, 9182195.971351906657219 ], [ 6995991.451130410656333, 9182207.09264949709177 ], [ 6995962.437494175508618, 9182285.407594429329038 ], [ 6995952.77982702665031, 9182306.742911351844668 ], [ 6995928.534441201016307, 9182363.95796593464911 ], [ 6995920.1965396348387, 9182374.662673879414797 ], [ 6995891.457248525694013, 9182389.954316368326545 ], [ 6995865.181644004769623, 9182402.293773451820016 ], [ 6995852.839621189050376, 9182409.762378461658955 ], [ 6995810.545577582903206, 9182434.357780866324902 ], [ 6995782.764914067462087, 9182449.275342518463731 ], [ 6995732.482941907830536, 9182474.028626522049308 ], [ 6995714.581886768341064, 9182482.722517302259803 ], [ 6995699.646227155812085, 9182491.475851925089955 ], [ 6995666.334754723124206, 9182505.167189430445433 ], [ 6995644.120471166446805, 9182513.249813098460436 ], [ 6995589.920381325297058, 9182530.640740601345897 ], [ 6995556.134125152602792, 9182540.576089302077889 ], [ 6995518.782267428003252, 9182555.015725782141089 ], [ 6995497.101836636662483, 9182562.311093293130398 ], [ 6995466.187319041229784, 9182572.170052131637931 ], [ 6995453.385014108382165, 9182576.84585290774703 ], [ 6995433.408773167990148, 9182579.824971096590161 ], [ 6995415.037726981565356, 9182588.083843786269426 ], [ 6995397.730055074207485, 9182597.555739855393767 ], [ 6995371.099892973899841, 9182614.820323372259736 ], [ 6995348.371361277997494, 9182629.437221109867096 ], [ 6995330.078784895129502, 9182643.82445184327662 ], [ 6995317.705612033605576, 9182653.093784965574741 ], [ 6995295.888975641690195, 9182666.107607768848538 ], [ 6995270.311125967651606, 9182679.069437818601727 ], [ 6995252.335174338892102, 9182690.157926959916949 ], [ 6995232.877561614848673, 9182703.568151282146573 ], [ 6995197.020464378409088, 9182729.108990410342813 ], [ 6995171.899887812323868, 9182748.567622052505612 ], [ 6995151.850877264514565, 9182762.128320137038827 ], [ 6995135.937229420058429, 9182770.175693342462182 ], [ 6995120.468730587512255, 9182777.718110701069236 ], [ 6995106.326788134872913, 9182786.707241129130125 ], [ 6995095.641735196113586, 9182797.049104042351246 ], [ 6995082.513938565738499, 9182814.092934153974056 ], [ 6995075.324690320529044, 9182823.324157176539302 ], [ 6995064.594471188262105, 9182836.837946552783251 ], [ 6995055.752215964719653, 9182847.375598574057221 ], [ 6995041.755919517017901, 9182857.288008904084563 ], [ 6995030.201340524479747, 9182865.410580385476351 ], [ 6995015.525380873121321, 9182875.476973200216889 ], [ 6995004.471075370907784, 9182885.414953619241714 ], [ 6994994.384750597178936, 9182896.093538170680404 ], [ 6994987.717366100288928, 9182907.127668801695108 ], [ 6994983.589628812856972, 9182919.817102445289493 ], [ 6994980.348322071135044, 9182941.564836081117392 ], [ 6994978.561225587502122, 9182963.175063094124198 ], [ 6994976.537654012441635, 9182977.989514937624335 ], [ 6994971.769514420069754, 9183002.61807562969625 ], [ 6994968.287681230343878, 9183018.046279836446047 ], [ 6994962.571749022230506, 9183032.585380209609866 ], [ 6994957.367389395833015, 9183042.262302126735449 ], [ 6994948.69393187854439, 9183057.240841459482908 ], [ 6994939.514820426702499, 9183072.00666031986475 ], [ 6994928.447172230109572, 9183080.725692162290215 ], [ 6994906.015669837594032, 9183095.028199657797813 ], [ 6994878.358590726740658, 9183107.988161580637097 ], [ 6994849.376205857843161, 9183120.98768014088273 ], [ 6994812.797129351645708, 9183134.547794334590435 ], [ 6994793.753549156710505, 9183140.834406992420554 ], [ 6994774.808472568169236, 9183146.513353360816836 ], [ 6994748.292340545915067, 9183152.554512394592166 ], [ 6994730.973861525766551, 9183155.360384456813335 ], [ 6994717.565907772630453, 9183157.492588633671403 ], [ 6994707.229088354855776, 9183156.649487305432558 ], [ 6994696.802726209163666, 9183153.742852753028274 ], [ 6994682.154046700336039, 9183151.742557713761926 ], [ 6994665.604952688328922, 9183152.683931645005941 ], [ 6994647.863938884809613, 9183153.682967023923993 ], [ 6994629.406638397835195, 9183154.454202177003026 ], [ 6994614.738436507061124, 9183154.266166161745787 ], [ 6994602.923122256062925, 9183152.922792036086321 ], [ 6994592.559024685993791, 9183150.1995470225811 ], [ 6994583.934227069839835, 9183151.635959582403302 ], [ 6994573.794646659865975, 9183153.943755391985178 ], [ 6994563.275359684601426, 9183154.698565606027842 ], [ 6994545.669661166146398, 9183152.278341256082058 ], [ 6994523.315420731902122, 9183147.394000818952918 ], [ 6994502.328394490294158, 9183142.990999106317759 ], [ 6994486.226256422698498, 9183143.18348753452301 ], [ 6994471.078078996390104, 9183142.003711700439453 ], [ 6994448.338127522729337, 9183140.641153955832124 ], [ 6994439.343609651550651, 9183143.694305645301938 ], [ 6994424.970896998420358, 9183150.694361435249448 ], [ 6994417.692240120843053, 9183158.163503719493747 ], [ 6994412.86993195861578, 9183163.935261961072683 ], [ 6994408.196173646487296, 9183174.485486241057515 ], [ 6994402.168225828558207, 9183188.385873517021537 ], [ 6994396.126036860980093, 9183203.947339197620749 ], [ 6994390.593071087263525, 9183211.093541782349348 ], [ 6994379.736558668315411, 9183223.624410763382912 ], [ 6994368.15030992589891, 9183239.063263354822993 ], [ 6994361.192793527618051, 9183251.489931868389249 ], [ 6994349.141850120387971, 9183282.332761324942112 ], [ 6994341.120147002860904, 9183306.319725966081023 ], [ 6994334.787395169958472, 9183319.767309229820967 ], [ 6994321.181274746544659, 9183345.769810721278191 ], [ 6994317.805557355284691, 9183359.05670622177422 ], [ 6994315.461482994258404, 9183378.249146573245525 ], [ 6994314.067828328348696, 9183396.266889227554202 ], [ 6994313.460130117833614, 9183415.763846958056092 ], [ 6994315.105488374829292, 9183442.175884503871202 ], [ 6994316.510318048298359, 9183453.826625218614936 ], [ 6994317.364778213202953, 9183460.888618716970086 ], [ 6994317.705058830790222, 9183463.73205366358161 ], [ 6994318.360779164358974, 9183483.017650181427598 ], [ 6994316.035633774474263, 9183507.365111647173762 ], [ 6994312.398626107722521, 9183528.906649285927415 ], [ 6994309.090784798376262, 9183542.237331174314022 ], [ 6994305.555474242195487, 9183550.165558226406574 ], [ 6994298.404990097507834, 9183559.266853619366884 ], [ 6994289.485911839641631, 9183567.217164488509297 ], [ 6994277.995865290053189, 9183579.087111266329885 ], [ 6994267.845716542564332, 9183590.42921213619411 ], [ 6994257.990286182612181, 9183605.162254758179188 ], [ 6994245.952712773345411, 9183626.482284421101213 ], [ 6994232.64751167409122, 9183649.651094552129507 ], [ 6994218.911229544319212, 9183673.115202905610204 ], [ 6994209.82442868500948, 9183694.692811472341418 ], [ 6994201.066005440428853, 9183712.983130469918251 ], [ 6994195.022672789171338, 9183720.671350447461009 ], [ 6994187.501255486160517, 9183728.161160469055176 ], [ 6994174.003452744334936, 9183740.154891934245825 ], [ 6994163.206518916413188, 9183752.810737755149603 ], [ 6994153.126141894608736, 9183767.447784136980772 ], [ 6994145.127356715500355, 9183779.252421401441097 ], [ 6994137.83323311060667, 9183792.725199034437537 ], [ 6994132.84220068063587, 9183800.75594294257462 ], [ 6994126.894457609392703, 9183805.723210779950023 ], [ 6994120.557811989448965, 9183808.894017411395907 ], [ 6994112.160633421503007, 9183811.377964444458485 ], [ 6994102.20148859359324, 9183818.148954359814525 ], [ 6994087.520273637026548, 9183827.807782826945186 ], [ 6994068.041430643759668, 9183840.694096580147743 ], [ 6994056.844651308842003, 9183849.521684683859348 ], [ 6994048.875965290702879, 9183859.79228451102972 ], [ 6994039.274724442511797, 9183873.36561213247478 ], [ 6994024.733517593704164, 9183891.367927841842175 ], [ 6994013.003737630322576, 9183903.920233687385917 ], [ 6994000.18792534340173, 9183921.646898986771703 ], [ 6993992.466744509525597, 9183933.77740035392344 ], [ 6993984.692139604128897, 9183950.032178046181798 ], [ 6993979.883260782808065, 9183963.73400004953146 ], [ 6993976.799990233033895, 9183975.41842845082283 ], [ 6993974.904488427564502, 9183984.606909986585379 ], [ 6993972.143625340424478, 9183991.680581338703632 ], [ 6993966.216046677902341, 9184001.54717911593616 ], [ 6993945.143396170809865, 9184029.241797311231494 ], [ 6993927.913058732636273, 9184054.465728068724275 ], [ 6993908.085396670736372, 9184084.666800618171692 ], [ 6993899.404211814515293, 9184094.813749112188816 ], [ 6993876.065044787712395, 9184117.857969058677554 ], [ 6993855.294282602146268, 9184137.203377973288298 ], [ 6993827.318172724917531, 9184154.899141483008862 ], [ 6993809.367672165855765, 9184169.316761180758476 ], [ 6993781.136349566280842, 9184193.687429299578071 ], [ 6993745.19280525483191, 9184230.14143637008965 ], [ 6993711.533183070831001, 9184270.548091163858771 ], [ 6993638.054208762943745, 9184330.662600077688694 ], [ 6993540.564361390657723, 9184423.529990129172802 ], [ 6993533.589916724711657, 9184425.923848336562514 ], [ 6993427.978057669475675, 9184650.639214470982552 ], [ 6993418.248560779727995, 9184687.079782411456108 ], [ 6993228.107621174305677, 9184867.314563820138574 ], [ 6993206.518184272572398, 9184884.054134994745255 ], [ 6993191.432800339534879, 9184885.703644538298249 ], [ 6992968.692461032420397, 9184818.962963797152042 ], [ 6992848.307053678669035, 9184814.056856077164412 ], [ 6992763.580375852063298, 9184817.321167500689626 ], [ 6992677.034172330982983, 9184825.96173476241529 ], [ 6992597.674490043893456, 9184837.506711246445775 ], [ 6992564.265609643422067, 9184862.131999112665653 ], [ 6992551.363465603441, 9184951.10545071400702 ], [ 6992550.653349921107292, 9184955.997844846919179 ], [ 6992574.315472575835884, 9184970.296993033960462 ], [ 6992722.263312516734004, 9185059.705535728484392 ], [ 6992839.770353661850095, 9185175.042483124881983 ], [ 6992860.061531553044915, 9185203.962613666430116 ], [ 6992876.190419878810644, 9185256.381696751341224 ], [ 6992884.742958094924688, 9185268.778295887634158 ], [ 6992895.102591035887599, 9185328.850829638540745 ], [ 6992938.284008837305009, 9185429.019094141200185 ], [ 6993066.002073002979159, 9185547.147221190854907 ], [ 6993106.545156156644225, 9185577.413185240700841 ], [ 6993129.218943271785975, 9185589.266398591920733 ], [ 6993134.57477667927742, 9185597.548143221065402 ], [ 6993140.911879759281874, 9185675.205006271600723 ], [ 6993166.141238034702837, 9185663.458480630069971 ], [ 6993184.086401762440801, 9185666.657531447708607 ], [ 6993297.139071591198444, 9185724.287667771801353 ], [ 6993359.142857169732451, 9185744.020858746021986 ], [ 6993487.409899059683084, 9185710.309837142005563 ], [ 6993526.584674891084433, 9185691.918451879173517 ], [ 6993554.781272559426725, 9185687.279767990112305 ], [ 6993582.403326537460089, 9185691.697029625996947 ], [ 6993607.051884039305151, 9185705.181348690763116 ], [ 6993622.467607337981462, 9185725.663008773699403 ], [ 6993675.946881192736328, 9185755.617528695613146 ], [ 6993694.417776431888342, 9185771.813060879707336 ], [ 6993726.343749265186489, 9185777.7600207477808 ], [ 6993734.653722686693072, 9185770.043442534282804 ], [ 6993743.752726895734668, 9185756.304832356050611 ], [ 6993759.557865424081683, 9185761.386095048859715 ], [ 6993808.714383725076914, 9185800.982397316023707 ], [ 6993855.271550660021603, 9185828.591047447174788 ], [ 6993901.654844142496586, 9185862.407182462513447 ], [ 6993935.169676810503006, 9185878.476637590676546 ], [ 6993951.559340219944715, 9185875.639441505074501 ], [ 6993982.428017840720713, 9185856.89396445825696 ], [ 6994008.189581264741719, 9185835.848488211631775 ], [ 6994018.173150969669223, 9185833.780400035902858 ], [ 6994030.524190506897867, 9185843.999421376734972 ], [ 6994043.141051391139627, 9185847.519772740080953 ], [ 6994065.847624932415783, 9185838.935267183929682 ], [ 6994072.272929475642741, 9185829.92090280354023 ], [ 6994077.689263961277902, 9185803.620417697355151 ], [ 6994083.44076200760901, 9185786.747493460774422 ], [ 6994070.445538277737796, 9185756.615657357499003 ], [ 6994058.545785840600729, 9185720.380261994898319 ], [ 6994063.129752413369715, 9185697.502487692981958 ], [ 6994080.495213148184121, 9185661.487133143469691 ], [ 6994085.185627412982285, 9185628.293839067220688 ], [ 6994073.311810873448849, 9185596.539680995047092 ], [ 6994078.181851032190025, 9185545.921594232320786 ], [ 6994070.052572012878954, 9185519.027992973104119 ], [ 6994075.769544656388462, 9185488.419425157830119 ], [ 6994063.779323291033506, 9185469.930629190057516 ], [ 6994065.348367044702172, 9185439.574727158993483 ], [ 6994074.684590612538159, 9185392.152013221755624 ], [ 6994086.220741160213947, 9185377.378504162654281 ], [ 6994108.082640041597188, 9185373.354641227051616 ], [ 6994147.618248768150806, 9185379.658025313168764 ], [ 6994215.134817074052989, 9185435.999433474615216 ], [ 6994237.171835768036544, 9185436.009794054552913 ], [ 6994314.750632440671325, 9185404.885182704776525 ], [ 6994384.558101334609091, 9185415.793497370555997 ], [ 6994450.466785561293364, 9185435.270804958418012 ], [ 6994590.796114105731249, 9185450.847425732761621 ], [ 6994634.586285270750523, 9185450.379523118957877 ], [ 6994730.873069602996111, 9185511.953787440434098 ], [ 6994799.101765329018235, 9185545.369643982499838 ], [ 6994837.662633525207639, 9185553.080940157175064 ], [ 6994872.484001852571964, 9185567.439234081655741 ], [ 6995009.452317817136645, 9185559.107895702123642 ], [ 6995061.881332924589515, 9185570.093698857352138 ], [ 6995112.959226950071752, 9185576.649155298247933 ], [ 6995181.190839603543282, 9185609.844668682664633 ], [ 6995219.721187087707222, 9185610.043853307142854 ], [ 6995271.410296823829412, 9185583.154797021299601 ], [ 6995390.376667241565883, 9185575.376930493861437 ], [ 6995495.728064328432083, 9185560.505529556423426 ], [ 6995594.153977091424167, 9185495.698793990537524 ], [ 6995625.331520018167794, 9185498.817032217979431 ], [ 6995673.480417001061141, 9185500.154665349051356 ], [ 6995703.62963455542922, 9185510.849236572161317 ], [ 6995786.516177920624614, 9185511.800094550475478 ], [ 6995871.531703365966678, 9185501.253297347575426 ], [ 6995926.309147819876671, 9185486.413903059437871 ], [ 6995974.268161419779062, 9185465.264307865872979 ], [ 6996044.10464727319777, 9185448.078897625207901 ], [ 6996102.921971157193184, 9185456.657796209678054 ], [ 6996208.13263176754117, 9185532.778130343183875 ], [ 6996283.751846071332693, 9185578.231443928554654 ], [ 6996378.256998104043305, 9185624.861476356163621 ], [ 6996412.809975725598633, 9185523.748739199712873 ], [ 6996435.798351465724409, 9185424.719047330319881 ], [ 6996446.147470922209322, 9185401.116734240204096 ], [ 6996468.092659892514348, 9185376.277495294809341 ], [ 6996483.289289642125368, 9185339.980693327262998 ], [ 6996507.099085940048099, 9185280.670924911275506 ], [ 6996511.408164484426379, 9185261.366057649254799 ], [ 6996533.562029712833464, 9185232.419027185067534 ], [ 6996553.346654669381678, 9185201.937457514926791 ], [ 6996581.998855676501989, 9185170.289196129888296 ], [ 6996615.937677626498044, 9185135.185149367898703 ], [ 6996636.509025573730469, 9185125.426024135202169 ], [ 6996654.380392108112574, 9185106.004211420193315 ], [ 6996673.534763761796057, 9185089.796213248744607 ], [ 6996685.861283683218062, 9185067.324905779212713 ], [ 6996692.83489978313446, 9185030.845338176935911 ], [ 6996695.917277718894184, 9185015.640627292916179 ], [ 6996710.634961687028408, 9184994.702849183231592 ], [ 6996728.351396438665688, 9184981.395454440265894 ], [ 6996749.11285145021975, 9184976.936077175661922 ], [ 6996771.322125621140003, 9184979.737268056720495 ], [ 6996800.2250094441697, 9184975.370160037651658 ], [ 6996828.504944400861859, 9184964.500306989997625 ], [ 6996868.110658111050725, 9184956.050241755321622 ], [ 6996942.510412905365229, 9184944.631406582891941 ], [ 6996959.365241835825145, 9184939.498090736567974 ], [ 6996979.674241838976741, 9184922.83856924623251 ], [ 6997018.942404115572572, 9184836.822719387710094 ], [ 6997057.846723883412778, 9184749.68242098018527 ], [ 6997087.200078848749399, 9184688.506900569424033 ], [ 6997110.019285490736365, 9184639.278395080938935 ], [ 6997133.960249422118068, 9184575.640391308814287 ], [ 6997179.102819041348994, 9184501.683476895093918 ], [ 6997199.356582212261856, 9184470.496701385825872 ], [ 6997213.548299998044968, 9184456.105096070095897 ], [ 6997227.035164071246982, 9184455.166112385690212 ], [ 6997251.437510162591934, 9184463.595888625830412 ], [ 6997266.608805745840073, 9184474.972055356949568 ], [ 6997276.630472776480019, 9184483.806285701692104 ], [ 6997306.888432525098324, 9184484.263583729043603 ], [ 6997337.100316396914423, 9184493.688460418954492 ], [ 6997363.977442065253854, 9184497.12169412150979 ], [ 6997364.154092877171934, 9184497.114871401339769 ], [ 6997382.373511063866317, 9184501.707065748050809 ], [ 6997396.492231474258006, 9184495.865876913070679 ], [ 6997409.760921774432063, 9184467.666127348318696 ], [ 6997436.828534633852541, 9184403.987398175522685 ], [ 6997462.671160794794559, 9184349.9720499496907 ], [ 6997485.018815442919731, 9184275.000855628401041 ], [ 6997488.586428753100336, 9184263.272410998120904 ], [ 6997501.018456337973475, 9184257.275509951636195 ], [ 6997523.603043600916862, 9184249.887541923671961 ], [ 6997542.045039285905659, 9184245.505008473992348 ], [ 6997557.442031556740403, 9184232.285818004980683 ], [ 6997576.65729945898056, 9184227.884987220168114 ], [ 6997599.083036904223263, 9184226.205495653674006 ], [ 6997632.602135559543967, 9184210.660039342939854 ], [ 6997662.519440865144134, 9184202.163987826555967 ], [ 6997687.078410098329186, 9184205.697958389297128 ], [ 6997711.420803356915712, 9184203.537841778248549 ], [ 6997728.920079070143402, 9184204.894063051789999 ], [ 6997758.807349097914994, 9184215.957034815102816 ], [ 6997782.500413832254708, 9184217.073907937854528 ], [ 6997812.129199150949717, 9184211.457546446472406 ], [ 6997851.497510962188244, 9184206.672630786895752 ], [ 6997875.190562956035137, 9184197.615554563701153 ], [ 6997888.041262122802436, 9184178.791939163580537 ], [ 6997904.318518775515258, 9184148.02435790002346 ], [ 6997916.782672300934792, 9184119.04168595559895 ], [ 6997987.287638913840055, 9184046.271846497431397 ], [ 6998114.423808081075549, 9183872.359120808541775 ], [ 6998128.934818436391652, 9183840.520993661135435 ], [ 6998151.677532698959112, 9183785.879379209131002 ], [ 6998165.233808166347444, 9183739.130534587427974 ], [ 6998178.485073515214026, 9183705.575573418289423 ], [ 6998188.740679090842605, 9183679.592768657952547 ], [ 6998217.325711254961789, 9183592.262954693287611 ], [ 6998345.46502313669771, 9183347.57480956800282 ], [ 6998399.77171169873327, 9183242.105520937591791 ], [ 6998465.596615705639124, 9183176.631144193932414 ], [ 6998580.392207773402333, 9183088.842381732538342 ], [ 6998664.310361791402102, 9183033.955566540360451 ], [ 6998778.60351622197777, 9182972.177700128406286 ], [ 6998850.273480694741011, 9182910.702232154086232 ], [ 6998922.901069238781929, 9182851.732778530567884 ], [ 6998989.388142966665328, 9182763.952279018238187 ], [ 6999063.818684082478285, 9182641.228215515613556 ], [ 6999082.50544826220721, 9182593.418008338660002 ], [ 6999136.451245774514973, 9182421.531190244480968 ], [ 6999181.971228492446244, 9182298.066980494186282 ], [ 6999190.098866740241647, 9182219.27052591368556 ], [ 6999202.118329803459346, 9182160.184498891234398 ], [ 6998969.811503341421485, 9182147.168274037539959 ], [ 6998895.115163845010102, 9182138.216735130175948 ], [ 6998638.42434908170253, 9182119.280730755999684 ], [ 6998595.476635701954365, 9182117.716485075652599 ], [ 6998595.565400777384639, 9181913.425441399216652 ], [ 6998596.554499117657542, 9181879.658550560474396 ], [ 6998595.252056114375591, 9181872.473204346373677 ], [ 6998586.900593899190426, 9181869.184877302497625 ], [ 6998565.778716863133013, 9181870.236057039350271 ], [ 6998542.162688128650188, 9181871.697514664381742 ], [ 6998526.488040073774755, 9181867.729100380092859 ], [ 6998513.63357144035399, 9181859.435301100835204 ], [ 6998503.128357358276844, 9181850.121273268014193 ], [ 6998486.642518258653581, 9181830.400279929861426 ], [ 6998477.460831335745752, 9181821.580839162692428 ], [ 6998461.593596281483769, 9181816.911444138735533 ], [ 6998435.800055862404406, 9181813.172774076461792 ], [ 6998414.763510890305042, 9181809.795552685856819 ], [ 6998401.307229595258832, 9181802.535595314577222 ], [ 6998388.540062770247459, 9181792.473085733130574 ], [ 6998378.169629736803472, 9181778.868188070133328 ], [ 6998354.071644317358732, 9181745.969782091677189 ], [ 6998336.437579017132521, 9181720.49791556969285 ], [ 6998331.105426442809403, 9181712.597826734185219 ], [ 6998330.429816363379359, 9181707.931816661730409 ], [ 6998329.986757376231253, 9181701.247504059225321 ], [ 6998328.25201069097966, 9181694.613275241106749 ], [ 6998322.487611160613596, 9181682.630083641037345 ], [ 6998308.199974868446589, 9181652.138893058523536 ], [ 6998292.648044081404805, 9181622.126494940370321 ], [ 6998268.698989524506032, 9181572.277264252305031 ], [ 6998240.113295119255781, 9181515.662578156217933 ], [ 6998210.761870434507728, 9181469.402845595031977 ], [ 6998188.519105503335595, 9181435.004462331533432 ], [ 6998163.775703875347972, 9181411.562485726550221 ], [ 6998154.150297502987087, 9181390.542296815663576 ], [ 6998134.906817930750549, 9181360.568912459537387 ], [ 6998126.167234821245074, 9181339.584096232429147 ], [ 6998114.531864067539573, 9181316.597821922972798 ], [ 6998093.442855621688068, 9181273.328130755573511 ], [ 6998073.507847175002098, 9181248.701061652973294 ], [ 6998056.16585629247129, 9181223.648246385157108 ], [ 6998038.421039577573538, 9181197.891011409461498 ], [ 6998025.327133759856224, 9181184.775481576099992 ], [ 6998015.044819273985922, 9181166.823911169543862 ], [ 6998006.905023729428649, 9181151.994759183377028 ], [ 6997986.321973735466599, 9181117.637091381475329 ], [ 6997974.567776156589389, 9181099.649768205359578 ], [ 6997964.318858436308801, 9181080.547171762213111 ], [ 6997952.82893162034452, 9181052.398838810622692 ], [ 6997940.678251369856298, 9181019.398217530921102 ], [ 6997931.35256183706224, 9180991.467936780303717 ], [ 6997926.693928550928831, 9180985.574485667049885 ], [ 6997908.280648875981569, 9180993.559390561655164 ], [ 6997894.742490554228425, 9180996.6049386523664 ], [ 6997881.215813178569078, 9180999.661648593842983 ], [ 6997848.370051670819521, 9181006.092696815729141 ], [ 6997827.082451530732214, 9181014.665225807577372 ], [ 6997791.865489011630416, 9181031.095017893239856 ], [ 6997763.550791054964066, 9181052.82010336779058 ], [ 6997741.00526296813041, 9181076.226018102839589 ], [ 6997706.826084188185632, 9181115.494989382103086 ], [ 6997676.885983510874212, 9181144.460343627259135 ], [ 6997654.035024653188884, 9181157.843370396643877 ], [ 6997609.897036205045879, 9181183.003992684185505 ], [ 6997583.557404341176152, 9181201.156189383938909 ], [ 6997563.825631894171238, 9181212.548239812254906 ] ] ] } }
]
}
