{
"type": "FeatureCollection",
"name": "2504108",
"crs": { "type": "name", "properties": { "name": "urn:ogc:def:crs:EPSG::5880" } },
"features": [
{ "type": "Feature", "properties": { "lv_id": "LOC_023477", "id": 97069.0, "CD_SETOR": "250410805000001", "SITUACAO": "Urbana", "CD_SIT": "1", "CD_TIPO": "0", "AREA_KM2": 0.38577798246360001, "CD_REGIAO": "2", "NM_REGIAO": "Nordeste", "CD_UF": "25", "NM_UF": "Paraíba", "CD_MUN": "2504108", "NM_MUN": "Carrapateira", "CD_DIST": "250410805", "NM_DIST": "Carrapateira", "CD_SUBDIST": "25041080500", "NM_SUBDIST": null, "CD_BAIRRO": null, "NM_BAIRRO": null, "CD_NU": null, "NM_NU": null, "CD_FCU": null, "NM_FCU": null, "CD_AGLOM": "250410800001", "NM_AGLOM": "Bonfim dos Pedrosas", "CD_RGINT": "2504", "NM_RGINT": "Sousa - Cajazeiras", "CD_RGI": "250015", "NM_RGI": "Cajazeiras", "CD_CONCURB": null, "NM_CONCURB": null, "mun_code_x": "2504108", "index_right": 48185, "dist_m": 144.12062548845105, "local_id": 240629, "ano": 2022, "cod_localidade_ibge": 2504108, "NR_ZONA": "40", "nr_cep": 58945000.0, "nm_localidade": "CARRAPATEIRA", "nm_locvot": "E.E.E.M. JOEL PEREIRA DA SILVA", "ds_endereco": "RUA JOÃO BEZERRA, S/N", "ds_bairro": "CENTRO", "pred_long": -38.346313, "pred_lat": -7.038142, "pred_dist": 0.0, "tse_long": -38.3463056, "tse_lat": -7.0381354, "long": -38.3463056, "lat": -7.0381354, "ID_UNICO": "LOC_023477", "SG_UF": "PB", "CD_MUNICIPIO": "19836", "NR_LOCAL_VOTACAO": "1015", "QT_SECOES_AGREGADAS": 0, "QT_ELEITORES_TRANSFERIDOS": 222, "CIRO GOMES (PDT) (NÃO ELEITO) 1T": 21.0, "CONSTITUINTE EYMAEL (DC) (NÃO ELEITO) 1T": 0.0, "FELIPE D AVILA (NOVO) (NÃO ELEITO) 1T": 0.0, "JAIR BOLSONARO (PL) (2º TURNO) 1T": 110.0, "LULA (PT) (2º TURNO) 1T": 578.0, "LÉO PÉRICLES (UP) (NÃO ELEITO) 1T": 0.0, "PADRE KELMON (PTB) (NÃO ELEITO) 1T": 2.0, "SIMONE TEBET (MDB) (NÃO ELEITO) 1T": 5.0, "SOFIA MANZANO (PCB) (NÃO ELEITO) 1T": 0.0, "SORAYA THRONICKE (UNIÃO) (NÃO ELEITO) 1T": 0.0, "VERA (PSTU) (NÃO ELEITO) 1T": 1.0, "Total_Votos_Validos 1T": 717.0, "Votos_Brancos 1T": 7.0, "Votos_Nulos 1T": 17.0, "Abstenções 1T": 193.0, "Eleitores_Aptos 1T": 934.0, "JAIR BOLSONARO (PL) (NÃO ELEITO) 2T": 99.0, "LULA (PT) (ELEITO) 2T": 535.0, "Total_Votos_Validos 2T": 634.0, "Votos_Brancos 2T": 6.0, "Votos_Nulos 2T": 34.0, "Abstenções 2T": 260.0, "Eleitores_Aptos 2T": 934.0, "mun_code_y": "2504108", "mun_code": "2504108" }, "geometry": { "type": "Polygon", "coordinates": [ [ [ 6730430.3215238051489, 9197658.782363085076213 ], [ 6730444.921823517419398, 9197548.810897102579474 ], [ 6730507.851539015769958, 9197430.963614694774151 ], [ 6730608.19774517416954, 9197343.161956051364541 ], [ 6730644.433031692169607, 9197244.976444024592638 ], [ 6730684.219654133543372, 9197162.324606537818909 ], [ 6730730.788694115355611, 9197101.329906420782208 ], [ 6730929.78869459964335, 9196966.44594793766737 ], [ 6730942.016199829056859, 9196784.599332444369793 ], [ 6731022.717019795440137, 9196653.657241553068161 ], [ 6731156.316656518727541, 9196561.607117710635066 ], [ 6731267.095764555037022, 9196514.108281183987856 ], [ 6731433.182972457259893, 9196486.670129658654332 ], [ 6731486.132263170555234, 9196434.857240278273821 ], [ 6731482.215932298451662, 9196316.110604232177138 ], [ 6731420.984973235055804, 9196208.664617566391826 ], [ 6731386.938580306246877, 9196097.190055517479777 ], [ 6731318.545895370654762, 9195864.853190356865525 ], [ 6731375.45121156424284, 9195663.986700972542167 ], [ 6731455.096224839799106, 9195494.296289309859276 ], [ 6731522.894801803864539, 9195432.59759714640677 ], [ 6731579.096467927098274, 9195402.041276525706053 ], [ 6731633.256397476419806, 9195372.597302727401257 ], [ 6731732.307106588035822, 9195338.003277711570263 ], [ 6731837.637650824151933, 9195309.453256949782372 ], [ 6732031.66497780289501, 9195273.576423080638051 ], [ 6732170.990530448034406, 9195198.202102923765779 ], [ 6732311.571291830390692, 9195134.06567389331758 ], [ 6732457.088863098993897, 9195035.345735276117921 ], [ 6732561.828529483638704, 9194897.328062936663628 ], [ 6732610.535382732748985, 9194717.390553092584014 ], [ 6732662.472558535635471, 9194543.587209366261959 ], [ 6732737.918237757869065, 9194437.831264976412058 ], [ 6732799.545287537388504, 9194373.198293955996633 ], [ 6732913.340283409692347, 9194325.593300398439169 ], [ 6733086.214934645220637, 9194319.803339859470725 ], [ 6733184.962007537484169, 9194275.822687461972237 ], [ 6733288.622613976709545, 9194197.269843442365527 ], [ 6733372.817246362566948, 9194172.551464665681124 ], [ 6733466.421459382399917, 9194156.905483914539218 ], [ 6733597.974122527055442, 9194186.904806891456246 ], [ 6733644.754625992849469, 9194227.847449816763401 ], [ 6733703.988422424532473, 9194270.955236548557878 ], [ 6733858.742256486788392, 9194359.616609588265419 ], [ 6733966.437426371499896, 9194402.937471743673086 ], [ 6734131.247764060273767, 9194428.701532838866115 ], [ 6734328.717850750312209, 9194461.232920952141285 ], [ 6734648.113404415547848, 9194534.462532375007868 ], [ 6734834.502215133979917, 9194577.201336296275258 ], [ 6734974.7059336155653, 9194685.130734205245972 ], [ 6735054.701444430276752, 9194716.87088012136519 ], [ 6735193.078398679383099, 9194677.812080834060907 ], [ 6735255.003074835054576, 9194622.549303149804473 ], [ 6735432.296049222350121, 9194521.157615369185805 ], [ 6735437.047271155752242, 9194497.388693563640118 ], [ 6735421.69132505916059, 9194393.594290746375918 ], [ 6735384.563606781885028, 9194352.406304053962231 ], [ 6735305.791376016102731, 9194287.857678033411503 ], [ 6735260.155348439700902, 9194208.424947706982493 ], [ 6735199.173347249627113, 9194102.25937776081264 ], [ 6735199.678727999329567, 9194090.822222711518407 ], [ 6735203.049242214299738, 9194013.728943740949035 ], [ 6735374.564891730435193, 9193896.595806585624814 ], [ 6735386.423764771781862, 9193843.148039070889354 ], [ 6735297.272247990593314, 9193773.658133899793029 ], [ 6735100.366202940233052, 9193690.097601864486933 ], [ 6735016.43326742015779, 9193623.957135885953903 ], [ 6734945.647557081654668, 9193543.235544972121716 ], [ 6734938.262246051803231, 9193474.538184119388461 ], [ 6734957.558292405679822, 9193389.025999713689089 ], [ 6734956.505896051414311, 9193305.96429606154561 ], [ 6734934.576289903372526, 9193260.733159525319934 ], [ 6734871.165315004065633, 9193248.72171001508832 ], [ 6734681.900031841360033, 9193180.5297283641994 ], [ 6734678.14069021306932, 9193179.175351653248072 ], [ 6734636.32242090255022, 9193099.250760283321142 ], [ 6734629.195441404357553, 9193053.362612802535295 ], [ 6734603.83165449090302, 9192889.96215208619833 ], [ 6734535.33141266182065, 9192826.841837460175157 ], [ 6734541.359553946182132, 9192735.991666808724403 ], [ 6734554.45249898545444, 9192582.226525632664561 ], [ 6734539.500686528161168, 9192490.795584563165903 ], [ 6734464.30349263176322, 9192482.705446824431419 ], [ 6734424.738194621168077, 9192507.666323497891426 ], [ 6734345.888807119801641, 9192557.406142767518759 ], [ 6734208.043327717110515, 9192560.268792673945427 ], [ 6734105.874453125521541, 9192457.629006838425994 ], [ 6734051.623764867894351, 9192362.206043262034655 ], [ 6733991.509236542508006, 9192295.282851861789823 ], [ 6733964.016891716048121, 9192194.726517667993903 ], [ 6733950.804597687907517, 9192146.381582491099834 ], [ 6733953.912678057327867, 9192034.892544537782669 ], [ 6733989.197834599763155, 9191889.715655170381069 ], [ 6734026.81941503379494, 9191666.484475368633866 ], [ 6734005.228185505606234, 9191580.581515330821276 ], [ 6733894.790465622209013, 9191536.562020195648074 ], [ 6733635.95715363137424, 9191638.962077781558037 ], [ 6733476.886959345079958, 9191617.786294562742114 ], [ 6733271.130038750357926, 9191523.936741964891553 ], [ 6733213.946094090119004, 9191391.501329662278295 ], [ 6733123.152577556669712, 9191323.84603357501328 ], [ 6733048.543147623538971, 9191282.157946912571788 ], [ 6732973.123365883715451, 9191215.742291666567326 ], [ 6732941.916428402997553, 9191147.85181088745594 ], [ 6732922.036805944517255, 9191061.89520581997931 ], [ 6732866.425962811335921, 9191028.406058266758919 ], [ 6732762.561399666592479, 9191028.811564208939672 ], [ 6732687.655947330407798, 9191029.115354128181934 ], [ 6732620.622187234461308, 9191010.149433882907033 ], [ 6732554.39623337239027, 9190862.11593528650701 ], [ 6732568.674077332019806, 9190794.452977964654565 ], [ 6732572.054947173222899, 9190778.432987697422504 ], [ 6732576.626612030901015, 9190711.096397310495377 ], [ 6732474.399305246770382, 9190657.967925479635596 ], [ 6732438.604596769437194, 9190654.615826796740294 ], [ 6732363.366769328713417, 9190647.563782578334212 ], [ 6732281.0167675325647, 9190577.849531579762697 ], [ 6732119.614683756604791, 9190537.316196121275425 ], [ 6732002.249935337342322, 9190541.263675568625331 ], [ 6731977.611160933971405, 9190517.349848836660385 ], [ 6731883.705979481339455, 9190304.838348979130387 ], [ 6731835.54855808801949, 9190136.750540938228369 ], [ 6731735.841990046203136, 9190057.019001556560397 ], [ 6731710.859464053995907, 9189971.238810159265995 ], [ 6731672.088342403993011, 9189931.88412401266396 ], [ 6731510.796449930407107, 9189946.159710973501205 ], [ 6731408.278186720795929, 9189935.459548680111766 ], [ 6731233.547740910202265, 9189955.488179981708527 ], [ 6731124.170715928077698, 9189994.513129940256476 ], [ 6731003.936137102544308, 9190065.736197136342525 ], [ 6730867.984965436160564, 9190073.843230757862329 ], [ 6730777.192659016698599, 9190006.184392476454377 ], [ 6730732.558304222300649, 9189944.053793298080564 ], [ 6730642.411760656163096, 9189895.824837116524577 ], [ 6730607.821798431687057, 9189864.179921476170421 ], [ 6730551.091518151573837, 9189812.279749568551779 ], [ 6730485.334837377071381, 9189678.38174644857645 ], [ 6730509.502274116501212, 9189636.911269057542086 ], [ 6730629.443733391351998, 9189608.123179221525788 ], [ 6730724.570233749225736, 9189550.126661155372858 ], [ 6730769.962187801487744, 9189481.43271179869771 ], [ 6730906.258783785626292, 9189381.391202317550778 ], [ 6730915.823316490277648, 9189310.356427166610956 ], [ 6730899.637843436561525, 9189242.495138771831989 ], [ 6730886.135549726895988, 9189185.847067911177874 ], [ 6730845.778210732154548, 9189098.820829894393682 ], [ 6730815.799779640510678, 9188862.962705601006746 ], [ 6730927.213283807039261, 9188680.67186226695776 ], [ 6730928.380109020508826, 9188613.454110993072391 ], [ 6730967.201851585879922, 9188552.047940067946911 ], [ 6731038.992994284257293, 9188560.232222266495228 ], [ 6731167.613854355178773, 9188587.719968244433403 ], [ 6731280.750202193856239, 9188559.165272492915392 ], [ 6731485.076383893378079, 9188559.347553875297308 ], [ 6731547.995568413287401, 9188571.640485620126128 ], [ 6731623.910518505610526, 9188586.479105098173022 ], [ 6731746.885138161480427, 9188546.987468034029007 ], [ 6731880.024743122048676, 9188505.373646836727858 ], [ 6731996.143760485574603, 9188515.59702947922051 ], [ 6732107.461078058928251, 9188483.554622903466225 ], [ 6732213.254626831039786, 9188439.338054291903973 ], [ 6732290.775760920718312, 9188312.974543832242489 ], [ 6732360.094782740809023, 9188246.988429179415107 ], [ 6732360.240099317394197, 9188158.168089874088764 ], [ 6732360.42101342882961, 9188052.522207383066416 ], [ 6732370.373678506352007, 9187942.587176840752363 ], [ 6732415.345042774453759, 9187861.515167932957411 ], [ 6732414.516319113783538, 9187734.258610961958766 ], [ 6732339.780670326203108, 9187637.786557426676154 ], [ 6732190.324955686926842, 9187547.372478228062391 ], [ 6732156.773146364837885, 9187460.115084417164326 ], [ 6732153.776826835237443, 9187397.142720382660627 ], [ 6732151.066429063677788, 9187340.093936897814274 ], [ 6732124.834581281989813, 9187268.495788464322686 ], [ 6732040.066876949742436, 9187137.40821778960526 ], [ 6731979.412894846871495, 9187043.5963054317981 ], [ 6731867.309878322295845, 9186847.629392817616463 ], [ 6731767.096930142492056, 9186651.250776940956712 ], [ 6731763.795198503881693, 9186552.369586100801826 ], [ 6731786.126795927062631, 9186456.15662076510489 ], [ 6731802.594398205168545, 9186402.809877583757043 ], [ 6731828.153722642920911, 9186338.058281162753701 ], [ 6731807.670563194900751, 9186234.455772496759892 ], [ 6731816.612508887425065, 9186094.50046543776989 ], [ 6731849.674710446968675, 9186013.829775301739573 ], [ 6731905.194819858297706, 9185943.014658695086837 ], [ 6731904.121272435411811, 9185859.9634760171175 ], [ 6731871.95900649484247, 9185763.825425561517477 ], [ 6731816.27588209323585, 9185626.056144889444113 ], [ 6731795.612453907728195, 9185517.146815158426762 ], [ 6731719.454908417537808, 9185378.304057223722339 ], [ 6731655.800341684371233, 9185256.711979383602738 ], [ 6731590.565031976439059, 9185189.983524804934859 ], [ 6731486.400185337290168, 9185129.863616490736604 ], [ 6731403.866574708372355, 9185054.873416332527995 ], [ 6731197.109014166519046, 9184932.05746759288013 ], [ 6731141.00550860632211, 9184917.592243336141109 ], [ 6731091.786525680683553, 9184906.382613932713866 ], [ 6731069.542663158848882, 9184876.828068709000945 ], [ 6730277.537322054617107, 9184983.239497154951096 ], [ 6730077.350245679728687, 9184948.437427897006273 ], [ 6729814.795825725421309, 9185045.414792852476239 ], [ 6729278.998156175017357, 9185117.375304605811834 ], [ 6728619.264907783828676, 9186916.150878641754389 ], [ 6726770.656567541882396, 9191954.597758347168565 ], [ 6726776.493460816331208, 9192036.472887609153986 ], [ 6726933.217800292186439, 9193795.917901340872049 ], [ 6727816.227833328768611, 9198360.235508071258664 ], [ 6727930.580514518544078, 9198373.807082321494818 ], [ 6728102.329242098145187, 9198333.688522921875119 ], [ 6728181.19200745318085, 9198331.067356592044234 ], [ 6728304.733569722622633, 9198301.935751752927899 ], [ 6728410.782741064205766, 9198295.28944369032979 ], [ 6728560.699909899383783, 9198237.122028322890401 ], [ 6728651.483203270472586, 9198227.850013049319386 ], [ 6728725.104189317673445, 9198250.427672699093819 ], [ 6728815.476609757170081, 9198228.650451879948378 ], [ 6728866.115467593073845, 9198198.819659370929003 ], [ 6728929.301737601868808, 9198181.078592285513878 ], [ 6728987.237749120220542, 9198157.992740899324417 ], [ 6729042.909851799719036, 9198127.248177465051413 ], [ 6729167.169506656937301, 9198119.993841895833611 ], [ 6729261.50262860301882, 9198126.230624157935381 ], [ 6729385.248703910969198, 9198103.352822987362742 ], [ 6729535.564014118164778, 9198057.685147603973746 ], [ 6729604.915639603510499, 9198042.8699797000736 ], [ 6729822.67502867244184, 9198016.850532323122025 ], [ 6730030.626044252887368, 9197969.261954648420215 ], [ 6730173.187600150704384, 9197964.516451932489872 ], [ 6730424.411970776505768, 9197940.512176997959614 ], [ 6730442.461724724620581, 9197842.934098765254021 ], [ 6730430.3215238051489, 9197658.782363085076213 ] ] ] } }
]
}
