{
"type": "FeatureCollection",
"name": "2511806",
"crs": { "type": "name", "properties": { "name": "urn:ogc:def:crs:EPSG::5880" } },
"features": [
{ "type": "Feature", "properties": { "lv_id": "LOC_024003", "id": 101646.0, "CD_SETOR": "251180605000001", "SITUACAO": "Urbana", "CD_SIT": "1", "CD_TIPO": "0", "AREA_KM2": 0.047292420332051999, "CD_REGIAO": "2", "NM_REGIAO": "Nordeste", "CD_UF": "25", "NM_UF": "Paraíba", "CD_MUN": "2511806", "NM_MUN": "Pirpirituba", "CD_DIST": "251180605", "NM_DIST": "Pirpirituba", "CD_SUBDIST": "25118060500", "NM_SUBDIST": null, "CD_BAIRRO": null, "NM_BAIRRO": null, "CD_NU": null, "NM_NU": null, "CD_FCU": null, "NM_FCU": null, "CD_AGLOM": null, "NM_AGLOM": null, "CD_RGINT": "2501", "NM_RGINT": "João Pessoa", "CD_RGI": "250002", "NM_RGI": "Guarabira", "CD_CONCURB": null, "NM_CONCURB": null, "mun_code_x": "2511806", "index_right": 48913, "dist_m": 120.01739512079951, "local_id": 247182, "ano": 2022, "cod_localidade_ibge": 2511806, "NR_ZONA": "47", "nr_cep": 58213000.0, "nm_localidade": "PIRPIRITUBA", "nm_locvot": "GRUPO ESCOLAR MUNICIPAL PADRE JOSÉ COUTINHO", "ds_endereco": "RUA PROFESSOR FÉLIX CANTALICE, 166", "ds_bairro": "CENTRO", "pred_long": -35.494632, "pred_lat": -6.781249, "pred_dist": 0.0, "tse_long": -35.4946919, "tse_lat": -6.7811227, "long": -35.4946919, "lat": -6.7811227, "ID_UNICO": "LOC_024003", "SG_UF": "PB", "CD_MUNICIPIO": "21377", "NR_LOCAL_VOTACAO": "1058", "QT_SECOES_AGREGADAS": 0, "QT_ELEITORES_TRANSFERIDOS": 0, "CIRO GOMES (PDT) (NÃO ELEITO) 1T": 21.0, "CONSTITUINTE EYMAEL (DC) (NÃO ELEITO) 1T": 0.0, "FELIPE D AVILA (NOVO) (NÃO ELEITO) 1T": 0.0, "JAIR BOLSONARO (PL) (2º TURNO) 1T": 179.0, "LULA (PT) (2º TURNO) 1T": 620.0, "LÉO PÉRICLES (UP) (NÃO ELEITO) 1T": 0.0, "PADRE KELMON (PTB) (NÃO ELEITO) 1T": 1.0, "SIMONE TEBET (MDB) (NÃO ELEITO) 1T": 23.0, "SOFIA MANZANO (PCB) (NÃO ELEITO) 1T": 0.0, "SORAYA THRONICKE (UNIÃO) (NÃO ELEITO) 1T": 1.0, "VERA (PSTU) (NÃO ELEITO) 1T": 0.0, "Total_Votos_Validos 1T": 845.0, "Votos_Brancos 1T": 19.0, "Votos_Nulos 1T": 27.0, "Abstenções 1T": 187.0, "Eleitores_Aptos 1T": 1078.0, "JAIR BOLSONARO (PL) (NÃO ELEITO) 2T": 196.0, "LULA (PT) (ELEITO) 2T": 625.0, "Total_Votos_Validos 2T": 821.0, "Votos_Brancos 2T": 21.0, "Votos_Nulos 2T": 59.0, "Abstenções 2T": 177.0, "Eleitores_Aptos 2T": 1078.0, "mun_code_y": "2511806", "mun_code": "2511806" }, "geometry": { "type": "MultiPolygon", "coordinates": [ [ [ [ 7041539.344663133844733, 9208583.337960625067353 ], [ 7041542.032889098860323, 9208559.214565616101027 ], [ 7041588.27662502322346, 9208490.796638695523143 ], [ 7041602.901028683409095, 9208451.390156276524067 ], [ 7041624.942757826298475, 9208430.08804651722312 ], [ 7041658.600472970865667, 9208370.867505511268973 ], [ 7041674.82246490009129, 9208326.593203919008374 ], [ 7041671.949334497563541, 9208291.963637603446841 ], [ 7041643.45965073350817, 9208228.287566861137748 ], [ 7041598.538438115268946, 9208161.841707235202193 ], [ 7041577.461726726964116, 9208121.740294240415096 ], [ 7041591.439111096784472, 9208059.862115835770965 ], [ 7041640.271918097510934, 9207944.76854021474719 ], [ 7041657.609774113632739, 9207910.774121545255184 ], [ 7041691.404390859417617, 9207854.945613451302052 ], [ 7041686.537159407511353, 9207725.612327480688691 ], [ 7041671.58163367304951, 9207675.05878247320652 ], [ 7041668.250592100434005, 9207586.562793783843517 ], [ 7041675.335619900375605, 9207514.717853119596839 ], [ 7041616.738109301775694, 9207431.758816283196211 ], [ 7041607.669441643171012, 9207363.942263640463352 ], [ 7041597.124719017185271, 9207343.886339062824845 ], [ 7041519.115173686295748, 9207265.081063710153103 ], [ 7041460.46065317094326, 9206892.818607432767749 ], [ 7041460.078020638786256, 9206886.478962140157819 ], [ 7041446.832923002541065, 9206644.16130143776536 ], [ 7038631.617138059809804, 9206610.153013309463859 ], [ 7035997.397938078269362, 9206578.692190503701568 ], [ 7036166.592549491673708, 9206638.381093226373196 ], [ 7036259.936457049101591, 9206696.82761218957603 ], [ 7036299.774375410750508, 9206766.115533279255033 ], [ 7036334.36462835688144, 9206791.740233620628715 ], [ 7036440.654620609246194, 9206817.638291921466589 ], [ 7036607.634264584630728, 9206864.591981532052159 ], [ 7036641.992719443514943, 9206842.859085688367486 ], [ 7036665.782268820330501, 9206810.104295518249273 ], [ 7036723.071252254769206, 9206794.848181201145053 ], [ 7036763.271562987938523, 9206824.342773357406259 ], [ 7036800.048520135693252, 9206842.810075048357248 ], [ 7036879.561984158121049, 9206881.145968794822693 ], [ 7036893.883869234472513, 9206887.544839143753052 ], [ 7036908.19427324552089, 9206893.932518716901541 ], [ 7036942.975610080175102, 9206904.040636671707034 ], [ 7037009.361842848360538, 9206922.737741379067302 ], [ 7037076.693663378246129, 9207008.360644107684493 ], [ 7037133.885679404251277, 9207032.296362129971385 ], [ 7037184.8373554777354, 9207056.482298724353313 ], [ 7037248.772247292101383, 9207093.238801898434758 ], [ 7037255.172684294171631, 9207138.733436608687043 ], [ 7037273.635924560017884, 9207172.317757371813059 ], [ 7037364.542960209771991, 9207219.481736425310373 ], [ 7037392.495649682357907, 9207255.97325505129993 ], [ 7037428.662397464737296, 9207344.429817104712129 ], [ 7037526.740091793239117, 9207332.514013228937984 ], [ 7037618.125914598815143, 9207309.427388910204172 ], [ 7037672.264830954372883, 9207335.121403707191348 ], [ 7037713.972192493267357, 9207362.919568231329322 ], [ 7037746.143128716386855, 9207345.365183347836137 ], [ 7037775.628064316697419, 9207339.339744510129094 ], [ 7037805.638833787292242, 9207305.519450610503554 ], [ 7037821.736973255872726, 9207317.971266817301512 ], [ 7037842.075884715653956, 9207359.664825389161706 ], [ 7037870.580793920904398, 9207410.843801077455282 ], [ 7037888.099798824638128, 9207460.802028363570571 ], [ 7037903.595766272395849, 9207456.940221691504121 ], [ 7037915.414160177111626, 9207438.522804442793131 ], [ 7037943.024047550745308, 9207424.400621931999922 ], [ 7037962.075292185880244, 9207431.841007679700851 ], [ 7037975.120111419819295, 9207446.050319708883762 ], [ 7037994.221462056972086, 9207455.117843663319945 ], [ 7038000.289476690813899, 9207449.987234059721231 ], [ 7038002.607257734052837, 9207428.663073131814599 ], [ 7038009.435562344267964, 9207402.267799837514758 ], [ 7038024.624856585636735, 9207390.249178308993578 ], [ 7038039.227160575799644, 9207404.398974431678653 ], [ 7038048.078701961785555, 9207431.824112353846431 ], [ 7038072.365022747777402, 9207453.760693341493607 ], [ 7038102.279384335502982, 9207459.156943902373314 ], [ 7038116.022951687686145, 9207450.46325708925724 ], [ 7038139.439941309392452, 9207449.568355929106474 ], [ 7038168.164645215496421, 9207464.807591773569584 ], [ 7038183.257033345289528, 9207491.994414506480098 ], [ 7038208.365278205834329, 9207494.304633717983961 ], [ 7038209.504407807253301, 9207482.822859296575189 ], [ 7038215.131989396177232, 9207466.270770383998752 ], [ 7038217.767398247495294, 9207453.102757686749101 ], [ 7038233.141033126041293, 9207445.987382030114532 ], [ 7038244.065278833732009, 9207445.569879485294223 ], [ 7038265.557002830319107, 9207434.950916362926364 ], [ 7038260.444195321761072, 9207423.708049982786179 ], [ 7038258.27341581787914, 9207407.453952677547932 ], [ 7038275.633456860668957, 9207411.689241997897625 ], [ 7038284.056129944510758, 9207427.70440810546279 ], [ 7038297.100598726421595, 9207441.902254166081548 ], [ 7038317.709345445968211, 9207449.28315600194037 ], [ 7038323.643531223759055, 9207440.88779915496707 ], [ 7038315.527959566563368, 9207433.041055019944906 ], [ 7038317.672730747610331, 9207406.824360122904181 ], [ 7038339.532251056283712, 9207405.988858321681619 ], [ 7038379.119665518403053, 9207419.172210201621056 ], [ 7038392.838670821860433, 9207451.310548096895218 ], [ 7038397.37518360093236, 9207488.710328720510006 ], [ 7038418.351756269112229, 9207505.874881692230701 ], [ 7038438.653866804204881, 9207505.098969988524914 ], [ 7038455.339455733075738, 9207491.393823547288775 ], [ 7038498.567978939041495, 9207476.674162909388542 ], [ 7038527.047266496345401, 9207485.38336238078773 ], [ 7038542.508072325028479, 9207522.365863995626569 ], [ 7038530.934847528114915, 9207547.302461238577962 ], [ 7038541.048756278119981, 9207566.522993708029389 ], [ 7038593.828094268217683, 9207556.337226381525397 ], [ 7038618.629722021520138, 9207550.490461107343435 ], [ 7038666.664459134452045, 9207538.856810094788671 ], [ 7038689.454669885337353, 9207562.480212876573205 ], [ 7038730.906747480854392, 9207583.772962659597397 ], [ 7038780.853298422880471, 9207622.696045825257897 ], [ 7038892.431385642848909, 9207678.871236607432365 ], [ 7038928.807184169068933, 9207731.381094038486481 ], [ 7038932.730313424021006, 9207752.467704735696316 ], [ 7038927.643292098306119, 9207783.696528181433678 ], [ 7038934.69234009925276, 9207804.663696939125657 ], [ 7038956.245415581390262, 9207795.671298963949084 ], [ 7039011.57455393858254, 9207811.523732246831059 ], [ 7039087.133756693452597, 9207824.974025027826428 ], [ 7039162.004429557360709, 9207861.304895348846912 ], [ 7039224.310527851805091, 9207896.498579546809196 ], [ 7039236.778536600060761, 9207936.855061687529087 ], [ 7039270.738511208444834, 9207966.592338504269719 ], [ 7039341.676032724790275, 9207981.860441338270903 ], [ 7039367.433896603994071, 9208042.946357032284141 ], [ 7039463.172971240244806, 9208052.356346983462572 ], [ 7039738.20134943164885, 9208130.054786313325167 ], [ 7039799.158531753346324, 9208129.354750068858266 ], [ 7039870.622231015004218, 9208116.825662955641747 ], [ 7039970.099580150097609, 9208059.121502488851547 ], [ 7040032.19577476195991, 9208046.938261616975069 ], [ 7040222.704057258553803, 9208039.656884860247374 ], [ 7040365.361561917699873, 9208048.91345533169806 ], [ 7040446.412790505215526, 9208083.380474837496877 ], [ 7040491.236532669514418, 9208111.074639836326241 ], [ 7040550.366823670454323, 9208144.750613164156675 ], [ 7040586.498231073841453, 9208190.745339140295982 ], [ 7040600.990694266743958, 9208284.94304458796978 ], [ 7040611.701614303514361, 9208366.833352647721767 ], [ 7040632.13289256580174, 9208406.271471627056599 ], [ 7040786.549255877733231, 9208478.784155799075961 ], [ 7040980.162255117669702, 9208569.071711422875524 ], [ 7041023.461932439357042, 9208594.183759419247508 ], [ 7041056.829174591228366, 9208707.923589169979095 ], [ 7041152.969748098403215, 9208777.439970757812262 ], [ 7041236.84605285525322, 9208803.772210149094462 ], [ 7041335.85226240195334, 9208798.826060535386205 ], [ 7041405.756874970160425, 9208763.034085020422935 ], [ 7041427.858292300254107, 9208701.218972332775593 ], [ 7041477.602008461020887, 9208670.863604253157973 ], [ 7041506.536637750454247, 9208691.67206759005785 ], [ 7041555.100479532033205, 9208696.438277432695031 ], [ 7041526.34125435911119, 9208677.648071775212884 ], [ 7041525.427621115930378, 9208631.271028034389019 ], [ 7041539.344663133844733, 9208583.337960625067353 ] ] ], [ [ [ 7044833.959414769895375, 9210781.675844352692366 ], [ 7044827.257638558745384, 9210773.772183317691088 ], [ 7044810.062321305274963, 9210727.683389669284225 ], [ 7044845.474296095781028, 9210712.992614183574915 ], [ 7044797.408068841323256, 9210597.184768166393042 ], [ 7044761.348263253457844, 9210485.027807695791125 ], [ 7044610.906166048720479, 9210570.584206903353333 ], [ 7044518.796513579785824, 9210637.035281304270029 ], [ 7044424.678140088915825, 9210843.026675216853619 ], [ 7044309.230241979472339, 9211052.297117946669459 ], [ 7044270.720728733576834, 9211063.461646590381861 ], [ 7044199.671043002977967, 9211121.947460500523448 ], [ 7044188.395529670640826, 9211162.859152058139443 ], [ 7044197.299149718135595, 9211213.837497571483254 ], [ 7044145.091929400339723, 9211364.753476548939943 ], [ 7044085.713888518512249, 9211418.870325144380331 ], [ 7044035.960248741321266, 9211447.327828198671341 ], [ 7043822.560523857362568, 9211569.630559774115682 ], [ 7043806.139203025959432, 9211623.807979799807072 ], [ 7043729.460692829452455, 9211739.384592615067959 ], [ 7043568.653393152169883, 9211702.982456691563129 ], [ 7043177.868083496578038, 9211812.109072370454669 ], [ 7043008.921310029923916, 9211667.694987934082747 ], [ 7042155.627268011681736, 9211297.278326159343123 ], [ 7041912.327714808285236, 9210982.473231328651309 ], [ 7041577.731807176955044, 9210755.075264507904649 ], [ 7041083.529003346338868, 9210501.379193726927042 ], [ 7040478.517014428041875, 9210252.381070835515857 ], [ 7039742.516843307763338, 9209890.876214565709233 ], [ 7038880.914195975288749, 9209569.878253582865 ], [ 7037880.703800461255014, 9209356.377687364816666 ], [ 7037422.311201439239085, 9209201.282082945108414 ], [ 7037026.618831598199904, 9209166.262102695181966 ], [ 7037620.134669251739979, 9209651.639536125585437 ], [ 7040976.556894393637776, 9212092.768153909593821 ], [ 7041296.387828282080591, 9212455.090465547516942 ], [ 7041303.644550496712327, 9212467.208653127774596 ], [ 7041303.595509802922606, 9212482.164934059605002 ], [ 7041300.177769787609577, 9212486.32152639888227 ], [ 7041291.35371183976531, 9212497.072765775024891 ], [ 7041283.947372376918793, 9212525.913210079073906 ], [ 7041316.278553226031363, 9212619.263361124321818 ], [ 7041296.194632585160434, 9212671.779616668820381 ], [ 7041305.85587368067354, 9212703.532325381413102 ], [ 7041328.283139592036605, 9212713.386455422267318 ], [ 7041394.343544108793139, 9212710.875242047011852 ], [ 7041400.225473831407726, 9212712.560230188071728 ], [ 7041421.785911159589887, 9212718.758172407746315 ], [ 7041433.972523290663958, 9212727.221052696928382 ], [ 7041450.918458080850542, 9212726.576860800385475 ], [ 7041454.498699255287647, 9212731.794127052649856 ], [ 7041454.964963250793517, 9212744.263715412467718 ], [ 7041435.571602530777454, 9212769.987168585881591 ], [ 7041444.244456745684147, 9212775.010857535526156 ], [ 7041457.199360435828567, 9212758.458306044340134 ], [ 7041476.03536710049957, 9212763.095658356323838 ], [ 7041473.443496538326144, 9212784.607674196362495 ], [ 7041469.094944466836751, 9212804.405879154801369 ], [ 7041470.294163312762976, 9212836.480522505939007 ], [ 7041469.709621608257294, 9212839.191063906997442 ], [ 7041460.162027369253337, 9212883.265376474708319 ], [ 7041479.106492101214826, 9212936.079071134328842 ], [ 7041494.81785299628973, 9212947.980928815901279 ], [ 7041524.083379460498691, 9212959.35604439675808 ], [ 7041543.110751105472445, 9212972.959046883508563 ], [ 7041556.996018760837615, 9212977.738186931237578 ], [ 7041564.475577139295638, 9213041.694653362035751 ], [ 7041570.090179786086082, 9213055.760889124125242 ], [ 7041613.909866657108068, 9213093.361761370673776 ], [ 7041683.761821395717561, 9213101.414220673963428 ], [ 7041715.819345311261714, 9213096.623180978000164 ], [ 7041747.59952456317842, 9213084.708609465509653 ], [ 7041760.154991809278727, 9213057.464253701269627 ], [ 7041780.148196157068014, 9213047.778138626366854 ], [ 7041817.28727369196713, 9213042.793819637969136 ], [ 7041855.450497732497752, 9213019.929520243778825 ], [ 7041894.079868975095451, 9213009.534967979416251 ], [ 7041926.259647822007537, 9213008.311858518049121 ], [ 7041929.980233953334391, 9213007.518713803961873 ], [ 7041986.850137110799551, 9212995.301836956292391 ], [ 7042029.459895421750844, 9213000.827976655215025 ], [ 7042085.224076062440872, 9212995.135394649580121 ], [ 7042118.90518906712532, 9212988.501551084220409 ], [ 7042145.88099901843816, 9212983.903199579566717 ], [ 7042208.095099489204586, 9212969.050403814762831 ], [ 7042282.895242992788553, 9212973.341009685769677 ], [ 7042313.984542972408235, 9212988.219858076423407 ], [ 7042339.925760263577104, 9213001.51379450596869 ], [ 7042357.47150298114866, 9213016.907569732517004 ], [ 7042371.281900026835501, 9213023.528452433645725 ], [ 7042397.700462032109499, 9213049.292178869247437 ], [ 7042380.197107665240765, 9213080.298540646210313 ], [ 7042306.928942774422467, 9213116.985801555216312 ], [ 7042259.693085489794612, 9213124.134790137410164 ], [ 7042239.633417506702244, 9213132.043081486597657 ], [ 7042229.869915531948209, 9213143.121304189786315 ], [ 7042227.411295715719461, 9213168.201930783689022 ], [ 7042201.076356751844287, 9213235.226140532642603 ], [ 7042211.706164821051061, 9213247.321577986702323 ], [ 7042199.228127175010741, 9213276.344186807051301 ], [ 7042175.643548849970102, 9213280.813318409025669 ], [ 7042166.013283447362483, 9213295.459270637482405 ], [ 7042178.532630630768836, 9213312.824834646657109 ], [ 7042193.977330184541643, 9213317.591513881459832 ], [ 7042198.101542974822223, 9213337.068381153047085 ], [ 7042194.018923564814031, 9213363.991277899593115 ], [ 7042198.398295463994145, 9213390.592650653794408 ], [ 7042213.285085285082459, 9213425.721292557194829 ], [ 7042227.172929388470948, 9213434.120126014575362 ], [ 7042227.905607337132096, 9213453.725893283262849 ], [ 7042208.311251657083631, 9213474.092269938439131 ], [ 7042202.793841861188412, 9213508.215483050793409 ], [ 7042203.193365076556802, 9213518.907413488253951 ], [ 7042180.951507561840117, 9213559.019457465037704 ], [ 7042171.587176479399204, 9213580.789353655651212 ], [ 7042171.541736582294106, 9213581.349710473790765 ], [ 7042169.26084518712014, 9213609.426075827330351 ], [ 7042179.956928987987339, 9213623.299802049994469 ], [ 7042208.786556801758707, 9213668.606099573895335 ], [ 7042219.027362787164748, 9213669.997777197510004 ], [ 7042225.078090758062899, 9213674.423228412866592 ], [ 7042225.998956474475563, 9213675.086542768403888 ], [ 7042225.752061629667878, 9213675.584723304957151 ], [ 7042219.693388175219297, 9213687.825427062809467 ], [ 7042233.503281434066594, 9213694.435116125270724 ], [ 7042240.552782434038818, 9213701.313212128356099 ], [ 7042254.096531935967505, 9213700.798813434317708 ], [ 7042277.88109275419265, 9213701.676099449396133 ], [ 7042279.981785407289863, 9213712.303456423804164 ], [ 7042274.06414605025202, 9213735.723134946078062 ], [ 7042294.657403949648142, 9213742.086872912943363 ], [ 7042302.172745730727911, 9213761.435106491670012 ], [ 7042313.001636223867536, 9213778.865226268768311 ], [ 7042326.053404003381729, 9213810.491043034940958 ], [ 7042363.792666907422245, 9213821.55729866027832 ], [ 7042366.265432010404766, 9213823.488446086645126 ], [ 7042372.531934710219502, 9213828.359656818211079 ], [ 7042381.059663292020559, 9213847.564792647957802 ], [ 7042387.340736545622349, 9213861.711149588227272 ], [ 7042412.014630874618888, 9213897.946785639971495 ], [ 7042467.757270681671798, 9213865.291100922971964 ], [ 7042511.294850025326014, 9213851.813151342794299 ], [ 7042552.39372213371098, 9213848.27377981133759 ], [ 7042630.193854916840792, 9213873.914528565481305 ], [ 7042733.674101592972875, 9213909.415478335693479 ], [ 7042852.406631998717785, 9213952.22827728278935 ], [ 7043012.948291631415486, 9214010.213095275685191 ], [ 7043052.155415770597756, 9214020.292859517037868 ], [ 7043063.101907170377672, 9214023.101029720157385 ], [ 7043120.660670059733093, 9214033.729177424684167 ], [ 7043171.117076660506427, 9214029.845933651551604 ], [ 7043211.922141022980213, 9214018.438147662207484 ], [ 7043479.521194059401751, 9213914.510985221713781 ], [ 7043584.304325669072568, 9213877.103072607889771 ], [ 7043631.365579053759575, 9213857.565573897212744 ], [ 7043669.862044304609299, 9213834.419417753815651 ], [ 7043768.813492612913251, 9213724.173788728192449 ], [ 7043896.325228728353977, 9213575.386598588898778 ], [ 7044029.041996075771749, 9213415.551618982106447 ], [ 7044128.313750895671546, 9213288.528692852705717 ], [ 7044158.361234955489635, 9213240.060615276917815 ], [ 7044266.223879395052791, 9212980.218332801014185 ], [ 7044311.928523166105151, 9212861.52685858309269 ], [ 7044324.86364281270653, 9212831.458927875384688 ], [ 7044424.838868847116828, 9212573.273989459499717 ], [ 7044450.770473573356867, 9212515.102041190490127 ], [ 7044481.19094408955425, 9212463.66120976395905 ], [ 7044489.545260460115969, 9212449.538660673424602 ], [ 7044554.687238941900432, 9212362.264135735109448 ], [ 7044627.526749258860946, 9212287.056997902691364 ], [ 7044651.133682657033205, 9212262.238476386293769 ], [ 7044777.461599238216877, 9212129.506545117124915 ], [ 7044862.317655192688107, 9212099.862994443625212 ], [ 7044919.900334000587463, 9212086.343448525294662 ], [ 7044933.405994872562587, 9212074.491710836067796 ], [ 7044947.750983628444374, 9212044.007641732692719 ], [ 7044957.062434644438326, 9212003.193000160157681 ], [ 7044971.30175173189491, 9211949.235444406047463 ], [ 7044979.813222819939256, 9211899.185928327962756 ], [ 7044980.231501686386764, 9211856.638234822079539 ], [ 7044973.061149036511779, 9211809.968327328562737 ], [ 7044922.360543006099761, 9211728.502141555771232 ], [ 7044930.394638892263174, 9211715.299019381403923 ], [ 7044966.530131970532238, 9211677.093181202188134 ], [ 7044997.5083261243999, 9211594.584882972761989 ], [ 7045006.392809478566051, 9211588.426220474764705 ], [ 7045015.54723366163671, 9211579.73142041452229 ], [ 7045016.547247501090169, 9211579.553611617535353 ], [ 7045038.237372186034918, 9211575.630357827991247 ], [ 7045059.205465859733522, 9211578.706879893317819 ], [ 7045064.751300360076129, 9211580.276304066181183 ], [ 7045079.413261805661023, 9211578.91407217644155 ], [ 7045093.80978071782738, 9211580.797835513949394 ], [ 7045103.983420811593533, 9211583.645775083452463 ], [ 7045112.03009741846472, 9211591.428643053397536 ], [ 7045121.407408384606242, 9211604.014601187780499 ], [ 7045131.687417838722467, 9211609.698624452576041 ], [ 7045146.258277917280793, 9211605.907133489847183 ], [ 7045166.882395857945085, 9211587.719062736257911 ], [ 7045179.368675203062594, 9211559.318806275725365 ], [ 7045196.464407231658697, 9211529.939571341499686 ], [ 7045219.453551732003689, 9211512.871717412024736 ], [ 7045240.66545494645834, 9211500.329693548381329 ], [ 7045260.091703149490058, 9211491.499043690040708 ], [ 7045277.588996541686356, 9211483.149339621886611 ], [ 7045303.443773062899709, 9211480.545283850282431 ], [ 7045311.850992400199175, 9211467.269334822893143 ], [ 7045315.884463403373957, 9211450.935921555384994 ], [ 7045313.8225152567029, 9211437.256112651899457 ], [ 7045314.451716880314052, 9211423.066257622092962 ], [ 7045322.518044944852591, 9211411.025476211681962 ], [ 7045327.786801259964705, 9211396.658638907596469 ], [ 7045316.240887029096484, 9211388.194467648863792 ], [ 7045311.81375855114311, 9211373.394326210021973 ], [ 7045311.783717577345669, 9211351.954628517851233 ], [ 7045324.193660944700241, 9211321.531539842486382 ], [ 7045329.182132854126394, 9211310.015525911003351 ], [ 7045337.761030111461878, 9211298.665171947330236 ], [ 7045345.196353128179908, 9211292.805955454707146 ], [ 7045357.257788603194058, 9211294.371170073747635 ], [ 7045370.229001319035888, 9211299.545000728219748 ], [ 7045374.767156685702503, 9211304.330516373738647 ], [ 7045379.098622457124293, 9211308.914398616179824 ], [ 7045378.795524413697422, 9211321.473902838304639 ], [ 7045373.306811347603798, 9211340.295678708702326 ], [ 7045372.973164124414325, 9211352.041542321443558 ], [ 7045385.489482454024255, 9211365.729979034513235 ], [ 7045403.383888509124517, 9211377.991069294512272 ], [ 7045417.530261539854109, 9211383.527527214959264 ], [ 7045436.581165519542992, 9211385.629322830587626 ], [ 7045442.32343659363687, 9211373.269695080816746 ], [ 7045452.861261980608106, 9211365.185259087011218 ], [ 7045464.088390552438796, 9211365.152723083272576 ], [ 7045473.329803170636296, 9211353.474385224282742 ], [ 7045483.018461125902832, 9211343.396943660452962 ], [ 7045483.086700906977057, 9211334.897083280608058 ], [ 7045487.915758393704891, 9211329.451535971835256 ], [ 7045494.203618384897709, 9211331.632786672562361 ], [ 7045501.534773794002831, 9211330.957334127277136 ], [ 7045507.493188845925033, 9211324.65388672798872 ], [ 7045516.438656450249255, 9211315.407930061221123 ], [ 7045525.248028771020472, 9211302.535444179549813 ], [ 7045531.350539611652493, 9211289.754581671208143 ], [ 7045530.744229812175035, 9211273.59796616435051 ], [ 7045534.943665292114019, 9211261.692869506776333 ], [ 7045546.834250797517598, 9211258.410636447370052 ], [ 7045568.387250142171979, 9211265.282397970557213 ], [ 7045571.396827608346939, 9211273.257457170635462 ], [ 7045572.238418587483466, 9211285.366002256050706 ], [ 7045572.943473770283163, 9211293.836396580561996 ], [ 7045575.521047765389085, 9211300.617369817569852 ], [ 7045580.251342521980405, 9211302.858039643615484 ], [ 7045582.639441036619246, 9211314.907586311921477 ], [ 7045581.873858524486423, 9211325.459477389231324 ], [ 7045580.645745121873915, 9211334.003630647435784 ], [ 7045586.558866423554718, 9211347.129269402474165 ], [ 7045601.087671464309096, 9211352.243721710518003 ], [ 7045608.486685248091817, 9211363.694707518443465 ], [ 7045620.23744929023087, 9211387.93517055362463 ], [ 7045626.878454428166151, 9211399.82250021956861 ], [ 7045626.696166159585118, 9211415.601868385449052 ], [ 7045629.061314293183386, 9211437.360218573361635 ], [ 7045633.647871384397149, 9211466.727978922426701 ], [ 7045643.771919822320342, 9211488.597778037190437 ], [ 7045650.844869703054428, 9211501.679249970242381 ], [ 7045661.503910107538104, 9211517.46414252743125 ], [ 7045672.094738798215985, 9211521.110942794010043 ], [ 7045687.529500957578421, 9211519.707376407459378 ], [ 7045706.834463718347251, 9211507.645073713734746 ], [ 7045728.046260870993137, 9211495.102595597505569 ], [ 7045742.180394053459167, 9211489.697810899466276 ], [ 7045753.900595759041607, 9211492.486700257286429 ], [ 7045764.76444232929498, 9211503.409861167892814 ], [ 7045769.32049678824842, 9211511.326025852933526 ], [ 7045773.406817075796425, 9211527.36171799339354 ], [ 7045778.917984806001186, 9211540.09543745405972 ], [ 7045784.633927393704653, 9211547.967370161786675 ], [ 7045792.590002210810781, 9211553.332685630768538 ], [ 7045804.219503019936383, 9211553.703895771875978 ], [ 7045816.235200446099043, 9211554.048732480034232 ], [ 7045823.785994472913444, 9211548.906713783740997 ], [ 7045818.797519826330245, 9211539.784791506826878 ], [ 7045810.746512282639742, 9211531.594515737146139 ], [ 7045806.053953502327204, 9211520.040140544995666 ], [ 7045801.998147467151284, 9211504.81807985343039 ], [ 7045806.182849227450788, 9211492.517655458301306 ], [ 7045815.909272070974112, 9211493.764606347307563 ], [ 7045825.89345046505332, 9211501.881122823804617 ], [ 7045839.049987619742751, 9211501.379225634038448 ], [ 7045850.512438349425793, 9211497.298543570563197 ], [ 7045892.537507886067033, 9211502.574749071151018 ], [ 7045898.97417513653636, 9211498.69741896353662 ], [ 7045896.229571326635778, 9211487.464463144540787 ], [ 7045886.420037982054055, 9211473.684085801243782 ], [ 7045884.524580588564277, 9211464.444156050682068 ], [ 7045886.897334590554237, 9211455.448800720274448 ], [ 7045891.538879313506186, 9211448.543622050434351 ], [ 7045992.904061834327877, 9211452.673201698809862 ], [ 7046017.988833274692297, 9211457.850610889494419 ], [ 7046017.544542908668518, 9211486.398128965869546 ], [ 7046048.713712993077934, 9211493.345590816810727 ], [ 7046091.964972678571939, 9211485.898515116423368 ], [ 7046139.431066756136715, 9211476.684183772653341 ], [ 7046171.329076065681875, 9211475.93274025246501 ], [ 7046183.883430949412286, 9211476.187076205387712 ], [ 7046202.909388377331197, 9211458.757038287818432 ], [ 7046214.252394679933786, 9211432.924677826464176 ], [ 7046231.821604055352509, 9211416.178738785907626 ], [ 7046270.085780800320208, 9211408.199908945709467 ], [ 7046308.286845210939646, 9211421.234619284048676 ], [ 7046354.264982370659709, 9211431.621186699718237 ], [ 7046377.900552183389664, 9211432.081189006567001 ], [ 7046394.77715677395463, 9211423.998824158683419 ], [ 7046401.137630078010261, 9211421.334855163469911 ], [ 7046408.40898341499269, 9211417.297453844919801 ], [ 7046427.374354211613536, 9211394.13059413433075 ], [ 7046449.260596980340779, 9211357.41892765648663 ], [ 7046471.535918613895774, 9211345.219150120392442 ], [ 7046509.529524127952754, 9211338.28630194440484 ], [ 7046544.988146149553359, 9211313.628279101103544 ], [ 7046673.218546455726027, 9211185.621021622791886 ], [ 7046732.23345813434571, 9211145.477156735956669 ], [ 7046777.25291954074055, 9211115.017083805054426 ], [ 7046791.125741686671972, 9211080.274985678493977 ], [ 7046833.326367295347154, 9211077.266642786562443 ], [ 7046878.670779195614159, 9211065.477397302165627 ], [ 7046932.135946670547128, 9211046.94052698276937 ], [ 7046983.444875679910183, 9210995.739903423935175 ], [ 7047038.062190264463425, 9210963.410677745938301 ], [ 7047071.233232342638075, 9210950.910153761506081 ], [ 7047114.366954769007862, 9210951.835270458832383 ], [ 7047163.688228711485863, 9210966.109112329781055 ], [ 7047221.861065872013569, 9210999.566966518759727 ], [ 7047252.941546148620546, 9210989.427806485444307 ], [ 7047286.61460249312222, 9210976.744936030358076 ], [ 7047305.920872138813138, 9210963.854134509339929 ], [ 7047321.558918559923768, 9210933.711576797068119 ], [ 7047301.040065567940474, 9210906.673131035640836 ], [ 7047294.746141687035561, 9210871.652621099725366 ], [ 7047296.275966093875468, 9210844.947651196271181 ], [ 7047323.67676209192723, 9210828.150343026965857 ], [ 7047327.221012438647449, 9210824.73212961293757 ], [ 7047380.811503897421062, 9210796.003044104203582 ], [ 7047401.37118215020746, 9210797.336177602410316 ], [ 7047412.203128582797945, 9210815.932359207421541 ], [ 7047425.471978031098843, 9210796.345459209755063 ], [ 7047442.804258609190583, 9210753.600240360945463 ], [ 7047444.281781462021172, 9210718.445539513602853 ], [ 7047471.21354996599257, 9210583.227968523278832 ], [ 7047497.100004964508116, 9210543.519794225692749 ], [ 7047545.136401323601604, 9210536.561520339921117 ], [ 7047574.624622641131282, 9210536.45878448151052 ], [ 7047621.183622774668038, 9210511.978502091020346 ], [ 7047696.005148806609213, 9210500.107867421582341 ], [ 7047779.230667754076421, 9210507.566465310752392 ], [ 7047828.41516169719398, 9210514.079618349671364 ], [ 7047852.945286733098328, 9210517.449161667376757 ], [ 7047872.593724939972162, 9210515.731752915307879 ], [ 7047970.957847718149424, 9210507.151552755385637 ], [ 7048032.412398966029286, 9210475.767920719459653 ], [ 7048099.573918221518397, 9210391.999859726056457 ], [ 7048126.498976012691855, 9210315.81201801635325 ], [ 7048144.320168586447835, 9210231.997654855251312 ], [ 7048149.528129767626524, 9210179.888459032401443 ], [ 7048181.093423500657082, 9210120.915194308385253 ], [ 7048174.489569881930947, 9210020.083461135625839 ], [ 7048128.073618490248919, 9209987.481622351333499 ], [ 7048111.686421751976013, 9209959.446969650685787 ], [ 7048107.886066930368543, 9209948.998517097905278 ], [ 7048108.851035406813025, 9209934.956742525100708 ], [ 7048115.66045581176877, 9209912.192959254607558 ], [ 7048151.089490532875061, 9209902.408740691840649 ], [ 7048192.616914987564087, 9209887.711159948259592 ], [ 7048197.875499182380736, 9209786.716439640149474 ], [ 7048185.764942348003387, 9209730.065971247851849 ], [ 7048207.583686341531575, 9209671.406698875129223 ], [ 7048241.708606835454702, 9209651.671674115583301 ], [ 7048260.139524688012898, 9209638.486248806118965 ], [ 7048278.581471912562847, 9209625.300372054800391 ], [ 7048301.41871205624193, 9209590.176179734990001 ], [ 7048317.639836436137557, 9209535.933349641039968 ], [ 7048303.130026881583035, 9209486.091829679906368 ], [ 7048289.210996872745454, 9209430.791066063567996 ], [ 7048325.139341766014695, 9209411.661673054099083 ], [ 7048393.189784109592438, 9209418.613726524636149 ], [ 7048438.312826786190271, 9209432.73030698671937 ], [ 7048480.712331378832459, 9209434.156839357689023 ], [ 7048529.906992055475712, 9209401.887712765485048 ], [ 7048555.733417553827167, 9209367.137214384973049 ], [ 7048588.933575520291924, 9209332.558231582865119 ], [ 7048636.897228755056858, 9209303.444147957488894 ], [ 7048665.225262554362416, 9209273.440517837181687 ], [ 7048704.522989857941866, 9209234.820634193718433 ], [ 7048715.704925681464374, 9209207.173356080427766 ], [ 7048740.374748550355434, 9209169.043776288628578 ], [ 7048765.775652440264821, 9209158.244784185662866 ], [ 7048801.257743254303932, 9209145.487840469926596 ], [ 7048828.385841898620129, 9209153.517612364143133 ], [ 7048834.486338200978935, 9209230.575376803055406 ], [ 7048836.934482960961759, 9209279.110383935272694 ], [ 7048836.950120052322745, 9209283.929588578641415 ], [ 7048840.820817959494889, 9209340.571180431172252 ], [ 7048830.778419435024261, 9209383.495833652094007 ], [ 7048863.229875515215099, 9209432.11576053313911 ], [ 7048900.15346594247967, 9209448.513928316533566 ], [ 7048937.026432055979967, 9209417.169859670102596 ], [ 7048963.725523718632758, 9209369.765061626210809 ], [ 7048990.558594434522092, 9209316.231234386563301 ], [ 7049010.795702873729169, 9209299.02893028780818 ], [ 7048999.592760984785855, 9209386.017333621159196 ], [ 7049007.43756050337106, 9209415.427558921277523 ], [ 7049020.254917727783322, 9209437.941471947357059 ], [ 7049045.406024180352688, 9209467.783244786784053 ], [ 7049083.376009286381304, 9209512.839397130534053 ], [ 7049097.028762789443135, 9209529.046305567026138 ], [ 7049230.914195303805172, 9209739.928746026009321 ], [ 7049259.35832355171442, 9209839.009617730975151 ], [ 7049280.243425004184246, 9209952.991162411868572 ], [ 7049317.799385605379939, 9210181.011346762999892 ], [ 7049360.755037397146225, 9210299.481079088523984 ], [ 7049389.339963092468679, 9210349.450469730421901 ], [ 7049414.115101458504796, 9210378.434911370277405 ], [ 7049450.352108380757272, 9210398.342224333435297 ], [ 7049532.988278660923243, 9210429.816411081701517 ], [ 7049570.425873944535851, 9210451.93655688688159 ], [ 7049574.236337104812264, 9210452.070177806541324 ], [ 7049588.889460359700024, 9210467.238441770896316 ], [ 7049683.794747214764357, 9210547.537795098498464 ], [ 7049796.901820596307516, 9210621.483112663030624 ], [ 7049920.407449157908559, 9210737.17750733345747 ], [ 7050101.608629759401083, 9210841.840937785804272 ], [ 7050217.606637281365693, 9210890.00572569668293 ], [ 7050288.526457212865353, 9210903.499678306281567 ], [ 7050344.130632356740534, 9210926.556152623146772 ], [ 7050394.830670210532844, 9210978.336996644735336 ], [ 7050407.477347545325756, 9211003.688820112496614 ], [ 7050416.686718828976154, 9211042.945682067424059 ], [ 7050430.501115541905165, 9211059.346086572855711 ], [ 7050447.381869340315461, 9211049.921692499890924 ], [ 7050462.632973531261086, 9211031.582921162247658 ], [ 7050485.162743350490928, 9211000.589272929355502 ], [ 7050503.664018202573061, 9210989.251574927940965 ], [ 7050506.346757968887687, 9210966.759575478732586 ], [ 7050506.650753295049071, 9210959.843681072816253 ], [ 7050500.537477634847164, 9210938.491520902141929 ], [ 7050498.62869113124907, 9210926.863385051488876 ], [ 7050495.112883303314447, 9210897.809033859521151 ], [ 7050492.754496649838984, 9210824.839816434308887 ], [ 7050501.559209691360593, 9210803.94151046872139 ], [ 7050519.011968477629125, 9210779.149548390880227 ], [ 7050534.430609215050936, 9210757.334469361230731 ], [ 7050548.599002871662378, 9210737.278710534796119 ], [ 7050574.156807133927941, 9210697.401514645665884 ], [ 7050585.126907287165523, 9210641.456269582733512 ], [ 7050597.545150651596487, 9210616.053348211571574 ], [ 7050605.21896580979228, 9210609.495719827711582 ], [ 7050624.410879539325833, 9210598.29412791505456 ], [ 7050640.179803441278636, 9210586.967373106628656 ], [ 7050651.091719856485724, 9210571.215853897854686 ], [ 7050647.70572389382869, 9210556.791658377274871 ], [ 7050638.571936106309295, 9210540.43350837379694 ], [ 7050619.617656642571092, 9210491.827523028478026 ], [ 7050588.506063141860068, 9210469.674183003604412 ], [ 7050596.120953449979424, 9210444.804305262863636 ], [ 7050664.414700344204903, 9210336.843677368015051 ], [ 7050720.047829054296017, 9210278.698788125067949 ], [ 7050759.162715747952461, 9210249.874689396470785 ], [ 7050835.681550070643425, 9210187.925427846610546 ], [ 7050878.360560255125165, 9210139.485383154824376 ], [ 7050889.467369634658098, 9210114.236727649345994 ], [ 7050948.565786990337074, 9210058.542433908209205 ], [ 7050980.766925836913288, 9210015.055655863136053 ], [ 7050995.683872198686004, 9210006.380523554980755 ], [ 7051013.329666809178889, 9210001.722549287602305 ], [ 7051036.480202945880592, 9209982.858468152582645 ], [ 7051059.894567416980863, 9209975.988454565405846 ], [ 7051082.302808697335422, 9209966.490647774189711 ], [ 7051107.531829003244638, 9209939.082116751000285 ], [ 7051141.094867271371186, 9209863.348724788054824 ], [ 7051059.178453047759831, 9209838.380604676902294 ], [ 7051029.38880517706275, 9209836.93725279532373 ], [ 7050999.005274972878397, 9209821.789251040667295 ], [ 7050978.716208545491099, 9209810.609057696536183 ], [ 7050955.009315442293882, 9209792.981418265029788 ], [ 7050924.854732229374349, 9209770.69908239133656 ], [ 7050877.152146890759468, 9209753.024614656344056 ], [ 7050829.87489459477365, 9209733.133339209482074 ], [ 7050805.161309008486569, 9209716.091665534302592 ], [ 7050769.75112621858716, 9209680.865837257355452 ], [ 7050726.585230568423867, 9209647.07834274508059 ], [ 7050653.556974878534675, 9209610.20890930108726 ], [ 7050568.659819733351469, 9209576.588822793215513 ], [ 7050518.424155795015395, 9209560.676873562857509 ], [ 7050488.707489965483546, 9209560.872584469616413 ], [ 7050477.58664505276829, 9209556.967567153275013 ], [ 7050452.65461235307157, 9209535.00966608338058 ], [ 7050425.341056250035763, 9209469.237562410533428 ], [ 7050400.292910885065794, 9209419.841880183666945 ], [ 7050372.597122710198164, 9209382.085907971486449 ], [ 7050364.982736047357321, 9209337.971712786704302 ], [ 7050363.212178962305188, 9209271.640087697654963 ], [ 7050356.022415105253458, 9209225.29751200415194 ], [ 7050336.237307067029178, 9209164.69793557561934 ], [ 7050315.665295692160726, 9209134.865845108404756 ], [ 7050282.975310535170138, 9209102.261697288602591 ], [ 7050204.711622202768922, 9209040.376857306808233 ], [ 7050185.956848695874214, 9209016.494690021499991 ], [ 7050141.087507110089064, 9208979.49118473008275 ], [ 7050117.908963700756431, 9208949.771083118394017 ], [ 7050089.599780051037669, 9208897.230041785165668 ], [ 7050075.996303977444768, 9208884.1063885781914 ], [ 7050024.825264147482812, 9208858.347323970869184 ], [ 7050003.528068056330085, 9208848.301373625174165 ], [ 7049985.532490411773324, 9208829.885791977867484 ], [ 7049968.233188795857131, 9208807.054239802062511 ], [ 7049948.606039695441723, 9208795.82660804130137 ], [ 7049920.216395671479404, 9208778.403496392071247 ], [ 7049859.054206846281886, 9208726.191661600023508 ], [ 7049844.734951636753976, 9208720.779802735894918 ], [ 7049827.96465665102005, 9208706.695059573277831 ], [ 7049792.066942479461432, 9208672.049606306478381 ], [ 7049757.342255189083517, 9208640.642469055950642 ], [ 7049723.750827490352094, 9208623.442444980144501 ], [ 7049560.139652953483164, 9208480.810237945988774 ], [ 7049483.461218306794763, 9208407.295642716810107 ], [ 7049451.967079714871943, 9208390.562823697924614 ], [ 7049379.397724479436874, 9208352.074422812089324 ], [ 7049329.138238596729934, 9208323.499511420726776 ], [ 7049317.621962921693921, 9208310.284842057153583 ], [ 7049215.450788109563291, 9208177.686949290335178 ], [ 7049162.879218604415655, 9208106.311209067702293 ], [ 7049135.578119421377778, 9208077.868961993604898 ], [ 7049088.726337083615363, 9208043.156721228733659 ], [ 7048755.377589037641883, 9207731.623368479311466 ], [ 7048691.35086817573756, 9207675.04422390460968 ], [ 7048604.037476861849427, 9207641.572059145197272 ], [ 7048573.108296963386238, 9207643.026987796649337 ], [ 7048518.030174961313605, 9207676.9816166870296 ], [ 7048456.948990064673126, 9207747.372590884566307 ], [ 7048366.737715285271406, 9207894.459449872374535 ], [ 7048258.787831115536392, 9208058.127883717417717 ], [ 7048199.194264497607946, 9208113.756002679467201 ], [ 7048109.043032616376877, 9208191.848195908591151 ], [ 7048087.077046567574143, 9208215.682788170874119 ], [ 7048073.654792728833854, 9208230.237294239923358 ], [ 7048018.150558525696397, 9208310.725222365930676 ], [ 7047833.588269942440093, 9208447.010105933994055 ], [ 7047472.719070354476571, 9208469.130022879689932 ], [ 7047364.284147766418755, 9208700.568727731704712 ], [ 7047320.043201009742916, 9208794.997332317754626 ], [ 7047325.804935133084655, 9208831.364888885989785 ], [ 7047218.112665496766567, 9209700.343369441106915 ], [ 7046762.889582452364266, 9210106.666938420385122 ], [ 7046494.462696883827448, 9210301.398640055209398 ], [ 7046444.620109854266047, 9210276.192419625818729 ], [ 7046375.761355303227901, 9210216.255743261426687 ], [ 7046334.660139542073011, 9210132.256627030670643 ], [ 7046292.962462552823126, 9210092.421653367578983 ], [ 7046231.851168010383844, 9210082.90751682780683 ], [ 7046158.083548175171018, 9210120.148113057017326 ], [ 7045836.568136222660542, 9210084.442824687808752 ], [ 7045742.606558375060558, 9210063.565891304984689 ], [ 7045729.459805971942842, 9210038.715849747881293 ], [ 7045596.483453898690641, 9210211.25330401211977 ], [ 7045521.402883680537343, 9210445.283136747777462 ], [ 7045647.417334987781942, 9210469.838138191029429 ], [ 7046069.05001416336745, 9210534.761085918173194 ], [ 7046103.233166014775634, 9210570.995754402130842 ], [ 7045933.461415847763419, 9210702.660800395533442 ], [ 7045807.372610404156148, 9210801.610765030607581 ], [ 7045741.063117859885097, 9210859.002988131716847 ], [ 7045755.882823252119124, 9210901.913514530286193 ], [ 7045645.508847836405039, 9211024.647367190569639 ], [ 7045465.036449373699725, 9211133.956401640549302 ], [ 7045446.643787484616041, 9211150.570226352661848 ], [ 7045425.284094378352165, 9211177.144712498411536 ], [ 7045305.845447957515717, 9211179.257619457319379 ], [ 7045241.993966145440936, 9211191.06399192661047 ], [ 7045230.969497467391193, 9211125.160235080868006 ], [ 7045271.784667626023293, 9211118.248475978150964 ], [ 7045268.809917556121945, 9211098.527488654479384 ], [ 7045264.873906455934048, 9211059.974809858947992 ], [ 7045132.463757112622261, 9211066.331105889752507 ], [ 7045132.328439097851515, 9211057.420116478577256 ], [ 7045134.415045078843832, 9211046.992635503411293 ], [ 7045137.675646759569645, 9211029.233782272785902 ], [ 7045146.35342382825911, 9211013.153863491490483 ], [ 7045149.648157304152846, 9211003.378659892827272 ], [ 7045240.701295198872685, 9210873.098278641700745 ], [ 7045307.564294876530766, 9210781.232493348419666 ], [ 7045324.587183577939868, 9210745.825601041316986 ], [ 7045338.147083327174187, 9210703.04304656945169 ], [ 7045346.329019414260983, 9210683.489720558747649 ], [ 7045358.411435278132558, 9210633.476826697587967 ], [ 7045374.890212208032608, 9210593.900062907487154 ], [ 7045393.622849063947797, 9210552.188511319458485 ], [ 7045452.493528548628092, 9210425.484609303995967 ], [ 7045471.740444021299481, 9210384.812313480302691 ], [ 7045405.647692454047501, 9210357.538241295143962 ], [ 7045380.937325112521648, 9210412.084500998258591 ], [ 7045342.850810370407999, 9210508.405329346656799 ], [ 7045334.095834361389279, 9210547.745356477797031 ], [ 7045336.064752521924675, 9210558.344064513221383 ], [ 7045335.167804419994354, 9210574.81401538848877 ], [ 7045330.779500111937523, 9210599.646766634657979 ], [ 7045315.945665767416358, 9210626.76402104459703 ], [ 7045305.299862992018461, 9210654.34988921880722 ], [ 7045290.856750780716538, 9210684.804459944367409 ], [ 7045275.313091398216784, 9210662.385662470012903 ], [ 7045230.630212620832026, 9210684.12398312613368 ], [ 7045204.200668105855584, 9210636.943661382421851 ], [ 7045115.596968280151486, 9210680.681949166581035 ], [ 7045030.464332779869437, 9210717.582691390067339 ], [ 7045009.626366060227156, 9210664.34606072679162 ], [ 7045003.620652017183602, 9210684.409588472917676 ], [ 7044997.098454628139734, 9210722.243541982024908 ], [ 7045000.602695972658694, 9210768.436259685084224 ], [ 7045003.169852130115032, 9210789.965057380497456 ], [ 7044950.576332086697221, 9210805.788901560008526 ], [ 7044891.227510346099734, 9210813.757532838732004 ], [ 7044848.061889270320535, 9210826.416156012564898 ], [ 7044833.959414769895375, 9210781.675844352692366 ] ] ] ] } },
{ "type": "Feature", "properties": { "lv_id": "LOC_024004", "id": 101648.0, "CD_SETOR": "251180605000004", "SITUACAO": "Urbana", "CD_SIT": "1", "CD_TIPO": "0", "AREA_KM2": 0.19137566798557901, "CD_REGIAO": "2", "NM_REGIAO": "Nordeste", "CD_UF": "25", "NM_UF": "Paraíba", "CD_MUN": "2511806", "NM_MUN": "Pirpirituba", "CD_DIST": "251180605", "NM_DIST": "Pirpirituba", "CD_SUBDIST": "25118060500", "NM_SUBDIST": null, "CD_BAIRRO": null, "NM_BAIRRO": null, "CD_NU": null, "NM_NU": null, "CD_FCU": null, "NM_FCU": null, "CD_AGLOM": "251180600005", "NM_AGLOM": "Sítio Itamatai 3", "CD_RGINT": "2501", "NM_RGINT": "João Pessoa", "CD_RGI": "250002", "NM_RGI": "Guarabira", "CD_CONCURB": null, "NM_CONCURB": null, "mun_code_x": "2511806", "index_right": 48918, "dist_m": 0.0, "local_id": 247187, "ano": 2022, "cod_localidade_ibge": 2511806, "NR_ZONA": "47", "nr_cep": 58213000.0, "nm_localidade": "PIRPIRITUBA", "nm_locvot": "CRECHE JOSÉLIA PONTES DE LUCAS", "ds_endereco": "LOTEAMENTO HABITACIONAL OLIVEIRO PEREIRA DE LUCENA, S/N", "ds_bairro": "LOT OLIVEIRO PEREIRA DE LUCENA", "pred_long": -35.492009, "pred_lat": -6.783658, "pred_dist": 0.0, "tse_long": -35.4920097, "tse_lat": -6.7836529, "long": -35.4920097, "lat": -6.7836529, "ID_UNICO": "LOC_024004", "SG_UF": "PB", "CD_MUNICIPIO": "21377", "NR_LOCAL_VOTACAO": "1180", "QT_SECOES_AGREGADAS": 0, "QT_ELEITORES_TRANSFERIDOS": 0, "CIRO GOMES (PDT) (NÃO ELEITO) 1T": 17.0, "CONSTITUINTE EYMAEL (DC) (NÃO ELEITO) 1T": 0.0, "FELIPE D AVILA (NOVO) (NÃO ELEITO) 1T": 0.0, "JAIR BOLSONARO (PL) (2º TURNO) 1T": 87.0, "LULA (PT) (2º TURNO) 1T": 317.0, "LÉO PÉRICLES (UP) (NÃO ELEITO) 1T": 0.0, "PADRE KELMON (PTB) (NÃO ELEITO) 1T": 0.0, "SIMONE TEBET (MDB) (NÃO ELEITO) 1T": 12.0, "SOFIA MANZANO (PCB) (NÃO ELEITO) 1T": 1.0, "SORAYA THRONICKE (UNIÃO) (NÃO ELEITO) 1T": 2.0, "VERA (PSTU) (NÃO ELEITO) 1T": 0.0, "Total_Votos_Validos 1T": 436.0, "Votos_Brancos 1T": 17.0, "Votos_Nulos 1T": 19.0, "Abstenções 1T": 100.0, "Eleitores_Aptos 1T": 572.0, "JAIR BOLSONARO (PL) (NÃO ELEITO) 2T": 107.0, "LULA (PT) (ELEITO) 2T": 332.0, "Total_Votos_Validos 2T": 439.0, "Votos_Brancos 2T": 12.0, "Votos_Nulos 2T": 27.0, "Abstenções 2T": 94.0, "Eleitores_Aptos 2T": 572.0, "mun_code_y": "2511806", "mun_code": "2511806" }, "geometry": { "type": "MultiPolygon", "coordinates": [ [ [ [ 7041460.078020638786256, 9206886.478962140157819 ], [ 7041460.46065317094326, 9206892.818607432767749 ], [ 7041519.115173686295748, 9207265.081063710153103 ], [ 7041597.124719017185271, 9207343.886339062824845 ], [ 7041607.669441643171012, 9207363.942263640463352 ], [ 7041616.738109301775694, 9207431.758816283196211 ], [ 7041675.335619900375605, 9207514.717853119596839 ], [ 7041668.250592100434005, 9207586.562793783843517 ], [ 7041671.58163367304951, 9207675.05878247320652 ], [ 7041686.537159407511353, 9207725.612327480688691 ], [ 7041691.404390859417617, 9207854.945613451302052 ], [ 7041657.609774113632739, 9207910.774121545255184 ], [ 7041640.271918097510934, 9207944.76854021474719 ], [ 7041591.439111096784472, 9208059.862115835770965 ], [ 7041577.461726726964116, 9208121.740294240415096 ], [ 7041598.538438115268946, 9208161.841707235202193 ], [ 7041643.45965073350817, 9208228.287566861137748 ], [ 7041671.949334497563541, 9208291.963637603446841 ], [ 7041674.82246490009129, 9208326.593203919008374 ], [ 7041658.600472970865667, 9208370.867505511268973 ], [ 7041624.942757826298475, 9208430.08804651722312 ], [ 7041602.901028683409095, 9208451.390156276524067 ], [ 7041588.27662502322346, 9208490.796638695523143 ], [ 7041542.032889098860323, 9208559.214565616101027 ], [ 7041539.344663133844733, 9208583.337960625067353 ], [ 7041525.427621115930378, 9208631.271028034389019 ], [ 7041526.34125435911119, 9208677.648071775212884 ], [ 7041555.100479532033205, 9208696.438277432695031 ], [ 7041506.536637750454247, 9208691.67206759005785 ], [ 7041477.602008461020887, 9208670.863604253157973 ], [ 7041427.858292300254107, 9208701.218972332775593 ], [ 7041405.756874970160425, 9208763.034085020422935 ], [ 7041335.85226240195334, 9208798.826060535386205 ], [ 7041236.84605285525322, 9208803.772210149094462 ], [ 7041152.969748098403215, 9208777.439970757812262 ], [ 7041056.829174591228366, 9208707.923589169979095 ], [ 7041023.461932439357042, 9208594.183759419247508 ], [ 7040980.162255117669702, 9208569.071711422875524 ], [ 7040786.549255877733231, 9208478.784155799075961 ], [ 7040632.13289256580174, 9208406.271471627056599 ], [ 7040611.701614303514361, 9208366.833352647721767 ], [ 7040600.990694266743958, 9208284.94304458796978 ], [ 7040586.498231073841453, 9208190.745339140295982 ], [ 7040550.366823670454323, 9208144.750613164156675 ], [ 7040491.236532669514418, 9208111.074639836326241 ], [ 7040446.412790505215526, 9208083.380474837496877 ], [ 7040365.361561917699873, 9208048.91345533169806 ], [ 7040222.704057258553803, 9208039.656884860247374 ], [ 7040032.19577476195991, 9208046.938261616975069 ], [ 7039970.099580150097609, 9208059.121502488851547 ], [ 7039870.622231015004218, 9208116.825662955641747 ], [ 7039799.158531753346324, 9208129.354750068858266 ], [ 7039738.20134943164885, 9208130.054786313325167 ], [ 7039463.172971240244806, 9208052.356346983462572 ], [ 7039367.433896603994071, 9208042.946357032284141 ], [ 7039341.676032724790275, 9207981.860441338270903 ], [ 7039270.738511208444834, 9207966.592338504269719 ], [ 7039236.778536600060761, 9207936.855061687529087 ], [ 7039224.310527851805091, 9207896.498579546809196 ], [ 7039162.004429557360709, 9207861.304895348846912 ], [ 7039087.133756693452597, 9207824.974025027826428 ], [ 7039011.57455393858254, 9207811.523732246831059 ], [ 7038956.245415581390262, 9207795.671298963949084 ], [ 7038934.69234009925276, 9207804.663696939125657 ], [ 7038927.643292098306119, 9207783.696528181433678 ], [ 7038932.730313424021006, 9207752.467704735696316 ], [ 7038928.807184169068933, 9207731.381094038486481 ], [ 7038892.431385642848909, 9207678.871236607432365 ], [ 7038780.853298422880471, 9207622.696045825257897 ], [ 7038730.906747480854392, 9207583.772962659597397 ], [ 7038689.454669885337353, 9207562.480212876573205 ], [ 7038666.664459134452045, 9207538.856810094788671 ], [ 7038618.629722021520138, 9207550.490461107343435 ], [ 7038593.828094268217683, 9207556.337226381525397 ], [ 7038541.048756278119981, 9207566.522993708029389 ], [ 7038530.934847528114915, 9207547.302461238577962 ], [ 7038542.508072325028479, 9207522.365863995626569 ], [ 7038527.047266496345401, 9207485.38336238078773 ], [ 7038498.567978939041495, 9207476.674162909388542 ], [ 7038455.339455733075738, 9207491.393823547288775 ], [ 7038438.653866804204881, 9207505.098969988524914 ], [ 7038418.351756269112229, 9207505.874881692230701 ], [ 7038397.37518360093236, 9207488.710328720510006 ], [ 7038392.838670821860433, 9207451.310548096895218 ], [ 7038379.119665518403053, 9207419.172210201621056 ], [ 7038339.532251056283712, 9207405.988858321681619 ], [ 7038317.672730747610331, 9207406.824360122904181 ], [ 7038315.527959566563368, 9207433.041055019944906 ], [ 7038323.643531223759055, 9207440.88779915496707 ], [ 7038317.709345445968211, 9207449.28315600194037 ], [ 7038297.100598726421595, 9207441.902254166081548 ], [ 7038284.056129944510758, 9207427.70440810546279 ], [ 7038275.633456860668957, 9207411.689241997897625 ], [ 7038258.27341581787914, 9207407.453952677547932 ], [ 7038260.444195321761072, 9207423.708049982786179 ], [ 7038265.557002830319107, 9207434.950916362926364 ], [ 7038244.065278833732009, 9207445.569879485294223 ], [ 7038233.141033126041293, 9207445.987382030114532 ], [ 7038217.767398247495294, 9207453.102757686749101 ], [ 7038215.131989396177232, 9207466.270770383998752 ], [ 7038209.504407807253301, 9207482.822859296575189 ], [ 7038208.365278205834329, 9207494.304633717983961 ], [ 7038183.257033345289528, 9207491.994414506480098 ], [ 7038168.164645215496421, 9207464.807591773569584 ], [ 7038139.439941309392452, 9207449.568355929106474 ], [ 7038116.022951687686145, 9207450.46325708925724 ], [ 7038102.279384335502982, 9207459.156943902373314 ], [ 7038072.365022747777402, 9207453.760693341493607 ], [ 7038048.078701961785555, 9207431.824112353846431 ], [ 7038039.227160575799644, 9207404.398974431678653 ], [ 7038024.624856585636735, 9207390.249178308993578 ], [ 7038009.435562344267964, 9207402.267799837514758 ], [ 7038002.607257734052837, 9207428.663073131814599 ], [ 7038000.289476690813899, 9207449.987234059721231 ], [ 7037994.221462056972086, 9207455.117843663319945 ], [ 7037975.120111419819295, 9207446.050319708883762 ], [ 7037962.075292185880244, 9207431.841007679700851 ], [ 7037943.024047550745308, 9207424.400621931999922 ], [ 7037915.414160177111626, 9207438.522804442793131 ], [ 7037903.595766272395849, 9207456.940221691504121 ], [ 7037888.099798824638128, 9207460.802028363570571 ], [ 7037870.580793920904398, 9207410.843801077455282 ], [ 7037842.075884715653956, 9207359.664825389161706 ], [ 7037821.736973255872726, 9207317.971266817301512 ], [ 7037805.638833787292242, 9207305.519450610503554 ], [ 7037775.628064316697419, 9207339.339744510129094 ], [ 7037746.143128716386855, 9207345.365183347836137 ], [ 7037713.972192493267357, 9207362.919568231329322 ], [ 7037672.264830954372883, 9207335.121403707191348 ], [ 7037618.125914598815143, 9207309.427388910204172 ], [ 7037526.740091793239117, 9207332.514013228937984 ], [ 7037428.662397464737296, 9207344.429817104712129 ], [ 7037392.495649682357907, 9207255.97325505129993 ], [ 7037364.542960209771991, 9207219.481736425310373 ], [ 7037273.635924560017884, 9207172.317757371813059 ], [ 7037255.172684294171631, 9207138.733436608687043 ], [ 7037248.772247292101383, 9207093.238801898434758 ], [ 7037184.8373554777354, 9207056.482298724353313 ], [ 7037133.885679404251277, 9207032.296362129971385 ], [ 7037076.693663378246129, 9207008.360644107684493 ], [ 7037009.361842848360538, 9206922.737741379067302 ], [ 7036942.975610080175102, 9206904.040636671707034 ], [ 7036908.19427324552089, 9206893.932518716901541 ], [ 7036893.883869234472513, 9206887.544839143753052 ], [ 7036879.561984158121049, 9206881.145968794822693 ], [ 7036800.048520135693252, 9206842.810075048357248 ], [ 7036763.271562987938523, 9206824.342773357406259 ], [ 7036723.071252254769206, 9206794.848181201145053 ], [ 7036665.782268820330501, 9206810.104295518249273 ], [ 7036641.992719443514943, 9206842.859085688367486 ], [ 7036607.634264584630728, 9206864.591981532052159 ], [ 7036440.654620609246194, 9206817.638291921466589 ], [ 7036334.36462835688144, 9206791.740233620628715 ], [ 7036299.774375410750508, 9206766.115533279255033 ], [ 7036259.936457049101591, 9206696.82761218957603 ], [ 7036166.592549491673708, 9206638.381093226373196 ], [ 7035997.397938078269362, 9206578.692190503701568 ], [ 7036090.392357310280204, 9207710.944892609491944 ], [ 7036160.83341421931982, 9208458.124297859147191 ], [ 7037026.618831598199904, 9209166.262102695181966 ], [ 7037422.311201439239085, 9209201.282082945108414 ], [ 7037880.703800461255014, 9209356.377687364816666 ], [ 7038880.914195975288749, 9209569.878253582865 ], [ 7039742.516843307763338, 9209890.876214565709233 ], [ 7040478.517014428041875, 9210252.381070835515857 ], [ 7041083.529003346338868, 9210501.379193726927042 ], [ 7041577.731807176955044, 9210755.075264507904649 ], [ 7041912.327714808285236, 9210982.473231328651309 ], [ 7042155.627268011681736, 9211297.278326159343123 ], [ 7043008.921310029923916, 9211667.694987934082747 ], [ 7043177.868083496578038, 9211812.109072370454669 ], [ 7043568.653393152169883, 9211702.982456691563129 ], [ 7043729.460692829452455, 9211739.384592615067959 ], [ 7043806.139203025959432, 9211623.807979799807072 ], [ 7043822.560523857362568, 9211569.630559774115682 ], [ 7044035.960248741321266, 9211447.327828198671341 ], [ 7044085.713888518512249, 9211418.870325144380331 ], [ 7044145.091929400339723, 9211364.753476548939943 ], [ 7044197.299149718135595, 9211213.837497571483254 ], [ 7044188.395529670640826, 9211162.859152058139443 ], [ 7044199.671043002977967, 9211121.947460500523448 ], [ 7044270.720728733576834, 9211063.461646590381861 ], [ 7044309.230241979472339, 9211052.297117946669459 ], [ 7044424.678140088915825, 9210843.026675216853619 ], [ 7044518.796513579785824, 9210637.035281304270029 ], [ 7044610.906166048720479, 9210570.584206903353333 ], [ 7044761.348263253457844, 9210485.027807695791125 ], [ 7044797.408068841323256, 9210597.184768166393042 ], [ 7044845.474296095781028, 9210712.992614183574915 ], [ 7044810.062321305274963, 9210727.683389669284225 ], [ 7044827.257638558745384, 9210773.772183317691088 ], [ 7044833.959414769895375, 9210781.675844352692366 ], [ 7044848.061889270320535, 9210826.416156012564898 ], [ 7044891.227510346099734, 9210813.757532838732004 ], [ 7044950.576332086697221, 9210805.788901560008526 ], [ 7045003.169852130115032, 9210789.965057380497456 ], [ 7045000.602695972658694, 9210768.436259685084224 ], [ 7044997.098454628139734, 9210722.243541982024908 ], [ 7045003.620652017183602, 9210684.409588472917676 ], [ 7045009.626366060227156, 9210664.34606072679162 ], [ 7045030.464332779869437, 9210717.582691390067339 ], [ 7045115.596968280151486, 9210680.681949166581035 ], [ 7045204.200668105855584, 9210636.943661382421851 ], [ 7045230.630212620832026, 9210684.12398312613368 ], [ 7045275.313091398216784, 9210662.385662470012903 ], [ 7045290.856750780716538, 9210684.804459944367409 ], [ 7045305.299862992018461, 9210654.34988921880722 ], [ 7045315.945665767416358, 9210626.76402104459703 ], [ 7045330.779500111937523, 9210599.646766634657979 ], [ 7045335.167804419994354, 9210574.81401538848877 ], [ 7045336.064752521924675, 9210558.344064513221383 ], [ 7045334.095834361389279, 9210547.745356477797031 ], [ 7045342.850810370407999, 9210508.405329346656799 ], [ 7045380.937325112521648, 9210412.084500998258591 ], [ 7045405.647692454047501, 9210357.538241295143962 ], [ 7045471.740444021299481, 9210384.812313480302691 ], [ 7045452.493528548628092, 9210425.484609303995967 ], [ 7045393.622849063947797, 9210552.188511319458485 ], [ 7045374.890212208032608, 9210593.900062907487154 ], [ 7045358.411435278132558, 9210633.476826697587967 ], [ 7045346.329019414260983, 9210683.489720558747649 ], [ 7045338.147083327174187, 9210703.04304656945169 ], [ 7045324.587183577939868, 9210745.825601041316986 ], [ 7045307.564294876530766, 9210781.232493348419666 ], [ 7045240.701295198872685, 9210873.098278641700745 ], [ 7045149.648157304152846, 9211003.378659892827272 ], [ 7045146.35342382825911, 9211013.153863491490483 ], [ 7045137.675646759569645, 9211029.233782272785902 ], [ 7045134.415045078843832, 9211046.992635503411293 ], [ 7045132.328439097851515, 9211057.420116478577256 ], [ 7045132.463757112622261, 9211066.331105889752507 ], [ 7045264.873906455934048, 9211059.974809858947992 ], [ 7045268.809917556121945, 9211098.527488654479384 ], [ 7045271.784667626023293, 9211118.248475978150964 ], [ 7045230.969497467391193, 9211125.160235080868006 ], [ 7045241.993966145440936, 9211191.06399192661047 ], [ 7045305.845447957515717, 9211179.257619457319379 ], [ 7045425.284094378352165, 9211177.144712498411536 ], [ 7045446.643787484616041, 9211150.570226352661848 ], [ 7045465.036449373699725, 9211133.956401640549302 ], [ 7045645.508847836405039, 9211024.647367190569639 ], [ 7045755.882823252119124, 9210901.913514530286193 ], [ 7045741.063117859885097, 9210859.002988131716847 ], [ 7045807.372610404156148, 9210801.610765030607581 ], [ 7045933.461415847763419, 9210702.660800395533442 ], [ 7046103.233166014775634, 9210570.995754402130842 ], [ 7046069.05001416336745, 9210534.761085918173194 ], [ 7045647.417334987781942, 9210469.838138191029429 ], [ 7045521.402883680537343, 9210445.283136747777462 ], [ 7045596.483453898690641, 9210211.25330401211977 ], [ 7045729.459805971942842, 9210038.715849747881293 ], [ 7045742.606558375060558, 9210063.565891304984689 ], [ 7045836.568136222660542, 9210084.442824687808752 ], [ 7046158.083548175171018, 9210120.148113057017326 ], [ 7046231.851168010383844, 9210082.90751682780683 ], [ 7046292.962462552823126, 9210092.421653367578983 ], [ 7046334.660139542073011, 9210132.256627030670643 ], [ 7046375.761355303227901, 9210216.255743261426687 ], [ 7046444.620109854266047, 9210276.192419625818729 ], [ 7046494.462696883827448, 9210301.398640055209398 ], [ 7046762.889582452364266, 9210106.666938420385122 ], [ 7047218.112665496766567, 9209700.343369441106915 ], [ 7047325.804935133084655, 9208831.364888885989785 ], [ 7047320.043201009742916, 9208794.997332317754626 ], [ 7047364.284147766418755, 9208700.568727731704712 ], [ 7047472.719070354476571, 9208469.130022879689932 ], [ 7047833.588269942440093, 9208447.010105933994055 ], [ 7048018.150558525696397, 9208310.725222365930676 ], [ 7048073.654792728833854, 9208230.237294239923358 ], [ 7048087.077046567574143, 9208215.682788170874119 ], [ 7048109.043032616376877, 9208191.848195908591151 ], [ 7048199.194264497607946, 9208113.756002679467201 ], [ 7048258.787831115536392, 9208058.127883717417717 ], [ 7048366.737715285271406, 9207894.459449872374535 ], [ 7048456.948990064673126, 9207747.372590884566307 ], [ 7048518.030174961313605, 9207676.9816166870296 ], [ 7048573.108296963386238, 9207643.026987796649337 ], [ 7048604.037476861849427, 9207641.572059145197272 ], [ 7048691.35086817573756, 9207675.04422390460968 ], [ 7048471.083216444589198, 9207491.780014390125871 ], [ 7048384.773315898142755, 9207376.486313728615642 ], [ 7047977.892394593916833, 9207260.264959305524826 ], [ 7046679.00282094720751, 9206889.251728557050228 ], [ 7046027.879105907864869, 9206700.185739945620298 ], [ 7041446.832923002541065, 9206644.16130143776536 ], [ 7041460.078020638786256, 9206886.478962140157819 ] ] ], [ [ [ 7054598.394291238859296, 9212453.344617784023285 ], [ 7054568.53998611215502, 9212401.395940175279975 ], [ 7054566.453409420326352, 9212388.863980503752828 ], [ 7054543.981212527491152, 9212252.612880568951368 ], [ 7054542.890601794235408, 9212226.860464291647077 ], [ 7054534.38576059229672, 9212186.054981078952551 ], [ 7054517.418053870089352, 9212130.259901743382215 ], [ 7054515.060041815973818, 9212111.694520538672805 ], [ 7054515.475111059844494, 9212096.854301195591688 ], [ 7054508.331284485757351, 9212075.75872590392828 ], [ 7054492.754250534810126, 9212040.755455249920487 ], [ 7054478.258232241496444, 9212006.258186087012291 ], [ 7054464.93503032065928, 9211975.000015014782548 ], [ 7054458.880661491304636, 9211967.569193471223116 ], [ 7054446.035825142636895, 9211959.897507436573505 ], [ 7054381.094818843528628, 9211929.24075491912663 ], [ 7054371.821337691508234, 9211919.75553011149168 ], [ 7054350.564987786114216, 9211873.476206421852112 ], [ 7054321.863025875762105, 9211836.297283716499805 ], [ 7054305.799076509661973, 9211826.571281965821981 ], [ 7054270.690927541814744, 9211810.528934730216861 ], [ 7054254.087215824984014, 9211800.276306495070457 ], [ 7054238.386977354064584, 9211786.693561306223273 ], [ 7054156.819824727252126, 9211708.45187572017312 ], [ 7054115.865439345128834, 9211689.920267773792148 ], [ 7054093.415470203384757, 9211677.178280808031559 ], [ 7054074.475101276300848, 9211660.983158430084586 ], [ 7054055.430340578779578, 9211642.602806011214852 ], [ 7054019.335448487661779, 9211615.62908411026001 ], [ 7053998.567012249492109, 9211580.848877117037773 ], [ 7053986.28252873942256, 9211574.250682769343257 ], [ 7053969.387915432453156, 9211569.494198013097048 ], [ 7053926.565387083217502, 9211555.995151657611132 ], [ 7053886.493928462266922, 9211533.587309550493956 ], [ 7053843.555561778135598, 9211505.257259789854288 ], [ 7053814.241994777694345, 9211490.624015711247921 ], [ 7053675.647691192105412, 9211408.279677737504244 ], [ 7053646.946258799172938, 9211395.800744025036693 ], [ 7053618.432414881885052, 9211387.716349618509412 ], [ 7053575.111385088413954, 9211374.784071462228894 ], [ 7053550.314835412427783, 9211368.175998337566853 ], [ 7053518.363787508569658, 9211365.172205571085215 ], [ 7053507.851940574124455, 9211362.756635813042521 ], [ 7053470.879093618132174, 9211352.422663392499089 ], [ 7053447.816224368289113, 9211337.503857167437673 ], [ 7053434.358899080194533, 9211327.667006114497781 ], [ 7053423.071248779073358, 9211319.924639290198684 ], [ 7053366.510853383690119, 9211314.695701066404581 ], [ 7053353.468970606103539, 9211314.717566292732954 ], [ 7053341.787551406770945, 9211309.738412141799927 ], [ 7053292.640949323773384, 9211294.863435847684741 ], [ 7053260.107960624620318, 9211278.164725385606289 ], [ 7053238.508905115537345, 9211260.989231921732426 ], [ 7053218.873324904590845, 9211253.065825272351503 ], [ 7053182.052336300723255, 9211245.881870534271002 ], [ 7053157.194126059301198, 9211237.634427346289158 ], [ 7053115.741837861016393, 9211219.682034090161324 ], [ 7053073.780332861468196, 9211189.673939680680633 ], [ 7053016.210901323705912, 9211136.19459112547338 ], [ 7052981.206766232848167, 9211110.275352373719215 ], [ 7052947.365594839677215, 9211099.670527013018727 ], [ 7052936.20339463558048, 9211094.67164203338325 ], [ 7052909.807564157992601, 9211074.96703739836812 ], [ 7052879.67345449142158, 9211053.2281224578619 ], [ 7052843.381682745181024, 9211033.949083883315325 ], [ 7052822.125721003860235, 9211012.371031785383821 ], [ 7052808.719051954336464, 9210991.540447788313031 ], [ 7052780.379890231415629, 9210938.444913318380713 ], [ 7052758.811596404761076, 9210897.118707720190287 ], [ 7052741.272066685371101, 9210864.953669110313058 ], [ 7052723.982664164155722, 9210850.885846085846424 ], [ 7052713.380385494790971, 9210846.948579888790846 ], [ 7052691.48137928545475, 9210834.734077306464314 ], [ 7052655.905810252763331, 9210807.742911467328668 ], [ 7052634.451528071425855, 9210781.782968861982226 ], [ 7052594.409704707562923, 9210723.151200288906693 ], [ 7052582.4889164455235, 9210712.69721170887351 ], [ 7052568.511977337300777, 9210702.869258409366012 ], [ 7052554.368852595798671, 9210689.216765901073813 ], [ 7052515.802539428696036, 9210665.647426255047321 ], [ 7052445.202160025015473, 9210612.192188603803515 ], [ 7052427.227361431345344, 9210594.320060120895505 ], [ 7052412.180863957852125, 9210583.997569596394897 ], [ 7052375.017394058406353, 9210568.595447169616818 ], [ 7052336.483175223693252, 9210545.584114756435156 ], [ 7052300.04540091380477, 9210523.016520895063877 ], [ 7052264.522035168483853, 9210497.118720011785626 ], [ 7052236.962764299474657, 9210474.723483871668577 ], [ 7052210.068290975876153, 9210455.586416926234961 ], [ 7052181.854824725538492, 9210429.921105289831758 ], [ 7052156.03034661244601, 9210411.290398828685284 ], [ 7052109.384639595635235, 9210369.41275498829782 ], [ 7052082.760331915691495, 9210344.23402214795351 ], [ 7052003.996166571974754, 9210270.821415591984987 ], [ 7051945.897245261818171, 9210242.645363137125969 ], [ 7051920.723750207573175, 9210230.429072184488177 ], [ 7051887.292528523132205, 9210212.788809670135379 ], [ 7051855.601282806135714, 9210191.123054232448339 ], [ 7051806.164363713935018, 9210128.604159761220217 ], [ 7051788.891545778140426, 9210106.758713776245713 ], [ 7051782.962995771318674, 9210102.083880264312029 ], [ 7051773.248637474142015, 9210101.745836425572634 ], [ 7051713.818095337599516, 9210083.145904339849949 ], [ 7051663.861288134008646, 9210049.104530602693558 ], [ 7051578.628713892772794, 9209983.114334912970662 ], [ 7051485.194485828280449, 9209920.233311736956239 ], [ 7051415.787686541676521, 9209870.567134296521544 ], [ 7051374.678737264126539, 9209848.215164830908179 ], [ 7051337.46327249519527, 9209831.722068481147289 ], [ 7051291.828783551231027, 9209838.104955026879907 ], [ 7051247.341561349108815, 9209853.502379354089499 ], [ 7051198.505546352826059, 9209876.203728487715125 ], [ 7051186.575192143209279, 9209877.825209405273199 ], [ 7051141.094867271371186, 9209863.348724788054824 ], [ 7051107.531829003244638, 9209939.082116751000285 ], [ 7051082.302808697335422, 9209966.490647774189711 ], [ 7051059.894567416980863, 9209975.988454565405846 ], [ 7051036.480202945880592, 9209982.858468152582645 ], [ 7051013.329666809178889, 9210001.722549287602305 ], [ 7050995.683872198686004, 9210006.380523554980755 ], [ 7050980.766925836913288, 9210015.055655863136053 ], [ 7050948.565786990337074, 9210058.542433908209205 ], [ 7050889.467369634658098, 9210114.236727649345994 ], [ 7050878.360560255125165, 9210139.485383154824376 ], [ 7050835.681550070643425, 9210187.925427846610546 ], [ 7050759.162715747952461, 9210249.874689396470785 ], [ 7050720.047829054296017, 9210278.698788125067949 ], [ 7050664.414700344204903, 9210336.843677368015051 ], [ 7050596.120953449979424, 9210444.804305262863636 ], [ 7050588.506063141860068, 9210469.674183003604412 ], [ 7050619.617656642571092, 9210491.827523028478026 ], [ 7050638.571936106309295, 9210540.43350837379694 ], [ 7050647.70572389382869, 9210556.791658377274871 ], [ 7050651.091719856485724, 9210571.215853897854686 ], [ 7050640.179803441278636, 9210586.967373106628656 ], [ 7050624.410879539325833, 9210598.29412791505456 ], [ 7050605.21896580979228, 9210609.495719827711582 ], [ 7050597.545150651596487, 9210616.053348211571574 ], [ 7050585.126907287165523, 9210641.456269582733512 ], [ 7050574.156807133927941, 9210697.401514645665884 ], [ 7050548.599002871662378, 9210737.278710534796119 ], [ 7050534.430609215050936, 9210757.334469361230731 ], [ 7050519.011968477629125, 9210779.149548390880227 ], [ 7050501.559209691360593, 9210803.94151046872139 ], [ 7050492.754496649838984, 9210824.839816434308887 ], [ 7050495.112883303314447, 9210897.809033859521151 ], [ 7050498.62869113124907, 9210926.863385051488876 ], [ 7050500.537477634847164, 9210938.491520902141929 ], [ 7050506.650753295049071, 9210959.843681072816253 ], [ 7050506.346757968887687, 9210966.759575478732586 ], [ 7050503.664018202573061, 9210989.251574927940965 ], [ 7050485.162743350490928, 9211000.589272929355502 ], [ 7050462.632973531261086, 9211031.582921162247658 ], [ 7050447.381869340315461, 9211049.921692499890924 ], [ 7050430.501115541905165, 9211059.346086572855711 ], [ 7050416.686718828976154, 9211042.945682067424059 ], [ 7050407.477347545325756, 9211003.688820112496614 ], [ 7050394.830670210532844, 9210978.336996644735336 ], [ 7050344.130632356740534, 9210926.556152623146772 ], [ 7050288.526457212865353, 9210903.499678306281567 ], [ 7050217.606637281365693, 9210890.00572569668293 ], [ 7050101.608629759401083, 9210841.840937785804272 ], [ 7049920.407449157908559, 9210737.17750733345747 ], [ 7049796.901820596307516, 9210621.483112663030624 ], [ 7049683.794747214764357, 9210547.537795098498464 ], [ 7049588.889460359700024, 9210467.238441770896316 ], [ 7049574.236337104812264, 9210452.070177806541324 ], [ 7049570.425873944535851, 9210451.93655688688159 ], [ 7049532.988278660923243, 9210429.816411081701517 ], [ 7049450.352108380757272, 9210398.342224333435297 ], [ 7049414.115101458504796, 9210378.434911370277405 ], [ 7049389.339963092468679, 9210349.450469730421901 ], [ 7049360.755037397146225, 9210299.481079088523984 ], [ 7049317.799385605379939, 9210181.011346762999892 ], [ 7049280.243425004184246, 9209952.991162411868572 ], [ 7049259.35832355171442, 9209839.009617730975151 ], [ 7049230.914195303805172, 9209739.928746026009321 ], [ 7049097.028762789443135, 9209529.046305567026138 ], [ 7049083.376009286381304, 9209512.839397130534053 ], [ 7049045.406024180352688, 9209467.783244786784053 ], [ 7049020.254917727783322, 9209437.941471947357059 ], [ 7049007.43756050337106, 9209415.427558921277523 ], [ 7048999.592760984785855, 9209386.017333621159196 ], [ 7049010.795702873729169, 9209299.02893028780818 ], [ 7048990.558594434522092, 9209316.231234386563301 ], [ 7048963.725523718632758, 9209369.765061626210809 ], [ 7048937.026432055979967, 9209417.169859670102596 ], [ 7048900.15346594247967, 9209448.513928316533566 ], [ 7048863.229875515215099, 9209432.11576053313911 ], [ 7048830.778419435024261, 9209383.495833652094007 ], [ 7048840.820817959494889, 9209340.571180431172252 ], [ 7048836.950120052322745, 9209283.929588578641415 ], [ 7048836.934482960961759, 9209279.110383935272694 ], [ 7048834.486338200978935, 9209230.575376803055406 ], [ 7048828.385841898620129, 9209153.517612364143133 ], [ 7048801.257743254303932, 9209145.487840469926596 ], [ 7048765.775652440264821, 9209158.244784185662866 ], [ 7048740.374748550355434, 9209169.043776288628578 ], [ 7048715.704925681464374, 9209207.173356080427766 ], [ 7048704.522989857941866, 9209234.820634193718433 ], [ 7048665.225262554362416, 9209273.440517837181687 ], [ 7048636.897228755056858, 9209303.444147957488894 ], [ 7048588.933575520291924, 9209332.558231582865119 ], [ 7048555.733417553827167, 9209367.137214384973049 ], [ 7048529.906992055475712, 9209401.887712765485048 ], [ 7048480.712331378832459, 9209434.156839357689023 ], [ 7048438.312826786190271, 9209432.73030698671937 ], [ 7048393.189784109592438, 9209418.613726524636149 ], [ 7048325.139341766014695, 9209411.661673054099083 ], [ 7048289.210996872745454, 9209430.791066063567996 ], [ 7048303.130026881583035, 9209486.091829679906368 ], [ 7048317.639836436137557, 9209535.933349641039968 ], [ 7048301.41871205624193, 9209590.176179734990001 ], [ 7048278.581471912562847, 9209625.300372054800391 ], [ 7048260.139524688012898, 9209638.486248806118965 ], [ 7048241.708606835454702, 9209651.671674115583301 ], [ 7048207.583686341531575, 9209671.406698875129223 ], [ 7048185.764942348003387, 9209730.065971247851849 ], [ 7048197.875499182380736, 9209786.716439640149474 ], [ 7048192.616914987564087, 9209887.711159948259592 ], [ 7048151.089490532875061, 9209902.408740691840649 ], [ 7048115.66045581176877, 9209912.192959254607558 ], [ 7048108.851035406813025, 9209934.956742525100708 ], [ 7048107.886066930368543, 9209948.998517097905278 ], [ 7048111.686421751976013, 9209959.446969650685787 ], [ 7048128.073618490248919, 9209987.481622351333499 ], [ 7048174.489569881930947, 9210020.083461135625839 ], [ 7048181.093423500657082, 9210120.915194308385253 ], [ 7048149.528129767626524, 9210179.888459032401443 ], [ 7048144.320168586447835, 9210231.997654855251312 ], [ 7048126.498976012691855, 9210315.81201801635325 ], [ 7048099.573918221518397, 9210391.999859726056457 ], [ 7048032.412398966029286, 9210475.767920719459653 ], [ 7047970.957847718149424, 9210507.151552755385637 ], [ 7047872.593724939972162, 9210515.731752915307879 ], [ 7047852.945286733098328, 9210517.449161667376757 ], [ 7047828.41516169719398, 9210514.079618349671364 ], [ 7047779.230667754076421, 9210507.566465310752392 ], [ 7047696.005148806609213, 9210500.107867421582341 ], [ 7047621.183622774668038, 9210511.978502091020346 ], [ 7047574.624622641131282, 9210536.45878448151052 ], [ 7047545.136401323601604, 9210536.561520339921117 ], [ 7047497.100004964508116, 9210543.519794225692749 ], [ 7047471.21354996599257, 9210583.227968523278832 ], [ 7047444.281781462021172, 9210718.445539513602853 ], [ 7047442.804258609190583, 9210753.600240360945463 ], [ 7047425.471978031098843, 9210796.345459209755063 ], [ 7047412.203128582797945, 9210815.932359207421541 ], [ 7047401.37118215020746, 9210797.336177602410316 ], [ 7047380.811503897421062, 9210796.003044104203582 ], [ 7047327.221012438647449, 9210824.73212961293757 ], [ 7047323.67676209192723, 9210828.150343026965857 ], [ 7047296.275966093875468, 9210844.947651196271181 ], [ 7047294.746141687035561, 9210871.652621099725366 ], [ 7047301.040065567940474, 9210906.673131035640836 ], [ 7047321.558918559923768, 9210933.711576797068119 ], [ 7047305.920872138813138, 9210963.854134509339929 ], [ 7047286.61460249312222, 9210976.744936030358076 ], [ 7047252.941546148620546, 9210989.427806485444307 ], [ 7047221.861065872013569, 9210999.566966518759727 ], [ 7047163.688228711485863, 9210966.109112329781055 ], [ 7047114.366954769007862, 9210951.835270458832383 ], [ 7047071.233232342638075, 9210950.910153761506081 ], [ 7047038.062190264463425, 9210963.410677745938301 ], [ 7046983.444875679910183, 9210995.739903423935175 ], [ 7046932.135946670547128, 9211046.94052698276937 ], [ 7046878.670779195614159, 9211065.477397302165627 ], [ 7046833.326367295347154, 9211077.266642786562443 ], [ 7046791.125741686671972, 9211080.274985678493977 ], [ 7046777.25291954074055, 9211115.017083805054426 ], [ 7046732.23345813434571, 9211145.477156735956669 ], [ 7046673.218546455726027, 9211185.621021622791886 ], [ 7046544.988146149553359, 9211313.628279101103544 ], [ 7046509.529524127952754, 9211338.28630194440484 ], [ 7046471.535918613895774, 9211345.219150120392442 ], [ 7046449.260596980340779, 9211357.41892765648663 ], [ 7046427.374354211613536, 9211394.13059413433075 ], [ 7046408.40898341499269, 9211417.297453844919801 ], [ 7046401.137630078010261, 9211421.334855163469911 ], [ 7046394.77715677395463, 9211423.998824158683419 ], [ 7046377.900552183389664, 9211432.081189006567001 ], [ 7046354.264982370659709, 9211431.621186699718237 ], [ 7046308.286845210939646, 9211421.234619284048676 ], [ 7046270.085780800320208, 9211408.199908945709467 ], [ 7046231.821604055352509, 9211416.178738785907626 ], [ 7046214.252394679933786, 9211432.924677826464176 ], [ 7046202.909388377331197, 9211458.757038287818432 ], [ 7046183.883430949412286, 9211476.187076205387712 ], [ 7046171.329076065681875, 9211475.93274025246501 ], [ 7046139.431066756136715, 9211476.684183772653341 ], [ 7046091.964972678571939, 9211485.898515116423368 ], [ 7046048.713712993077934, 9211493.345590816810727 ], [ 7046017.544542908668518, 9211486.398128965869546 ], [ 7046017.988833274692297, 9211457.850610889494419 ], [ 7045992.904061834327877, 9211452.673201698809862 ], [ 7045891.538879313506186, 9211448.543622050434351 ], [ 7046107.681032071821392, 9211721.669383257627487 ], [ 7046161.271538477391005, 9211728.553535357117653 ], [ 7046261.707602459937334, 9211753.905311202630401 ], [ 7046397.597687410190701, 9211788.951748879626393 ], [ 7046591.785594834946096, 9211831.9136658385396 ], [ 7046831.377593837678432, 9211894.423267271369696 ], [ 7046899.549087270163, 9211896.304508367553353 ], [ 7046990.096603630110621, 9211899.567148100584745 ], [ 7047068.07519260328263, 9211907.790961813181639 ], [ 7047163.821208856999874, 9211907.490871906280518 ], [ 7047199.459988583810627, 9211921.811695717275143 ], [ 7047228.903355682268739, 9211940.839072152972221 ], [ 7047257.999370918609202, 9211978.912890257313848 ], [ 7047296.208607740700245, 9212033.437247607856989 ], [ 7047328.333011178299785, 9212081.465323880314827 ], [ 7047389.511783550493419, 9212166.463467782363296 ], [ 7047481.853787496685982, 9212288.328562783077359 ], [ 7047528.732819429598749, 9212332.453651130199432 ], [ 7047849.797351981513202, 9212638.169941138476133 ], [ 7048010.050697262398899, 9212797.764610812067986 ], [ 7048037.750001060776412, 9212826.929980926215649 ], [ 7048056.620382363907993, 9212875.547312874346972 ], [ 7048082.403723610565066, 9212911.444807603955269 ], [ 7048148.67018810287118, 9212976.090638428926468 ], [ 7048196.971843142062426, 9213015.681975487619638 ], [ 7048256.182459099218249, 9213062.680851584300399 ], [ 7048310.121738727204502, 9213111.010077776387334 ], [ 7048505.214636573567986, 9213291.670238211750984 ], [ 7048557.367814360186458, 9213349.021011343225837 ], [ 7048600.690754687413573, 9213397.755933109670877 ], [ 7048629.828024306334555, 9213436.961336094886065 ], [ 7048730.872805656865239, 9213606.645058130845428 ], [ 7048762.758959333412349, 9213662.53381434455514 ], [ 7048787.391546709463, 9213695.194021977484226 ], [ 7048877.469090977683663, 9213799.241283290088177 ], [ 7048972.595567656680942, 9213924.378600280731916 ], [ 7049191.302332995459437, 9214110.86845912411809 ], [ 7049564.880045939236879, 9214227.653570186346769 ], [ 7049605.539602849632502, 9214233.940643215551972 ], [ 7049651.482132053002715, 9214238.908882785588503 ], [ 7049723.120042675174773, 9214248.498657369986176 ], [ 7049814.868272379040718, 9214255.075627008453012 ], [ 7049917.370235357433558, 9214264.619342824444175 ], [ 7050105.402468591928482, 9214285.447345981374383 ], [ 7050160.775094449520111, 9214286.6916134506464 ], [ 7050179.908902240917087, 9214285.962908755987883 ], [ 7050251.811864539980888, 9214274.271201759576797 ], [ 7050337.088140247389674, 9214253.96660371683538 ], [ 7050389.097854971885681, 9214246.653179965913296 ], [ 7050446.256591042503715, 9214238.875759523361921 ], [ 7050515.407456861808896, 9214238.477077106013894 ], [ 7050581.438697575591505, 9214240.444239526987076 ], [ 7050656.029172407463193, 9214243.203009312972426 ], [ 7050738.001138838008046, 9214244.551140446215868 ], [ 7050780.457990769296885, 9214241.815949007868767 ], [ 7050873.573810088448226, 9214228.197176260873675 ], [ 7050914.188592406921089, 9214223.541061570867896 ], [ 7050961.512390613555908, 9214218.128628423437476 ], [ 7051026.841069719754159, 9214217.583891341462731 ], [ 7051010.049382280558348, 9214113.132648566737771 ], [ 7050990.586238326504827, 9214062.271944466978312 ], [ 7050966.602852827869356, 9214027.767543883994222 ], [ 7050918.983895778656006, 9213987.224718116223812 ], [ 7050794.910008816048503, 9213937.265949793159962 ], [ 7050736.880106030963361, 9213911.75558939576149 ], [ 7050696.324522560462356, 9213884.042451832443476 ], [ 7050658.165110889822245, 9213803.08797974139452 ], [ 7050655.313184650614858, 9213740.883589124307036 ], [ 7050667.880469562485814, 9213711.075903996825218 ], [ 7050706.647412887774408, 9213651.8371916487813 ], [ 7050731.529158739373088, 9213632.399489317089319 ], [ 7050759.327736802399158, 9213612.862161172553897 ], [ 7050786.292681051418185, 9213590.271149016916752 ], [ 7050807.373415553942323, 9213567.124349435791373 ], [ 7050823.993569909594953, 9213541.853902906179428 ], [ 7050835.957066071219742, 9213509.821718053892255 ], [ 7050840.51388353202492, 9213474.98653587885201 ], [ 7050837.190895441919565, 9213445.085790673270822 ], [ 7050825.316838740371168, 9213401.632647544145584 ], [ 7050822.576697671785951, 9213328.58380151540041 ], [ 7050851.549968331120908, 9213242.76363418251276 ], [ 7050921.928933115676045, 9213129.178089767694473 ], [ 7050928.232045857235789, 9213101.983760461211205 ], [ 7050933.492626138031483, 9213027.849153004586697 ], [ 7050919.164420438930392, 9212919.032018112018704 ], [ 7050914.220816666260362, 9212806.78301627188921 ], [ 7050905.338123232126236, 9212745.506654946133494 ], [ 7050888.969365986995399, 9212679.905445203185081 ], [ 7050846.340709430165589, 9212577.559966484084725 ], [ 7050924.194798906333745, 9212663.156819386407733 ], [ 7050995.179773054085672, 9212760.566467419266701 ], [ 7051053.079638188704848, 9212821.49732544273138 ], [ 7051124.671427953056991, 9212857.280393909662962 ], [ 7051183.698165607638657, 9212870.431332167237997 ], [ 7051218.122314775362611, 9212890.680706890299916 ], [ 7051254.40882655698806, 9212921.640757473185658 ], [ 7051275.026168978773057, 9212963.980689341202378 ], [ 7051280.681815036572516, 9212997.646920286118984 ], [ 7051281.348764166235924, 9213054.615570513531566 ], [ 7051275.951918196864426, 9213105.656296882778406 ], [ 7051273.387973910197616, 9213116.33792126737535 ], [ 7051263.299423003569245, 9213158.510771518573165 ], [ 7051269.589583473280072, 9213209.093842560425401 ], [ 7051285.909876832738519, 9213293.187978282570839 ], [ 7051307.623287184163928, 9213364.757840244099498 ], [ 7051324.966105186380446, 9213397.978367490693927 ], [ 7051361.483419248834252, 9213435.101566748693585 ], [ 7051376.848475467413664, 9213454.530405167490244 ], [ 7051380.006685396656394, 9213460.569279097020626 ], [ 7051393.729747083969414, 9213475.450002480298281 ], [ 7051403.482058232650161, 9213501.263981696218252 ], [ 7051410.191728510893881, 9213524.120181664824486 ], [ 7051415.32715156301856, 9213543.939296571537852 ], [ 7051434.312638178467751, 9213581.731531977653503 ], [ 7051445.696204049512744, 9213612.105819761753082 ], [ 7051483.59748762100935, 9213686.133000534027815 ], [ 7051511.227610060013831, 9213720.510290520265698 ], [ 7051534.587118964642286, 9213758.124385556206107 ], [ 7051624.718070328235626, 9213780.873560024425387 ], [ 7051676.55828186776489, 9213797.374964108690619 ], [ 7051801.747781812213361, 9213857.292740646749735 ], [ 7051826.219743998721242, 9213885.631604684516788 ], [ 7051859.24308439809829, 9213907.473324667662382 ], [ 7051898.445528449490666, 9213938.32454732619226 ], [ 7051935.393288837745786, 9213947.697740118950605 ], [ 7051953.0406797779724, 9213950.110405785962939 ], [ 7051956.258459466509521, 9213949.184293907135725 ], [ 7051977.655084673315287, 9213943.012309677898884 ], [ 7052005.485201561823487, 9213943.488062739372253 ], [ 7052018.861987236887217, 9213949.13750665448606 ], [ 7052043.575679367408156, 9213983.627017835155129 ], [ 7052073.471507391892374, 9214039.483243763446808 ], [ 7052110.880607098340988, 9214061.158126603811979 ], [ 7052179.421179622411728, 9214114.702874433249235 ], [ 7052187.011861491017044, 9214120.642909023910761 ], [ 7052243.09415998775512, 9214133.140975415706635 ], [ 7052267.737451868131757, 9214126.810289332643151 ], [ 7052300.863578073680401, 9214112.447891402989626 ], [ 7052330.391047671437263, 9214099.771285926923156 ], [ 7052381.288020865991712, 9214071.643364133313298 ], [ 7052417.638093315064907, 9214045.606999229639769 ], [ 7052430.294093796983361, 9214032.036563025787473 ], [ 7052440.03318870998919, 9214018.565701788291335 ], [ 7052452.527076443657279, 9214000.378754274919629 ], [ 7052469.530012054368854, 9213965.8463229611516 ], [ 7052493.105491535738111, 9213931.051500545814633 ], [ 7052506.642556624487042, 9213902.042300518602133 ], [ 7052523.175683837383986, 9213874.455784969031811 ], [ 7052560.18052870221436, 9213831.381883686408401 ], [ 7052571.34443623945117, 9213812.546778321266174 ], [ 7052588.414260709658265, 9213799.564540397375822 ], [ 7052604.772140772081912, 9213788.542351460084319 ], [ 7052640.520121484063566, 9213764.460950082167983 ], [ 7052662.148795433342457, 9213755.92738444916904 ], [ 7052705.216027453541756, 9213733.49949038028717 ], [ 7052722.239202964119613, 9213718.981819355860353 ], [ 7052769.428338960744441, 9213670.197098253294826 ], [ 7052804.875563771463931, 9213639.582648104056716 ], [ 7052854.608817820437253, 9213599.934247136116028 ], [ 7052873.934795087203383, 9213588.414151061326265 ], [ 7052902.848097410984337, 9213578.845329903066158 ], [ 7052942.777262891642749, 9213570.381434619426727 ], [ 7053019.911031610332429, 9213558.972068037837744 ], [ 7053076.949925824068487, 9213538.303764343261719 ], [ 7053111.504950035363436, 9213523.127999817952514 ], [ 7053145.117247253656387, 9213502.585159659385681 ], [ 7053151.876097815111279, 9213496.970737770199776 ], [ 7053171.380817100405693, 9213480.785706976428628 ], [ 7053201.347934417426586, 9213460.393507558852434 ], [ 7053219.146398436278105, 9213447.38258783146739 ], [ 7053240.114747076295316, 9213440.422172291204333 ], [ 7053266.973560218699276, 9213434.773915724828839 ], [ 7053301.203580679371953, 9213430.392922582104802 ], [ 7053323.647887397557497, 9213424.144620047882199 ], [ 7053372.731050808914006, 9213406.096389207988977 ], [ 7053395.244015756063163, 9213401.382469715550542 ], [ 7053414.743056107312441, 9213394.477993462234735 ], [ 7053459.209039418026805, 9213370.434228993952274 ], [ 7053477.03661890514195, 9213358.202070379629731 ], [ 7053498.033697067759931, 9213352.008839145302773 ], [ 7053520.593651553615928, 9213348.841725777834654 ], [ 7053547.82792617380619, 9213353.193187957629561 ], [ 7053609.093755600042641, 9213367.028014957904816 ], [ 7053639.926969112828374, 9213369.704953601583838 ], [ 7053697.734204392880201, 9213369.803048875182867 ], [ 7053719.807124340906739, 9213372.814508982002735 ], [ 7053751.686943175271153, 9213383.917169062420726 ], [ 7053774.824676974676549, 9213396.133895479142666 ], [ 7053796.370263921096921, 9213404.545384522527456 ], [ 7053817.674224076792598, 9213406.817675169557333 ], [ 7053840.291842877864838, 9213405.185374537482858 ], [ 7053879.40512313041836, 9213394.445679465308785 ], [ 7053910.794086577370763, 9213392.478352833539248 ], [ 7053966.923152085393667, 9213386.480247098952532 ], [ 7053998.838992543518543, 9213379.101161081343889 ], [ 7054035.46301035489887, 9213368.654278794303536 ], [ 7054039.381596876308322, 9213367.538084622472525 ], [ 7054092.676719862036407, 9213344.704644437879324 ], [ 7054119.304318030364811, 9213332.904342893511057 ], [ 7054131.385390185751021, 9213323.196786753833294 ], [ 7054145.689608048647642, 9213294.923750247806311 ], [ 7054156.134943900629878, 9213261.406466251239181 ], [ 7054168.727383241057396, 9213207.009198497980833 ], [ 7054189.206191448494792, 9213148.456046590581536 ], [ 7054194.466945153661072, 9213093.558534502983093 ], [ 7054210.917740194126964, 9213044.405227407813072 ], [ 7054220.806977323256433, 9213015.531998017802835 ], [ 7054230.342472911812365, 9212996.675321532413363 ], [ 7054246.393629309721291, 9212976.044118385761976 ], [ 7054269.323831147514284, 9212943.586451003327966 ], [ 7054292.72912528552115, 9212884.920824021100998 ], [ 7054296.305231751874089, 9212863.21749859303236 ], [ 7054293.783472897484899, 9212815.557529255747795 ], [ 7054301.06268671900034, 9212795.249776171520352 ], [ 7054323.136254996992648, 9212764.734326874837279 ], [ 7054330.276431184262037, 9212754.854178976267576 ], [ 7054349.7630948824808, 9212727.919411648064852 ], [ 7054367.011032486334443, 9212700.289956567808986 ], [ 7054379.705295513384044, 9212687.484097946435213 ], [ 7054391.832987278699875, 9212679.322992820292711 ], [ 7054434.139198634773493, 9212656.138641146942973 ], [ 7054458.578728996217251, 9212644.420756043866277 ], [ 7054468.297751232981682, 9212640.753549795597792 ], [ 7054475.907669821754098, 9212638.366437379270792 ], [ 7054486.22366158850491, 9212640.277721237391233 ], [ 7054501.510056430473924, 9212638.156040264293551 ], [ 7054516.767151795327663, 9212635.255245596170425 ], [ 7054545.036769349128008, 9212628.013942074030638 ], [ 7054570.321231005713344, 9212619.349590409547091 ], [ 7054610.220258099026978, 9212610.114685978740454 ], [ 7054658.132964689284563, 9212599.81631700322032 ], [ 7054720.523299850523472, 9212578.541637994349003 ], [ 7054694.658938483335078, 9212554.726339969784021 ], [ 7054648.880907572805882, 9212500.009235695004463 ], [ 7054598.394291238859296, 9212453.344617784023285 ] ] ] ] } }
]
}
