{
"type": "FeatureCollection",
"name": "2513943",
"crs": { "type": "name", "properties": { "name": "urn:ogc:def:crs:EPSG::5880" } },
"features": [
{ "type": "Feature", "properties": { "lv_id": "LOC_023090", "id": 102919.0, "CD_SETOR": "251394305000001", "SITUACAO": "Urbana", "CD_SIT": "1", "CD_TIPO": "0", "AREA_KM2": 0.68206906289083402, "CD_REGIAO": "2", "NM_REGIAO": "Nordeste", "CD_UF": "25", "NM_UF": "Paraíba", "CD_MUN": "2513943", "NM_MUN": "São Domingos do Cariri", "CD_DIST": "251394305", "NM_DIST": "São Domingos do Cariri", "CD_SUBDIST": "25139430500", "NM_SUBDIST": null, "CD_BAIRRO": null, "NM_BAIRRO": null, "CD_NU": null, "NM_NU": null, "CD_FCU": null, "NM_FCU": null, "CD_AGLOM": null, "NM_AGLOM": null, "CD_RGINT": "2502", "NM_RGINT": "Campina Grande", "CD_RGI": "250005", "NM_RGI": "Campina Grande", "CD_CONCURB": null, "NM_CONCURB": null, "mun_code_x": "2513943", "index_right": 47748, "dist_m": 29.357120420814958, "local_id": 236338, "ano": 2022, "cod_localidade_ibge": 2513943, "NR_ZONA": "62", "nr_cep": 58485000.0, "nm_localidade": "SÃO DOMINGOS DO CARIRI", "nm_locvot": "ESCOLA MUNICIPAL JOÃO MARTINS DOS SANTOS (SEDE)", "ds_endereco": "RUA VALDIR ALVES DE LIMA", "ds_bairro": "CENTRO", "pred_long": -36.430773, "pred_lat": -7.630488, "pred_dist": 0.0, "tse_long": -36.4307853, "tse_lat": -7.6306532, "long": -36.4307853, "lat": -7.6306532, "ID_UNICO": "LOC_023090", "SG_UF": "PB", "CD_MUNICIPIO": "19224", "NR_LOCAL_VOTACAO": "1031", "QT_SECOES_AGREGADAS": 0, "QT_ELEITORES_TRANSFERIDOS": 526, "CIRO GOMES (PDT) (NÃO ELEITO) 1T": 91.0, "CONSTITUINTE EYMAEL (DC) (NÃO ELEITO) 1T": 0.0, "FELIPE D AVILA (NOVO) (NÃO ELEITO) 1T": 5.0, "JAIR BOLSONARO (PL) (2º TURNO) 1T": 527.0, "LULA (PT) (2º TURNO) 1T": 1593.0, "LÉO PÉRICLES (UP) (NÃO ELEITO) 1T": 0.0, "PADRE KELMON (PTB) (NÃO ELEITO) 1T": 3.0, "SIMONE TEBET (MDB) (NÃO ELEITO) 1T": 49.0, "SOFIA MANZANO (PCB) (NÃO ELEITO) 1T": 0.0, "SORAYA THRONICKE (UNIÃO) (NÃO ELEITO) 1T": 6.0, "VERA (PSTU) (NÃO ELEITO) 1T": 0.0, "Total_Votos_Validos 1T": 2274.0, "Votos_Brancos 1T": 26.0, "Votos_Nulos 1T": 52.0, "Abstenções 1T": 602.0, "Eleitores_Aptos 1T": 2954.0, "JAIR BOLSONARO (PL) (NÃO ELEITO) 2T": 563.0, "LULA (PT) (ELEITO) 2T": 1645.0, "Total_Votos_Validos 2T": 2208.0, "Votos_Brancos 2T": 44.0, "Votos_Nulos 2T": 83.0, "Abstenções 2T": 619.0, "Eleitores_Aptos 2T": 2954.0, "mun_code_y": "2513943", "mun_code": "2513943" }, "geometry": { "type": "Polygon", "coordinates": [ [ [ 6936135.570518679916859, 9112496.548294121399522 ], [ 6936171.842830874957144, 9112662.600822076201439 ], [ 6936213.592444498091936, 9112964.937523912638426 ], [ 6936256.019509722478688, 9113139.947499366477132 ], [ 6936268.618585731834173, 9113214.809542683884501 ], [ 6936194.048595942556858, 9113213.930830860510468 ], [ 6936139.394391323439777, 9113178.939466612413526 ], [ 6936054.968366631306708, 9113138.956991884857416 ], [ 6936005.224836925044656, 9113078.933250211179256 ], [ 6935962.388410010375082, 9113043.45932742767036 ], [ 6935914.64049254450947, 9113032.994951117783785 ], [ 6935879.45898668281734, 9113040.640830937772989 ], [ 6935784.961421282961965, 9113044.50294609926641 ], [ 6935728.389314273372293, 9113108.870884759351611 ], [ 6935732.130105055868626, 9113201.790325934067369 ], [ 6935766.401336938142776, 9113318.282491486519575 ], [ 6935816.143670678138733, 9113378.294759459793568 ], [ 6935818.738679174333811, 9113442.769750516861677 ], [ 6935820.381870396435261, 9113483.598522439599037 ], [ 6935802.490769481286407, 9113627.042108057066798 ], [ 6935816.790453773923218, 9113688.514175310730934 ], [ 6935878.599433455616236, 9113754.242514044046402 ], [ 6935924.425953794270754, 9113864.056328114122152 ], [ 6935913.117249881848693, 9113876.922420097514987 ], [ 6935732.270315175876021, 9113940.154447009786963 ], [ 6935659.65168335288763, 9113899.687157053500414 ], [ 6935584.541021743789315, 9113797.266384787857533 ], [ 6935558.42448568996042, 9113736.288961205631495 ], [ 6935479.160486267879605, 9113677.481896301731467 ], [ 6935381.210305185988545, 9113664.444745745509863 ], [ 6935372.095767208375037, 9113663.230217877775431 ], [ 6935308.127326753921807, 9113690.661679757758975 ], [ 6935245.155462272465229, 9113742.871676543727517 ], [ 6935211.467810836620629, 9113787.678082441911101 ], [ 6935195.247064454481006, 9113825.575149038806558 ], [ 6935163.291793240234256, 9113913.741545088589191 ], [ 6935203.467272888869047, 9114029.990943528711796 ], [ 6935187.732885167934, 9114080.271836575120687 ], [ 6935103.805739693343639, 9114052.66977022588253 ], [ 6935040.689133245497942, 9113959.049305381253362 ], [ 6935034.606196902692318, 9113950.020762540400028 ], [ 6934972.311340477317572, 9113871.898042444139719 ], [ 6934944.950057746842504, 9113779.946026971563697 ], [ 6934946.363795664161444, 9113668.208100575953722 ], [ 6934957.185045445337892, 9113642.947205316275358 ], [ 6934979.065689792856574, 9113598.623289963230491 ], [ 6934983.977903196588159, 9113573.603570798411965 ], [ 6934940.13485324755311, 9113513.351613316684961 ], [ 6934845.647330742329359, 9113517.209526538848877 ], [ 6934825.511314975097775, 9113540.117422718554735 ], [ 6934806.051034698262811, 9113562.256469938904047 ], [ 6934748.977049701847136, 9113614.224324680864811 ], [ 6934652.563332471996546, 9113667.114333223551512 ], [ 6934639.004242021590471, 9113674.54709049500525 ], [ 6934638.463842409662902, 9113688.293007712811232 ], [ 6934636.084489926695824, 9113749.122534403577447 ], [ 6934692.481162384152412, 9113827.484774505719543 ], [ 6934629.508177399635315, 9113879.692231133580208 ], [ 6934554.218709589913487, 9113919.986753791570663 ], [ 6934476.200989707373083, 9113892.144067039713264 ], [ 6934410.637679411098361, 9113885.693309364840388 ], [ 6934298.024217411875725, 9113874.595751143991947 ], [ 6934116.25523323006928, 9113869.319072233512998 ], [ 6934031.506380955688655, 9113866.858733097091317 ], [ 6933848.914913902059197, 9113886.72225677408278 ], [ 6933788.115361349657178, 9113845.76260344311595 ], [ 6933768.894973566755652, 9113809.325830409303308 ], [ 6933764.205707237124443, 9113805.845999931916595 ], [ 6933689.633297852240503, 9113750.520852068439126 ], [ 6933674.954199911095202, 9113763.059493964537978 ], [ 6933620.999243245460093, 9113809.151648126542568 ], [ 6933558.523330939933658, 9113873.749654922634363 ], [ 6933411.686507231555879, 9114047.241014270111918 ], [ 6933269.015329752117395, 9114177.144209792837501 ], [ 6933253.527514577843249, 9114233.617049843072891 ], [ 6932996.150517789646983, 9114306.144568625837564 ], [ 6932861.304061759263277, 9114336.456920374184847 ], [ 6932740.265307154506445, 9114353.965578824281693 ], [ 6934294.423324182629585, 9120581.412998538464308 ], [ 6937740.779130378738046, 9134435.71202066168189 ], [ 6937745.293333279900253, 9134453.878453573212028 ], [ 6937764.758959397673607, 9134469.096998101100326 ], [ 6937782.437239197082818, 9134480.437271155416965 ], [ 6937811.34939827490598, 9134485.306366968899965 ], [ 6937849.361996492370963, 9134477.766493737697601 ], [ 6937871.908379542641342, 9134466.824676588177681 ], [ 6937904.174776361323893, 9134459.514039862900972 ], [ 6937932.692719826474786, 9134454.356746193021536 ], [ 6937966.247473007068038, 9134430.92960662022233 ], [ 6937999.948936111293733, 9134411.51567242667079 ], [ 6938022.348911823704839, 9134396.571917315945029 ], [ 6938047.933714799582958, 9134365.424340352416039 ], [ 6938065.155217863619328, 9134316.553229819983244 ], [ 6938075.205991462804377, 9134280.002644777297974 ], [ 6938083.506490027531981, 9134247.541069179773331 ], [ 6938082.876069582998753, 9134231.512715676799417 ], [ 6938094.105882322415709, 9134218.763621039688587 ], [ 6938108.539661921560764, 9134202.377050343900919 ], [ 6938214.347890888340771, 9134166.022070663049817 ], [ 6938263.909010049887002, 9134160.023900242522359 ], [ 6938311.393650997430086, 9134150.100945120677352 ], [ 6938345.173260453157127, 9134132.686747623607516 ], [ 6938376.57162488438189, 9134103.321468574926257 ], [ 6938390.528017029166222, 9134068.629610255360603 ], [ 6938422.162845035083592, 9134045.277767166495323 ], [ 6938463.517683081328869, 9134025.556859239935875 ], [ 6938497.86008033156395, 9134022.169777639210224 ], [ 6938532.033990439027548, 9134014.781719923019409 ], [ 6938577.452451516874135, 9134000.921365035697818 ], [ 6938599.919504322111607, 9133987.977711195126176 ], [ 6938612.27187886275351, 9133961.376394184306264 ], [ 6938615.231023299507797, 9133939.169554134830832 ], [ 6938641.682999134995043, 9133930.085884463042021 ], [ 6938655.572789897210896, 9133924.307100877165794 ], [ 6938711.397058357484639, 9133901.192850092425942 ], [ 6938753.146192975342274, 9133891.497896509245038 ], [ 6938772.899769803509116, 9133886.515644507482648 ], [ 6938776.848460882902145, 9133885.523906283080578 ], [ 6938800.551177220419049, 9133879.561458375304937 ], [ 6938822.713158485479653, 9133858.591016056016088 ], [ 6938821.687533523887396, 9133832.535413317382336 ], [ 6938824.082744284532964, 9133796.289045624434948 ], [ 6938817.084790027700365, 9133764.437327580526471 ], [ 6938825.696518179960549, 9133756.749559942632914 ], [ 6938842.983855867758393, 9133741.31353397667408 ], [ 6938857.097240834496915, 9133710.633595254272223 ], [ 6938861.964011260308325, 9133688.350206542760134 ], [ 6938880.377884517423809, 9133669.544722694903612 ], [ 6938901.41006856225431, 9133668.704168079420924 ], [ 6938929.374959456734359, 9133649.516896998509765 ], [ 6938950.746941719204187, 9133608.492489958181977 ], [ 6938956.716266308911145, 9133598.222922559827566 ], [ 6938959.705984936095774, 9133593.07635117881 ], [ 6938968.676040600053966, 9133577.659757444635034 ], [ 6938975.46164186950773, 9133555.299507170915604 ], [ 6938994.101103502325714, 9133542.50798275321722 ], [ 6939016.725615090690553, 9133533.576484594494104 ], [ 6939048.212240695953369, 9133506.209372913464904 ], [ 6939068.048641285859048, 9133475.288545738905668 ], [ 6939070.849454771727324, 9133449.0796686001122 ], [ 6939073.491716044023633, 9133418.846173901110888 ], [ 6939093.892436305060983, 9133401.976234721019864 ], [ 6939121.935681612230837, 9133384.789103772491217 ], [ 6939138.429607811383903, 9133366.048221444711089 ], [ 6939131.956224614754319, 9133323.136401413008571 ], [ 6939120.57779261469841, 9133277.409108534455299 ], [ 6939127.047235194593668, 9133247.034045603126287 ], [ 6939133.26821331307292, 9133210.634039444848895 ], [ 6939129.209163770079613, 9133198.448653170838952 ], [ 6939118.073593872599304, 9133165.059412810951471 ], [ 6939085.662936707027256, 9133120.173391239717603 ], [ 6939094.999816743656993, 9133065.578988740220666 ], [ 6939093.893807775340974, 9133037.510788563638926 ], [ 6939117.317958076484501, 9133025.616128709167242 ], [ 6939123.93440948612988, 9133022.247170364484191 ], [ 6939198.500016308389604, 9133019.264507338404655 ], [ 6939298.331569274887443, 9132977.127152623608708 ], [ 6939339.209736365824938, 9132945.363533010706306 ], [ 6939338.193939656019211, 9132871.108628146350384 ], [ 6939384.807241555303335, 9132839.126814795657992 ], [ 6939430.381433935835958, 9132829.264349762350321 ], [ 6939471.733805640600622, 9132809.539509722962976 ], [ 6939510.692488232627511, 9132777.851996622979641 ], [ 6939532.051401243545115, 9132736.837424295023084 ], [ 6939548.239885441958904, 9132710.09201418608427 ], [ 6939565.218037472106516, 9132655.190289022400975 ], [ 6939584.373887220397592, 9132558.037422154098749 ], [ 6939628.108039009384811, 9132550.26329723931849 ], [ 6939664.67365944199264, 9132554.822948556393385 ], [ 6939693.674793264828622, 9132513.501833353191614 ], [ 6939709.545817869715393, 9132478.718136308714747 ], [ 6939731.141088268719614, 9132443.716776233166456 ], [ 6939757.22529118321836, 9132404.064335087314248 ], [ 6939758.233937371522188, 9132402.471748573705554 ], [ 6939767.005146219395101, 9132382.046189542859793 ], [ 6939812.983737889677286, 9132334.009663263335824 ], [ 6939856.638653878122568, 9132324.234029432758689 ], [ 6939890.089038924314082, 9132346.988458480685949 ], [ 6939902.914435187354684, 9132380.611899679526687 ], [ 6939924.336274953559041, 9132390.781725326552987 ], [ 6939934.129656322300434, 9132395.428454210981727 ], [ 6939942.516262207180262, 9132389.335528962314129 ], [ 6939954.607821138575673, 9132380.55740468390286 ], [ 6939961.312191002070904, 9132356.183264439925551 ], [ 6939965.86073059681803, 9132325.883505741134286 ], [ 6939978.447215229272842, 9132305.29330050945282 ], [ 6940018.286167873069644, 9132295.670241210609674 ], [ 6940061.298452407121658, 9132318.041751425713301 ], [ 6940121.357515682466328, 9132335.722604582086205 ], [ 6940202.289849365130067, 9132348.547911608591676 ], [ 6940265.859210954979062, 9132358.04903208091855 ], [ 6940302.899413293227553, 9132374.636320572346449 ], [ 6940349.886076802387834, 9132400.868506425991654 ], [ 6940391.975508054718375, 9132427.563339686021209 ], [ 6940442.199824310839176, 9132459.423227459192276 ], [ 6940496.524188689887524, 9132477.334078479558229 ], [ 6940521.461724043823779, 9132478.339329009875655 ], [ 6940565.116719220764935, 9132468.563142267987132 ], [ 6940593.395548075437546, 9132457.387136284261942 ], [ 6940631.247225536033511, 9132445.827647352591157 ], [ 6940676.642818311229348, 9132480.163203114643693 ], [ 6940746.659256305545568, 9132507.477387009188533 ], [ 6940812.295201173052192, 9132520.915552396327257 ], [ 6940860.172393370419741, 9132521.001874042674899 ], [ 6940915.871112247928977, 9132476.604284729808569 ], [ 6940977.145687714219093, 9132427.951712157577276 ], [ 6941020.563171583227813, 9132412.160576272755861 ], [ 6941054.814122189767659, 9132406.768591785803437 ], [ 6941113.28201265912503, 9132432.541177541017532 ], [ 6941146.970784622244537, 9132461.322276746854186 ], [ 6941172.541495004668832, 9132478.369380267336965 ], [ 6941206.871469444595277, 9132474.978304484859109 ], [ 6941248.302031004801393, 9132457.262437025085092 ], [ 6941257.151236363686621, 9132438.824651772156358 ], [ 6941256.122660716995597, 9132412.766234984621406 ], [ 6941251.108236717060208, 9132382.836163081228733 ], [ 6941263.626324310898781, 9132360.243125885725021 ], [ 6941288.078422592952847, 9132349.231204390525818 ], [ 6941317.15928141772747, 9132358.097982257604599 ], [ 6941349.977519770152867, 9132364.822480803355575 ], [ 6941380.412495765835047, 9132359.583064369857311 ], [ 6941402.481283582746983, 9132336.607108931988478 ], [ 6941414.038409716449678, 9132289.956648215651512 ], [ 6941421.858521304093301, 9132245.460022831335664 ], [ 6941451.826521488837898, 9132179.999693738296628 ], [ 6941522.97833632864058, 9132138.988195944577456 ], [ 6941553.816452523693442, 9132095.572628794237971 ], [ 6941554.299211211502552, 9132059.409449713304639 ], [ 6941572.400144726037979, 9131984.368750035762787 ], [ 6941569.865943906828761, 9131920.21073992177844 ], [ 6941567.190703090280294, 9131803.835135724395514 ], [ 6941578.27114827092737, 9131745.15509301237762 ], [ 6941630.694275567308068, 9131714.936755824834108 ], [ 6941657.064155501313508, 9131703.835236189886928 ], [ 6941677.382497103884816, 9131684.948251040652394 ], [ 6941711.174542292952538, 9131619.321161817759275 ], [ 6941718.43013749923557, 9131593.845058044418693 ], [ 6941729.67031591385603, 9131554.319069458171725 ], [ 6941774.529275527223945, 9131526.407528063282371 ], [ 6941814.51412904355675, 9131520.783442912623286 ], [ 6941834.754160913638771, 9131530.664099995046854 ], [ 6941886.767353884875774, 9131556.044730393216014 ], [ 6941957.107383428141475, 9131543.178606852889061 ], [ 6942003.953671004623175, 9131517.202590279281139 ], [ 6942022.481371088884771, 9131477.615248046815395 ], [ 6942044.83273546770215, 9131437.2372229937464 ], [ 6942082.751349732279778, 9131427.687271412461996 ], [ 6942120.822425242513418, 9131470.332624295726418 ], [ 6942149.379925526678562, 9131525.755692662671208 ], [ 6942166.452101266011596, 9131558.886978439986706 ], [ 6942216.072223270311952, 9131603.085045911371708 ], [ 6942255.179725156165659, 9131623.608373112976551 ], [ 6942293.89085528254509, 9131634.103482374921441 ], [ 6942331.413264179602265, 9131614.525322435423732 ], [ 6942384.322211974300444, 9131596.333852292969823 ], [ 6942403.593171040527523, 9131599.580554964020848 ], [ 6942503.727939239703119, 9131613.634984754025936 ], [ 6942542.43912601750344, 9131624.130032744258642 ], [ 6942613.254729702137411, 9131623.292424343526363 ], [ 6942646.723372377455235, 9131597.852152390405536 ], [ 6942676.195366399362683, 9131568.552126014605165 ], [ 6942705.995249492116272, 9131547.267383238300681 ], [ 6942726.392595963552594, 9131530.391611982136965 ], [ 6942755.87544266320765, 9131501.090903852134943 ], [ 6942780.579510050825775, 9131447.873040894046426 ], [ 6942744.589588053524494, 9131360.945672385394573 ], [ 6942713.938007400371134, 9131263.771437833085656 ], [ 6942715.771012513898313, 9131213.487543841823936 ], [ 6942694.279283845797181, 9131154.095848090946674 ], [ 6942671.820696127600968, 9131118.851861050352454 ], [ 6942594.715626731514931, 9131105.879388941451907 ], [ 6942537.168459208682179, 9131129.379316926002502 ], [ 6942491.067529288120568, 9131148.20251757837832 ], [ 6942398.412454331293702, 9131178.02368869073689 ], [ 6942362.417989271692932, 9131139.303497230634093 ], [ 6942366.967500484548509, 9131060.794486792758107 ], [ 6942426.804241022095084, 9131024.250690566375852 ], [ 6942500.164258260279894, 9130967.967044286429882 ], [ 6942529.013132847845554, 9130945.839424880221486 ], [ 6942567.984753566794097, 9130887.819895254448056 ], [ 6942570.613768505863845, 9130883.914376450702548 ], [ 6942580.718463777564466, 9130874.645887937396765 ], [ 6942613.313914040103555, 9130850.062079777941108 ], [ 6942668.431323191151023, 9130842.217746464535594 ], [ 6942672.341824318282306, 9130841.666771288961172 ], [ 6942724.044324513524771, 9130841.594178937375546 ], [ 6942738.358594104647636, 9130849.661764491349459 ], [ 6942757.338307555764914, 9130860.345578525215387 ], [ 6942790.870307754725218, 9130885.111791111528873 ], [ 6942792.71985436975956, 9130884.956400487571955 ], [ 6942836.679325108416378, 9130881.255844123661518 ], [ 6942865.987703082151711, 9130896.147338861599565 ], [ 6942929.859341778792441, 9130961.865561148151755 ], [ 6942935.819742691703141, 9130972.92184816300869 ], [ 6942973.266594629734755, 9131042.470680804923177 ], [ 6942992.533415573649108, 9131093.912067092955112 ], [ 6943056.102889991365373, 9131103.419305060058832 ], [ 6943118.481535390019417, 9131082.829066583886743 ], [ 6943248.656598984263837, 9131033.413229180499911 ], [ 6943266.910388494841754, 9130962.39064878039062 ], [ 6943259.508885143324733, 9130920.505146950483322 ], [ 6943293.920514460653067, 9130870.926807407289743 ], [ 6943340.367770107463002, 9130834.917951658368111 ], [ 6943356.871247058734298, 9130767.973780397325754 ], [ 6943377.99771686643362, 9130672.725491380318999 ], [ 6943421.983110494911671, 9130574.553867457434535 ], [ 6943464.523025414906442, 9130536.685193369165063 ], [ 6943528.647779308259487, 9130560.221583671867847 ], [ 6943540.527835900895298, 9130571.24860518053174 ], [ 6943576.351325097493827, 9130604.496143668889999 ], [ 6943617.616697216406465, 9130630.95592887699604 ], [ 6943656.166896145790815, 9130685.643499622121453 ], [ 6943676.150055265054107, 9130755.142577713355422 ], [ 6943677.814664940349758, 9130845.456048954278231 ], [ 6943687.513520644977689, 9130872.258023643866181 ], [ 6943703.611321282573044, 9130916.726037301123142 ], [ 6943776.013512190431356, 9130955.988830490037799 ], [ 6943832.975119655020535, 9130943.666537296026945 ], [ 6943823.733412769623101, 9130903.858302965760231 ], [ 6943818.329943034797907, 9130863.907429093495011 ], [ 6943807.021765776909888, 9130820.173608880490065 ], [ 6943845.748818178661168, 9130734.260667042806745 ], [ 6943855.153784514404833, 9130681.665244843810797 ], [ 6943877.073265585117042, 9130606.472447857260704 ], [ 6943856.919400875456631, 9130532.959475206211209 ], [ 6943852.097140489146113, 9130519.134483963251114 ], [ 6943839.648716415278614, 9130483.440823793411255 ], [ 6943881.553039246238768, 9130429.538472762331367 ], [ 6943893.463692205958068, 9130422.930613415315747 ], [ 6943928.396032867953181, 9130403.556222954764962 ], [ 6943968.538545083254576, 9130401.941971585154533 ], [ 6944005.274729075841606, 9130362.300614651292562 ], [ 6944000.733064956963062, 9130344.409213025122881 ], [ 6944023.593254736624658, 9130293.276372596621513 ], [ 6944043.749905841425061, 9130270.371262658387423 ], [ 6944114.893433006480336, 9130229.345483874902129 ], [ 6944177.667659497819841, 9130218.791278384625912 ], [ 6944240.918130258098245, 9130220.255704637616873 ], [ 6944298.51374785695225, 9130223.963536137714982 ], [ 6944349.648169728927314, 9130258.06675729341805 ], [ 6944400.623546386137605, 9130288.156099308282137 ], [ 6944454.7101566856727, 9130300.034364234656096 ], [ 6944493.274270355701447, 9130258.313669877126813 ], [ 6944506.742463786154985, 9130211.577639155089855 ], [ 6944522.754391061142087, 9130132.599028971046209 ], [ 6944566.655049753375351, 9130080.617829166352749 ], [ 6944588.400768987834454, 9130049.606933826580644 ], [ 6944658.719284014776349, 9130020.117091242223978 ], [ 6944673.159132549539208, 9130014.067232878878713 ], [ 6944696.502282432280481, 9130013.880895720794797 ], [ 6944716.056383940391243, 9130013.6848333645612 ], [ 6944736.330061861313879, 9130013.529322048649192 ], [ 6944839.574851028621197, 9130009.374013308435678 ], [ 6944904.574289687909186, 9130006.757857667282224 ], [ 6944981.281426530331373, 9130009.695331295952201 ], [ 6945084.833057046867907, 9130013.556637980043888 ], [ 6945141.554272914305329, 9129995.214459100738168 ], [ 6945153.510647187009454, 9129958.571495611220598 ], [ 6945159.244213541969657, 9129910.128975452855229 ], [ 6945119.816028912551701, 9129833.379646480083466 ], [ 6945106.431187525391579, 9129803.920985193923116 ], [ 6945048.77184494305402, 9129683.587660705670714 ], [ 6945005.527513917535543, 9129606.99270904250443 ], [ 6945036.59336328227073, 9129521.380286861211061 ], [ 6945040.666323324665427, 9129430.829843850806355 ], [ 6945073.161713932640851, 9129333.109386881813407 ], [ 6945111.004004549235106, 9129225.12762157432735 ], [ 6945128.663070145063102, 9129188.045889873057604 ], [ 6945139.286773007363081, 9129165.730793733149767 ], [ 6945152.828683217987418, 9129072.793709821999073 ], [ 6945158.807309437543154, 9128982.165785241872072 ], [ 6945143.994347658008337, 9128898.400851709768176 ], [ 6945120.336583046242595, 9128833.067602548748255 ], [ 6945110.612574175000191, 9128781.227301314473152 ], [ 6945097.847593665122986, 9128725.129908371716738 ], [ 6945089.666229255497456, 9128687.66435905918479 ], [ 6945115.097841498441994, 9128648.021019442006946 ], [ 6945129.337050542235374, 9128625.81477721594274 ], [ 6945180.953837031498551, 9128575.521735373884439 ], [ 6945237.592221095226705, 9128555.162771059200168 ], [ 6945288.894080193713307, 9128545.05290338024497 ], [ 6945392.363988177850842, 9128546.91702482663095 ], [ 6945463.732736945152283, 9128560.098135160282254 ], [ 6945521.247397428378463, 9128561.799275804311037 ], [ 6945564.743397324346006, 9128499.782037489116192 ], [ 6945600.581471974030137, 9128389.872115224599838 ], [ 6945621.298700509592891, 9128332.793794190511107 ], [ 6945672.987725307233632, 9128332.71308483928442 ], [ 6945716.328409686684608, 9128314.893547361716628 ], [ 6945727.871901837177575, 9128268.230787387117743 ], [ 6945711.372483024373651, 9128242.165475271642208 ], [ 6945693.141635876148939, 9128213.389200933277607 ], [ 6945613.806397629901767, 9128144.276595756411552 ], [ 6945553.70855279546231, 9128096.194529842585325 ], [ 6945523.278608473949134, 9128045.895846534520388 ], [ 6945527.25540282856673, 9128015.899315839633346 ], [ 6945562.962385640479624, 9128003.613082576543093 ], [ 6945620.173904137685895, 9128012.149538833647966 ], [ 6945689.749644316732883, 9128006.630318310111761 ], [ 6945724.810849385336041, 9127978.101897016167641 ], [ 6945738.5678904755041, 9127869.069777375087142 ], [ 6945754.47773970477283, 9127814.189074706286192 ], [ 6945801.016405479051173, 9127758.488878391683102 ], [ 6945810.862982993945479, 9127747.234354421496391 ], [ 6945823.618818873539567, 9127732.757049676030874 ], [ 6945838.518285409547389, 9127730.243650527670979 ], [ 6945908.364310294389725, 9127718.478458372876048 ], [ 6945972.347995916381478, 9127702.3381601087749 ], [ 6946030.524694574996829, 9127670.163891188800335 ], [ 6946101.075587842613459, 9127623.921140125021338 ], [ 6946150.74534894619137, 9127573.098527807742357 ], [ 6946187.092950810678303, 9127511.968108842149377 ], [ 6946198.163574266247451, 9127465.415507461875677 ], [ 6946192.889781442470849, 9127397.831859664991498 ], [ 6946174.282781378366053, 9127319.941276356577873 ], [ 6946174.061665483750403, 9127249.442172035574913 ], [ 6946169.502922464162111, 9127229.256083656102419 ], [ 6946155.238252901472151, 9127166.126110576093197 ], [ 6946147.167683312669396, 9127093.23283832706511 ], [ 6946170.49276618193835, 9127029.91642371378839 ], [ 6946245.77095287013799, 9126972.634308403357863 ], [ 6946311.794062998145819, 9126942.840001866221428 ], [ 6946352.121353637427092, 9126916.807127488777041 ], [ 6946383.112036349251866, 9126881.534075945615768 ], [ 6946401.572895159013569, 9126860.567935075610876 ], [ 6946452.437148767523468, 9126839.531628245487809 ], [ 6946485.02253302000463, 9126813.799695905297995 ], [ 6946517.38496302254498, 9126717.579010970890522 ], [ 6946551.223141085356474, 9126656.755790090188384 ], [ 6946594.5751096829772, 9126578.850106425583363 ], [ 6946642.966203108429909, 9126560.624248962849379 ], [ 6946706.847999416291714, 9126606.858696669340134 ], [ 6946729.648378482088447, 9126660.177694445475936 ], [ 6946780.468660877086222, 9126697.937214432284236 ], [ 6946809.562693976797163, 9126719.321597015485168 ], [ 6946875.053896839730442, 9126741.076564110815525 ], [ 6946967.538453520275652, 9126726.490393429994583 ], [ 6947059.256950336508453, 9126692.954308427870274 ], [ 6947051.93856436945498, 9126639.008373020216823 ], [ 6947041.133817707188427, 9126608.170265452936292 ], [ 6947025.694475279189646, 9126564.135898882523179 ], [ 6947021.171941548585892, 9126515.499998908489943 ], [ 6947012.450225920416415, 9126426.349702322855592 ], [ 6947040.824785487726331, 9126360.113732969388366 ], [ 6947076.951174659654498, 9126293.563889740034938 ], [ 6947074.252965756691992, 9126225.873420501127839 ], [ 6947110.260011658072472, 9126091.516660895198584 ], [ 6947148.522823428735137, 9126014.03345019556582 ], [ 6947189.9163828054443, 9125949.980875667184591 ], [ 6947235.293963626027107, 9125921.028389932587743 ], [ 6947298.528694165870547, 9125951.006921861320734 ], [ 6947334.756148105487227, 9125975.937372285872698 ], [ 6947354.346770237199962, 9125989.432088483124971 ], [ 6947405.31689350772649, 9125971.099182961508632 ], [ 6947419.178981654345989, 9125929.852849576622248 ], [ 6947453.84878471121192, 9125875.295338526368141 ], [ 6947458.099527417682111, 9125868.610807994380593 ], [ 6947494.115502228029072, 9125799.351394323632121 ], [ 6947536.803790976293385, 9125767.783669538795948 ], [ 6947607.24021515250206, 9125783.92382625490427 ], [ 6947652.461043772287667, 9125834.945426674559712 ], [ 6947672.203587595373392, 9125857.229281445965171 ], [ 6947722.861354261636734, 9125895.863497778773308 ], [ 6947826.540825108997524, 9125967.601786134764552 ], [ 6947890.100350439548492, 9126005.713964814320207 ], [ 6947955.699867049232125, 9126030.173925701528788 ], [ 6948018.815187317319214, 9125992.355158217251301 ], [ 6948078.822563042864203, 9126006.206526966765523 ], [ 6948133.776809786446393, 9126022.962621003389359 ], [ 6948198.836472318507731, 9126033.886170184239745 ], [ 6948271.216221707873046, 9126033.666555332019925 ], [ 6948340.464566533453763, 9126020.015250353142619 ], [ 6948491.199628032743931, 9125845.749597694724798 ], [ 6948511.396963123232126, 9125768.99194410443306 ], [ 6948577.524120852351189, 9125741.90721794590354 ], [ 6948673.367997996509075, 9125740.155935069546103 ], [ 6948698.940764010883868, 9125739.699129799380898 ], [ 6948798.193046228960156, 9125765.506387807428837 ], [ 6948884.244662188924849, 9125848.818674433976412 ], [ 6948901.237720533274114, 9125895.73651759326458 ], [ 6948930.728526134975255, 9125977.122818499803543 ], [ 6948971.70305182505399, 9126032.42139214836061 ], [ 6949022.037149487063289, 9126062.923449251800776 ], [ 6949059.34882929828018, 9126026.158768424764276 ], [ 6949081.274891667068005, 9125992.717500496655703 ], [ 6949129.448012012057006, 9125969.071381315588951 ], [ 6949221.822085320949554, 9125951.769432820379734 ], [ 6949295.149572247639298, 9125910.821175947785378 ], [ 6949318.910059809684753, 9125858.322310270741582 ], [ 6949372.24347120244056, 9125834.466278180480003 ], [ 6949469.240152799524367, 9125868.500554732978344 ], [ 6949540.538804789073765, 9125841.204236302524805 ], [ 6949624.619427187368274, 9125810.666089080274105 ], [ 6949707.212162284180522, 9125807.318082645535469 ], [ 6949772.365796600468457, 9125755.863266039639711 ], [ 6949795.465092896483839, 9125687.10683025047183 ], [ 6949849.03318443056196, 9125601.388181712478399 ], [ 6949886.776763011701405, 9125566.075025083497167 ], [ 6949900.424309874884784, 9125537.220626035705209 ], [ 6949938.859629837796092, 9125519.228327376767993 ], [ 6949958.879962261766195, 9125541.247294394299388 ], [ 6949992.407036867924035, 9125574.574402699247003 ], [ 6950014.302940849214792, 9125596.818718222901225 ], [ 6950045.740467898547649, 9125556.545715985819697 ], [ 6950044.413434217683971, 9125523.326555198058486 ], [ 6950025.424802841618657, 9125488.981016859412193 ], [ 6949990.907337987795472, 9125462.659346863627434 ], [ 6949936.373733112588525, 9125420.507372869178653 ], [ 6949892.404432483017445, 9125377.938652753829956 ], [ 6949809.003742536529899, 9125318.473088940605521 ], [ 6949758.504141964949667, 9125289.103148996829987 ], [ 6949676.414836912415922, 9125218.505687683820724 ], [ 6949582.314001208171248, 9125155.778154369443655 ], [ 6949506.539000294171274, 9125110.80372460372746 ], [ 6949451.845343498513103, 9125076.806699732318521 ], [ 6949445.128861612640321, 9125072.628980224952102 ], [ 6949394.481910053640604, 9125039.568881275132298 ], [ 6949370.738266690634191, 9125018.350779235363007 ], [ 6949324.914058492518961, 9124929.642034133896232 ], [ 6949316.477888137102127, 9124894.869762090966105 ], [ 6949278.000401539728045, 9124857.619532883167267 ], [ 6949225.151753464713693, 9124769.196442672982812 ], [ 6949203.513779683038592, 9124712.790508823469281 ], [ 6949191.974604475311935, 9124641.013586783781648 ], [ 6949182.452976397238672, 9124582.412537954747677 ], [ 6949179.372224820777774, 9124549.277452822774649 ], [ 6949180.149115230888128, 9124480.85986659117043 ], [ 6949163.728904562070966, 9124422.376680755987763 ], [ 6949148.97723322827369, 9124361.983207197859883 ], [ 6949149.192079884931445, 9124323.163325130939484 ], [ 6949130.129022606648505, 9124286.980301132425666 ], [ 6949108.205443764105439, 9124223.181322351098061 ], [ 6949095.291175736114383, 9124164.556126108393073 ], [ 6949075.046986749395728, 9124098.84652728587389 ], [ 6949082.211337629705667, 9124057.890336599200964 ], [ 6949092.817544734105468, 9124047.759770253673196 ], [ 6949097.329749029129744, 9124017.538211127743125 ], [ 6949106.771419300697744, 9123967.253126775845885 ], [ 6949113.306491771712899, 9123943.427547240629792 ], [ 6949120.230851317755878, 9123940.376583412289619 ], [ 6949135.6129848388955, 9123939.751855282112956 ], [ 6949181.838425412774086, 9123950.344096940010786 ], [ 6949201.492947811260819, 9123957.403123127296567 ], [ 6949228.34672540333122, 9123957.239578578621149 ], [ 6949289.361762506887317, 9123941.352980362251401 ], [ 6949338.071512230671942, 9123925.977640435099602 ], [ 6949430.80370563454926, 9123900.087418865412474 ], [ 6949493.59848284907639, 9123881.207546452060342 ], [ 6949546.354146663099527, 9123870.894071971997619 ], [ 6949562.792824889533222, 9123795.383718386292458 ], [ 6949620.385852744802833, 9123549.428128739818931 ], [ 6949660.408346322365105, 9123350.47253343462944 ], [ 6949686.600032595917583, 9123259.591489780694246 ], [ 6949757.795207010582089, 9123029.420248506590724 ], [ 6949776.750150918960571, 9122919.768295429646969 ], [ 6949820.614651749841869, 9122784.614633580669761 ], [ 6949847.657543201930821, 9122682.803443914279342 ], [ 6949894.448850433342159, 9122555.688506064936519 ], [ 6949930.35344120953232, 9122480.739319993183017 ], [ 6950027.808920802548528, 9122259.019576989114285 ], [ 6950085.168544149026275, 9122136.919099116697907 ], [ 6950111.469446389935911, 9122081.412497358396649 ], [ 6950119.436031381599605, 9122021.205312674865127 ], [ 6950132.979575360193849, 9121995.133750252425671 ], [ 6950136.76072449143976, 9121960.269271878525615 ], [ 6950146.086268311366439, 9121917.70374820753932 ], [ 6950162.616964654065669, 9121903.053547846153378 ], [ 6950162.990346028469503, 9121902.725423915311694 ], [ 6950219.889478568919003, 9121866.381079653277993 ], [ 6950247.790378975681961, 9121818.295368345454335 ], [ 6950291.928098171949387, 9121754.574336329475045 ], [ 6950329.721946022473276, 9121710.836948895826936 ], [ 6950349.645446648821235, 9121673.958387104794383 ], [ 6950370.750238675624132, 9121634.319643720984459 ], [ 6950381.423064147122204, 9121609.384307473897934 ], [ 6950398.809527079574764, 9121573.964904641732574 ], [ 6950420.537186811678112, 9121533.616772135719657 ], [ 6950439.658212947659194, 9121477.033357536420226 ], [ 6950461.030727690085769, 9121427.844990488141775 ], [ 6950499.138947129249573, 9121343.274819625541568 ], [ 6950509.041813031770289, 9121326.68034846521914 ], [ 6950529.509012313559651, 9121292.363365730270743 ], [ 6950563.563708061352372, 9121235.854356469586492 ], [ 6950583.747760165482759, 9121205.767383301630616 ], [ 6950628.326953062787652, 9121120.932353323325515 ], [ 6950645.903270489536226, 9121090.267686950042844 ], [ 6950678.010373704135418, 9121050.178992211818695 ], [ 6950707.989657976664603, 9121021.731978252530098 ], [ 6950766.068904124200344, 9120949.951810233294964 ], [ 6950784.448430335149169, 9120923.345211459323764 ], [ 6950825.590388912707567, 9120882.191991969943047 ], [ 6950873.056774739176035, 9120853.042717156931758 ], [ 6950925.229717809706926, 9120812.122921051457524 ], [ 6950966.332511430606246, 9120785.944936135783792 ], [ 6951022.670268534682691, 9120751.658110182732344 ], [ 6951060.531756839714944, 9120725.623657327145338 ], [ 6951110.545050656422973, 9120679.34381259046495 ], [ 6951138.282855321653187, 9120643.511331919580698 ], [ 6951171.442982802167535, 9120597.235011033713818 ], [ 6951193.725389996543527, 9120554.821545818820596 ], [ 6951199.236736706458032, 9120514.448520945385098 ], [ 6951216.128715729340911, 9120466.795972857624292 ], [ 6951218.589496774598956, 9120431.310927648097277 ], [ 6951222.744571805931628, 9120407.752476844936609 ], [ 6951224.401122542098165, 9120398.412765990942717 ], [ 6951248.552207333035767, 9120353.871210984885693 ], [ 6951264.312017441727221, 9120326.68643731996417 ], [ 6951298.324205100536346, 9120269.491299457848072 ], [ 6951338.617460632696748, 9120207.287515537813306 ], [ 6951374.498801781795919, 9120147.975726962089539 ], [ 6951401.010220180265605, 9120146.209311153739691 ], [ 6951452.661129176616669, 9120140.692571744322777 ], [ 6951506.520933910273015, 9120125.569937976077199 ], [ 6951563.403479959815741, 9120104.876284843310714 ], [ 6951634.612619285471737, 9120085.62564111314714 ], [ 6951678.435856817290187, 9120079.072125179693103 ], [ 6951698.001702923327684, 9120081.448743367567658 ], [ 6951716.235622934997082, 9120083.659543430432677 ], [ 6951784.995932784862816, 9120084.24702755920589 ], [ 6951840.664652616716921, 9120081.973178043961525 ], [ 6951897.771277928724885, 9120083.048131885007024 ], [ 6952002.134025458246469, 9120082.19265884719789 ], [ 6952055.113314437679946, 9120077.304654434323311 ], [ 6952096.383497405797243, 9120071.527228632941842 ], [ 6952136.566391431726515, 9120054.922169607132673 ], [ 6952144.381324422545731, 9120052.076145049184561 ], [ 6952172.353662489913404, 9120041.88106980919838 ], [ 6952206.337759625166655, 9120032.332818685099483 ], [ 6952237.75218668859452, 9120007.230503840371966 ], [ 6952281.837315610609949, 9119974.806634960696101 ], [ 6952304.991935329511762, 9119954.121544223278761 ], [ 6952325.168085975572467, 9119956.020931912586093 ], [ 6952333.001366697251797, 9119973.388300875201821 ], [ 6952343.120647145435214, 9120015.176674006506801 ], [ 6952362.62448965664953, 9120032.751082794740796 ], [ 6952380.747846593149006, 9120066.516247749328613 ], [ 6952380.855460134334862, 9120066.720484431833029 ], [ 6952390.667843945324421, 9120067.130925226956606 ], [ 6952349.388896596617997, 9119865.794120555743575 ], [ 6952295.569290998391807, 9119729.635173602029681 ], [ 6952238.473029636777937, 9119621.277731470763683 ], [ 6952214.513137015514076, 9119592.051812078803778 ], [ 6952199.551065761595964, 9119573.179501745849848 ], [ 6952199.286608316004276, 9119573.468488074839115 ], [ 6952198.578639574348927, 9119572.616537382826209 ], [ 6952150.670294927433133, 9119514.176054881885648 ], [ 6952077.319024248979986, 9119438.775708884000778 ], [ 6952009.8500653244555, 9119400.028065845370293 ], [ 6951862.663567481562495, 9119346.087512781843543 ], [ 6951690.445989871397614, 9119325.44988115504384 ], [ 6951468.683446769602597, 9119274.558379825204611 ], [ 6951317.665778892114758, 9119234.613983415067196 ], [ 6951138.044930120930076, 9119029.822301803156734 ], [ 6950966.323174115270376, 9118912.319357236847281 ], [ 6950888.623232733458281, 9118865.763484166935086 ], [ 6950786.207354124635458, 9118804.386552104726434 ], [ 6950534.595532719045877, 9118667.100727561861277 ], [ 6950443.332771653309464, 9118583.213802609592676 ], [ 6950380.346910073421896, 9118552.109600955620408 ], [ 6950331.24206974171102, 9118527.843706892803311 ], [ 6950229.225989619269967, 9118504.35069852694869 ], [ 6950086.492196052335203, 9118560.914325743913651 ], [ 6949927.688515100628138, 9118655.02300389111042 ], [ 6949812.764811579138041, 9118747.336440673097968 ], [ 6949713.588045476004481, 9118903.569328919053078 ], [ 6949668.331751596182585, 9118990.008904211223125 ], [ 6949607.485771510750055, 9119106.197170250117779 ], [ 6949432.488956892862916, 9119343.923628009855747 ], [ 6949255.080705757252872, 9119521.782134788110852 ], [ 6949087.634131162427366, 9119510.179572800174356 ], [ 6949038.579724922776222, 9119509.66719944216311 ], [ 6948907.381940428167582, 9119508.312574358657002 ], [ 6948734.436575423926115, 9119469.259720534086227 ], [ 6948687.420367637649179, 9119469.17386813275516 ], [ 6948620.181180389598012, 9119469.31075081974268 ], [ 6948589.115671018138528, 9119487.996478255838156 ], [ 6948521.496239617466927, 9119528.674283970147371 ], [ 6948267.418557316064835, 9119548.26684164442122 ], [ 6948090.814319536089897, 9119527.799431245774031 ], [ 6947966.365590320900083, 9119602.047894848510623 ], [ 6947957.650656977668405, 9119608.881317073479295 ], [ 6947830.046249346807599, 9119709.052796034142375 ], [ 6947729.509929368272424, 9119722.377577744424343 ], [ 6947584.042871119454503, 9119820.528792204335332 ], [ 6947505.865830328315496, 9119952.819735053926706 ], [ 6947358.733097257092595, 9120009.538922984153032 ], [ 6947227.304515745490789, 9120019.508394012227654 ], [ 6947001.701301958411932, 9119982.595854952931404 ], [ 6946884.164992158301175, 9119955.960362315177917 ], [ 6946846.483614949509501, 9119947.426417581737041 ], [ 6946716.943436762318015, 9119929.055568177253008 ], [ 6946669.705790663138032, 9119922.359559427946806 ], [ 6946420.87950724363327, 9119854.110418483614922 ], [ 6946055.591901822946966, 9119730.678104491904378 ], [ 6945892.106574234552681, 9119599.023459678515792 ], [ 6945812.295432450249791, 9119497.272978592664003 ], [ 6945762.421557934954762, 9119433.710781060159206 ], [ 6945609.031626518815756, 9119272.123846713453531 ], [ 6945555.941480986773968, 9119216.202113028615713 ], [ 6945357.867871491238475, 9118989.142401400953531 ], [ 6945185.937300538644195, 9118756.408371936529875 ], [ 6945102.709380282089114, 9118653.759769342839718 ], [ 6944946.362381150946021, 9118437.311247278004885 ], [ 6944943.560404115356505, 9118311.801897682249546 ], [ 6944944.614881291985512, 9118205.600950473919511 ], [ 6945024.731998954899609, 9118148.128753529861569 ], [ 6945031.708668830804527, 9118143.116632955148816 ], [ 6945063.532337898388505, 9118116.941041022539139 ], [ 6945045.124182186089456, 9118094.715599844232202 ], [ 6945018.75418250542134, 9118062.88522526063025 ], [ 6945014.71776619926095, 9117962.48804971575737 ], [ 6945049.471248035319149, 9117899.601412143558264 ], [ 6945097.769326101988554, 9117908.811197018250823 ], [ 6945113.031655313447118, 9117888.502102795988321 ], [ 6945128.09470902569592, 9117868.456020763143897 ], [ 6945186.064620857127011, 9117720.824456451460719 ], [ 6945175.893606967292726, 9117591.234669536352158 ], [ 6945175.129727544263005, 9117581.579209845513105 ], [ 6945231.882356155663729, 9117534.130452474579215 ], [ 6945252.416808849200606, 9117516.965804703533649 ], [ 6945349.001172829419374, 9117535.372395530343056 ], [ 6945447.391715538688004, 9117598.396489441394806 ], [ 6945524.175415152683854, 9117607.461693439632654 ], [ 6945658.258561512455344, 9117623.294037284329534 ], [ 6945693.521589059382677, 9117627.461933959275484 ], [ 6945697.373285317793489, 9117603.24960882216692 ], [ 6945700.609125959686935, 9117582.944138353690505 ], [ 6945710.524326588958502, 9117520.6055613681674 ], [ 6945679.677293971180916, 9117415.692292675375938 ], [ 6945671.220160170458257, 9117337.812743149697781 ], [ 6945635.38011484593153, 9117311.896608373150229 ], [ 6945605.398146333172917, 9117290.225408410653472 ], [ 6945460.729483313858509, 9117268.188158387318254 ], [ 6945431.003329523839056, 9117239.426962286233902 ], [ 6945424.419221496209502, 9117233.056593790650368 ], [ 6945405.321859991177917, 9117214.579207351431251 ], [ 6945354.554519437253475, 9117144.014461535960436 ], [ 6945328.347750591114163, 9117022.17035567574203 ], [ 6945353.451662832871079, 9116975.885555872693658 ], [ 6945402.71229206584394, 9116885.034420313313603 ], [ 6945473.771831810474396, 9116798.308890521526337 ], [ 6945438.945411308668554, 9116727.093205194920301 ], [ 6945406.298942292109132, 9116577.5759516377002 ], [ 6945382.310105474665761, 9116540.203685853630304 ], [ 6945360.855129696428776, 9116506.794928504154086 ], [ 6945335.559469295665622, 9116461.654994424432516 ], [ 6945314.950971877202392, 9116424.863103121519089 ], [ 6945274.585223618894815, 9116348.290005553513765 ], [ 6945207.649633374065161, 9116272.803838565945625 ], [ 6945183.464628860354424, 9116192.197686698287725 ], [ 6945164.58631039224565, 9116129.288028933107853 ], [ 6945150.586900725960732, 9116046.052378356456757 ], [ 6945126.622498058713973, 9115979.979195857420564 ], [ 6945153.121252057142556, 9115844.799444030970335 ], [ 6945156.397386363707483, 9115803.068262966349721 ], [ 6945156.636234138160944, 9115799.953188184648752 ], [ 6945154.516337435692549, 9115798.591566430404782 ], [ 6945139.235908983275294, 9115788.80018493719399 ], [ 6945091.048649650998414, 9115757.934691140428185 ], [ 6944969.860158595256507, 9115775.083019267767668 ], [ 6944868.665884152054787, 9115789.385153660550714 ], [ 6944734.853375368751585, 9115772.509128421545029 ], [ 6944624.035542733967304, 9115665.301183616742492 ], [ 6944577.68020885810256, 9115572.210601918399334 ], [ 6944574.98222226370126, 9115505.280723573639989 ], [ 6944667.005645795725286, 9115446.489606080576777 ], [ 6944668.426844048313797, 9115445.585612032562494 ], [ 6944798.639867072924972, 9115373.203580787405372 ], [ 6944911.989332525059581, 9115279.171338122338057 ], [ 6944987.24077663756907, 9115164.335156314074993 ], [ 6944987.604634105227888, 9115041.406720533967018 ], [ 6944985.353879112750292, 9114985.615405257791281 ], [ 6944966.920812861993909, 9114906.44413211196661 ], [ 6944953.14765792619437, 9114847.254821185022593 ], [ 6944958.823059041053057, 9114724.097302488982677 ], [ 6944992.664680258370936, 9114638.902965310961008 ], [ 6945073.664842421188951, 9114535.009639326483011 ], [ 6945126.143122773617506, 9114495.989453619346023 ], [ 6945177.067090299911797, 9114458.133490463718772 ], [ 6945339.156270532868803, 9114384.447410743683577 ], [ 6945369.033368196338415, 9114332.934733930975199 ], [ 6945454.668438076972961, 9114212.081185929477215 ], [ 6945525.488443002104759, 9114119.782338315621018 ], [ 6945517.375663157552481, 9113918.961418807506561 ], [ 6945520.124687826260924, 9113723.279985688626766 ], [ 6945501.918484585359693, 9113668.153455585241318 ], [ 6945583.813262370415032, 9113586.568097775802016 ], [ 6945573.764711706899107, 9113469.648094721138477 ], [ 6945565.74400582909584, 9113433.767148196697235 ], [ 6945547.763283333741128, 9113353.37132490798831 ], [ 6945624.12824596837163, 9113266.426383838057518 ], [ 6945635.608977668918669, 9113259.790694823488593 ], [ 6945686.560059099458158, 9113230.341594241559505 ], [ 6945716.792927976697683, 9113138.024176808074117 ], [ 6945729.215634438209236, 9113100.075498260557652 ], [ 6945752.86128899268806, 9113026.463611891493201 ], [ 6945814.174634141847491, 9112962.474919093772769 ], [ 6945842.863569539040327, 9112938.481201527640224 ], [ 6945891.428732428699732, 9112897.842684913426638 ], [ 6945772.67012426070869, 9112858.015947908163071 ], [ 6945761.77415194362402, 9112852.078810533508658 ], [ 6945734.56201961170882, 9112837.240636231377721 ], [ 6945737.930820469744503, 9112805.329791890457273 ], [ 6945742.255024386569858, 9112764.283628286793828 ], [ 6945846.46204574778676, 9112667.443188939243555 ], [ 6945937.258986702188849, 9112583.052885362878442 ], [ 6946024.869992897845805, 9112516.266576999798417 ], [ 6946076.72538160905242, 9112476.742808155715466 ], [ 6946212.909837495535612, 9112420.856097063049674 ], [ 6946233.013233026489615, 9112414.201295863837004 ], [ 6946328.506669258698821, 9112382.581936614587903 ], [ 6946432.335406847298145, 9112316.841268554329872 ], [ 6946470.347171695902944, 9112203.52638279274106 ], [ 6946459.600154691375792, 9112069.863197453320026 ], [ 6946452.628048530779779, 9112058.029104478657246 ], [ 6946408.152885466814041, 9111982.579375941306353 ], [ 6946225.374164346605539, 9111939.80513452924788 ], [ 6946089.093479660339653, 9111861.584630521014333 ], [ 6946012.865090671926737, 9111820.026227675378323 ], [ 6945979.154609418474138, 9111776.707922810688615 ], [ 6945942.743443185463548, 9111666.45562775619328 ], [ 6945965.058202329091728, 9111546.789175245910883 ], [ 6945968.983920159749687, 9111525.677489664405584 ], [ 6945956.66236908454448, 9111352.962861219421029 ], [ 6945971.476946551352739, 9111285.852621719241142 ], [ 6939518.323138946667314, 9111770.157316518947482 ], [ 6936198.619545118883252, 9112018.230771416798234 ], [ 6936125.584323544055223, 9112248.762779915705323 ], [ 6936135.570518679916859, 9112496.548294121399522 ] ] ] } }
]
}
