{
"type": "FeatureCollection",
"name": "2602704",
"crs": { "type": "name", "properties": { "name": "urn:ogc:def:crs:EPSG::5880" } },
"features": [
{ "type": "Feature", "properties": { "lv_id": "LOC_024777", "id": 106325.0, "CD_SETOR": "260270405000005", "SITUACAO": "Urbana", "CD_SIT": "1", "CD_TIPO": "0", "AREA_KM2": 0.071591499828122004, "CD_REGIAO": "2", "NM_REGIAO": "Nordeste", "CD_UF": "26", "NM_UF": "Pernambuco", "CD_MUN": "2602704", "NM_MUN": "Buenos Aires", "CD_DIST": "260270405", "NM_DIST": "Buenos Aires", "CD_SUBDIST": "26027040500", "NM_SUBDIST": null, "CD_BAIRRO": null, "NM_BAIRRO": null, "CD_NU": null, "NM_NU": null, "CD_FCU": null, "NM_FCU": null, "CD_AGLOM": null, "NM_AGLOM": null, "CD_RGINT": "2601", "NM_RGINT": "Recife", "CD_RGI": "260006", "NM_RGI": "Carpina", "CD_CONCURB": null, "NM_CONCURB": null, "mun_code_x": "2602704", "index_right": 49849, "dist_m": 90.35863647258509, "local_id": 256069, "ano": 2022, "cod_localidade_ibge": 2602704, "NR_ZONA": "23", "nr_cep": 55845000.0, "nm_localidade": "BUENOS AIRES", "nm_locvot": "ESCOLA REUNIDAS ANTÔNIO GOMES DE ARAÚJO PEREIRA", "ds_endereco": "RUA ANTÔNIO GOMES DE ARAÚJO PEREIRA, S/N", "ds_bairro": "CENTRO", "pred_long": -35.327324, "pred_lat": -7.723827, "pred_dist": 0.0, "tse_long": -35.3273219, "tse_lat": -7.7238554, "long": -35.3273219, "lat": -7.7238554, "ID_UNICO": "LOC_024777", "SG_UF": "PE", "CD_MUNICIPIO": "23531", "NR_LOCAL_VOTACAO": "1015", "QT_SECOES_AGREGADAS": 0, "QT_ELEITORES_TRANSFERIDOS": 4, "CIRO GOMES (PDT) (NÃO ELEITO) 1T": 42.0, "CONSTITUINTE EYMAEL (DC) (NÃO ELEITO) 1T": 0.0, "FELIPE D AVILA (NOVO) (NÃO ELEITO) 1T": 0.0, "JAIR BOLSONARO (PL) (2º TURNO) 1T": 495.0, "LULA (PT) (2º TURNO) 1T": 1875.0, "LÉO PÉRICLES (UP) (NÃO ELEITO) 1T": 2.0, "PADRE KELMON (PTB) (NÃO ELEITO) 1T": 2.0, "SIMONE TEBET (MDB) (NÃO ELEITO) 1T": 20.0, "SOFIA MANZANO (PCB) (NÃO ELEITO) 1T": 0.0, "SORAYA THRONICKE (UNIÃO) (NÃO ELEITO) 1T": 2.0, "VERA (PSTU) (NÃO ELEITO) 1T": 0.0, "Total_Votos_Validos 1T": 2438.0, "Votos_Brancos 1T": 46.0, "Votos_Nulos 1T": 116.0, "Abstenções 1T": 575.0, "Eleitores_Aptos 1T": 3175.0, "JAIR BOLSONARO (PL) (NÃO ELEITO) 2T": 550.0, "LULA (PT) (ELEITO) 2T": 1883.0, "Total_Votos_Validos 2T": 2433.0, "Votos_Brancos 2T": 44.0, "Votos_Nulos 2T": 143.0, "Abstenções 2T": 555.0, "Eleitores_Aptos 2T": 3175.0, "mun_code_y": "2602704", "mun_code": "2602704" }, "geometry": { "type": "Polygon", "coordinates": [ [ [ 7059747.07711922749877, 9100715.503550954163074 ], [ 7059774.669244462624192, 9100686.272370032966137 ], [ 7059767.984031049534678, 9100660.548022408038378 ], [ 7059758.353562120348215, 9100644.879767637699842 ], [ 7059751.718121953308582, 9100624.66434932500124 ], [ 7059762.954713940620422, 9100616.120588419958949 ], [ 7059818.024554064497352, 9100576.013719875365496 ], [ 7059777.028322290629148, 9100527.920288963243365 ], [ 7059740.062922457233071, 9100483.937944184988737 ], [ 7059694.223551359958947, 9100449.514472890645266 ], [ 7059816.074309729039669, 9100185.172124303877354 ], [ 7059962.729643292725086, 9100017.773150678724051 ], [ 7060018.666829507797956, 9099973.757650865241885 ], [ 7059966.578361734747887, 9099976.46289780177176 ], [ 7059933.535256152972579, 9099976.316644802689552 ], [ 7059890.849189849570394, 9099973.529188726097345 ], [ 7059861.792525058612227, 9099958.29415519721806 ], [ 7059827.855219080112875, 9099978.367335714399815 ], [ 7059784.22085190191865, 9100003.50316115655005 ], [ 7059713.416660295799375, 9100069.67847752571106 ], [ 7059649.617316264659166, 9100176.663352327421308 ], [ 7059630.53049773350358, 9100227.193323589861393 ], [ 7059590.993601925671101, 9100324.817356148734689 ], [ 7059582.043967225588858, 9100342.348852610215545 ], [ 7059567.943199845030904, 9100374.087724396958947 ], [ 7059551.216174814850092, 9100412.52465933188796 ], [ 7059533.667939679697156, 9100449.84406247921288 ], [ 7059513.91964490711689, 9100445.105804407969117 ], [ 7059450.743280164897442, 9100503.85993829742074 ], [ 7059383.853484887629747, 9100561.518112983554602 ], [ 7059363.220001762732863, 9100586.191000612452626 ], [ 7059343.404496283270419, 9100609.860928431153297 ], [ 7059328.309239752590656, 9100626.741010084748268 ], [ 7059273.875324723310769, 9100589.909776220098138 ], [ 7059258.146252555772662, 9100637.168575203046203 ], [ 7059241.396392821334302, 9100696.09977456368506 ], [ 7059206.273540401831269, 9100682.807547900825739 ], [ 7059162.515571557916701, 9100663.357637796550989 ], [ 7059148.751540701836348, 9100652.461428483948112 ], [ 7059117.998309843242168, 9100629.878337217494845 ], [ 7059078.419392654672265, 9100593.642769148573279 ], [ 7059061.043479222804308, 9100582.718542657792568 ], [ 7059038.344452206045389, 9100572.796630321070552 ], [ 7059004.489560758695006, 9100558.691734250634909 ], [ 7059007.587452290579677, 9100595.978661308065057 ], [ 7059020.613680496811867, 9100632.026507139205933 ], [ 7059051.116736522875726, 9100692.101558854803443 ], [ 7059061.066313974559307, 9100720.047156041488051 ], [ 7059067.471116722561419, 9100749.010303370654583 ], [ 7059080.018380728550255, 9100792.908752359449863 ], [ 7059102.357490507885814, 9100850.335984036326408 ], [ 7059120.912459183484316, 9100885.291320517659187 ], [ 7059147.318397122435272, 9100919.226925984025002 ], [ 7059162.129069078713655, 9100947.751993488520384 ], [ 7059191.257413184270263, 9101006.175353847444057 ], [ 7059200.630568439140916, 9101030.488091435283422 ], [ 7059215.132374417036772, 9101034.932526789605618 ], [ 7059246.255482948385179, 9101035.864090787246823 ], [ 7059318.305856566876173, 9101025.658161420375109 ], [ 7059360.809168911539018, 9101019.065381951630116 ], [ 7059387.089946798980236, 9101015.501990485936403 ], [ 7059414.348090631887317, 9101011.814191360026598 ], [ 7059442.438826005905867, 9101008.229698160663247 ], [ 7059470.405310982838273, 9101004.068068344146013 ], [ 7059517.419676713645458, 9100994.79569143243134 ], [ 7059548.00615518912673, 9100990.192939020693302 ], [ 7059598.082526803016663, 9100990.480066955089569 ], [ 7059611.653576801531017, 9100967.689689690247178 ], [ 7059648.253837615251541, 9100930.199709678068757 ], [ 7059674.346944481134415, 9100916.391120299696922 ], [ 7059696.635571325197816, 9100895.269107084721327 ], [ 7059700.098864482715726, 9100882.114455634728074 ], [ 7059748.375423343852162, 9100853.969284988939762 ], [ 7059758.502171426080167, 9100815.576986368745565 ], [ 7059732.987967626191676, 9100817.452778656035662 ], [ 7059747.07711922749877, 9100715.503550954163074 ] ] ] } },
{ "type": "Feature", "properties": { "lv_id": "LOC_024778", "id": 106329.0, "CD_SETOR": "260270405000010", "SITUACAO": "Rural", "CD_SIT": "8", "CD_TIPO": "0", "AREA_KM2": 16.136796608775512, "CD_REGIAO": "2", "NM_REGIAO": "Nordeste", "CD_UF": "26", "NM_UF": "Pernambuco", "CD_MUN": "2602704", "NM_MUN": "Buenos Aires", "CD_DIST": "260270405", "NM_DIST": "Buenos Aires", "CD_SUBDIST": "26027040500", "NM_SUBDIST": null, "CD_BAIRRO": null, "NM_BAIRRO": null, "CD_NU": null, "NM_NU": null, "CD_FCU": null, "NM_FCU": null, "CD_AGLOM": null, "NM_AGLOM": null, "CD_RGINT": "2601", "NM_RGINT": "Recife", "CD_RGI": "260006", "NM_RGI": "Carpina", "CD_CONCURB": null, "NM_CONCURB": null, "mun_code_x": "2602704", "index_right": 49852, "dist_m": 1447.7201488800049, "local_id": 256072, "ano": 2022, "cod_localidade_ibge": 2602704, "NR_ZONA": "23", "nr_cep": 55845000.0, "nm_localidade": "BUENOS AIRES", "nm_locvot": "ESCOLA LAURINDO GOMES", "ds_endereco": "AVENIDA CARLOS GOMES PEREIRA,S/N", "ds_bairro": "CENTRO", "pred_long": -35.327082, "pred_lat": -7.727115, "pred_dist": 0.0, "tse_long": -35.3271187, "tse_lat": -7.7271007, "long": -35.3271187, "lat": -7.7271007, "ID_UNICO": "LOC_024778", "SG_UF": "PE", "CD_MUNICIPIO": "23531", "NR_LOCAL_VOTACAO": "1023", "QT_SECOES_AGREGADAS": 0, "QT_ELEITORES_TRANSFERIDOS": 0, "CIRO GOMES (PDT) (NÃO ELEITO) 1T": 35.0, "CONSTITUINTE EYMAEL (DC) (NÃO ELEITO) 1T": 0.0, "FELIPE D AVILA (NOVO) (NÃO ELEITO) 1T": 0.0, "JAIR BOLSONARO (PL) (2º TURNO) 1T": 318.0, "LULA (PT) (2º TURNO) 1T": 1248.0, "LÉO PÉRICLES (UP) (NÃO ELEITO) 1T": 0.0, "PADRE KELMON (PTB) (NÃO ELEITO) 1T": 1.0, "SIMONE TEBET (MDB) (NÃO ELEITO) 1T": 8.0, "SOFIA MANZANO (PCB) (NÃO ELEITO) 1T": 1.0, "SORAYA THRONICKE (UNIÃO) (NÃO ELEITO) 1T": 3.0, "VERA (PSTU) (NÃO ELEITO) 1T": 0.0, "Total_Votos_Validos 1T": 1614.0, "Votos_Brancos 1T": 24.0, "Votos_Nulos 1T": 83.0, "Abstenções 1T": 371.0, "Eleitores_Aptos 1T": 2092.0, "JAIR BOLSONARO (PL) (NÃO ELEITO) 2T": 359.0, "LULA (PT) (ELEITO) 2T": 1278.0, "Total_Votos_Validos 2T": 1637.0, "Votos_Brancos 2T": 18.0, "Votos_Nulos 2T": 91.0, "Abstenções 2T": 346.0, "Eleitores_Aptos 2T": 2092.0, "mun_code_y": "2602704", "mun_code": "2602704" }, "geometry": { "type": "Polygon", "coordinates": [ [ [ 7062432.379381995648146, 9097449.113329470157623 ], [ 7062314.876893469132483, 9097225.310060266405344 ], [ 7061547.268204212188721, 9095762.516086596995592 ], [ 7061568.869908342137933, 9095743.816193385049701 ], [ 7060127.163977272808552, 9094870.118349840864539 ], [ 7058684.458223516121507, 9095176.916240178048611 ], [ 7058555.084139380604029, 9095204.442753238603473 ], [ 7057214.947991574183106, 9095489.522052124142647 ], [ 7056942.549064953811467, 9095239.724536050111055 ], [ 7056745.441755658946931, 9095302.218585582450032 ], [ 7056533.045836007222533, 9095049.527085803449154 ], [ 7056270.738450093194842, 9094799.225791743025184 ], [ 7055908.440995372831821, 9094554.128640606999397 ], [ 7055619.337740067392588, 9094779.221349941566586 ], [ 7055609.042292137630284, 9095467.92855067178607 ], [ 7055607.537628370337188, 9095569.621646709740162 ], [ 7055587.638939991593361, 9095585.105474838986993 ], [ 7055173.739564217627048, 9095907.030374160036445 ], [ 7055055.827968000434339, 9095876.245830776169896 ], [ 7055067.017694301903248, 9095907.251922719180584 ], [ 7055109.060171506367624, 9095924.075548741966486 ], [ 7055204.64628635533154, 9095951.008144624531269 ], [ 7055248.033243182115257, 9095998.910221084952354 ], [ 7055335.065119011327624, 9096100.935708960518241 ], [ 7055421.290216682478786, 9096184.312424253672361 ], [ 7055428.530078971758485, 9096215.131747988983989 ], [ 7055429.084792861714959, 9096364.540557676926255 ], [ 7055409.017862091772258, 9096446.37167164310813 ], [ 7055421.093797639012337, 9096589.053209947422147 ], [ 7055475.200918262824416, 9096748.572342997416854 ], [ 7055619.814418327063322, 9096953.914303949102759 ], [ 7055755.846241744235158, 9097097.382751688361168 ], [ 7055845.437856175005436, 9097258.456595096737146 ], [ 7055833.400363021530211, 9097389.747619586065412 ], [ 7055800.764211784116924, 9097590.428633378818631 ], [ 7055825.139940647408366, 9097745.025934660807252 ], [ 7055839.355400761589408, 9097937.440175443887711 ], [ 7055858.380449155345559, 9098104.725879572331905 ], [ 7055880.338296301662922, 9098203.385884467512369 ], [ 7055882.23201269004494, 9098383.876803826540709 ], [ 7055925.873461959883571, 9098438.006024865433574 ], [ 7056043.697139709256589, 9098569.819487065076828 ], [ 7056120.55017557553947, 9098709.664032638072968 ], [ 7056207.85444621834904, 9098817.92395238392055 ], [ 7056253.639668165706098, 9098921.761735897511244 ], [ 7056246.415945569984615, 9099027.936457064002752 ], [ 7056188.851220580749214, 9099061.599766172468662 ], [ 7056103.703987816348672, 9099140.052359586581588 ], [ 7056074.256857157684863, 9099141.343592153862119 ], [ 7055974.916528730653226, 9099164.384785957634449 ], [ 7055881.739834601990879, 9099193.376004556193948 ], [ 7055730.182423782534897, 9099237.379002194851637 ], [ 7055631.645097685046494, 9099279.056917203590274 ], [ 7055633.7881725654006, 9099328.774160141125321 ], [ 7055583.178688040934503, 9099387.035661716014147 ], [ 7055483.686752281151712, 9099464.481368260458112 ], [ 7055468.242986667901278, 9099493.255315015092492 ], [ 7055447.760431338101625, 9099565.758642187342048 ], [ 7055418.717437652871013, 9099644.857353078201413 ], [ 7055411.619526017457247, 9099685.648163888603449 ], [ 7055410.539853844791651, 9099729.273898873478174 ], [ 7055395.684944136068225, 9099795.309716667979956 ], [ 7055374.531492405571043, 9099852.267273796722293 ], [ 7055342.132401808165014, 9099922.181467939168215 ], [ 7055341.052655456587672, 9099965.818665377795696 ], [ 7055364.349060793407261, 9100027.061454040929675 ], [ 7055402.637085324153304, 9100093.880032563582063 ], [ 7055416.692965429276228, 9100146.185328932479024 ], [ 7055407.587573483586311, 9100208.847166575491428 ], [ 7055379.478693690150976, 9100309.710380841046572 ], [ 7055356.039143089205027, 9100382.341824125498533 ], [ 7055341.515654684975743, 9100456.132113261148334 ], [ 7055345.184840513393283, 9100498.2800009585917 ], [ 7055353.152336275205016, 9100589.502616597339511 ], [ 7055354.756069808267057, 9100695.273548932746053 ], [ 7055395.187623945996165, 9100777.562293767929077 ], [ 7055396.585751383565366, 9100778.234994960948825 ], [ 7055479.530194760300219, 9100817.46190576441586 ], [ 7055584.491759254597127, 9100924.943649841472507 ], [ 7055616.346791055984795, 9100979.593050427734852 ], [ 7055658.657213476486504, 9101002.647487388923764 ], [ 7055775.937884722836316, 9100985.063588570803404 ], [ 7055871.270862398669124, 9101005.798235734924674 ], [ 7055960.440462045371532, 9101020.581947110593319 ], [ 7056018.23285723105073, 9101066.245926905423403 ], [ 7056027.639920609071851, 9101073.674242295324802 ], [ 7056046.12023301422596, 9101091.550986481830478 ], [ 7056154.828399926424026, 9101149.059926753863692 ], [ 7056249.894566330127418, 9101163.586048284545541 ], [ 7056344.147277211770415, 9101159.462162386626005 ], [ 7056466.522022204473615, 9101122.968615189194679 ], [ 7056557.565057980827987, 9101044.2647809907794 ], [ 7056638.965993718244135, 9101015.795545622706413 ], [ 7056668.96037651412189, 9101026.936139196157455 ], [ 7056819.445364012382925, 9101095.070374822244048 ], [ 7056880.225944744423032, 9101136.003243032842875 ], [ 7056951.996442200616002, 9101157.769173391163349 ], [ 7057059.903485335409641, 9101196.639821505174041 ], [ 7057154.423525405116379, 9101198.723934331908822 ], [ 7057237.708529711700976, 9101213.765035586431623 ], [ 7057349.360464895144105, 9101202.645297601819038 ], [ 7057407.477117037400603, 9101181.426493231207132 ], [ 7057429.969608226791024, 9101155.522583616897464 ], [ 7057526.105150828137994, 9101057.915698900818825 ], [ 7057686.496998012065887, 9100945.028305977582932 ], [ 7057743.530766323208809, 9100898.935763765126467 ], [ 7057752.902919848449528, 9100842.476294482126832 ], [ 7057749.690532801672816, 9100767.89272353425622 ], [ 7057766.029937682673335, 9100736.047728030011058 ], [ 7057781.51250072568655, 9100731.222076404839754 ], [ 7057938.134772983379662, 9100830.542008882388473 ], [ 7058042.109576357528567, 9100928.068005878478289 ], [ 7058138.617994287982583, 9101029.137297548353672 ], [ 7058172.409629261121154, 9101158.701242066919804 ], [ 7058345.404412414878607, 9101257.960744870826602 ], [ 7058430.057127111591399, 9101340.654428197070956 ], [ 7058571.675331125035882, 9101377.700550802052021 ], [ 7058725.477217983454466, 9101499.217020167037845 ], [ 7058931.245285149663687, 9101580.524646805599332 ], [ 7058954.389986546710134, 9101595.671018239110708 ], [ 7058982.849024942144752, 9101626.791091101244092 ], [ 7059006.28212473820895, 9101666.846131063997746 ], [ 7059013.402485677972436, 9101680.142626401036978 ], [ 7059020.387211889028549, 9101688.749761510640383 ], [ 7059026.454784498549998, 9101693.237687103450298 ], [ 7059018.811191721819341, 9101651.116499301046133 ], [ 7059024.476205297745764, 9101585.728358523920178 ], [ 7059019.181241465732455, 9101552.510500626638532 ], [ 7058992.8687474578619, 9101520.981922714039683 ], [ 7058925.349204061552882, 9101390.512999292463064 ], [ 7058937.411100738681853, 9101375.735792385414243 ], [ 7058955.934832978993654, 9101365.627185991033912 ], [ 7058966.678482548333704, 9101365.110070087015629 ], [ 7058972.623476312495768, 9101359.571868631988764 ], [ 7058956.523180925287306, 9101348.777581572532654 ], [ 7058951.32233502343297, 9101336.981671165674925 ], [ 7058966.256736025214195, 9101317.884288946166635 ], [ 7058892.721899561583996, 9101327.47782957367599 ], [ 7058856.688335228711367, 9101316.880819568410516 ], [ 7058835.30859737098217, 9101291.95238490588963 ], [ 7058814.486144416965544, 9101290.219587294384837 ], [ 7058775.536796919070184, 9101256.017742170020938 ], [ 7058771.57381989620626, 9101244.761915659531951 ], [ 7058773.274694230407476, 9101234.516313003376126 ], [ 7058771.399224786087871, 9101221.992336580529809 ], [ 7058702.687263226136565, 9101188.96606158092618 ], [ 7058685.798015023581684, 9101174.722968135029078 ], [ 7058679.942029848694801, 9101147.204172091558576 ], [ 7058686.855338742956519, 9101139.794437114149332 ], [ 7058696.6932129599154, 9101137.219802172854543 ], [ 7058711.389874579384923, 9101137.985813770443201 ], [ 7058724.519584427587688, 9101131.08437173627317 ], [ 7058731.298737169243395, 9101102.359639815986156 ], [ 7058746.45546189788729, 9101042.544892024248838 ], [ 7058762.192610999569297, 9101020.301605124026537 ], [ 7058755.137602449394763, 9100998.788809238001704 ], [ 7058759.468887699767947, 9100994.241678958758712 ], [ 7058769.664898043498397, 9100992.548370085656643 ], [ 7058767.387531146407127, 9100986.333427799865603 ], [ 7058735.38177327439189, 9100975.420738220214844 ], [ 7058725.836999769322574, 9100967.625118726864457 ], [ 7058725.461270466446877, 9100961.723005080595613 ], [ 7058704.495610883459449, 9100937.184669379144907 ], [ 7058717.268403416499496, 9100901.754438007250428 ], [ 7058679.807157796807587, 9100803.432576915249228 ], [ 7058675.229929606430233, 9100754.350618718191981 ], [ 7058699.998516279272735, 9100700.836992228403687 ], [ 7058703.892904129810631, 9100697.940059769898653 ], [ 7058701.018040666356683, 9100672.737354183569551 ], [ 7058702.396534185856581, 9100634.520793743431568 ], [ 7058695.728177194483578, 9100626.342957582324743 ], [ 7058679.769905019551516, 9100606.805037967860699 ], [ 7058681.645599273964763, 9100586.788446467369795 ], [ 7058663.790841769427061, 9100526.835804035887122 ], [ 7058648.311910541728139, 9100506.379865407943726 ], [ 7058647.186755465343595, 9100484.374395800754428 ], [ 7058655.454063483513892, 9100466.885477358475327 ], [ 7058653.449585388414562, 9100460.344085350632668 ], [ 7058652.994008922018111, 9100452.080399695783854 ], [ 7058655.546628714539111, 9100442.904254958033562 ], [ 7058629.452462526038289, 9100422.867095539346337 ], [ 7058606.697411976754665, 9100412.66824153624475 ], [ 7058605.342583557590842, 9100403.267274269834161 ], [ 7058595.621513288468122, 9100381.906627554446459 ], [ 7058583.587649269029498, 9100382.457444131374359 ], [ 7058574.817865492776036, 9100360.624049594625831 ], [ 7058573.407459001988173, 9100352.751772422343493 ], [ 7058587.604919062927365, 9100335.026202971115708 ], [ 7058609.874198002740741, 9100317.564227178692818 ], [ 7058607.948209574446082, 9100247.022180268540978 ], [ 7058653.079095986671746, 9100252.73296157643199 ], [ 7058669.524957257322967, 9100242.598127767443657 ], [ 7058726.275358357466757, 9100182.32214199192822 ], [ 7058764.898337471298873, 9100237.612545683979988 ], [ 7058801.311949255876243, 9100199.665421567857265 ], [ 7058821.961678860709071, 9100153.613036559894681 ], [ 7058919.673350208438933, 9100266.104796957224607 ], [ 7058969.855750694870949, 9100268.355017382651567 ], [ 7058953.318281397223473, 9100357.801667533814907 ], [ 7058935.312814377248287, 9100455.211794171482325 ], [ 7058952.29752033110708, 9100483.955581668764353 ], [ 7058979.752971842885017, 9100524.042763482779264 ], [ 7059000.839991592802107, 9100554.459321532398462 ], [ 7059004.489560758695006, 9100558.691734250634909 ], [ 7059038.344452206045389, 9100572.796630321070552 ], [ 7059061.043479222804308, 9100582.718542657792568 ], [ 7059078.419392654672265, 9100593.642769148573279 ], [ 7059117.998309843242168, 9100629.878337217494845 ], [ 7059148.751540701836348, 9100652.461428483948112 ], [ 7059162.515571557916701, 9100663.357637796550989 ], [ 7059206.273540401831269, 9100682.807547900825739 ], [ 7059241.396392821334302, 9100696.09977456368506 ], [ 7059258.146252555772662, 9100637.168575203046203 ], [ 7059273.875324723310769, 9100589.909776220098138 ], [ 7059328.309239752590656, 9100626.741010084748268 ], [ 7059343.404496283270419, 9100609.860928431153297 ], [ 7059363.220001762732863, 9100586.191000612452626 ], [ 7059383.853484887629747, 9100561.518112983554602 ], [ 7059450.743280164897442, 9100503.85993829742074 ], [ 7059513.91964490711689, 9100445.105804407969117 ], [ 7059533.667939679697156, 9100449.84406247921288 ], [ 7059551.216174814850092, 9100412.52465933188796 ], [ 7059567.943199845030904, 9100374.087724396958947 ], [ 7059582.043967225588858, 9100342.348852610215545 ], [ 7059590.993601925671101, 9100324.817356148734689 ], [ 7059630.53049773350358, 9100227.193323589861393 ], [ 7059649.617316264659166, 9100176.663352327421308 ], [ 7059713.416660295799375, 9100069.67847752571106 ], [ 7059784.22085190191865, 9100003.50316115655005 ], [ 7059827.855219080112875, 9099978.367335714399815 ], [ 7059861.792525058612227, 9099958.29415519721806 ], [ 7059890.849189849570394, 9099973.529188726097345 ], [ 7059933.535256152972579, 9099976.316644802689552 ], [ 7059966.578361734747887, 9099976.46289780177176 ], [ 7060018.666829507797956, 9099973.757650865241885 ], [ 7060121.038652188144624, 9099985.111240386962891 ], [ 7060281.433005595579743, 9100009.216965699568391 ], [ 7060395.775371677242219, 9100060.255154050886631 ], [ 7060469.950726582668722, 9100137.967915359884501 ], [ 7060609.733362556435168, 9100231.48003926128149 ], [ 7060700.781309997662902, 9100289.763942582532763 ], [ 7060750.321017068810761, 9100343.647449946030974 ], [ 7060772.278815019875765, 9100442.331252574920654 ], [ 7060823.695299929007888, 9100539.722864620387554 ], [ 7060870.928948386572301, 9100603.379478767514229 ], [ 7060886.368205446749926, 9100624.176790289580822 ], [ 7060906.716277658939362, 9100685.564089752733707 ], [ 7060981.427236742340028, 9100775.712860979139805 ], [ 7061001.249852940440178, 9100824.6675507389009 ], [ 7061075.960580801591277, 9100914.817112307995558 ], [ 7061112.645329123362899, 9100944.342640800401568 ], [ 7061187.099124097265303, 9101028.281989365816116 ], [ 7061261.005207046866417, 9101099.77801795117557 ], [ 7061305.462780428119004, 9101172.565755134448409 ], [ 7061330.634164342656732, 9101208.830700032413006 ], [ 7061402.395918898284435, 9101230.596612034365535 ], [ 7061488.351811275817454, 9101307.79948253929615 ], [ 7061525.840817185118794, 9101355.981115687638521 ], [ 7061542.178593416698277, 9101461.149621110409498 ], [ 7061618.239513679407537, 9101582.390722015872598 ], [ 7061715.976248559542, 9101659.067483576014638 ], [ 7061761.505177647806704, 9101756.735279379412532 ], [ 7061840.7602010499686, 9101815.544184373691678 ], [ 7061880.391862815245986, 9101913.459582071751356 ], [ 7061901.552669126540422, 9101993.505680227652192 ], [ 7061933.959371458739042, 9102060.602596141397953 ], [ 7062019.11064681597054, 9102119.154562951996922 ], [ 7062087.398412220180035, 9102197.136572398245335 ], [ 7062119.525748696178198, 9102258.012364413589239 ], [ 7062116.050772774964571, 9102314.225477522239089 ], [ 7062114.961743854917586, 9102347.389995157718658 ], [ 7062114.776399977505207, 9102357.955407649278641 ], [ 7062739.788074995391071, 9102119.629445966333151 ], [ 7062863.685377577319741, 9102235.530769374221563 ], [ 7062996.57125333417207, 9102359.895702812820673 ], [ 7066953.315547152422369, 9106063.727415325120091 ], [ 7064171.225325513631105, 9100762.370141498744488 ], [ 7064140.592561200261116, 9100704.024597553536296 ], [ 7062461.382677861489356, 9097504.375891270115972 ], [ 7062432.379381995648146, 9097449.113329470157623 ] ] ] } },
{ "type": "Feature", "properties": { "lv_id": "LOC_024779", "id": 106324.0, "CD_SETOR": "260270405000004", "SITUACAO": "Urbana", "CD_SIT": "1", "CD_TIPO": "0", "AREA_KM2": 0.071395140424537998, "CD_REGIAO": "2", "NM_REGIAO": "Nordeste", "CD_UF": "26", "NM_UF": "Pernambuco", "CD_MUN": "2602704", "NM_MUN": "Buenos Aires", "CD_DIST": "260270405", "NM_DIST": "Buenos Aires", "CD_SUBDIST": "26027040500", "NM_SUBDIST": null, "CD_BAIRRO": null, "NM_BAIRRO": null, "CD_NU": null, "NM_NU": null, "CD_FCU": null, "NM_FCU": null, "CD_AGLOM": null, "NM_AGLOM": null, "CD_RGINT": "2601", "NM_RGINT": "Recife", "CD_RGI": "260006", "NM_RGI": "Carpina", "CD_CONCURB": null, "NM_CONCURB": null, "mun_code_x": "2602704", "index_right": 49848, "dist_m": 15.241191651680186, "local_id": 256068, "ano": 2022, "cod_localidade_ibge": 2602704, "NR_ZONA": "23", "nr_cep": 55845000.0, "nm_localidade": "BUENOS AIRES", "nm_locvot": "ESCOLA PROFESSOR JAIME COELHO", "ds_endereco": "AVENIDA JOÃO TEOBALDO DE AZEVEDO, S/N", "ds_bairro": "CENTRO", "pred_long": -35.327206, "pred_lat": -7.720023, "pred_dist": 0.0, "tse_long": -35.327264, "tse_lat": -7.7200751, "long": -35.327264, "lat": -7.7200751, "ID_UNICO": "LOC_024779", "SG_UF": "PE", "CD_MUNICIPIO": "23531", "NR_LOCAL_VOTACAO": "1074", "QT_SECOES_AGREGADAS": 0, "QT_ELEITORES_TRANSFERIDOS": 6, "CIRO GOMES (PDT) (NÃO ELEITO) 1T": 58.0, "CONSTITUINTE EYMAEL (DC) (NÃO ELEITO) 1T": 0.0, "FELIPE D AVILA (NOVO) (NÃO ELEITO) 1T": 0.0, "JAIR BOLSONARO (PL) (2º TURNO) 1T": 675.0, "LULA (PT) (2º TURNO) 1T": 2372.0, "LÉO PÉRICLES (UP) (NÃO ELEITO) 1T": 0.0, "PADRE KELMON (PTB) (NÃO ELEITO) 1T": 1.0, "SIMONE TEBET (MDB) (NÃO ELEITO) 1T": 19.0, "SOFIA MANZANO (PCB) (NÃO ELEITO) 1T": 0.0, "SORAYA THRONICKE (UNIÃO) (NÃO ELEITO) 1T": 1.0, "VERA (PSTU) (NÃO ELEITO) 1T": 0.0, "Total_Votos_Validos 1T": 3126.0, "Votos_Brancos 1T": 53.0, "Votos_Nulos 1T": 135.0, "Abstenções 1T": 650.0, "Eleitores_Aptos 1T": 3964.0, "JAIR BOLSONARO (PL) (NÃO ELEITO) 2T": 725.0, "LULA (PT) (ELEITO) 2T": 2471.0, "Total_Votos_Validos 2T": 3196.0, "Votos_Brancos 2T": 37.0, "Votos_Nulos 2T": 156.0, "Abstenções 2T": 575.0, "Eleitores_Aptos 2T": 3964.0, "mun_code_y": "2602704", "mun_code": "2602704" }, "geometry": { "type": "Polygon", "coordinates": [ [ [ 7058607.948209574446082, 9100247.022180268540978 ], [ 7058609.874198002740741, 9100317.564227178692818 ], [ 7058587.604919062927365, 9100335.026202971115708 ], [ 7058573.407459001988173, 9100352.751772422343493 ], [ 7058574.817865492776036, 9100360.624049594625831 ], [ 7058583.587649269029498, 9100382.457444131374359 ], [ 7058595.621513288468122, 9100381.906627554446459 ], [ 7058605.342583557590842, 9100403.267274269834161 ], [ 7058606.697411976754665, 9100412.66824153624475 ], [ 7058629.452462526038289, 9100422.867095539346337 ], [ 7058655.546628714539111, 9100442.904254958033562 ], [ 7058652.994008922018111, 9100452.080399695783854 ], [ 7058653.449585388414562, 9100460.344085350632668 ], [ 7058655.454063483513892, 9100466.885477358475327 ], [ 7058647.186755465343595, 9100484.374395800754428 ], [ 7058648.311910541728139, 9100506.379865407943726 ], [ 7058663.790841769427061, 9100526.835804035887122 ], [ 7058681.645599273964763, 9100586.788446467369795 ], [ 7058679.769905019551516, 9100606.805037967860699 ], [ 7058695.728177194483578, 9100626.342957582324743 ], [ 7058702.396534185856581, 9100634.520793743431568 ], [ 7058701.018040666356683, 9100672.737354183569551 ], [ 7058703.892904129810631, 9100697.940059769898653 ], [ 7058699.998516279272735, 9100700.836992228403687 ], [ 7058675.229929606430233, 9100754.350618718191981 ], [ 7058679.807157796807587, 9100803.432576915249228 ], [ 7058717.268403416499496, 9100901.754438007250428 ], [ 7058704.495610883459449, 9100937.184669379144907 ], [ 7058725.461270466446877, 9100961.723005080595613 ], [ 7058725.836999769322574, 9100967.625118726864457 ], [ 7058735.38177327439189, 9100975.420738220214844 ], [ 7058767.387531146407127, 9100986.333427799865603 ], [ 7058769.664898043498397, 9100992.548370085656643 ], [ 7058759.468887699767947, 9100994.241678958758712 ], [ 7058755.137602449394763, 9100998.788809238001704 ], [ 7058762.192610999569297, 9101020.301605124026537 ], [ 7058746.45546189788729, 9101042.544892024248838 ], [ 7058731.298737169243395, 9101102.359639815986156 ], [ 7058724.519584427587688, 9101131.08437173627317 ], [ 7058711.389874579384923, 9101137.985813770443201 ], [ 7058696.6932129599154, 9101137.219802172854543 ], [ 7058686.855338742956519, 9101139.794437114149332 ], [ 7058679.942029848694801, 9101147.204172091558576 ], [ 7058685.798015023581684, 9101174.722968135029078 ], [ 7058702.687263226136565, 9101188.96606158092618 ], [ 7058771.399224786087871, 9101221.992336580529809 ], [ 7058773.274694230407476, 9101234.516313003376126 ], [ 7058771.57381989620626, 9101244.761915659531951 ], [ 7058775.536796919070184, 9101256.017742170020938 ], [ 7058814.486144416965544, 9101290.219587294384837 ], [ 7058835.30859737098217, 9101291.95238490588963 ], [ 7058856.688335228711367, 9101316.880819568410516 ], [ 7058892.721899561583996, 9101327.47782957367599 ], [ 7058966.256736025214195, 9101317.884288946166635 ], [ 7058951.32233502343297, 9101336.981671165674925 ], [ 7058956.523180925287306, 9101348.777581572532654 ], [ 7058972.623476312495768, 9101359.571868631988764 ], [ 7058966.678482548333704, 9101365.110070087015629 ], [ 7058955.934832978993654, 9101365.627185991033912 ], [ 7058937.411100738681853, 9101375.735792385414243 ], [ 7058925.349204061552882, 9101390.512999292463064 ], [ 7058992.8687474578619, 9101520.981922714039683 ], [ 7059019.181241465732455, 9101552.510500626638532 ], [ 7059024.476205297745764, 9101585.728358523920178 ], [ 7059018.811191721819341, 9101651.116499301046133 ], [ 7059026.454784498549998, 9101693.237687103450298 ], [ 7059020.387211889028549, 9101688.749761510640383 ], [ 7059013.402485677972436, 9101680.142626401036978 ], [ 7059006.28212473820895, 9101666.846131063997746 ], [ 7058982.849024942144752, 9101626.791091101244092 ], [ 7058954.389986546710134, 9101595.671018239110708 ], [ 7058931.245285149663687, 9101580.524646805599332 ], [ 7058725.477217983454466, 9101499.217020167037845 ], [ 7058571.675331125035882, 9101377.700550802052021 ], [ 7058430.057127111591399, 9101340.654428197070956 ], [ 7058345.404412414878607, 9101257.960744870826602 ], [ 7058172.409629261121154, 9101158.701242066919804 ], [ 7058138.617994287982583, 9101029.137297548353672 ], [ 7058042.109576357528567, 9100928.068005878478289 ], [ 7057938.134772983379662, 9100830.542008882388473 ], [ 7057781.51250072568655, 9100731.222076404839754 ], [ 7057766.029937682673335, 9100736.047728030011058 ], [ 7057749.690532801672816, 9100767.89272353425622 ], [ 7057752.902919848449528, 9100842.476294482126832 ], [ 7057743.530766323208809, 9100898.935763765126467 ], [ 7057686.496998012065887, 9100945.028305977582932 ], [ 7057526.105150828137994, 9101057.915698900818825 ], [ 7057429.969608226791024, 9101155.522583616897464 ], [ 7057407.477117037400603, 9101181.426493231207132 ], [ 7057349.360464895144105, 9101202.645297601819038 ], [ 7057237.708529711700976, 9101213.765035586431623 ], [ 7057154.423525405116379, 9101198.723934331908822 ], [ 7057059.903485335409641, 9101196.639821505174041 ], [ 7056951.996442200616002, 9101157.769173391163349 ], [ 7056880.225944744423032, 9101136.003243032842875 ], [ 7056819.445364012382925, 9101095.070374822244048 ], [ 7056668.96037651412189, 9101026.936139196157455 ], [ 7056638.965993718244135, 9101015.795545622706413 ], [ 7056557.565057980827987, 9101044.2647809907794 ], [ 7056466.522022204473615, 9101122.968615189194679 ], [ 7056344.147277211770415, 9101159.462162386626005 ], [ 7056249.894566330127418, 9101163.586048284545541 ], [ 7056154.828399926424026, 9101149.059926753863692 ], [ 7056046.12023301422596, 9101091.550986481830478 ], [ 7056027.639920609071851, 9101073.674242295324802 ], [ 7056018.23285723105073, 9101066.245926905423403 ], [ 7055960.440462045371532, 9101020.581947110593319 ], [ 7055871.270862398669124, 9101005.798235734924674 ], [ 7055775.937884722836316, 9100985.063588570803404 ], [ 7055658.657213476486504, 9101002.647487388923764 ], [ 7055616.346791055984795, 9100979.593050427734852 ], [ 7055584.491759254597127, 9100924.943649841472507 ], [ 7055479.530194760300219, 9100817.46190576441586 ], [ 7055396.585751383565366, 9100778.234994960948825 ], [ 7055395.187623945996165, 9100777.562293767929077 ], [ 7055354.756069808267057, 9100695.273548932746053 ], [ 7055354.621751157566905, 9100760.664200603961945 ], [ 7055355.946449909359217, 9100860.226851986721158 ], [ 7055352.734918558038771, 9100922.630218202248216 ], [ 7055359.955609686672688, 9101021.946573490276933 ], [ 7055369.326831922866404, 9101102.472577657550573 ], [ 7055373.604057969525456, 9101201.917758796364069 ], [ 7055368.509329196996987, 9101220.813603350892663 ], [ 7055338.245762671343982, 9101271.958959843963385 ], [ 7055273.438047558069229, 9101343.275917466729879 ], [ 7055227.51434401422739, 9101373.310722986236215 ], [ 7055175.560233041644096, 9101400.487156551331282 ], [ 7055101.12243334017694, 9101453.551138322800398 ], [ 7055073.800034266896546, 9101504.555091170594096 ], [ 7055040.057847718708217, 9101543.387137204408646 ], [ 7054985.027132626622915, 9101567.587011808529496 ], [ 7054877.507366897538304, 9101606.533022800460458 ], [ 7054822.476435378193855, 9101630.732386445626616 ], [ 7054732.901202021166682, 9101675.11356214992702 ], [ 7054675.594849876128137, 9101714.974107138812542 ], [ 7054654.409498113207519, 9101736.913476085290313 ], [ 7054586.111390413716435, 9101795.937780421227217 ], [ 7054472.832594940438867, 9101906.734576150774956 ], [ 7054384.590857189148664, 9101982.190650770440698 ], [ 7054318.577495412901044, 9102025.539603937417269 ], [ 7054280.556495087221265, 9102033.431843565776944 ], [ 7054239.180805299431086, 9102032.117080437019467 ], [ 7054161.525957019068301, 9102010.604680964723229 ], [ 7054090.301334053277969, 9102001.263295367360115 ], [ 7054034.868725733831525, 9102016.135724661871791 ], [ 7053979.836483208462596, 9102040.332220692187548 ], [ 7053957.340231603942811, 9102066.217892806977034 ], [ 7053941.796647081151605, 9102116.703265426680446 ], [ 7053914.215516570024192, 9102161.494088802486658 ], [ 7053907.244230965152383, 9102205.385028194636106 ], [ 7053915.397222436964512, 9102257.945694796741009 ], [ 7053934.668111693114042, 9102362.94936241582036 ], [ 7053947.241643307730556, 9102449.562178939580917 ], [ 7053935.039892107248306, 9102509.24298719316721 ], [ 7053910.267184002324939, 9102550.80066105723381 ], [ 7053878.121429203078151, 9102626.913157235831022 ], [ 7053854.137042263522744, 9102687.107710568234324 ], [ 7053848.809405349195004, 9102694.189122028648853 ], [ 7053822.733898944221437, 9102728.814453810453415 ], [ 7054678.05797088239342, 9104282.746314585208893 ], [ 7055426.95762050524354, 9103213.651571268215775 ], [ 7055972.417730258777738, 9102732.037362586706877 ], [ 7056130.955534117296338, 9102592.044992428272963 ], [ 7056146.957464011386037, 9102577.949438849464059 ], [ 7057972.563567311502993, 9102666.644442832097411 ], [ 7058228.824511528015137, 9102735.329031880944967 ], [ 7058299.378689358010888, 9102754.205933490768075 ], [ 7058313.899620744399726, 9102758.068246677517891 ], [ 7059929.277260670438409, 9103191.138908866792917 ], [ 7060354.210816562175751, 9103029.161365365609527 ], [ 7061024.483285317197442, 9102773.627676479518414 ], [ 7062058.186867504380643, 9102379.532946478575468 ], [ 7062114.776399977505207, 9102357.955407649278641 ], [ 7062114.961743854917586, 9102347.389995157718658 ], [ 7062116.050772774964571, 9102314.225477522239089 ], [ 7062119.525748696178198, 9102258.012364413589239 ], [ 7062087.398412220180035, 9102197.136572398245335 ], [ 7062019.11064681597054, 9102119.154562951996922 ], [ 7061933.959371458739042, 9102060.602596141397953 ], [ 7061901.552669126540422, 9101993.505680227652192 ], [ 7061880.391862815245986, 9101913.459582071751356 ], [ 7061840.7602010499686, 9101815.544184373691678 ], [ 7061761.505177647806704, 9101756.735279379412532 ], [ 7061715.976248559542, 9101659.067483576014638 ], [ 7061618.239513679407537, 9101582.390722015872598 ], [ 7061542.178593416698277, 9101461.149621110409498 ], [ 7061525.840817185118794, 9101355.981115687638521 ], [ 7061488.351811275817454, 9101307.79948253929615 ], [ 7061402.395918898284435, 9101230.596612034365535 ], [ 7061330.634164342656732, 9101208.830700032413006 ], [ 7061305.462780428119004, 9101172.565755134448409 ], [ 7061261.005207046866417, 9101099.77801795117557 ], [ 7061187.099124097265303, 9101028.281989365816116 ], [ 7061112.645329123362899, 9100944.342640800401568 ], [ 7061075.960580801591277, 9100914.817112307995558 ], [ 7061001.249852940440178, 9100824.6675507389009 ], [ 7060981.427236742340028, 9100775.712860979139805 ], [ 7060906.716277658939362, 9100685.564089752733707 ], [ 7060886.368205446749926, 9100624.176790289580822 ], [ 7060870.928948386572301, 9100603.379478767514229 ], [ 7060823.695299929007888, 9100539.722864620387554 ], [ 7060772.278815019875765, 9100442.331252574920654 ], [ 7060750.321017068810761, 9100343.647449946030974 ], [ 7060700.781309997662902, 9100289.763942582532763 ], [ 7060609.733362556435168, 9100231.48003926128149 ], [ 7060469.950726582668722, 9100137.967915359884501 ], [ 7060395.775371677242219, 9100060.255154050886631 ], [ 7060281.433005595579743, 9100009.216965699568391 ], [ 7060121.038652188144624, 9099985.111240386962891 ], [ 7060018.666829507797956, 9099973.757650865241885 ], [ 7059962.729643292725086, 9100017.773150678724051 ], [ 7059816.074309729039669, 9100185.172124303877354 ], [ 7059694.223551359958947, 9100449.514472890645266 ], [ 7059740.062922457233071, 9100483.937944184988737 ], [ 7059777.028322290629148, 9100527.920288963243365 ], [ 7059818.024554064497352, 9100576.013719875365496 ], [ 7059762.954713940620422, 9100616.120588419958949 ], [ 7059751.718121953308582, 9100624.66434932500124 ], [ 7059758.353562120348215, 9100644.879767637699842 ], [ 7059767.984031049534678, 9100660.548022408038378 ], [ 7059774.669244462624192, 9100686.272370032966137 ], [ 7059747.07711922749877, 9100715.503550954163074 ], [ 7059732.987967626191676, 9100817.452778656035662 ], [ 7059758.502171426080167, 9100815.576986368745565 ], [ 7059748.375423343852162, 9100853.969284988939762 ], [ 7059700.098864482715726, 9100882.114455634728074 ], [ 7059696.635571325197816, 9100895.269107084721327 ], [ 7059674.346944481134415, 9100916.391120299696922 ], [ 7059648.253837615251541, 9100930.199709678068757 ], [ 7059611.653576801531017, 9100967.689689690247178 ], [ 7059598.082526803016663, 9100990.480066955089569 ], [ 7059548.00615518912673, 9100990.192939020693302 ], [ 7059517.419676713645458, 9100994.79569143243134 ], [ 7059470.405310982838273, 9101004.068068344146013 ], [ 7059442.438826005905867, 9101008.229698160663247 ], [ 7059414.348090631887317, 9101011.814191360026598 ], [ 7059387.089946798980236, 9101015.501990485936403 ], [ 7059360.809168911539018, 9101019.065381951630116 ], [ 7059318.305856566876173, 9101025.658161420375109 ], [ 7059246.255482948385179, 9101035.864090787246823 ], [ 7059215.132374417036772, 9101034.932526789605618 ], [ 7059200.630568439140916, 9101030.488091435283422 ], [ 7059191.257413184270263, 9101006.175353847444057 ], [ 7059162.129069078713655, 9100947.751993488520384 ], [ 7059147.318397122435272, 9100919.226925984025002 ], [ 7059120.912459183484316, 9100885.291320517659187 ], [ 7059102.357490507885814, 9100850.335984036326408 ], [ 7059080.018380728550255, 9100792.908752359449863 ], [ 7059067.471116722561419, 9100749.010303370654583 ], [ 7059061.066313974559307, 9100720.047156041488051 ], [ 7059051.116736522875726, 9100692.101558854803443 ], [ 7059020.613680496811867, 9100632.026507139205933 ], [ 7059007.587452290579677, 9100595.978661308065057 ], [ 7059004.489560758695006, 9100558.691734250634909 ], [ 7059000.839991592802107, 9100554.459321532398462 ], [ 7058979.752971842885017, 9100524.042763482779264 ], [ 7058952.29752033110708, 9100483.955581668764353 ], [ 7058935.312814377248287, 9100455.211794171482325 ], [ 7058953.318281397223473, 9100357.801667533814907 ], [ 7058969.855750694870949, 9100268.355017382651567 ], [ 7058919.673350208438933, 9100266.104796957224607 ], [ 7058821.961678860709071, 9100153.613036559894681 ], [ 7058801.311949255876243, 9100199.665421567857265 ], [ 7058764.898337471298873, 9100237.612545683979988 ], [ 7058726.275358357466757, 9100182.32214199192822 ], [ 7058669.524957257322967, 9100242.598127767443657 ], [ 7058653.079095986671746, 9100252.73296157643199 ], [ 7058607.948209574446082, 9100247.022180268540978 ] ] ] } },
{ "type": "Feature", "properties": { "lv_id": "LOC_024780", "id": 106331.0, "CD_SETOR": "260270405000012", "SITUACAO": "Rural", "CD_SIT": "8", "CD_TIPO": "0", "AREA_KM2": 5.4052461355157693, "CD_REGIAO": "2", "NM_REGIAO": "Nordeste", "CD_UF": "26", "NM_UF": "Pernambuco", "CD_MUN": "2602704", "NM_MUN": "Buenos Aires", "CD_DIST": "260270405", "NM_DIST": "Buenos Aires", "CD_SUBDIST": "26027040500", "NM_SUBDIST": null, "CD_BAIRRO": null, "NM_BAIRRO": null, "CD_NU": null, "NM_NU": null, "CD_FCU": null, "NM_FCU": null, "CD_AGLOM": "260270400001", "NM_AGLOM": "Lagoa do Outeiro 1", "CD_RGINT": "2601", "NM_RGINT": "Recife", "CD_RGI": "260006", "NM_RGI": "Carpina", "CD_CONCURB": null, "NM_CONCURB": null, "mun_code_x": "2602704", "index_right": 49850, "dist_m": 106.43931681352157, "local_id": 256070, "ano": 2022, "cod_localidade_ibge": 2602704, "NR_ZONA": "23", "nr_cep": 55845000.0, "nm_localidade": "BUENOS AIRES", "nm_locvot": "GRUPO ESCOLAR JOSÉ VIEIRA DE MELO", "ds_endereco": "POVOADO LAGOA DO OUTEIRO, S/N", "ds_bairro": "LAGOA DO OUTEIRO", "pred_long": -35.384913, "pred_lat": -7.755864, "pred_dist": 0.0, "tse_long": -35.3849791, "tse_lat": -7.7558175, "long": -35.3849791, "lat": -7.7558175, "ID_UNICO": "LOC_024780", "SG_UF": "PE", "CD_MUNICIPIO": "23531", "NR_LOCAL_VOTACAO": "1058", "QT_SECOES_AGREGADAS": 0, "QT_ELEITORES_TRANSFERIDOS": 0, "CIRO GOMES (PDT) (NÃO ELEITO) 1T": 26.0, "CONSTITUINTE EYMAEL (DC) (NÃO ELEITO) 1T": 0.0, "FELIPE D AVILA (NOVO) (NÃO ELEITO) 1T": 0.0, "JAIR BOLSONARO (PL) (2º TURNO) 1T": 195.0, "LULA (PT) (2º TURNO) 1T": 663.0, "LÉO PÉRICLES (UP) (NÃO ELEITO) 1T": 0.0, "PADRE KELMON (PTB) (NÃO ELEITO) 1T": 0.0, "SIMONE TEBET (MDB) (NÃO ELEITO) 1T": 7.0, "SOFIA MANZANO (PCB) (NÃO ELEITO) 1T": 0.0, "SORAYA THRONICKE (UNIÃO) (NÃO ELEITO) 1T": 3.0, "VERA (PSTU) (NÃO ELEITO) 1T": 0.0, "Total_Votos_Validos 1T": 894.0, "Votos_Brancos 1T": 24.0, "Votos_Nulos 1T": 52.0, "Abstenções 1T": 206.0, "Eleitores_Aptos 1T": 1176.0, "JAIR BOLSONARO (PL) (NÃO ELEITO) 2T": 215.0, "LULA (PT) (ELEITO) 2T": 644.0, "Total_Votos_Validos 2T": 859.0, "Votos_Brancos 2T": 9.0, "Votos_Nulos 2T": 72.0, "Abstenções 2T": 236.0, "Eleitores_Aptos 2T": 1176.0, "mun_code_y": "2602704", "mun_code": "2602704" }, "geometry": { "type": "Polygon", "coordinates": [ [ [ 7052874.331151031889021, 9096601.137409429997206 ], [ 7052655.926799629814923, 9096612.032090982422233 ], [ 7052313.713819515891373, 9096733.500325864180923 ], [ 7052311.62557427585125, 9096734.232585109770298 ], [ 7052177.13341314624995, 9096712.939935414120555 ], [ 7051807.323733883909881, 9096654.234578743577003 ], [ 7051784.880266919732094, 9096612.347400456666946 ], [ 7051532.421930622309446, 9096141.333308486267924 ], [ 7051374.824162320233881, 9096021.642078824341297 ], [ 7051012.821412712335587, 9095746.340285873040557 ], [ 7050349.249585038982332, 9095130.005092708393931 ], [ 7049663.53400681167841, 9095801.71335481852293 ], [ 7048738.724056901410222, 9096707.482804276049137 ], [ 7046928.724817493930459, 9098236.080354018136859 ], [ 7048515.255426959134638, 9098816.646225459873676 ], [ 7048642.454035172238946, 9098863.196480600163341 ], [ 7049563.225646606646478, 9099200.154122844338417 ], [ 7049732.323767533525825, 9099263.053773295134306 ], [ 7049771.97624219302088, 9099367.377120684832335 ], [ 7050019.024577602744102, 9100017.451542735099792 ], [ 7052911.941135432571173, 9101074.35010982118547 ], [ 7053258.349484615027905, 9101703.651124157011509 ], [ 7053689.135463196784258, 9102486.16048988699913 ], [ 7053813.502023451030254, 9102712.071567280218005 ], [ 7053822.733898944221437, 9102728.814453810453415 ], [ 7053848.809405349195004, 9102694.189122028648853 ], [ 7053854.137042263522744, 9102687.107710568234324 ], [ 7053878.121429203078151, 9102626.913157235831022 ], [ 7053910.267184002324939, 9102550.80066105723381 ], [ 7053935.039892107248306, 9102509.24298719316721 ], [ 7053947.241643307730556, 9102449.562178939580917 ], [ 7053934.668111693114042, 9102362.94936241582036 ], [ 7053915.397222436964512, 9102257.945694796741009 ], [ 7053907.244230965152383, 9102205.385028194636106 ], [ 7053914.215516570024192, 9102161.494088802486658 ], [ 7053941.796647081151605, 9102116.703265426680446 ], [ 7053957.340231603942811, 9102066.217892806977034 ], [ 7053979.836483208462596, 9102040.332220692187548 ], [ 7054034.868725733831525, 9102016.135724661871791 ], [ 7054090.301334053277969, 9102001.263295367360115 ], [ 7054161.525957019068301, 9102010.604680964723229 ], [ 7054239.180805299431086, 9102032.117080437019467 ], [ 7054280.556495087221265, 9102033.431843565776944 ], [ 7054318.577495412901044, 9102025.539603937417269 ], [ 7054384.590857189148664, 9101982.190650770440698 ], [ 7054472.832594940438867, 9101906.734576150774956 ], [ 7054586.111390413716435, 9101795.937780421227217 ], [ 7054654.409498113207519, 9101736.913476085290313 ], [ 7054675.594849876128137, 9101714.974107138812542 ], [ 7054732.901202021166682, 9101675.11356214992702 ], [ 7054822.476435378193855, 9101630.732386445626616 ], [ 7054877.507366897538304, 9101606.533022800460458 ], [ 7054985.027132626622915, 9101567.587011808529496 ], [ 7055040.057847718708217, 9101543.387137204408646 ], [ 7055073.800034266896546, 9101504.555091170594096 ], [ 7055101.12243334017694, 9101453.551138322800398 ], [ 7055175.560233041644096, 9101400.487156551331282 ], [ 7055227.51434401422739, 9101373.310722986236215 ], [ 7055273.438047558069229, 9101343.275917466729879 ], [ 7055338.245762671343982, 9101271.958959843963385 ], [ 7055368.509329196996987, 9101220.813603350892663 ], [ 7055373.604057969525456, 9101201.917758796364069 ], [ 7055369.326831922866404, 9101102.472577657550573 ], [ 7055359.955609686672688, 9101021.946573490276933 ], [ 7055352.734918558038771, 9100922.630218202248216 ], [ 7055355.946449909359217, 9100860.226851986721158 ], [ 7055354.621751157566905, 9100760.664200603961945 ], [ 7055354.756069808267057, 9100695.273548932746053 ], [ 7055353.152336275205016, 9100589.502616597339511 ], [ 7055345.184840513393283, 9100498.2800009585917 ], [ 7055341.515654684975743, 9100456.132113261148334 ], [ 7055356.039143089205027, 9100382.341824125498533 ], [ 7055379.478693690150976, 9100309.710380841046572 ], [ 7055407.587573483586311, 9100208.847166575491428 ], [ 7055416.692965429276228, 9100146.185328932479024 ], [ 7055402.637085324153304, 9100093.880032563582063 ], [ 7055364.349060793407261, 9100027.061454040929675 ], [ 7055341.052655456587672, 9099965.818665377795696 ], [ 7055342.132401808165014, 9099922.181467939168215 ], [ 7055374.531492405571043, 9099852.267273796722293 ], [ 7055395.684944136068225, 9099795.309716667979956 ], [ 7055410.539853844791651, 9099729.273898873478174 ], [ 7055411.619526017457247, 9099685.648163888603449 ], [ 7055418.717437652871013, 9099644.857353078201413 ], [ 7055447.760431338101625, 9099565.758642187342048 ], [ 7055468.242986667901278, 9099493.255315015092492 ], [ 7055483.686752281151712, 9099464.481368260458112 ], [ 7055583.178688040934503, 9099387.035661716014147 ], [ 7055633.7881725654006, 9099328.774160141125321 ], [ 7055631.645097685046494, 9099279.056917203590274 ], [ 7055730.182423782534897, 9099237.379002194851637 ], [ 7055881.739834601990879, 9099193.376004556193948 ], [ 7055974.916528730653226, 9099164.384785957634449 ], [ 7056074.256857157684863, 9099141.343592153862119 ], [ 7056103.703987816348672, 9099140.052359586581588 ], [ 7056188.851220580749214, 9099061.599766172468662 ], [ 7056246.415945569984615, 9099027.936457064002752 ], [ 7056253.639668165706098, 9098921.761735897511244 ], [ 7056207.85444621834904, 9098817.92395238392055 ], [ 7056120.55017557553947, 9098709.664032638072968 ], [ 7056043.697139709256589, 9098569.819487065076828 ], [ 7055925.873461959883571, 9098438.006024865433574 ], [ 7055882.23201269004494, 9098383.876803826540709 ], [ 7055880.338296301662922, 9098203.385884467512369 ], [ 7055858.380449155345559, 9098104.725879572331905 ], [ 7055839.355400761589408, 9097937.440175443887711 ], [ 7055825.139940647408366, 9097745.025934660807252 ], [ 7055800.764211784116924, 9097590.428633378818631 ], [ 7055833.400363021530211, 9097389.747619586065412 ], [ 7055845.437856175005436, 9097258.456595096737146 ], [ 7055755.846241744235158, 9097097.382751688361168 ], [ 7055619.814418327063322, 9096953.914303949102759 ], [ 7055475.200918262824416, 9096748.572342997416854 ], [ 7055421.093797639012337, 9096589.053209947422147 ], [ 7055409.017862091772258, 9096446.37167164310813 ], [ 7055429.084792861714959, 9096364.540557676926255 ], [ 7055428.530078971758485, 9096215.131747988983989 ], [ 7055421.290216682478786, 9096184.312424253672361 ], [ 7055335.065119011327624, 9096100.935708960518241 ], [ 7055248.033243182115257, 9095998.910221084952354 ], [ 7055204.64628635533154, 9095951.008144624531269 ], [ 7055109.060171506367624, 9095924.075548741966486 ], [ 7055067.017694301903248, 9095907.251922719180584 ], [ 7055055.827968000434339, 9095876.245830776169896 ], [ 7054948.536158183589578, 9095848.232589023187757 ], [ 7054666.837614514864981, 9095774.633841095492244 ], [ 7054138.133931640535593, 9096222.128481946885586 ], [ 7053715.834231852553785, 9096292.930293187499046 ], [ 7053404.53659004252404, 9096574.532112473621964 ], [ 7053155.133146012201905, 9096587.047042662277818 ], [ 7052874.331151031889021, 9096601.137409429997206 ] ] ] } }
]
}
