{
"type": "FeatureCollection",
"name": "2603306",
"crs": { "type": "name", "properties": { "name": "urn:ogc:def:crs:EPSG::5880" } },
"features": [
{ "type": "Feature", "properties": { "lv_id": "LOC_024863", "id": 107173.0, "CD_SETOR": "260330605000014", "SITUACAO": "Rural", "CD_SIT": "5", "CD_TIPO": "0", "AREA_KM2": 0.47691746926703898, "CD_REGIAO": "2", "NM_REGIAO": "Nordeste", "CD_UF": "26", "NM_UF": "Pernambuco", "CD_MUN": "2603306", "NM_MUN": "Calçado", "CD_DIST": "260330605", "NM_DIST": "Calçado", "CD_SUBDIST": "26033060500", "NM_SUBDIST": null, "CD_BAIRRO": null, "NM_BAIRRO": null, "CD_NU": null, "NM_NU": null, "CD_FCU": null, "NM_FCU": null, "CD_AGLOM": "260330600001", "NM_AGLOM": "Santa Rita", "CD_RGINT": "2602", "NM_RGINT": "Caruaru", "CD_RGI": "260010", "NM_RGI": "Garanhuns", "CD_CONCURB": null, "NM_CONCURB": null, "mun_code_x": "2603306", "index_right": 49972, "dist_m": 0.0, "local_id": 257109, "ano": 2022, "cod_localidade_ibge": 2603306, "NR_ZONA": "94", "nr_cep": 55375000.0, "nm_localidade": "CALÇADO", "nm_locvot": "ESCOLA JOSE ATANASIO DE OLIVEIRA", "ds_endereco": "POVOADO DE SANTA RITA, S/N", "ds_bairro": "ZONA RURAL", "pred_long": -36.368726, "pred_lat": -8.714099, "pred_dist": 0.0, "tse_long": -36.3686102, "tse_lat": -8.7140949, "long": -36.3686102, "lat": -8.7140949, "ID_UNICO": "LOC_024863", "SG_UF": "PE", "CD_MUNICIPIO": "23655", "NR_LOCAL_VOTACAO": "1058", "QT_SECOES_AGREGADAS": 0, "QT_ELEITORES_TRANSFERIDOS": 2, "CIRO GOMES (PDT) (NÃO ELEITO) 1T": 9.0, "CONSTITUINTE EYMAEL (DC) (NÃO ELEITO) 1T": 0.0, "FELIPE D AVILA (NOVO) (NÃO ELEITO) 1T": 0.0, "JAIR BOLSONARO (PL) (2º TURNO) 1T": 25.0, "LULA (PT) (2º TURNO) 1T": 330.0, "LÉO PÉRICLES (UP) (NÃO ELEITO) 1T": 0.0, "PADRE KELMON (PTB) (NÃO ELEITO) 1T": 0.0, "SIMONE TEBET (MDB) (NÃO ELEITO) 1T": 7.0, "SOFIA MANZANO (PCB) (NÃO ELEITO) 1T": 0.0, "SORAYA THRONICKE (UNIÃO) (NÃO ELEITO) 1T": 0.0, "VERA (PSTU) (NÃO ELEITO) 1T": 0.0, "Total_Votos_Validos 1T": 371.0, "Votos_Brancos 1T": 3.0, "Votos_Nulos 1T": 16.0, "Abstenções 1T": 59.0, "Eleitores_Aptos 1T": 449.0, "JAIR BOLSONARO (PL) (NÃO ELEITO) 2T": 26.0, "LULA (PT) (ELEITO) 2T": 340.0, "Total_Votos_Validos 2T": 366.0, "Votos_Brancos 2T": 2.0, "Votos_Nulos 2T": 13.0, "Abstenções 2T": 68.0, "Eleitores_Aptos 2T": 449.0, "mun_code_y": "2603306", "mun_code": "2603306" }, "geometry": { "type": "Polygon", "coordinates": [ [ [ 6939859.687675772234797, 8991933.564859192818403 ], [ 6939829.149435753002763, 8991857.027104385197163 ], [ 6939815.718394994735718, 8991839.947480143979192 ], [ 6939793.457337507978082, 8991828.969141241163015 ], [ 6939715.924582921899855, 8991715.746835470199585 ], [ 6939686.449169462546706, 8991643.169510142877698 ], [ 6939659.090033646672964, 8991583.089326485991478 ], [ 6939632.388720632530749, 8991533.731831222772598 ], [ 6939699.872632164508104, 8991504.720831142738461 ], [ 6939719.151872791349888, 8991490.843481164425611 ], [ 6939963.817490256391466, 8991409.834654800593853 ], [ 6939958.806045701727271, 8991395.711264697834849 ], [ 6939915.2923454772681, 8991359.02681496553123 ], [ 6939879.79331243224442, 8991350.995692417025566 ], [ 6939858.866670478135347, 8991332.620592223480344 ], [ 6939819.973880727775395, 8991305.396449835970998 ], [ 6939779.289093378931284, 8991275.614001737907529 ], [ 6939749.156290553510189, 8991245.084388798102736 ], [ 6939654.295879932120442, 8991121.849914750084281 ], [ 6939653.641592340543866, 8991067.836026916280389 ], [ 6939681.882582704536617, 8991085.487093385308981 ], [ 6939724.33006776869297, 8991054.884979860857129 ], [ 6939737.888074238784611, 8991005.468433916568756 ], [ 6939734.549563652835786, 8990964.001519152894616 ], [ 6939681.064561510458589, 8990909.787937046959996 ], [ 6939633.01993491128087, 8990867.522353753447533 ], [ 6939585.3295888453722, 8990840.628627138212323 ], [ 6939551.131175955757499, 8990830.451794365420938 ], [ 6939430.863228167407215, 8990827.640630550682545 ], [ 6939411.508831515908241, 8990823.816199649125338 ], [ 6939408.844319488853216, 8990807.312567621469498 ], [ 6939292.810315992683172, 8990815.126243058592081 ], [ 6939304.159879898652434, 8990939.32320567406714 ], [ 6939326.412390483543277, 8991182.83676634170115 ], [ 6939340.212429061532021, 8991334.034184221178293 ], [ 6939347.822809613309801, 8991417.189552888274193 ], [ 6939360.311104977503419, 8991553.535367827862501 ], [ 6939428.442985674366355, 8992259.415533944964409 ], [ 6939484.2183374799788, 8992907.740153027698398 ], [ 6939501.235419323667884, 8993093.771698549389839 ], [ 6939604.920802175998688, 8994227.643494978547096 ], [ 6939167.669805100187659, 8996457.873051783069968 ], [ 6939162.773586277849972, 8996482.838764138519764 ], [ 6939156.323255750350654, 8996515.74422948807478 ], [ 6938407.43131338711828, 9000336.054895143955946 ], [ 6938449.829525063745677, 9000280.160315077751875 ], [ 6939142.344662609510124, 8999366.918637854978442 ], [ 6941026.330186888575554, 8996881.644531536847353 ], [ 6941027.514750665985048, 8996880.083087289705873 ], [ 6941055.008180922828615, 8996843.822221826761961 ], [ 6941056.899606451392174, 8996841.335670998319983 ], [ 6941275.077355739660561, 8996553.586558481678367 ], [ 6941277.425470278598368, 8996550.487735005095601 ], [ 6941323.246529414318502, 8996490.058989454060793 ], [ 6942565.21062108501792, 8994851.756591888144612 ], [ 6942600.427419442683458, 8994805.302419507876039 ], [ 6943609.992861084640026, 8993473.143146427348256 ], [ 6943609.028376602567732, 8993472.052340783178806 ], [ 6943569.70885724760592, 8993446.360668588429689 ], [ 6943510.273825026117265, 8993411.57058746740222 ], [ 6943489.719948520883918, 8993396.767314411699772 ], [ 6943466.477541532367468, 8993372.840968493372202 ], [ 6943441.383584227412939, 8993358.249483333900571 ], [ 6943328.81021226849407, 8993318.775625148788095 ], [ 6943251.666562460362911, 8993296.100013135001063 ], [ 6943216.356332756578922, 8993285.496707864105701 ], [ 6943174.025645254179835, 8993276.507243240252137 ], [ 6943131.86327038705349, 8993273.339394100010395 ], [ 6943092.142878633923829, 8993264.575870040804148 ], [ 6943036.71966624353081, 8993256.196950301527977 ], [ 6942988.013107461854815, 8993245.105808012187481 ], [ 6942902.274487080052495, 8993219.98014852963388 ], [ 6942860.108849983662367, 8993210.264453841373324 ], [ 6942819.135938163846731, 8993200.85240975767374 ], [ 6942754.600547455251217, 8993179.246305080130696 ], [ 6942726.388254767283797, 8993173.028903307393193 ], [ 6942649.449313879013062, 8993162.234443604946136 ], [ 6942600.407137334346771, 8993150.788142338395119 ], [ 6942554.795619507320225, 8993139.680209804326296 ], [ 6942487.520739123225212, 8993123.185247160494328 ], [ 6942437.412177888676524, 8993102.911499122157693 ], [ 6942415.707749431952834, 8993096.390667989850044 ], [ 6942359.657080092467368, 8993081.539550645276904 ], [ 6942356.024166526272893, 8993080.874536454677582 ], [ 6942314.060036279261112, 8993073.14281420968473 ], [ 6942224.85389699973166, 8993062.213334612548351 ], [ 6942136.707980219274759, 8993055.417935889214277 ], [ 6942087.064830739982426, 8993045.992956267669797 ], [ 6941994.124534733593464, 8993023.555907942354679 ], [ 6941909.657132185995579, 8992995.868189239874482 ], [ 6941870.10190889146179, 8992986.85366090759635 ], [ 6941817.391414947807789, 8992984.038183990865946 ], [ 6941776.300046565942466, 8992980.19427085109055 ], [ 6941757.119711391627789, 8992980.416294954717159 ], [ 6941725.222355218604207, 8992979.828929955139756 ], [ 6941642.720965491607785, 8992977.915370048955083 ], [ 6941589.230876576155424, 8992970.836693778634071 ], [ 6941549.85971203725785, 8992958.151538528501987 ], [ 6941456.034818355925381, 8992925.557814078405499 ], [ 6941414.203554287552834, 8992911.596776848658919 ], [ 6941362.943523857742548, 8992890.705023661255836 ], [ 6941335.362930809147656, 8992873.286943159997463 ], [ 6941298.157889122143388, 8992843.477576036006212 ], [ 6941261.491572124883533, 8992828.99778550863266 ], [ 6941217.733862294815481, 8992812.426613150164485 ], [ 6941163.229282840155065, 8992789.727902039885521 ], [ 6941080.444506856612861, 8992766.759910371154547 ], [ 6941000.807506322860718, 8992731.73251218535006 ], [ 6940903.920158981345594, 8992676.337709024548531 ], [ 6940853.873159987851977, 8992653.547430155798793 ], [ 6940803.878509512171149, 8992628.298080509528518 ], [ 6940747.703417625278234, 8992604.240769255906343 ], [ 6940662.101989582180977, 8992591.41664407402277 ], [ 6940627.434159549884498, 8992589.984945388510823 ], [ 6940622.411756957881153, 8992589.767117215320468 ], [ 6940608.557078342884779, 8992591.768713524565101 ], [ 6940583.937292066402733, 8992583.645858215168118 ], [ 6940548.502776028588414, 8992584.949865996837616 ], [ 6940522.520672954618931, 8992586.983653794974089 ], [ 6940471.616740755736828, 8992569.517666110768914 ], [ 6940412.370607987046242, 8992560.864964878186584 ], [ 6940395.441434389911592, 8992561.885772151872516 ], [ 6940301.747106547467411, 8992567.619997398927808 ], [ 6940205.257050058804452, 8992466.876312388107181 ], [ 6940163.867741649970412, 8992418.143524738028646 ], [ 6940145.380859179422259, 8992393.396173289045691 ], [ 6940117.784347048029304, 8992343.476062875241041 ], [ 6940087.858469100669026, 8992301.845605723559856 ], [ 6940031.611817967146635, 8992249.112835574895144 ], [ 6939998.026634908281267, 8992225.672107670456171 ], [ 6939916.065153072588146, 8992200.697345267981291 ], [ 6939893.224265918135643, 8992192.445587223395705 ], [ 6939820.245834104716778, 8992148.384498694911599 ], [ 6939710.342911569401622, 8992034.792895201593637 ], [ 6939704.873178268782794, 8992028.431384345516562 ], [ 6939770.916617266833782, 8991968.028604414314032 ], [ 6939859.687675772234797, 8991933.564859192818403 ] ] ] } },
{ "type": "Feature", "properties": { "lv_id": "LOC_024864", "id": 107164.0, "CD_SETOR": "260330605000001", "SITUACAO": "Urbana", "CD_SIT": "1", "CD_TIPO": "0", "AREA_KM2": 0.24290505140712501, "CD_REGIAO": "2", "NM_REGIAO": "Nordeste", "CD_UF": "26", "NM_UF": "Pernambuco", "CD_MUN": "2603306", "NM_MUN": "Calçado", "CD_DIST": "260330605", "NM_DIST": "Calçado", "CD_SUBDIST": "26033060500", "NM_SUBDIST": null, "CD_BAIRRO": null, "NM_BAIRRO": null, "CD_NU": null, "NM_NU": null, "CD_FCU": null, "NM_FCU": null, "CD_AGLOM": null, "NM_AGLOM": null, "CD_RGINT": "2602", "NM_RGINT": "Caruaru", "CD_RGI": "260010", "NM_RGI": "Garanhuns", "CD_CONCURB": null, "NM_CONCURB": null, "mun_code_x": "2603306", "index_right": 49968, "dist_m": 144.77806626041988, "local_id": 257105, "ano": 2022, "cod_localidade_ibge": 2603306, "NR_ZONA": "94", "nr_cep": 55375000.0, "nm_localidade": "CALÇADO", "nm_locvot": "ESCOLA MUNICIPAL DO ENSINO FUNDAMENTAL PROF. SEBASTIAO TIAGO", "ds_endereco": "RUA PEDRO CESARIO, S/N", "ds_bairro": "CENTRO", "pred_long": -36.334749, "pred_lat": -8.742972, "pred_dist": 0.0, "tse_long": -36.3347973, "tse_lat": -8.7430218, "long": -36.3347973, "lat": -8.7430218, "ID_UNICO": "LOC_024864", "SG_UF": "PE", "CD_MUNICIPIO": "23655", "NR_LOCAL_VOTACAO": "1066", "QT_SECOES_AGREGADAS": 0, "QT_ELEITORES_TRANSFERIDOS": 0, "CIRO GOMES (PDT) (NÃO ELEITO) 1T": 58.0, "CONSTITUINTE EYMAEL (DC) (NÃO ELEITO) 1T": 0.0, "FELIPE D AVILA (NOVO) (NÃO ELEITO) 1T": 2.0, "JAIR BOLSONARO (PL) (2º TURNO) 1T": 208.0, "LULA (PT) (2º TURNO) 1T": 1850.0, "LÉO PÉRICLES (UP) (NÃO ELEITO) 1T": 0.0, "PADRE KELMON (PTB) (NÃO ELEITO) 1T": 1.0, "SIMONE TEBET (MDB) (NÃO ELEITO) 1T": 13.0, "SOFIA MANZANO (PCB) (NÃO ELEITO) 1T": 1.0, "SORAYA THRONICKE (UNIÃO) (NÃO ELEITO) 1T": 5.0, "VERA (PSTU) (NÃO ELEITO) 1T": 0.0, "Total_Votos_Validos 1T": 2138.0, "Votos_Brancos 1T": 31.0, "Votos_Nulos 1T": 96.0, "Abstenções 1T": 439.0, "Eleitores_Aptos 1T": 2704.0, "JAIR BOLSONARO (PL) (NÃO ELEITO) 2T": 239.0, "LULA (PT) (ELEITO) 2T": 1893.0, "Total_Votos_Validos 2T": 2132.0, "Votos_Brancos 2T": 28.0, "Votos_Nulos 2T": 117.0, "Abstenções 2T": 427.0, "Eleitores_Aptos 2T": 2704.0, "mun_code_y": "2603306", "mun_code": "2603306" }, "geometry": { "type": "Polygon", "coordinates": [ [ [ 6946112.752218727953732, 8977434.858592599630356 ], [ 6946104.591331844218075, 8977434.14461113512516 ], [ 6946063.908316613174975, 8977430.580522693693638 ], [ 6945830.506017915904522, 8977410.18343735486269 ], [ 6945682.812801552936435, 8977443.189303133636713 ], [ 6945552.011059668846428, 8977526.59140569716692 ], [ 6945509.112689232453704, 8977575.08351924829185 ], [ 6945471.412374194711447, 8977793.092900682240725 ], [ 6945454.410807531327009, 8977828.985427938401699 ], [ 6945392.806676075793803, 8977878.085251253098249 ], [ 6945321.912257686257362, 8977873.286216596141458 ], [ 6945301.00907333381474, 8977849.692585518583655 ], [ 6945259.906685619615018, 8977625.882606638595462 ], [ 6945198.003331709653139, 8977573.78388006053865 ], [ 6945101.801548432558775, 8977585.485731286928058 ], [ 6945021.809458713978529, 8977631.585525579750538 ], [ 6944961.904660446569324, 8977715.886473808437586 ], [ 6944951.009851049631834, 8977825.484626663848758 ], [ 6944912.503330714069307, 8977926.794139098376036 ], [ 6944730.501620718277991, 8978035.285975575447083 ], [ 6944649.302433408796787, 8978147.58789680711925 ], [ 6944634.203664151951671, 8978234.190237550064921 ], [ 6944645.608410452492535, 8978335.091582670807838 ], [ 6944575.30595476180315, 8978532.994004305452108 ], [ 6944584.208890312351286, 8978657.496275100857019 ], [ 6944702.310928812250495, 8978731.090971119701862 ], [ 6944751.611416578292847, 8978801.094047613441944 ], [ 6944774.411020102910697, 8978901.491317111998796 ], [ 6944708.109568651765585, 8979017.396426169201732 ], [ 6944623.805135132744908, 8979055.695760102942586 ], [ 6944580.910145737230778, 8979096.589656608179212 ], [ 6944595.913147031329572, 8979193.49577315337956 ], [ 6944566.107365246862173, 8979283.887611076235771 ], [ 6944514.806169061921537, 8979391.592685390263796 ], [ 6944501.21203045733273, 8979528.79603018425405 ], [ 6944470.40803026035428, 8979596.389112515375018 ], [ 6944468.60679026786238, 8979643.288541393354535 ], [ 6944581.008352189324796, 8979711.096168344840407 ], [ 6944625.809596220031381, 8979806.79007819853723 ], [ 6944621.210892025381327, 8979877.096098847687244 ], [ 6944668.40574440266937, 8980035.289904687553644 ], [ 6944738.210274755954742, 8980102.69174418412149 ], [ 6944860.509754991158843, 8980269.494039487093687 ], [ 6944917.611943207681179, 8980302.296401532366872 ], [ 6944964.411671604029834, 8980355.093330452218652 ], [ 6944978.709843263030052, 8980436.491702640429139 ], [ 6944953.115101356059313, 8980542.691137542948127 ], [ 6944895.41627303045243, 8980543.193386180326343 ], [ 6944834.408335615880787, 8980506.692157419398427 ], [ 6944574.50644213706255, 8980341.294398223981261 ], [ 6944290.403995592147112, 8980122.591564884409308 ], [ 6944173.810346473008394, 8980095.998641569167376 ], [ 6944018.409103836864233, 8980125.297535704448819 ], [ 6943949.7094546854496, 8980178.800493311136961 ], [ 6943853.802282308228314, 8980340.798238087445498 ], [ 6943811.904920501634479, 8980505.898242935538292 ], [ 6943843.909086825326085, 8980750.793078048154712 ], [ 6943796.408037669025362, 8980865.600491372868419 ], [ 6943794.507404231466353, 8980916.594154501333833 ], [ 6943850.906455208547413, 8981117.302921125665307 ], [ 6943817.006839362904429, 8981196.395458996295929 ], [ 6943719.013849924318492, 8981218.094677275046706 ], [ 6943576.50277036242187, 8981184.605879615992308 ], [ 6943429.18468099553138, 8981097.960847610607743 ], [ 6942453.424064732156694, 8982559.685608897358179 ], [ 6942445.60824475158006, 8982571.39990115724504 ], [ 6942423.49816029611975, 8982604.509509794414043 ], [ 6942413.756005292758346, 8982619.095973974093795 ], [ 6940451.465626861900091, 8985557.024209849536419 ], [ 6939715.778667749837041, 8986658.064187547191978 ], [ 6939685.951926271431148, 8986702.707576205953956 ], [ 6939692.969658922404051, 8986704.881612781435251 ], [ 6939772.783679026179016, 8986726.830840447917581 ], [ 6939860.233459202572703, 8986768.631363617256284 ], [ 6939948.643983920104802, 8986808.335992751643062 ], [ 6939998.251028879545629, 8986830.669933501631021 ], [ 6940047.396134121343493, 8986845.145797934383154 ], [ 6940100.814409993588924, 8986860.800360888242722 ], [ 6940193.035169604234397, 8986859.687715426087379 ], [ 6940207.799930449575186, 8986859.551877019926906 ], [ 6940343.35608940012753, 8986849.43164300173521 ], [ 6940444.489654657430947, 8986857.657879482954741 ], [ 6940484.647692331112921, 8986869.530465183779597 ], [ 6940548.638730956241488, 8986888.246879799291492 ], [ 6940600.054663349874318, 8986902.755316607654095 ], [ 6940648.699820360168815, 8986915.701780969277024 ], [ 6940691.21120960265398, 8986927.012157935649157 ], [ 6940813.76355957519263, 8986955.150967238470912 ], [ 6940888.629419120028615, 8986947.932792901992798 ], [ 6940940.304246875457466, 8986942.763611143454909 ], [ 6940956.616076288744807, 8986941.303524576127529 ], [ 6940966.308702392503619, 8986957.269858092069626 ], [ 6940979.536783414892852, 8986966.789524409919977 ], [ 6941014.62398695666343, 8986982.388049667701125 ], [ 6941061.527551824226975, 8987015.33676322363317 ], [ 6941084.700920498929918, 8987032.699139732867479 ], [ 6941117.448999701067805, 8987053.935151237994432 ], [ 6941144.925647479481995, 8987072.173566542565823 ], [ 6941180.889294325374067, 8987089.098622173070908 ], [ 6941198.528590153902769, 8987100.161462914198637 ], [ 6941211.694185865111649, 8987109.997077303007245 ], [ 6941240.72094208933413, 8987142.71814133040607 ], [ 6941252.312915506772697, 8987158.549317572265863 ], [ 6941270.347541185095906, 8987176.025347728282213 ], [ 6941288.812861340120435, 8987191.140316190198064 ], [ 6941303.738555250689387, 8987205.934522572904825 ], [ 6941342.82702823355794, 8987241.625922426581383 ], [ 6941349.31002732552588, 8987248.437406731769443 ], [ 6941365.352178459987044, 8987269.518310131505132 ], [ 6941377.932114991359413, 8987289.092779720202088 ], [ 6941391.159966543316841, 8987318.881244268268347 ], [ 6941400.491004312410951, 8987343.000146888196468 ], [ 6941405.110771117731929, 8987357.408448353409767 ], [ 6941412.947140377946198, 8987383.509566223248839 ], [ 6941416.846027582883835, 8987406.39979200437665 ], [ 6941423.002233458682895, 8987434.283221093937755 ], [ 6941432.025646729394794, 8987458.659977406263351 ], [ 6941459.060266692191362, 8987497.860422614961863 ], [ 6941479.945351997390389, 8987526.258812194690108 ], [ 6941490.568703874014318, 8987541.869162397459149 ], [ 6941503.817331157624722, 8987552.072043191641569 ], [ 6941545.001945787109435, 8987562.309896625578403 ], [ 6941594.0773516735062, 8987570.485962731763721 ], [ 6941642.734166066162288, 8987579.376963768154383 ], [ 6941671.228913702070713, 8987586.026058347895741 ], [ 6941707.071975055150688, 8987595.56400397233665 ], [ 6941779.070550205186009, 8987607.092528792098165 ], [ 6941880.363926294259727, 8987626.611698817461729 ], [ 6941905.872592879459262, 8987636.100978299975395 ], [ 6941941.628284607082605, 8987650.185897175222635 ], [ 6941978.16009147465229, 8987672.729149732738733 ], [ 6942000.518293747678399, 8987690.802906140685081 ], [ 6942035.126082891598344, 8987700.781276715919375 ], [ 6942073.084707166068256, 8987706.03652835264802 ], [ 6942116.432861663401127, 8987705.39528932608664 ], [ 6942165.026937705464661, 8987711.252923453226686 ], [ 6942210.703496126458049, 8987711.418001547455788 ], [ 6942243.758686612360179, 8987708.048984693363309 ], [ 6942261.861324378289282, 8987708.150678478181362 ], [ 6942275.741134090349078, 8987708.4039686024189 ], [ 6942325.529652964323759, 8987713.649227852001786 ], [ 6942415.203262718394399, 8987702.178899189457297 ], [ 6942528.085518794134259, 8987660.890471648424864 ], [ 6942522.433465756475925, 8987682.804163295775652 ], [ 6942491.893719804473221, 8987699.614895589649677 ], [ 6942466.260656697675586, 8987747.300942989066243 ], [ 6942448.772828074172139, 8987858.310798982158303 ], [ 6942510.000523269176483, 8987866.531590312719345 ], [ 6942502.620206229388714, 8987876.786329897120595 ], [ 6942496.416096639819443, 8987890.566993592306972 ], [ 6942491.797219879925251, 8987913.869208231568336 ], [ 6942491.692233009263873, 8987920.422032918781042 ], [ 6942484.682037259452045, 8987954.91559911519289 ], [ 6942481.567827265709639, 8987971.205325655639172 ], [ 6942481.947667092084885, 8987982.533351918682456 ], [ 6942483.585004018619657, 8988024.676076019182801 ], [ 6942510.056265473365784, 8988028.766453823074698 ], [ 6942549.761565200984478, 8988034.867320459336042 ], [ 6942574.373990276828408, 8988038.778258435428143 ], [ 6942608.254319420084357, 8988043.970021126791835 ], [ 6942615.132882047444582, 8988015.4509211871773 ], [ 6942618.380316289141774, 8987997.752545692026615 ], [ 6942619.93998586665839, 8987980.956113144755363 ], [ 6942625.807322797365487, 8987943.421552959829569 ], [ 6942635.416027095168829, 8987902.466583391651511 ], [ 6942636.525145673193038, 8987887.603479273617268 ], [ 6942644.401647358201444, 8987836.334063185378909 ], [ 6942647.702500076033175, 8987814.310313187539577 ], [ 6942653.586385130882263, 8987779.764902327209711 ], [ 6942685.607578407973051, 8987785.727155657485127 ], [ 6942731.954633655957878, 8987795.398521890863776 ], [ 6942773.036341844126582, 8987801.967424713075161 ], [ 6942784.839106250554323, 8987747.233729777857661 ], [ 6942792.885117346420884, 8987697.022136880084872 ], [ 6942819.582012195140123, 8987705.76036512106657 ], [ 6942830.36397366411984, 8987710.249825641512871 ], [ 6942869.979413677938282, 8987726.807815918698907 ], [ 6942879.211450343951583, 8987730.651418959721923 ], [ 6942935.904904106631875, 8987750.882175149396062 ], [ 6942918.241250276565552, 8987766.962145993486047 ], [ 6942889.568087862804532, 8987799.62125151231885 ], [ 6942864.067049471661448, 8987829.176222944632173 ], [ 6942856.10662105679512, 8987832.354088326916099 ], [ 6942854.912634046748281, 8987835.121990595012903 ], [ 6942839.59620052203536, 8987864.581814548000693 ], [ 6942827.869229075498879, 8987887.093514000996947 ], [ 6942820.664990982040763, 8987900.921311955899 ], [ 6942800.052962837740779, 8987945.231895005330443 ], [ 6942804.971032024361193, 8987986.850589776411653 ], [ 6942809.443894982337952, 8988024.793155593797565 ], [ 6942810.739256443455815, 8988070.498895261436701 ], [ 6942818.707722290419042, 8988140.971281642094254 ], [ 6942822.366796545684338, 8988183.958641102537513 ], [ 6942826.207381349988282, 8988218.233877178281546 ], [ 6942826.852849742397666, 8988224.102622346952558 ], [ 6942833.244196280837059, 8988255.650716776028275 ], [ 6942837.149815620854497, 8988275.11169202439487 ], [ 6942841.044462190940976, 8988291.710608383640647 ], [ 6942843.956769229844213, 8988307.312519606202841 ], [ 6942860.090722717344761, 8988396.003404445946217 ], [ 6942871.250117334537208, 8988457.112921182066202 ], [ 6942878.68578496389091, 8988499.59894840978086 ], [ 6942878.695827781222761, 8988500.293842010200024 ], [ 6942882.677126715891063, 8988561.971538219600916 ], [ 6942882.63349371496588, 8988562.935502909123898 ], [ 6942881.377033859491348, 8988623.30561294592917 ], [ 6942881.485273630358279, 8988626.128355711698532 ], [ 6942883.470443377271295, 8988676.066795358434319 ], [ 6942884.49096423201263, 8988703.67129585146904 ], [ 6942888.671596474945545, 8988729.099621033295989 ], [ 6942893.654090886935592, 8988760.44734582491219 ], [ 6942899.362603573128581, 8988818.034254338592291 ], [ 6942911.923612590879202, 8988868.242282385006547 ], [ 6942928.393187385052443, 8988928.199429783970118 ], [ 6942945.880391037091613, 8988961.986434198915958 ], [ 6942969.172028767876327, 8989002.443719437345862 ], [ 6942985.967886588536203, 8989033.42379155382514 ], [ 6942997.776941589079797, 8989070.443752236664295 ], [ 6943012.061757727526128, 8989108.599472621455789 ], [ 6943022.171246844343841, 8989126.448997871950269 ], [ 6943066.549655238166451, 8989147.155755363404751 ], [ 6943136.553954737260938, 8989172.480485510081053 ], [ 6943199.776893261820078, 8989199.328158313408494 ], [ 6943260.296385837718844, 8989231.089007582515478 ], [ 6943317.861700177192688, 8989272.596093744039536 ], [ 6943362.839849354699254, 8989309.883047956973314 ], [ 6943397.368267158046365, 8989349.884647669270635 ], [ 6943412.017578022554517, 8989379.227507434785366 ], [ 6943415.670725086703897, 8989386.543375626206398 ], [ 6943416.163840022869408, 8989388.397812038660049 ], [ 6943421.930330880917609, 8989409.290538607165217 ], [ 6943418.191804059781134, 8989439.529186345636845 ], [ 6943406.522260461933911, 8989467.624196421355009 ], [ 6943353.878927539102733, 8989579.413910534232855 ], [ 6943353.098030624911189, 8989581.351166162639856 ], [ 6943348.153251780197024, 8989591.41065076738596 ], [ 6943290.368231469765306, 8989693.960035381838679 ], [ 6943240.698434664867818, 8989782.117190811783075 ], [ 6943216.498153440654278, 8989835.425935201346874 ], [ 6943202.348798698745668, 8989868.527218149974942 ], [ 6943163.087416468188167, 8989921.068633243441582 ], [ 6943151.814875463955104, 8989944.891022279858589 ], [ 6943147.496658374555409, 8989985.517268650233746 ], [ 6943156.270533677190542, 8990048.489748243242502 ], [ 6943195.657179629430175, 8990132.97730896808207 ], [ 6943221.250655009411275, 8990194.490916168317199 ], [ 6943229.325963562354445, 8990213.629923177883029 ], [ 6943246.23975230101496, 8990290.940638221800327 ], [ 6943247.816153079271317, 8990332.322708087041974 ], [ 6943239.035213922150433, 8990367.675911579281092 ], [ 6943218.133466394618154, 8990429.973762819543481 ], [ 6943195.415216028690338, 8990484.649399425834417 ], [ 6943182.120477790012956, 8990504.764710361137986 ], [ 6943154.192012649029493, 8990547.735031543299556 ], [ 6943127.391363454982638, 8990608.256890818476677 ], [ 6943121.472436401061714, 8990646.68619268015027 ], [ 6943120.752769553102553, 8990651.39039864204824 ], [ 6943136.817546245642006, 8990692.604726944118738 ], [ 6943159.149062398821115, 8990725.181675819680095 ], [ 6943172.423137402161956, 8990744.55291242338717 ], [ 6943188.057460637763143, 8990773.792376836761832 ], [ 6943194.415173101238906, 8990805.876200914382935 ], [ 6943195.797230072319508, 8990846.409615332260728 ], [ 6943202.87369245570153, 8990879.989679211750627 ], [ 6943293.128642851486802, 8990988.142534466460347 ], [ 6943339.791891039349139, 8991053.20389917679131 ], [ 6943376.516303021460772, 8991113.190229961648583 ], [ 6943414.417373007163405, 8991166.434528702870011 ], [ 6943467.121396596543491, 8991226.323348920792341 ], [ 6943522.32248580083251, 8991279.675020540133119 ], [ 6943597.94037314504385, 8991343.882605269551277 ], [ 6943623.790305593051016, 8991378.475117433816195 ], [ 6943662.159443866461515, 8991463.187727810814977 ], [ 6943677.299941944889724, 8991500.853827385231853 ], [ 6943686.408280185423791, 8991536.228924131020904 ], [ 6943693.208564786240458, 8991577.703796679154038 ], [ 6943698.434519063681364, 8991638.108777532353997 ], [ 6943705.012030506506562, 8991682.167027054354548 ], [ 6943715.557501968927681, 8991723.640832500532269 ], [ 6943727.310155110433698, 8991759.750162271782756 ], [ 6943742.775530219078064, 8991787.96728777885437 ], [ 6943765.33110577147454, 8991811.066631652414799 ], [ 6943778.282448407262564, 8991817.450215956196189 ], [ 6943799.601357949897647, 8991827.800655772909522 ], [ 6943810.757505006156862, 8991832.518057955428958 ], [ 6943882.191492736339569, 8991862.791317846626043 ], [ 6943920.010582481510937, 8991878.362913673743606 ], [ 6943962.616947188973427, 8991887.846400715410709 ], [ 6943978.498412078246474, 8991889.677398182451725 ], [ 6944003.772437976673245, 8991919.661889065057039 ], [ 6944024.70642976090312, 8991965.692608827725053 ], [ 6944034.065251366235316, 8991994.311339238658547 ], [ 6944037.230444278568029, 8992045.379352686926723 ], [ 6944038.044808632694185, 8992077.202011112123728 ], [ 6944021.935857722535729, 8992119.747703181579709 ], [ 6943991.385102179832757, 8992170.686713058501482 ], [ 6943981.769824468530715, 8992198.024342559278011 ], [ 6943979.448168476112187, 8992228.973462359979749 ], [ 6943969.497653232887387, 8992267.464574238285422 ], [ 6943957.732356432825327, 8992304.104883328080177 ], [ 6943941.676318170502782, 8992344.700624153017998 ], [ 6943926.111133839003742, 8992388.066528666764498 ], [ 6943912.159464608877897, 8992436.815838465467095 ], [ 6943904.908416330814362, 8992480.836501326411963 ], [ 6943903.564617166295648, 8992518.925496134907007 ], [ 6943909.23552387394011, 8992557.196949163451791 ], [ 6943934.554298574104905, 8992653.566686624661088 ], [ 6943952.283002060838044, 8992710.896981880068779 ], [ 6943979.647607383318245, 8992772.228090858086944 ], [ 6944001.006530209444463, 8992818.668494032695889 ], [ 6944032.436291157267988, 8992883.600000275298953 ], [ 6944041.384685376659036, 8992901.158285092562437 ], [ 6944042.215676999650896, 8992902.939114987850189 ], [ 6944045.093729229643941, 8992899.165560552850366 ], [ 6945364.332819825969636, 8991159.316092174500227 ], [ 6945674.80359148606658, 8990749.866613410413265 ], [ 6945698.563981307670474, 8990718.548588531091809 ], [ 6945699.986183001659811, 8990716.662246391177177 ], [ 6945710.578511607833207, 8990702.697802072390914 ], [ 6947222.666808756068349, 8988708.121442457661033 ], [ 6947556.038186320103705, 8988268.206255815923214 ], [ 6949128.139617936685681, 8986194.003291465342045 ], [ 6949156.072443624958396, 8986157.178588854148984 ], [ 6949167.38600315246731, 8986142.247299794107676 ], [ 6949747.92176362965256, 8985376.687028197571635 ], [ 6949767.839027614332736, 8985350.416604040190578 ], [ 6952216.947463870979846, 8982119.479865856468678 ], [ 6952167.879378286190331, 8982075.796092387288809 ], [ 6951973.548617129214108, 8981902.77928045578301 ], [ 6946461.211838503368199, 8976995.585611460730433 ], [ 6946456.711702294647694, 8977032.881145382300019 ], [ 6946439.40624941047281, 8977057.987314805388451 ], [ 6946428.009711085818708, 8977225.483477730304003 ], [ 6946323.213204564526677, 8977382.180273123085499 ], [ 6946170.210254149511456, 8977439.887062389403582 ], [ 6946122.040963144041598, 8977435.669748943299055 ], [ 6946112.752218727953732, 8977434.858592599630356 ] ] ] } },
{ "type": "Feature", "properties": { "lv_id": "LOC_024865", "id": 107166.0, "CD_SETOR": "260330605000004", "SITUACAO": "Urbana", "CD_SIT": "1", "CD_TIPO": "0", "AREA_KM2": 0.11739595493681899, "CD_REGIAO": "2", "NM_REGIAO": "Nordeste", "CD_UF": "26", "NM_UF": "Pernambuco", "CD_MUN": "2603306", "NM_MUN": "Calçado", "CD_DIST": "260330605", "NM_DIST": "Calçado", "CD_SUBDIST": "26033060500", "NM_SUBDIST": null, "CD_BAIRRO": null, "NM_BAIRRO": null, "CD_NU": null, "NM_NU": null, "CD_FCU": null, "NM_FCU": null, "CD_AGLOM": null, "NM_AGLOM": null, "CD_RGINT": "2602", "NM_RGINT": "Caruaru", "CD_RGI": "260010", "NM_RGI": "Garanhuns", "CD_CONCURB": null, "NM_CONCURB": null, "mun_code_x": "2603306", "index_right": 49970, "dist_m": 105.88173488258515, "local_id": 257107, "ano": 2022, "cod_localidade_ibge": 2603306, "NR_ZONA": "94", "nr_cep": 55375000.0, "nm_localidade": "CALÇADO", "nm_locvot": "ESCOLA AUGUSTA CORDEIRO DE MELO", "ds_endereco": "RUA LUIS INACIO DOS SANTOS, S/N", "ds_bairro": "CENTRO", "pred_long": -36.338508, "pred_lat": -8.742825, "pred_dist": 0.0, "tse_long": -36.3385442, "tse_lat": -8.7427093, "long": -36.3385442, "lat": -8.7427093, "ID_UNICO": "LOC_024865", "SG_UF": "PE", "CD_MUNICIPIO": "23655", "NR_LOCAL_VOTACAO": "1031", "QT_SECOES_AGREGADAS": 0, "QT_ELEITORES_TRANSFERIDOS": 0, "CIRO GOMES (PDT) (NÃO ELEITO) 1T": 37.0, "CONSTITUINTE EYMAEL (DC) (NÃO ELEITO) 1T": 0.0, "FELIPE D AVILA (NOVO) (NÃO ELEITO) 1T": 2.0, "JAIR BOLSONARO (PL) (2º TURNO) 1T": 192.0, "LULA (PT) (2º TURNO) 1T": 1031.0, "LÉO PÉRICLES (UP) (NÃO ELEITO) 1T": 0.0, "PADRE KELMON (PTB) (NÃO ELEITO) 1T": 0.0, "SIMONE TEBET (MDB) (NÃO ELEITO) 1T": 17.0, "SOFIA MANZANO (PCB) (NÃO ELEITO) 1T": 0.0, "SORAYA THRONICKE (UNIÃO) (NÃO ELEITO) 1T": 4.0, "VERA (PSTU) (NÃO ELEITO) 1T": 0.0, "Total_Votos_Validos 1T": 1283.0, "Votos_Brancos 1T": 12.0, "Votos_Nulos 1T": 52.0, "Abstenções 1T": 230.0, "Eleitores_Aptos 1T": 1577.0, "JAIR BOLSONARO (PL) (NÃO ELEITO) 2T": 204.0, "LULA (PT) (ELEITO) 2T": 1069.0, "Total_Votos_Validos 2T": 1273.0, "Votos_Brancos 2T": 19.0, "Votos_Nulos 2T": 65.0, "Abstenções 2T": 220.0, "Eleitores_Aptos 2T": 1577.0, "mun_code_y": "2603306", "mun_code": "2603306" }, "geometry": { "type": "Polygon", "coordinates": [ [ [ 6942951.628739710897207, 8987747.17796622402966 ], [ 6942967.866754477843642, 8987740.297299018129706 ], [ 6942979.529576502740383, 8987735.717265252023935 ], [ 6942997.36512415856123, 8987731.705388493835926 ], [ 6943028.471950648352504, 8987724.788025349378586 ], [ 6943080.585220437496901, 8987716.688497206196189 ], [ 6943079.905375803820789, 8987679.320943107828498 ], [ 6943077.965239560231566, 8987597.033495780080557 ], [ 6943076.331630563363433, 8987571.450875505805016 ], [ 6943106.152062960900366, 8987564.350156415253878 ], [ 6943096.165365409106016, 8987540.121232487261295 ], [ 6943085.618086212314665, 8987514.249727316200733 ], [ 6943083.041884552687407, 8987507.127099199220538 ], [ 6943080.70401878003031, 8987508.500018082559109 ], [ 6943048.629797073081136, 8987540.00973991304636 ], [ 6943040.068248451687396, 8987551.154787929728627 ], [ 6943032.852436501532793, 8987555.665452385321259 ], [ 6943014.830676767975092, 8987583.062263906002045 ], [ 6942999.322312294505537, 8987600.965243266895413 ], [ 6942992.768851231783628, 8987609.083912877365947 ], [ 6942982.49963388312608, 8987611.640042642131448 ], [ 6942973.05241178534925, 8987610.530110200867057 ], [ 6942967.600318606011569, 8987609.823876462876797 ], [ 6942965.151149128563702, 8987611.41060141287744 ], [ 6942955.340616643428802, 8987605.774632198736072 ], [ 6942941.005369791761041, 8987605.43864119425416 ], [ 6942928.191322389990091, 8987614.186977313831449 ], [ 6942916.699324110522866, 8987613.879886511713266 ], [ 6942914.659774361178279, 8987605.735436057671905 ], [ 6942902.265639300458133, 8987607.359733555465937 ], [ 6942892.461873697116971, 8987609.499966001138091 ], [ 6942885.466136550530791, 8987602.561465729027987 ], [ 6942875.940848374739289, 8987598.569417433813214 ], [ 6942868.276344941928983, 8987602.428862348198891 ], [ 6942865.103300367482007, 8987597.883949864655733 ], [ 6942858.199486817233264, 8987586.259021881967783 ], [ 6942858.084173794835806, 8987581.617072386667132 ], [ 6942862.212889261543751, 8987578.236356593668461 ], [ 6942866.750629742629826, 8987580.132823925465345 ], [ 6942866.941358990035951, 8987584.261303829029202 ], [ 6942871.478031286038458, 8987586.134643655270338 ], [ 6942874.421655049547553, 8987585.475071806460619 ], [ 6942877.090363666415215, 8987579.103213891386986 ], [ 6942885.439672100357711, 8987577.668601652607322 ], [ 6942893.682354906573892, 8987574.164477789774537 ], [ 6942895.963071767240763, 8987569.885317623615265 ], [ 6942890.293458541855216, 8987564.947555558755994 ], [ 6942887.412755410186946, 8987556.239916196092963 ], [ 6942883.457115866243839, 8987545.485004799440503 ], [ 6942884.677011862397194, 8987539.702611390501261 ], [ 6942885.62197633087635, 8987528.207929890602827 ], [ 6942881.484276482835412, 8987524.241381535306573 ], [ 6942872.894551840610802, 8987520.472046170383692 ], [ 6942865.967950651422143, 8987520.275380667299032 ], [ 6942861.89138965588063, 8987517.87054062075913 ], [ 6942860.023404714651406, 8987509.625354181975126 ], [ 6942854.608500832691789, 8987499.472015906125307 ], [ 6942849.217103843577206, 8987489.827513825148344 ], [ 6942848.442671159282327, 8987479.502896293997765 ], [ 6942848.209402565844357, 8987468.017134536057711 ], [ 6942845.060385121032596, 8987463.992640281096101 ], [ 6942834.843106936663389, 8987457.182113267481327 ], [ 6942824.16679048165679, 8987450.926233276724815 ], [ 6942819.860779650509357, 8987443.316937735304236 ], [ 6942815.447598528116941, 8987433.626579148694873 ], [ 6942806.374798656441271, 8987429.891527004539967 ], [ 6942794.246639423072338, 8987423.205414736643434 ], [ 6942786.493939555250108, 8987417.287592461332679 ], [ 6942780.617714426480234, 8987418.606250239536166 ], [ 6942771.989699685946107, 8987424.73608186095953 ], [ 6942764.170072553679347, 8987426.667406834661961 ], [ 6942757.645049771293998, 8987424.910536816343665 ], [ 6942747.303221365436912, 8987425.893932748585939 ], [ 6942738.90204746555537, 8987436.69520808570087 ], [ 6942733.928627786226571, 8987446.8257778249681 ], [ 6942729.054665647447109, 8987448.618932293727994 ], [ 6942721.537295814603567, 8987446.363896043971181 ], [ 6942712.803863996639848, 8987439.483798552304506 ], [ 6942698.760940784588456, 8987435.460324387997389 ], [ 6942689.409395320340991, 8987436.420434638857841 ], [ 6942678.837957483716309, 8987443.162882495671511 ], [ 6942650.674368418753147, 8987454.890935592353344 ], [ 6942626.059996377676725, 8987457.609859090298414 ], [ 6942605.147764872759581, 8987465.358733789995313 ], [ 6942587.90263083204627, 8987477.617679147049785 ], [ 6942566.374273739755154, 8987493.728078117594123 ], [ 6942553.5585100017488, 8987498.385308120399714 ], [ 6942545.317764595150948, 8987498.354537857696414 ], [ 6942531.817540649324656, 8987495.348593337461352 ], [ 6942525.590386690571904, 8987499.801146207377315 ], [ 6942523.137474630959332, 8987510.844825116917491 ], [ 6942515.31596091017127, 8987523.704794181510806 ], [ 6942508.003955123946071, 8987526.13373133353889 ], [ 6942502.877071144990623, 8987522.213607665151358 ], [ 6942528.085518794134259, 8987660.890471648424864 ], [ 6942522.433465756475925, 8987682.804163295775652 ], [ 6942491.893719804473221, 8987699.614895589649677 ], [ 6942466.260656697675586, 8987747.300942989066243 ], [ 6942448.772828074172139, 8987858.310798982158303 ], [ 6942510.000523269176483, 8987866.531590312719345 ], [ 6942502.620206229388714, 8987876.786329897120595 ], [ 6942496.416096639819443, 8987890.566993592306972 ], [ 6942491.797219879925251, 8987913.869208231568336 ], [ 6942491.692233009263873, 8987920.422032918781042 ], [ 6942484.682037259452045, 8987954.91559911519289 ], [ 6942481.567827265709639, 8987971.205325655639172 ], [ 6942481.947667092084885, 8987982.533351918682456 ], [ 6942483.585004018619657, 8988024.676076019182801 ], [ 6942479.658257364295423, 8988035.05861023068428 ], [ 6942487.406726566143334, 8988060.690042762085795 ], [ 6942500.321460162289441, 8988069.622694548219442 ], [ 6942517.217123650945723, 8988096.784051263704896 ], [ 6942528.328416720032692, 8988134.415040422230959 ], [ 6942554.982500659301877, 8988149.62263866327703 ], [ 6942580.175293831154704, 8988187.578903824090958 ], [ 6942594.449518224224448, 8988225.722398482263088 ], [ 6942621.481471876613796, 8988200.199302859604359 ], [ 6942632.489082926884294, 8988215.780961565673351 ], [ 6942643.74864730425179, 8988231.571022747084498 ], [ 6942658.12297682557255, 8988251.839262459427118 ], [ 6942672.788856914266944, 8988272.696505641564727 ], [ 6942682.105301734991372, 8988286.00484474748373 ], [ 6942707.085542185232043, 8988327.471353691071272 ], [ 6942739.862024089321494, 8988310.417364867404103 ], [ 6942792.986873542889953, 8988290.567030224949121 ], [ 6942837.149815620854497, 8988275.11169202439487 ], [ 6942833.244196280837059, 8988255.650716776028275 ], [ 6942826.852849742397666, 8988224.102622346952558 ], [ 6942826.207381349988282, 8988218.233877178281546 ], [ 6942822.366796545684338, 8988183.958641102537513 ], [ 6942818.707722290419042, 8988140.971281642094254 ], [ 6942810.739256443455815, 8988070.498895261436701 ], [ 6942809.443894982337952, 8988024.793155593797565 ], [ 6942804.971032024361193, 8987986.850589776411653 ], [ 6942800.052962837740779, 8987945.231895005330443 ], [ 6942820.664990982040763, 8987900.921311955899 ], [ 6942827.869229075498879, 8987887.093514000996947 ], [ 6942839.59620052203536, 8987864.581814548000693 ], [ 6942854.912634046748281, 8987835.121990595012903 ], [ 6942856.10662105679512, 8987832.354088326916099 ], [ 6942864.067049471661448, 8987829.176222944632173 ], [ 6942889.568087862804532, 8987799.62125151231885 ], [ 6942918.241250276565552, 8987766.962145993486047 ], [ 6942935.904904106631875, 8987750.882175149396062 ], [ 6942951.628739710897207, 8987747.17796622402966 ] ] ] } },
{ "type": "Feature", "properties": { "lv_id": "LOC_024866", "id": 107176.0, "CD_SETOR": "260330605000018", "SITUACAO": "Rural", "CD_SIT": "8", "CD_TIPO": "0", "AREA_KM2": 4.4544122011096343, "CD_REGIAO": "2", "NM_REGIAO": "Nordeste", "CD_UF": "26", "NM_UF": "Pernambuco", "CD_MUN": "2603306", "NM_MUN": "Calçado", "CD_DIST": "260330605", "NM_DIST": "Calçado", "CD_SUBDIST": "26033060500", "NM_SUBDIST": null, "CD_BAIRRO": null, "NM_BAIRRO": null, "CD_NU": null, "NM_NU": null, "CD_FCU": null, "NM_FCU": null, "CD_AGLOM": "260330600003", "NM_AGLOM": "Riacho Dantas", "CD_RGINT": "2602", "NM_RGINT": "Caruaru", "CD_RGI": "260010", "NM_RGI": "Garanhuns", "CD_CONCURB": null, "NM_CONCURB": null, "mun_code_x": "2603306", "index_right": 49971, "dist_m": 741.8652217767725, "local_id": 257108, "ano": 2022, "cod_localidade_ibge": 2603306, "NR_ZONA": "94", "nr_cep": 55375000.0, "nm_localidade": "CALÇADO", "nm_locvot": "ESCOLA ARTUR DA COSTA E SILVA", "ds_endereco": "POVOADO RIACHO DANTAS, S/N", "ds_bairro": "ZONA RURAL", "pred_long": -36.349263, "pred_lat": -8.728727, "pred_dist": 0.0, "tse_long": -36.3492047, "tse_lat": -8.7287291, "long": -36.3492047, "lat": -8.7287291, "ID_UNICO": "LOC_024866", "SG_UF": "PE", "CD_MUNICIPIO": "23655", "NR_LOCAL_VOTACAO": "1040", "QT_SECOES_AGREGADAS": 1, "QT_ELEITORES_TRANSFERIDOS": 0, "CIRO GOMES (PDT) (NÃO ELEITO) 1T": 4.0, "CONSTITUINTE EYMAEL (DC) (NÃO ELEITO) 1T": 0.0, "FELIPE D AVILA (NOVO) (NÃO ELEITO) 1T": 1.0, "JAIR BOLSONARO (PL) (2º TURNO) 1T": 17.0, "LULA (PT) (2º TURNO) 1T": 239.0, "LÉO PÉRICLES (UP) (NÃO ELEITO) 1T": 0.0, "PADRE KELMON (PTB) (NÃO ELEITO) 1T": 2.0, "SIMONE TEBET (MDB) (NÃO ELEITO) 1T": 2.0, "SOFIA MANZANO (PCB) (NÃO ELEITO) 1T": 0.0, "SORAYA THRONICKE (UNIÃO) (NÃO ELEITO) 1T": 0.0, "VERA (PSTU) (NÃO ELEITO) 1T": 0.0, "Total_Votos_Validos 1T": 265.0, "Votos_Brancos 1T": 5.0, "Votos_Nulos 1T": 5.0, "Abstenções 1T": 41.0, "Eleitores_Aptos 1T": 316.0, "JAIR BOLSONARO (PL) (NÃO ELEITO) 2T": 18.0, "LULA (PT) (ELEITO) 2T": 243.0, "Total_Votos_Validos 2T": 261.0, "Votos_Brancos 2T": 4.0, "Votos_Nulos 2T": 17.0, "Abstenções 2T": 34.0, "Eleitores_Aptos 2T": 316.0, "mun_code_y": "2603306", "mun_code": "2603306" }, "geometry": { "type": "Polygon", "coordinates": [ [ [ 6943397.368267158046365, 8989349.884647669270635 ], [ 6943362.839849354699254, 8989309.883047956973314 ], [ 6943317.861700177192688, 8989272.596093744039536 ], [ 6943260.296385837718844, 8989231.089007582515478 ], [ 6943199.776893261820078, 8989199.328158313408494 ], [ 6943136.553954737260938, 8989172.480485510081053 ], [ 6943066.549655238166451, 8989147.155755363404751 ], [ 6943022.171246844343841, 8989126.448997871950269 ], [ 6943012.061757727526128, 8989108.599472621455789 ], [ 6942997.776941589079797, 8989070.443752236664295 ], [ 6942985.967886588536203, 8989033.42379155382514 ], [ 6942969.172028767876327, 8989002.443719437345862 ], [ 6942945.880391037091613, 8988961.986434198915958 ], [ 6942928.393187385052443, 8988928.199429783970118 ], [ 6942911.923612590879202, 8988868.242282385006547 ], [ 6942899.362603573128581, 8988818.034254338592291 ], [ 6942893.654090886935592, 8988760.44734582491219 ], [ 6942888.671596474945545, 8988729.099621033295989 ], [ 6942884.49096423201263, 8988703.67129585146904 ], [ 6942883.470443377271295, 8988676.066795358434319 ], [ 6942881.485273630358279, 8988626.128355711698532 ], [ 6942881.377033859491348, 8988623.30561294592917 ], [ 6942882.63349371496588, 8988562.935502909123898 ], [ 6942882.677126715891063, 8988561.971538219600916 ], [ 6942878.695827781222761, 8988500.293842010200024 ], [ 6942878.68578496389091, 8988499.59894840978086 ], [ 6942871.250117334537208, 8988457.112921182066202 ], [ 6942860.090722717344761, 8988396.003404445946217 ], [ 6942843.956769229844213, 8988307.312519606202841 ], [ 6942841.044462190940976, 8988291.710608383640647 ], [ 6942837.149815620854497, 8988275.11169202439487 ], [ 6942792.986873542889953, 8988290.567030224949121 ], [ 6942739.862024089321494, 8988310.417364867404103 ], [ 6942707.085542185232043, 8988327.471353691071272 ], [ 6942682.105301734991372, 8988286.00484474748373 ], [ 6942672.788856914266944, 8988272.696505641564727 ], [ 6942658.12297682557255, 8988251.839262459427118 ], [ 6942643.74864730425179, 8988231.571022747084498 ], [ 6942632.489082926884294, 8988215.780961565673351 ], [ 6942621.481471876613796, 8988200.199302859604359 ], [ 6942594.449518224224448, 8988225.722398482263088 ], [ 6942580.175293831154704, 8988187.578903824090958 ], [ 6942554.982500659301877, 8988149.62263866327703 ], [ 6942528.328416720032692, 8988134.415040422230959 ], [ 6942517.217123650945723, 8988096.784051263704896 ], [ 6942500.321460162289441, 8988069.622694548219442 ], [ 6942487.406726566143334, 8988060.690042762085795 ], [ 6942479.658257364295423, 8988035.05861023068428 ], [ 6942483.585004018619657, 8988024.676076019182801 ], [ 6942481.947667092084885, 8987982.533351918682456 ], [ 6942481.567827265709639, 8987971.205325655639172 ], [ 6942484.682037259452045, 8987954.91559911519289 ], [ 6942491.692233009263873, 8987920.422032918781042 ], [ 6942491.797219879925251, 8987913.869208231568336 ], [ 6942496.416096639819443, 8987890.566993592306972 ], [ 6942502.620206229388714, 8987876.786329897120595 ], [ 6942510.000523269176483, 8987866.531590312719345 ], [ 6942448.772828074172139, 8987858.310798982158303 ], [ 6942466.260656697675586, 8987747.300942989066243 ], [ 6942491.893719804473221, 8987699.614895589649677 ], [ 6942522.433465756475925, 8987682.804163295775652 ], [ 6942528.085518794134259, 8987660.890471648424864 ], [ 6942415.203262718394399, 8987702.178899189457297 ], [ 6942325.529652964323759, 8987713.649227852001786 ], [ 6942275.741134090349078, 8987708.4039686024189 ], [ 6942261.861324378289282, 8987708.150678478181362 ], [ 6942243.758686612360179, 8987708.048984693363309 ], [ 6942210.703496126458049, 8987711.418001547455788 ], [ 6942165.026937705464661, 8987711.252923453226686 ], [ 6942116.432861663401127, 8987705.39528932608664 ], [ 6942073.084707166068256, 8987706.03652835264802 ], [ 6942035.126082891598344, 8987700.781276715919375 ], [ 6942000.518293747678399, 8987690.802906140685081 ], [ 6941978.16009147465229, 8987672.729149732738733 ], [ 6941941.628284607082605, 8987650.185897175222635 ], [ 6941905.872592879459262, 8987636.100978299975395 ], [ 6941880.363926294259727, 8987626.611698817461729 ], [ 6941779.070550205186009, 8987607.092528792098165 ], [ 6941707.071975055150688, 8987595.56400397233665 ], [ 6941671.228913702070713, 8987586.026058347895741 ], [ 6941642.734166066162288, 8987579.376963768154383 ], [ 6941594.0773516735062, 8987570.485962731763721 ], [ 6941545.001945787109435, 8987562.309896625578403 ], [ 6941503.817331157624722, 8987552.072043191641569 ], [ 6941490.568703874014318, 8987541.869162397459149 ], [ 6941479.945351997390389, 8987526.258812194690108 ], [ 6941459.060266692191362, 8987497.860422614961863 ], [ 6941432.025646729394794, 8987458.659977406263351 ], [ 6941423.002233458682895, 8987434.283221093937755 ], [ 6941416.846027582883835, 8987406.39979200437665 ], [ 6941412.947140377946198, 8987383.509566223248839 ], [ 6941405.110771117731929, 8987357.408448353409767 ], [ 6941400.491004312410951, 8987343.000146888196468 ], [ 6941391.159966543316841, 8987318.881244268268347 ], [ 6941377.932114991359413, 8987289.092779720202088 ], [ 6941365.352178459987044, 8987269.518310131505132 ], [ 6941349.31002732552588, 8987248.437406731769443 ], [ 6941342.82702823355794, 8987241.625922426581383 ], [ 6941303.738555250689387, 8987205.934522572904825 ], [ 6941288.812861340120435, 8987191.140316190198064 ], [ 6941270.347541185095906, 8987176.025347728282213 ], [ 6941252.312915506772697, 8987158.549317572265863 ], [ 6941240.72094208933413, 8987142.71814133040607 ], [ 6941211.694185865111649, 8987109.997077303007245 ], [ 6941198.528590153902769, 8987100.161462914198637 ], [ 6941180.889294325374067, 8987089.098622173070908 ], [ 6941144.925647479481995, 8987072.173566542565823 ], [ 6941117.448999701067805, 8987053.935151237994432 ], [ 6941084.700920498929918, 8987032.699139732867479 ], [ 6941061.527551824226975, 8987015.33676322363317 ], [ 6941014.62398695666343, 8986982.388049667701125 ], [ 6940979.536783414892852, 8986966.789524409919977 ], [ 6940966.308702392503619, 8986957.269858092069626 ], [ 6940956.616076288744807, 8986941.303524576127529 ], [ 6940940.304246875457466, 8986942.763611143454909 ], [ 6940888.629419120028615, 8986947.932792901992798 ], [ 6940813.76355957519263, 8986955.150967238470912 ], [ 6940691.21120960265398, 8986927.012157935649157 ], [ 6940648.699820360168815, 8986915.701780969277024 ], [ 6940600.054663349874318, 8986902.755316607654095 ], [ 6940548.638730956241488, 8986888.246879799291492 ], [ 6940484.647692331112921, 8986869.530465183779597 ], [ 6940444.489654657430947, 8986857.657879482954741 ], [ 6940343.35608940012753, 8986849.43164300173521 ], [ 6940207.799930449575186, 8986859.551877019926906 ], [ 6940193.035169604234397, 8986859.687715426087379 ], [ 6940100.814409993588924, 8986860.800360888242722 ], [ 6940047.396134121343493, 8986845.145797934383154 ], [ 6939998.251028879545629, 8986830.669933501631021 ], [ 6939948.643983920104802, 8986808.335992751643062 ], [ 6939860.233459202572703, 8986768.631363617256284 ], [ 6939772.783679026179016, 8986726.830840447917581 ], [ 6939692.969658922404051, 8986704.881612781435251 ], [ 6939685.951926271431148, 8986702.707576205953956 ], [ 6939684.2003572890535, 8986705.327380573377013 ], [ 6939670.281901530921459, 8986726.177097728475928 ], [ 6939241.903653673827648, 8987367.583435174077749 ], [ 6939009.300105371512473, 8987715.828496139496565 ], [ 6939012.498958814889193, 8987750.324867449700832 ], [ 6939209.073367791250348, 8989899.125819331035018 ], [ 6939278.113879619166255, 8990654.33041512966156 ], [ 6939280.224098348990083, 8990677.464616533368826 ], [ 6939292.810315992683172, 8990815.126243058592081 ], [ 6939408.844319488853216, 8990807.312567621469498 ], [ 6939411.508831515908241, 8990823.816199649125338 ], [ 6939430.863228167407215, 8990827.640630550682545 ], [ 6939551.131175955757499, 8990830.451794365420938 ], [ 6939585.3295888453722, 8990840.628627138212323 ], [ 6939633.01993491128087, 8990867.522353753447533 ], [ 6939681.064561510458589, 8990909.787937046959996 ], [ 6939734.549563652835786, 8990964.001519152894616 ], [ 6939737.888074238784611, 8991005.468433916568756 ], [ 6939724.33006776869297, 8991054.884979860857129 ], [ 6939681.882582704536617, 8991085.487093385308981 ], [ 6939653.641592340543866, 8991067.836026916280389 ], [ 6939654.295879932120442, 8991121.849914750084281 ], [ 6939749.156290553510189, 8991245.084388798102736 ], [ 6939779.289093378931284, 8991275.614001737907529 ], [ 6939819.973880727775395, 8991305.396449835970998 ], [ 6939858.866670478135347, 8991332.620592223480344 ], [ 6939879.79331243224442, 8991350.995692417025566 ], [ 6939915.2923454772681, 8991359.02681496553123 ], [ 6939958.806045701727271, 8991395.711264697834849 ], [ 6939963.817490256391466, 8991409.834654800593853 ], [ 6939719.151872791349888, 8991490.843481164425611 ], [ 6939699.872632164508104, 8991504.720831142738461 ], [ 6939632.388720632530749, 8991533.731831222772598 ], [ 6939659.090033646672964, 8991583.089326485991478 ], [ 6939686.449169462546706, 8991643.169510142877698 ], [ 6939715.924582921899855, 8991715.746835470199585 ], [ 6939793.457337507978082, 8991828.969141241163015 ], [ 6939815.718394994735718, 8991839.947480143979192 ], [ 6939829.149435753002763, 8991857.027104385197163 ], [ 6939859.687675772234797, 8991933.564859192818403 ], [ 6939770.916617266833782, 8991968.028604414314032 ], [ 6939704.873178268782794, 8992028.431384345516562 ], [ 6939710.342911569401622, 8992034.792895201593637 ], [ 6939820.245834104716778, 8992148.384498694911599 ], [ 6939893.224265918135643, 8992192.445587223395705 ], [ 6939916.065153072588146, 8992200.697345267981291 ], [ 6939998.026634908281267, 8992225.672107670456171 ], [ 6940031.611817967146635, 8992249.112835574895144 ], [ 6940087.858469100669026, 8992301.845605723559856 ], [ 6940117.784347048029304, 8992343.476062875241041 ], [ 6940145.380859179422259, 8992393.396173289045691 ], [ 6940163.867741649970412, 8992418.143524738028646 ], [ 6940205.257050058804452, 8992466.876312388107181 ], [ 6940301.747106547467411, 8992567.619997398927808 ], [ 6940395.441434389911592, 8992561.885772151872516 ], [ 6940412.370607987046242, 8992560.864964878186584 ], [ 6940471.616740755736828, 8992569.517666110768914 ], [ 6940522.520672954618931, 8992586.983653794974089 ], [ 6940548.502776028588414, 8992584.949865996837616 ], [ 6940583.937292066402733, 8992583.645858215168118 ], [ 6940608.557078342884779, 8992591.768713524565101 ], [ 6940622.411756957881153, 8992589.767117215320468 ], [ 6940627.434159549884498, 8992589.984945388510823 ], [ 6940662.101989582180977, 8992591.41664407402277 ], [ 6940747.703417625278234, 8992604.240769255906343 ], [ 6940803.878509512171149, 8992628.298080509528518 ], [ 6940853.873159987851977, 8992653.547430155798793 ], [ 6940903.920158981345594, 8992676.337709024548531 ], [ 6941000.807506322860718, 8992731.73251218535006 ], [ 6941080.444506856612861, 8992766.759910371154547 ], [ 6941163.229282840155065, 8992789.727902039885521 ], [ 6941217.733862294815481, 8992812.426613150164485 ], [ 6941261.491572124883533, 8992828.99778550863266 ], [ 6941298.157889122143388, 8992843.477576036006212 ], [ 6941335.362930809147656, 8992873.286943159997463 ], [ 6941362.943523857742548, 8992890.705023661255836 ], [ 6941414.203554287552834, 8992911.596776848658919 ], [ 6941456.034818355925381, 8992925.557814078405499 ], [ 6941549.85971203725785, 8992958.151538528501987 ], [ 6941589.230876576155424, 8992970.836693778634071 ], [ 6941642.720965491607785, 8992977.915370048955083 ], [ 6941725.222355218604207, 8992979.828929955139756 ], [ 6941757.119711391627789, 8992980.416294954717159 ], [ 6941776.300046565942466, 8992980.19427085109055 ], [ 6941817.391414947807789, 8992984.038183990865946 ], [ 6941870.10190889146179, 8992986.85366090759635 ], [ 6941909.657132185995579, 8992995.868189239874482 ], [ 6941994.124534733593464, 8993023.555907942354679 ], [ 6942087.064830739982426, 8993045.992956267669797 ], [ 6942136.707980219274759, 8993055.417935889214277 ], [ 6942224.85389699973166, 8993062.213334612548351 ], [ 6942314.060036279261112, 8993073.14281420968473 ], [ 6942356.024166526272893, 8993080.874536454677582 ], [ 6942359.657080092467368, 8993081.539550645276904 ], [ 6942415.707749431952834, 8993096.390667989850044 ], [ 6942437.412177888676524, 8993102.911499122157693 ], [ 6942487.520739123225212, 8993123.185247160494328 ], [ 6942554.795619507320225, 8993139.680209804326296 ], [ 6942600.407137334346771, 8993150.788142338395119 ], [ 6942649.449313879013062, 8993162.234443604946136 ], [ 6942726.388254767283797, 8993173.028903307393193 ], [ 6942754.600547455251217, 8993179.246305080130696 ], [ 6942819.135938163846731, 8993200.85240975767374 ], [ 6942860.108849983662367, 8993210.264453841373324 ], [ 6942902.274487080052495, 8993219.98014852963388 ], [ 6942988.013107461854815, 8993245.105808012187481 ], [ 6943036.71966624353081, 8993256.196950301527977 ], [ 6943092.142878633923829, 8993264.575870040804148 ], [ 6943131.86327038705349, 8993273.339394100010395 ], [ 6943174.025645254179835, 8993276.507243240252137 ], [ 6943216.356332756578922, 8993285.496707864105701 ], [ 6943251.666562460362911, 8993296.100013135001063 ], [ 6943328.81021226849407, 8993318.775625148788095 ], [ 6943441.383584227412939, 8993358.249483333900571 ], [ 6943466.477541532367468, 8993372.840968493372202 ], [ 6943489.719948520883918, 8993396.767314411699772 ], [ 6943510.273825026117265, 8993411.57058746740222 ], [ 6943569.70885724760592, 8993446.360668588429689 ], [ 6943609.028376602567732, 8993472.052340783178806 ], [ 6943609.992861084640026, 8993473.143146427348256 ], [ 6943621.59513770416379, 8993457.836842892691493 ], [ 6943625.034571221098304, 8993453.330317221581936 ], [ 6944017.433560002595186, 8992935.631824918091297 ], [ 6944037.261352785862982, 8992909.47524830326438 ], [ 6944042.215676999650896, 8992902.939114987850189 ], [ 6944041.384685376659036, 8992901.158285092562437 ], [ 6944032.436291157267988, 8992883.600000275298953 ], [ 6944001.006530209444463, 8992818.668494032695889 ], [ 6943979.647607383318245, 8992772.228090858086944 ], [ 6943952.283002060838044, 8992710.896981880068779 ], [ 6943934.554298574104905, 8992653.566686624661088 ], [ 6943909.23552387394011, 8992557.196949163451791 ], [ 6943903.564617166295648, 8992518.925496134907007 ], [ 6943904.908416330814362, 8992480.836501326411963 ], [ 6943912.159464608877897, 8992436.815838465467095 ], [ 6943926.111133839003742, 8992388.066528666764498 ], [ 6943941.676318170502782, 8992344.700624153017998 ], [ 6943957.732356432825327, 8992304.104883328080177 ], [ 6943969.497653232887387, 8992267.464574238285422 ], [ 6943979.448168476112187, 8992228.973462359979749 ], [ 6943981.769824468530715, 8992198.024342559278011 ], [ 6943991.385102179832757, 8992170.686713058501482 ], [ 6944021.935857722535729, 8992119.747703181579709 ], [ 6944038.044808632694185, 8992077.202011112123728 ], [ 6944037.230444278568029, 8992045.379352686926723 ], [ 6944034.065251366235316, 8991994.311339238658547 ], [ 6944024.70642976090312, 8991965.692608827725053 ], [ 6944003.772437976673245, 8991919.661889065057039 ], [ 6943978.498412078246474, 8991889.677398182451725 ], [ 6943962.616947188973427, 8991887.846400715410709 ], [ 6943920.010582481510937, 8991878.362913673743606 ], [ 6943882.191492736339569, 8991862.791317846626043 ], [ 6943810.757505006156862, 8991832.518057955428958 ], [ 6943799.601357949897647, 8991827.800655772909522 ], [ 6943778.282448407262564, 8991817.450215956196189 ], [ 6943765.33110577147454, 8991811.066631652414799 ], [ 6943742.775530219078064, 8991787.96728777885437 ], [ 6943727.310155110433698, 8991759.750162271782756 ], [ 6943715.557501968927681, 8991723.640832500532269 ], [ 6943705.012030506506562, 8991682.167027054354548 ], [ 6943698.434519063681364, 8991638.108777532353997 ], [ 6943693.208564786240458, 8991577.703796679154038 ], [ 6943686.408280185423791, 8991536.228924131020904 ], [ 6943677.299941944889724, 8991500.853827385231853 ], [ 6943662.159443866461515, 8991463.187727810814977 ], [ 6943623.790305593051016, 8991378.475117433816195 ], [ 6943597.94037314504385, 8991343.882605269551277 ], [ 6943522.32248580083251, 8991279.675020540133119 ], [ 6943467.121396596543491, 8991226.323348920792341 ], [ 6943414.417373007163405, 8991166.434528702870011 ], [ 6943376.516303021460772, 8991113.190229961648583 ], [ 6943339.791891039349139, 8991053.20389917679131 ], [ 6943293.128642851486802, 8990988.142534466460347 ], [ 6943202.87369245570153, 8990879.989679211750627 ], [ 6943195.797230072319508, 8990846.409615332260728 ], [ 6943194.415173101238906, 8990805.876200914382935 ], [ 6943188.057460637763143, 8990773.792376836761832 ], [ 6943172.423137402161956, 8990744.55291242338717 ], [ 6943159.149062398821115, 8990725.181675819680095 ], [ 6943136.817546245642006, 8990692.604726944118738 ], [ 6943120.752769553102553, 8990651.39039864204824 ], [ 6943121.472436401061714, 8990646.68619268015027 ], [ 6943127.391363454982638, 8990608.256890818476677 ], [ 6943154.192012649029493, 8990547.735031543299556 ], [ 6943182.120477790012956, 8990504.764710361137986 ], [ 6943195.415216028690338, 8990484.649399425834417 ], [ 6943218.133466394618154, 8990429.973762819543481 ], [ 6943239.035213922150433, 8990367.675911579281092 ], [ 6943247.816153079271317, 8990332.322708087041974 ], [ 6943246.23975230101496, 8990290.940638221800327 ], [ 6943229.325963562354445, 8990213.629923177883029 ], [ 6943221.250655009411275, 8990194.490916168317199 ], [ 6943195.657179629430175, 8990132.97730896808207 ], [ 6943156.270533677190542, 8990048.489748243242502 ], [ 6943147.496658374555409, 8989985.517268650233746 ], [ 6943151.814875463955104, 8989944.891022279858589 ], [ 6943163.087416468188167, 8989921.068633243441582 ], [ 6943202.348798698745668, 8989868.527218149974942 ], [ 6943216.498153440654278, 8989835.425935201346874 ], [ 6943240.698434664867818, 8989782.117190811783075 ], [ 6943290.368231469765306, 8989693.960035381838679 ], [ 6943348.153251780197024, 8989591.41065076738596 ], [ 6943353.098030624911189, 8989581.351166162639856 ], [ 6943353.878927539102733, 8989579.413910534232855 ], [ 6943406.522260461933911, 8989467.624196421355009 ], [ 6943418.191804059781134, 8989439.529186345636845 ], [ 6943421.930330880917609, 8989409.290538607165217 ], [ 6943416.163840022869408, 8989388.397812038660049 ], [ 6943415.670725086703897, 8989386.543375626206398 ], [ 6943412.017578022554517, 8989379.227507434785366 ], [ 6943397.368267158046365, 8989349.884647669270635 ] ] ] } }
]
}
