{
"type": "FeatureCollection",
"name": "2607950",
"crs": { "type": "name", "properties": { "name": "urn:ogc:def:crs:EPSG::5880" } },
"features": [
{ "type": "Feature", "properties": { "lv_id": "LOC_024625", "id": 112933.0, "CD_SETOR": "260795005000001", "SITUACAO": "Urbana", "CD_SIT": "1", "CD_TIPO": "0", "AREA_KM2": 0.051517900986593, "CD_REGIAO": "2", "NM_REGIAO": "Nordeste", "CD_UF": "26", "NM_UF": "Pernambuco", "CD_MUN": "2607950", "NM_MUN": "Jaqueira", "CD_DIST": "260795005", "NM_DIST": "Jaqueira", "CD_SUBDIST": "26079500500", "NM_SUBDIST": null, "CD_BAIRRO": null, "NM_BAIRRO": null, "CD_NU": "2607950001", "NM_NU": "Bálsamo da Linha", "CD_FCU": null, "NM_FCU": null, "CD_AGLOM": "260795000002", "NM_AGLOM": "Bálsamo da Linha 1", "CD_RGINT": "2601", "NM_RGINT": "Recife", "CD_RGI": "260003", "NM_RGI": "Palmares", "CD_CONCURB": null, "NM_CONCURB": null, "mun_code_x": "2607950", "index_right": 49666, "dist_m": 392.77407760523016, "local_id": 254221, "ano": 2022, "cod_localidade_ibge": 2607950, "NR_ZONA": "43", "nr_cep": 55409000.0, "nm_localidade": "JAQUEIRA", "nm_locvot": "ESCOLA MIGUEL PELLEGRINO", "ds_endereco": "RUA DO RIO SN", "ds_bairro": "CENTRO", "pred_long": -35.796782, "pred_lat": -8.732201, "pred_dist": 0.0, "tse_long": -35.7968873, "tse_lat": -8.7321949, "long": -35.7968873, "lat": -8.7321949, "ID_UNICO": "LOC_024625", "SG_UF": "PE", "CD_MUNICIPIO": "23302", "NR_LOCAL_VOTACAO": "1023", "QT_SECOES_AGREGADAS": 0, "QT_ELEITORES_TRANSFERIDOS": 2, "CIRO GOMES (PDT) (NÃO ELEITO) 1T": 84.0, "CONSTITUINTE EYMAEL (DC) (NÃO ELEITO) 1T": 0.0, "FELIPE D AVILA (NOVO) (NÃO ELEITO) 1T": 3.0, "JAIR BOLSONARO (PL) (2º TURNO) 1T": 964.0, "LULA (PT) (2º TURNO) 1T": 2599.0, "LÉO PÉRICLES (UP) (NÃO ELEITO) 1T": 1.0, "PADRE KELMON (PTB) (NÃO ELEITO) 1T": 1.0, "SIMONE TEBET (MDB) (NÃO ELEITO) 1T": 26.0, "SOFIA MANZANO (PCB) (NÃO ELEITO) 1T": 1.0, "SORAYA THRONICKE (UNIÃO) (NÃO ELEITO) 1T": 7.0, "VERA (PSTU) (NÃO ELEITO) 1T": 0.0, "Total_Votos_Validos 1T": 3686.0, "Votos_Brancos 1T": 38.0, "Votos_Nulos 1T": 151.0, "Abstenções 1T": 1667.0, "Eleitores_Aptos 1T": 5542.0, "JAIR BOLSONARO (PL) (NÃO ELEITO) 2T": 964.0, "LULA (PT) (ELEITO) 2T": 2694.0, "Total_Votos_Validos 2T": 3658.0, "Votos_Brancos 2T": 36.0, "Votos_Nulos 2T": 194.0, "Abstenções 2T": 1654.0, "Eleitores_Aptos 2T": 5542.0, "mun_code_y": "2607950", "mun_code": "2607950" }, "geometry": { "type": "Polygon", "coordinates": [ [ [ 7004298.773892918601632, 8982046.152753598988056 ], [ 7004179.771949694491923, 8982024.156785134226084 ], [ 7004083.470016195438802, 8981988.26224928535521 ], [ 7004013.76312190387398, 8981934.456296384334564 ], [ 7003974.471127241849899, 8981862.460705567151308 ], [ 7003919.671735777519643, 8981795.355593161657453 ], [ 7003870.463157120160758, 8981686.85610868409276 ], [ 7003611.863398408517241, 8981334.258851042017341 ], [ 7003535.467161231674254, 8981305.758424680680037 ], [ 7003428.764410466887057, 8981225.053264815360308 ], [ 7003301.163741337135434, 8981186.961802113801241 ], [ 7002995.060750587843359, 8981195.853214383125305 ], [ 7002746.860731799155474, 8981218.054035387933254 ], [ 7002708.131139287725091, 8981221.502089664340019 ], [ 7002619.85721271019429, 8981229.364386439323425 ], [ 7002429.155912205576897, 8981190.660709332674742 ], [ 7002020.655986960977316, 8981048.855045115575194 ], [ 7001977.959647115319967, 8980985.364697311073542 ], [ 7001754.253723500296474, 8980914.256499510258436 ], [ 7001318.61710152681917, 8981661.152836825698614 ], [ 7000977.211385116912425, 8981504.289220791310072 ], [ 7000266.407607717439532, 8981177.71412917599082 ], [ 6999910.016863127239048, 8981013.973559850826859 ], [ 6999405.952908182516694, 8980782.391466230154037 ], [ 6999404.408453261479735, 8980777.49258191511035 ], [ 6999403.771277221851051, 8980778.220714503899217 ], [ 6999398.845274785533547, 8980783.944499282166362 ], [ 6999333.965461375191808, 8980817.616688948124647 ], [ 6999291.599439937621355, 8980840.192097451537848 ], [ 6999285.233756934292614, 8980842.290172584354877 ], [ 6999279.366401921957731, 8980844.213027203455567 ], [ 6999254.998116930946708, 8980852.22688327729702 ], [ 6999245.577548455446959, 8980853.322518911212683 ], [ 6999209.275525482371449, 8980857.545186745002866 ], [ 6999127.528735500760376, 8980864.59732729382813 ], [ 6999078.598700968548656, 8980869.640899185091257 ], [ 6999057.331077121198177, 8980871.996118471026421 ], [ 6999013.250724069774151, 8980876.874342460185289 ], [ 6998997.429965056478977, 8980876.80417868681252 ], [ 6998968.59685735963285, 8980876.655597222968936 ], [ 6998936.761177094653249, 8980879.604106321930885 ], [ 6998885.732314585708082, 8980885.446330856531858 ], [ 6998861.364981683902442, 8980891.402910830453038 ], [ 6998850.359649056568742, 8980898.071736181154847 ], [ 6998836.366734331473708, 8980906.535405084490776 ], [ 6998820.391475666314363, 8980929.097846621647477 ], [ 6998808.396291576325893, 8980954.279611861333251 ], [ 6998801.923121407628059, 8980980.460489511489868 ], [ 6998784.426811230368912, 8980999.308210551738739 ], [ 6998768.282017966732383, 8981015.545535614714026 ], [ 6998758.701934818178415, 8981029.930944899097085 ], [ 6998763.869444159790874, 8981046.135281318798661 ], [ 6998784.011176556348801, 8981068.912011219188571 ], [ 6998810.95294142048806, 8981100.086430955678225 ], [ 6998836.198735972866416, 8981126.415946982800961 ], [ 6998837.969534422270954, 8981135.603374626487494 ], [ 6998838.088420950807631, 8981152.191755633801222 ], [ 6998842.37193610612303, 8981175.039455983787775 ], [ 6998831.148432767018676, 8981188.226184360682964 ], [ 6998815.494594575837255, 8981198.129679540172219 ], [ 6998794.342369053512812, 8981207.300076184794307 ], [ 6998772.302307007834315, 8981208.936871817335486 ], [ 6998752.216056034900248, 8981218.05559672601521 ], [ 6998717.486986128613353, 8981233.101001940667629 ], [ 6998693.760677890852094, 8981241.419811708852649 ], [ 6998675.274509519338608, 8981250.600400079041719 ], [ 6998661.046226357109845, 8981259.446955004706979 ], [ 6998635.759630594402552, 8981285.411326706409454 ], [ 6998614.177405589260161, 8981302.202050877735019 ], [ 6998588.799128773622215, 8981312.146192666143179 ], [ 6998562.996852120384574, 8981318.740915087983012 ], [ 6998542.62666663620621, 8981316.357313150539994 ], [ 6998540.685096083208919, 8981326.003268897533417 ], [ 6998542.432893924415112, 8981340.258184354752302 ], [ 6998550.812501573935151, 8981348.288855155929923 ], [ 6998569.331933998502791, 8981356.676873257383704 ], [ 6998577.424379657022655, 8981369.776330634951591 ], [ 6998589.425899093970656, 8981414.747209651395679 ], [ 6998601.777924615889788, 8981472.623050797730684 ], [ 6998609.469049545004964, 8981511.051237540319562 ], [ 6998615.910461815074086, 8981551.224904442206025 ], [ 6998616.336023105308414, 8981615.871868439018726 ], [ 6998614.124269344843924, 8981653.373391391709447 ], [ 6998608.72822299040854, 8981668.892168497666717 ], [ 6998601.513136551715434, 8981688.078064244240522 ], [ 6998587.460204310715199, 8981700.84345973469317 ], [ 6998580.955767339095473, 8981720.843212220817804 ], [ 6998576.528451669029891, 8981734.269867608323693 ], [ 6998576.428099430166185, 8981760.141688982024789 ], [ 6998581.660019463859499, 8981786.034330608323216 ], [ 6998598.208889624103904, 8981803.233392454683781 ], [ 6998625.708733879961073, 8981832.266598124057055 ], [ 6998641.298176864162087, 8981851.754888327792287 ], [ 6998662.125330410897732, 8981863.95936793461442 ], [ 6998686.475297765806317, 8981871.496267132461071 ], [ 6998703.808366431854665, 8981877.408902760595083 ], [ 6998732.404666665010154, 8981895.698404237627983 ], [ 6998762.287058003246784, 8981924.337646970525384 ], [ 6998782.472991058602929, 8981962.161565067246556 ], [ 6998795.516508879140019, 8981995.264642430469394 ], [ 6998798.823497448116541, 8982014.510838717222214 ], [ 6998795.068160612136126, 8982030.717222277075052 ], [ 6998782.799177857115865, 8982052.95988117903471 ], [ 6998767.713977506384254, 8982077.593150954693556 ], [ 6998761.011701079085469, 8982098.996990077197552 ], [ 6998758.391916083171964, 8982116.844966825097799 ], [ 6998762.6675536474213, 8982150.651208184659481 ], [ 6998783.482075704261661, 8982184.796079453080893 ], [ 6998816.623910363763571, 8982242.794124020263553 ], [ 6998837.96652901545167, 8982260.040618127211928 ], [ 6998866.857059590518475, 8982284.510175364091992 ], [ 6998884.039886985905468, 8982303.921847566962242 ], [ 6998891.839896669611335, 8982328.005723072215915 ], [ 6998899.848424982279539, 8982360.864655070006847 ], [ 6998902.544193219393492, 8982367.973841024562716 ], [ 6998928.481666160747409, 8982347.312749618664384 ], [ 6998957.061867128126323, 8982330.102875566110015 ], [ 6998979.642540169879794, 8982327.546242343261838 ], [ 6998995.590646465308964, 8982329.586858006194234 ], [ 6999015.729697601869702, 8982340.9884715359658 ], [ 6999030.583559405058622, 8982361.919044630602002 ], [ 6999043.599066389724612, 8982389.120748892426491 ], [ 6999049.796654887497425, 8982412.863989723846316 ], [ 6999047.75004187040031, 8982434.193873995915055 ], [ 6999042.409769118763506, 8982450.895389046519995 ], [ 6999035.779441446997225, 8982471.040897941216826 ], [ 6999041.001739576458931, 8982510.856155404821038 ], [ 6999042.078170170076191, 8982536.24161184579134 ], [ 6999035.372635608538985, 8982552.03299723751843 ], [ 6999028.330631660297513, 8982574.871111936867237 ], [ 6999024.123035822063684, 8982592.923874141648412 ], [ 6999021.767925555817783, 8982624.669060688465834 ], [ 6999022.342046670615673, 8982647.836010271683335 ], [ 6999030.414963219314814, 8982680.20404308103025 ], [ 6999042.446825878694654, 8982706.186847915872931 ], [ 6999049.545713557861745, 8982726.656042443588376 ], [ 6999051.479298640973866, 8982744.830134237185121 ], [ 6999046.687762918882072, 8982767.280463982373476 ], [ 6999039.947319310158491, 8982788.128419887274504 ], [ 6999039.692473185248673, 8982799.668383721262217 ], [ 6999048.398636282421649, 8982803.91885307058692 ], [ 6999056.202418372035027, 8982807.72489620000124 ], [ 6999070.251940157264471, 8982806.208799436688423 ], [ 6999083.466557822190225, 8982798.260381534695625 ], [ 6999104.430908002890646, 8982782.337273340672255 ], [ 6999146.797686439007521, 8982754.141876123845577 ], [ 6999179.688692044466734, 8982733.992929076775908 ], [ 6999190.32363296020776, 8982727.621746063232422 ], [ 6999197.306450088508427, 8982723.437571315094829 ], [ 6999214.849225897341967, 8982719.637445621192455 ], [ 6999237.379070539958775, 8982722.487185707315803 ], [ 6999254.62017878703773, 8982729.241628497838974 ], [ 6999266.066565601155162, 8982745.700760580599308 ], [ 6999271.075879517942667, 8982764.156244281679392 ], [ 6999274.116527357138693, 8982791.701398251578212 ], [ 6999274.157115035690367, 8982823.331077434122562 ], [ 6999273.868787975050509, 8982856.382769264280796 ], [ 6999272.259484154172242, 8982889.916684560477734 ], [ 6999270.761517010629177, 8982914.450762471184134 ], [ 6999267.106018976308405, 8982943.876905361190438 ], [ 6999268.728343848139048, 8982966.853979492560029 ], [ 6999268.666579887270927, 8982993.561396339908242 ], [ 6999272.170966307632625, 8983016.737988041713834 ], [ 6999282.02859964594245, 8983050.275226654484868 ], [ 6999279.374436707235873, 8983078.525725897401571 ], [ 6999278.688486505299807, 8983097.674990639090538 ], [ 6999284.838591421954334, 8983120.43317005969584 ], [ 6999296.336644655093551, 8983143.769495556131005 ], [ 6999301.719193577766418, 8983161.509789772331715 ], [ 6999303.073060303926468, 8983195.748758416622877 ], [ 6999303.910333921201527, 8983230.012701969593763 ], [ 6999312.379851720295846, 8983273.738837223500013 ], [ 6999313.723951874300838, 8983318.65775297023356 ], [ 6999319.099919372238219, 8983364.508992291986942 ], [ 6999323.389662940055132, 8983421.103835258632898 ], [ 6999332.360826143994927, 8983469.593564724549651 ], [ 6999344.402008724398911, 8983521.026073437184095 ], [ 6999355.919863312505186, 8983555.901103172451258 ], [ 6999380.207826875150204, 8983590.147399822250009 ], [ 6999390.744793680496514, 8983599.539073990657926 ], [ 6999400.545486649498343, 8983602.946773011237383 ], [ 6999428.853285891935229, 8983595.954258536919951 ], [ 6999461.27076603192836, 8983588.054221630096436 ], [ 6999488.688451513648033, 8983581.80190172418952 ], [ 6999494.877980127930641, 8983580.387159762904048 ], [ 6999521.723118482157588, 8983587.10809919051826 ], [ 6999541.313067564740777, 8983603.871488247066736 ], [ 6999561.284231399185956, 8983626.1015271153301 ], [ 6999569.4713040208444, 8983643.985482387244701 ], [ 6999579.109820213168859, 8983675.709495015442371 ], [ 6999586.210445674136281, 8983712.901784652844071 ], [ 6999591.57072501257062, 8983766.772815987467766 ], [ 6999604.401557547971606, 8983840.375394627451897 ], [ 6999650.207735670730472, 8983895.801723919808865 ], [ 6999706.128129702061415, 8983956.364094475284219 ], [ 6999766.619039108045399, 8984017.833128971979022 ], [ 6999808.690986128523946, 8984061.912498828023672 ], [ 6999847.181586902588606, 8984108.977317713201046 ], [ 6999893.369361543096602, 8984166.640676181763411 ], [ 6999941.941476236097515, 8984224.177434202283621 ], [ 6999971.922330517321825, 8984266.02921799197793 ], [ 6999990.821425369009376, 8984293.518183019012213 ], [ 7000010.857395662926137, 8984305.763494599610567 ], [ 7000043.608339877799153, 8984310.654355512931943 ], [ 7000073.882880265824497, 8984313.968154303729534 ], [ 7000089.665556811727583, 8984326.418967200443149 ], [ 7000091.887638762593269, 8984328.670716430991888 ], [ 7000103.36311446968466, 8984341.120432570576668 ], [ 7000139.075861296616495, 8984323.044255601242185 ], [ 7000163.118828140199184, 8984301.638662308454514 ], [ 7000193.850398006848991, 8984275.412462595850229 ], [ 7000200.610760643146932, 8984268.856887625530362 ], [ 7000256.630212098360062, 8984304.395898444578052 ], [ 7000278.808148617856205, 8984301.453408570960164 ], [ 7000361.855039104819298, 8984308.620790271088481 ], [ 7000460.698439469560981, 8984314.164892541244626 ], [ 7000497.32564489915967, 8984307.676915850490332 ], [ 7000510.794743210077286, 8984305.29453887976706 ], [ 7000560.15707912761718, 8984280.991463823243976 ], [ 7000593.301247442141175, 8984264.038023412227631 ], [ 7000604.700780248269439, 8984258.211049309000373 ], [ 7000611.222012676298618, 8984261.452090015634894 ], [ 7000651.853060767054558, 8984281.708930596709251 ], [ 7000687.786718055605888, 8984334.988615415990353 ], [ 7000695.475898777134717, 8984359.545151755213737 ], [ 7000685.415342181921005, 8984387.969293659552932 ], [ 7000666.157797858119011, 8984437.035865310579538 ], [ 7000658.650782305747271, 8984476.074774470180273 ], [ 7000661.851802376098931, 8984543.394308334216475 ], [ 7000673.212082744576037, 8984585.39167196303606 ], [ 7000714.267773823812604, 8984626.396218277513981 ], [ 7000772.967387903481722, 8984678.913879714906216 ], [ 7000784.898796473629773, 8984689.598781909793615 ], [ 7000828.939988326281309, 8984707.669593587517738 ], [ 7000882.311687199398875, 8984718.095975702628493 ], [ 7000895.965797627344728, 8984720.760173654183745 ], [ 7000916.534200677648187, 8984742.114916447550058 ], [ 7000937.543922461569309, 8984789.66671197861433 ], [ 7000942.754042225889862, 8984830.671743789687753 ], [ 7000923.280596426688135, 8984875.448987692594528 ], [ 7000895.836131203919649, 8984897.844438517466187 ], [ 7000881.049376647919416, 8984938.095169050619006 ], [ 7000866.617396767251194, 8984977.468705018982291 ], [ 7000856.100280073471367, 8985013.22476894967258 ], [ 7000867.866568358615041, 8985055.203079359605908 ], [ 7000879.908845707774162, 8985102.758073683828115 ], [ 7000883.390868930146098, 8985150.296447874978185 ], [ 7000902.702657499350607, 8985213.828829316422343 ], [ 7000922.437083183787763, 8985234.794303404167295 ], [ 7000945.404379148036242, 8985255.173723135143518 ], [ 7000999.403973329812288, 8985273.473823487758636 ], [ 7001045.903724912554026, 8985259.130585726350546 ], [ 7001074.383619598113, 8985297.687513813376427 ], [ 7001054.980369247496128, 8985332.373612388968468 ], [ 7001006.401813069358468, 8985375.766521224752069 ], [ 7000979.359343249350786, 8985384.382023435086012 ], [ 7000939.095100700855255, 8985367.208279242739081 ], [ 7000902.764211694709957, 8985343.09255475923419 ], [ 7000859.605273662135005, 8985309.741990813985467 ], [ 7000846.059749114327133, 8985319.797742649912834 ], [ 7000840.547792571596801, 8985323.887320563197136 ], [ 7000814.51801392622292, 8985331.32656092941761 ], [ 7000790.476121932268143, 8985335.857402887195349 ], [ 7000789.719466893933713, 8985336.393654152750969 ], [ 7000706.046641111373901, 8985320.257930085062981 ], [ 7000700.094915209338069, 8985318.569589056074619 ], [ 7000580.871195625513792, 8985297.049278665333986 ], [ 7000483.16146444529295, 8985279.6968166641891 ], [ 7000397.160591994412243, 8985264.870421135798097 ], [ 7000298.085290879011154, 8985246.596020568162203 ], [ 7000217.549842734821141, 8985232.958434734493494 ], [ 7000207.581586706452072, 8985241.562768992036581 ], [ 7000186.158173151314259, 8985260.400406995788217 ], [ 7000150.79240463860333, 8985290.218849193304777 ], [ 7000119.786812405101955, 8985322.081239603459835 ], [ 7000087.352698893286288, 8985368.63180385902524 ], [ 7000056.365597296506166, 8985412.021162146702409 ], [ 7000038.999960169196129, 8985439.297076432034373 ], [ 7000022.753233628347516, 8985467.634571308270097 ], [ 7000014.693788839504123, 8985516.669213686138391 ], [ 7000016.163847263902426, 8985553.425432411953807 ], [ 7000026.738306444138288, 8985629.962921207770705 ], [ 7000032.480193379335105, 8985678.041177287697792 ], [ 7000030.842522442340851, 8985744.476459549739957 ], [ 7000039.193304218351841, 8985819.436258221045136 ], [ 7000028.949965295381844, 8985873.073439015075564 ], [ 7000029.404461091384292, 8985910.726988365873694 ], [ 7000038.517458668909967, 8985962.303344894200563 ], [ 7000061.680571306496859, 8986012.353832341730595 ], [ 7000095.829571297392249, 8986069.195923238992691 ], [ 7000133.165889026597142, 8986125.884473076090217 ], [ 7000187.152776017785072, 8986196.378076473250985 ], [ 7000217.871735712513328, 8986242.694627927616239 ], [ 7000234.626275861635804, 8986275.634614447131753 ], [ 7000250.556531966663897, 8986319.294242188334465 ], [ 7000270.599866294302046, 8986348.415089923888445 ], [ 7000309.89830101840198, 8986384.475193448364735 ], [ 7000338.562109709717333, 8986426.951689342036843 ], [ 7000339.790851059369743, 8986435.898891400545835 ], [ 7000346.420530449599028, 8986443.284136096015573 ], [ 7000351.489940063096583, 8986449.129256043583155 ], [ 7000374.965685315430164, 8986498.11985071003437 ], [ 7000389.192457667551935, 8986527.707324761897326 ], [ 7000401.640268509276211, 8986545.805829966440797 ], [ 7000414.003613822162151, 8986556.31974726729095 ], [ 7000442.589847018942237, 8986577.428844971582294 ], [ 7000466.176002249121666, 8986594.153746839612722 ], [ 7000485.977451503276825, 8986623.983993912115693 ], [ 7000502.581499360501766, 8986676.048881277441978 ], [ 7000518.400958785787225, 8986734.334190832450986 ], [ 7000530.960473926737905, 8986757.343321522697806 ], [ 7000551.81702714972198, 8986775.74565053358674 ], [ 7000579.942179369740188, 8986823.5947779212147 ], [ 7000597.562229478731751, 8986852.263753402978182 ], [ 7000624.162011389620602, 8986879.105424344539642 ], [ 7000642.307200295850635, 8986902.124437274411321 ], [ 7000648.248531396500766, 8986931.925826106220484 ], [ 7000665.778966668993235, 8986992.383747454732656 ], [ 7000688.730409651063383, 8987043.573947196826339 ], [ 7000709.943813602440059, 8987069.269290594384074 ], [ 7000728.002218491397798, 8987079.079160513356328 ], [ 7000740.667529945261776, 8987081.560137566179037 ], [ 7000752.754698638804257, 8987083.929517226293683 ], [ 7000821.472962480038404, 8987077.387264914810658 ], [ 7000846.548456837423146, 8987078.131270138546824 ], [ 7000857.646347369067371, 8987078.45644217543304 ], [ 7000890.3788898345083, 8987094.311266995966434 ], [ 7000913.524239918217063, 8987124.271791962906718 ], [ 7000936.92438437230885, 8987165.179191103205085 ], [ 7000959.555123771540821, 8987206.821034818887711 ], [ 7000955.576968398876488, 8987229.790936836972833 ], [ 7000932.556271465495229, 8987250.308141183108091 ], [ 7000904.88918299973011, 8987279.474754815921187 ], [ 7000888.582580937072635, 8987328.908014150336385 ], [ 7000872.439748142845929, 8987359.494870668277144 ], [ 7000870.693422212265432, 8987395.849647605791688 ], [ 7000888.643418109044433, 8987425.909670937806368 ], [ 7000934.988077063113451, 8987464.445270918309689 ], [ 7000988.90978767350316, 8987511.064847772940993 ], [ 7001041.986171066761017, 8987551.240488551557064 ], [ 7001077.316745604388416, 8987576.81439702026546 ], [ 7001105.589113880880177, 8987596.417836587876081 ], [ 7001109.564194846898317, 8987599.166618099436164 ], [ 7001142.212625654414296, 8987607.437404256314039 ], [ 7001157.50014228746295, 8987615.498553939163685 ], [ 7001160.528298664838076, 8987617.095928126946092 ], [ 7001172.653217165730894, 8987636.75675106421113 ], [ 7001172.627815904095769, 8987667.125324139371514 ], [ 7001169.290044097229838, 8987692.458572179079056 ], [ 7001177.457064445130527, 8987726.930108638480306 ], [ 7001190.514096829108894, 8987757.656401513144374 ], [ 7001192.696175053715706, 8987789.743268111720681 ], [ 7001192.015508029609919, 8987826.047213170677423 ], [ 7001184.066685572266579, 8987866.362005550414324 ], [ 7001179.62842504773289, 8987896.373631970956922 ], [ 7001182.550001508556306, 8987918.732425969094038 ], [ 7001198.853143563494086, 8987947.756829792633653 ], [ 7001226.159304328262806, 8987966.965708658099174 ], [ 7001242.603677234612405, 8987972.24032093770802 ], [ 7001248.622619624249637, 8987974.181832598522305 ], [ 7001268.935451426543295, 8987975.307163514196873 ], [ 7001303.720227257348597, 8987969.843356540426612 ], [ 7001315.255246904678643, 8987967.997845826670527 ], [ 7001326.473710705526173, 8987966.214062128216028 ], [ 7001349.03759990632534, 8987966.952029157429934 ], [ 7001371.208030177280307, 8987979.377165984362364 ], [ 7001380.604156865738332, 8987997.484590660780668 ], [ 7001384.54081008490175, 8988035.681644709780812 ], [ 7001381.605507295578718, 8988069.282003574073315 ], [ 7001373.695859394967556, 8988121.821256637573242 ], [ 7001374.559086707420647, 8988153.9835294354707 ], [ 7001382.811853897757828, 8988190.275996839627624 ], [ 7001398.454081997275352, 8988239.298796033486724 ], [ 7001416.103934274986386, 8988279.775983652099967 ], [ 7001431.4451366905123, 8988305.476894784718752 ], [ 7001435.631503503769636, 8988331.9821668099612 ], [ 7001423.911251120269299, 8988365.726537182927132 ], [ 7001420.075968405231833, 8988386.156271966174245 ], [ 7001425.513106409460306, 8988410.927796764299273 ], [ 7001447.106316206045449, 8988461.628436928614974 ], [ 7001468.091649217531085, 8988510.661646828055382 ], [ 7001494.491791237145662, 8988589.813673069700599 ], [ 7001514.083078775554895, 8988643.144518651068211 ], [ 7001531.924876108765602, 8988699.081580687314272 ], [ 7001536.323938887566328, 8988730.086049571633339 ], [ 7001535.34824426099658, 8988788.335024859756231 ], [ 7001536.726851612329483, 8988845.355002079159021 ], [ 7001538.959188739769161, 8988892.490228226408362 ], [ 7001549.660933524370193, 8988943.994508739560843 ], [ 7001567.223139764741063, 8988994.04143437743187 ], [ 7001592.558716498315334, 8989017.007470158860087 ], [ 7001611.304374158382416, 8989035.514029061421752 ], [ 7001627.026017107069492, 8989058.094291292130947 ], [ 7001633.344014817848802, 8989084.497339142486453 ], [ 7001631.860939338803291, 8989126.465466842055321 ], [ 7001635.551516686566174, 8989170.439334908500314 ], [ 7001645.321376066654921, 8989196.687986303120852 ], [ 7001666.649026788771152, 8989213.652651064097881 ], [ 7001694.602305420674384, 8989235.365755749866366 ], [ 7001716.169325163587928, 8989257.38610952720046 ], [ 7001729.649753106757998, 8989277.540844200178981 ], [ 7001736.987050352618098, 8989314.308256130665541 ], [ 7001737.594612092711031, 8989349.71421560831368 ], [ 7001742.034306230023503, 8989387.178880821913481 ], [ 7001764.646707103587687, 8989453.858642522245646 ], [ 7001779.952008222229779, 8989495.577402368187904 ], [ 7001788.499365912750363, 8989529.753176402300596 ], [ 7001792.489478342235088, 8989563.311358481645584 ], [ 7001790.119566569104791, 8989597.733253058046103 ], [ 7001785.776307824999094, 8989635.620387125760317 ], [ 7001794.294395214878023, 8989668.949221167713404 ], [ 7001795.92808040138334, 8989672.74076477997005 ], [ 7001793.6738216932863, 8989701.229900324717164 ], [ 7001811.573015418834984, 8989606.185063285753131 ], [ 7001878.771189455874264, 8989576.978369418531656 ], [ 7001963.174677096307278, 8989568.886277789250016 ], [ 7001978.074014543555677, 8989633.683079645037651 ], [ 7002171.277786747552454, 8989758.882464449852705 ], [ 7002236.181736727245152, 8989727.984200829640031 ], [ 7002365.479659865610301, 8989724.775856411084533 ], [ 7002356.872064627707005, 8989775.676844323053956 ], [ 7002395.081571219488978, 8989796.676947558298707 ], [ 7002408.873128762468696, 8989916.280847949907184 ], [ 7002542.379804602824152, 8990060.18390073440969 ], [ 7002654.779573734849691, 8990120.085413755849004 ], [ 7002678.983829762786627, 8990161.28526253439486 ], [ 7002780.185367892496288, 8990116.786621633917093 ], [ 7002815.684108408167958, 8990009.280140833929181 ], [ 7003070.781924293376505, 8989650.18016791343689 ], [ 7003240.282320654019713, 8989504.876032365486026 ], [ 7003336.88488017115742, 8989379.1754394415766 ], [ 7003314.081486169248819, 8989233.175025757402182 ], [ 7003212.675432920455933, 8989137.473456174135208 ], [ 7003196.284819919615984, 8989103.58031745441258 ], [ 7003196.181984240189195, 8988935.880864886566997 ], [ 7003222.677571986801922, 8988849.875182252377272 ], [ 7003527.48282468970865, 8988789.273436626419425 ], [ 7003918.682626210153103, 8988665.971685549244285 ], [ 7003938.824889610521495, 8988664.884977301582694 ], [ 7003947.901823342777789, 8988664.401144636794925 ], [ 7004024.184662515297532, 8988660.272341575473547 ], [ 7004131.47831014636904, 8988688.170625057071447 ], [ 7004212.377636552788317, 8988649.669852150604129 ], [ 7004222.680553944781423, 8988504.079432526603341 ], [ 7004350.685878211632371, 8988405.17849949747324 ], [ 7004430.380341304466128, 8988472.972204625606537 ], [ 7004596.985036434605718, 8988661.971816280856729 ], [ 7004652.081651224754751, 8988828.078801585361362 ], [ 7004720.982592292129993, 8988911.27288387902081 ], [ 7004842.489170668646693, 8988947.774352097883821 ], [ 7004940.687565803527832, 8988932.77857881039381 ], [ 7005035.787929590791464, 8988989.975888850167394 ], [ 7005196.88658969476819, 8989246.875816708430648 ], [ 7005341.188190903514624, 8989277.572944324463606 ], [ 7005387.992566354572773, 8989207.271143371239305 ], [ 7005465.491963868960738, 8989154.669335978105664 ], [ 7005716.690019563771784, 8989034.377207530662417 ], [ 7006017.792984643019736, 8988937.073913682252169 ], [ 7006060.185825342312455, 8988923.370772019028664 ], [ 7006219.394757772795856, 8989059.267561810091138 ], [ 7006502.889201430603862, 8989071.475132199004292 ], [ 7006794.496827865019441, 8989441.564897332340479 ], [ 7006950.491652929224074, 8989433.068259032443166 ], [ 7007005.701087697409093, 8989446.36752687394619 ], [ 7007283.302488910034299, 8989514.265479585155845 ], [ 7007395.299983963370323, 8989471.270105179399252 ], [ 7007288.394008495844901, 8989283.065749144181609 ], [ 7007435.799561879597604, 8989080.864383153617382 ], [ 7007582.495717662386596, 8989193.062383335083723 ], [ 7007737.39497818145901, 8989211.863654723390937 ], [ 7007853.51897001080215, 8989085.032865196466446 ], [ 7007853.822312294505537, 8989084.692720372229815 ], [ 7007862.002682323567569, 8989075.765039579942822 ], [ 7007965.501355966553092, 8988875.662112331017852 ], [ 7008060.998403538018465, 8988454.559070592746139 ], [ 7008003.700638329610229, 8988208.366293424740434 ], [ 7008048.893924468196929, 8988067.259213384240866 ], [ 7008153.794845191761851, 8987895.063447771593928 ], [ 7008148.194028222933412, 8987362.860097900032997 ], [ 7008135.383298831060529, 8987266.09196998924017 ], [ 7008118.341932068578899, 8987182.293325779959559 ], [ 7008110.236397882923484, 8987129.556395770981908 ], [ 7008072.915978573262691, 8987050.679476799443364 ], [ 7007999.862623301334679, 8986926.296161569654942 ], [ 7007940.779505661688745, 8986860.28375825099647 ], [ 7007871.007222473621368, 8986843.975756257772446 ], [ 7007843.380994669161737, 8986851.217331977561116 ], [ 7007790.453155212104321, 8986836.071127323433757 ], [ 7007727.748106332495809, 8986850.902844686061144 ], [ 7007651.200087078846991, 8986888.061641102656722 ], [ 7007581.90585061814636, 8986920.928395504131913 ], [ 7007500.977561871521175, 8986944.522311443462968 ], [ 7007438.283193171955645, 8986959.352618061006069 ], [ 7007376.32621110137552, 8986950.548062792047858 ], [ 7007214.498306398279965, 8986891.81694115139544 ], [ 7007151.931311057880521, 8986859.071097387000918 ], [ 7007121.233045518398285, 8986840.873866770416498 ], [ 7007121.409302335232496, 8986805.443943025544286 ], [ 7007146.293698745779693, 8986735.246479099616408 ], [ 7007174.212242557667196, 8986661.216983886435628 ], [ 7007198.101395672187209, 8986575.443154601380229 ], [ 7007196.595342221669853, 8986465.322018748149276 ], [ 7007192.950962150469422, 8986388.749593621119857 ], [ 7007155.338263782672584, 8986264.634514899924397 ], [ 7007130.106595557183027, 8986165.495987243950367 ], [ 7007133.539842316880822, 8986080.722878765314817 ], [ 7007186.2548519782722, 8985973.872544694691896 ], [ 7007196.649236061610281, 8985878.91585205681622 ], [ 7007179.779511702246964, 8985759.703230299055576 ], [ 7007165.91208928078413, 8985703.306842168793082 ], [ 7007165.151078416965902, 8985648.240831986069679 ], [ 7007135.736705842427909, 8985578.832943174988031 ], [ 7007124.848449159413576, 8985545.90303885191679 ], [ 7007028.642637722194195, 8985483.657606264576316 ], [ 7006901.190453225746751, 8985430.795073330402374 ], [ 7006718.286331427283585, 8985309.775121834129095 ], [ 7006517.510511964559555, 8985166.011906614527106 ], [ 7006447.727351455017924, 8985110.359699668362737 ], [ 7006325.471767349168658, 8985010.017063956707716 ], [ 7006249.918115655891597, 8984950.704240936785936 ], [ 7006153.071959887631238, 8984914.079054249450564 ], [ 7006086.373088453896344, 8984883.852705640718341 ], [ 7006013.342848367057741, 8984838.193466162309051 ], [ 7005947.81306960247457, 8984779.093852758407593 ], [ 7005886.426940477453172, 8984718.410603869706392 ], [ 7005867.162806978449225, 8984666.219885243102908 ], [ 7005856.246978959068656, 8984554.584846148267388 ], [ 7005842.364772104658186, 8984458.844560470432043 ], [ 7005778.043445194140077, 8984322.258138732984662 ], [ 7005677.154384537599981, 8984216.980958480387926 ], [ 7005478.344838826917112, 8984043.052462924271822 ], [ 7005306.977669215761125, 8983897.357103439047933 ], [ 7005292.676939144730568, 8983635.554851993918419 ], [ 7005413.670570094138384, 8983103.454504793509841 ], [ 7005296.677158611826599, 8982794.65947862714529 ], [ 7005085.669898854568601, 8982596.752493673935533 ], [ 7004680.770851292647421, 8982514.261795863509178 ], [ 7004159.307295579463243, 8982643.670353904366493 ], [ 7004357.521195037290454, 8982331.184781854972243 ], [ 7004358.156628578901291, 8982330.189205881208181 ], [ 7004536.35609539039433, 8982049.237980596721172 ], [ 7004298.773892918601632, 8982046.152753598988056 ] ], [ [ 7000010.072651361115277, 8982767.362125566229224 ], [ 7000028.205295132473111, 8982840.953227384015918 ], [ 7000122.571814615279436, 8982874.679751504212618 ], [ 7000091.043994970619678, 8983017.158401785418391 ], [ 7000042.222482081502676, 8983018.985332453623414 ], [ 7000050.768086803145707, 8983081.872458273544908 ], [ 6999765.587199116125703, 8983128.110574692487717 ], [ 6999735.925305256620049, 8982981.679532768204808 ], [ 6999750.336068086326122, 8982887.096513347700238 ], [ 6999742.432968194596469, 8982853.440885121002793 ], [ 6999597.488790209405124, 8982816.571151349693537 ], [ 6999715.591722150333226, 8982660.331764293834567 ], [ 6999892.717171550728381, 8982632.087592598050833 ], [ 7000010.072651361115277, 8982767.362125566229224 ] ] ] } },
{ "type": "Feature", "properties": { "lv_id": "LOC_024626", "id": 112938.0, "CD_SETOR": "260795005000011", "SITUACAO": "Rural", "CD_SIT": "8", "CD_TIPO": "0", "AREA_KM2": 17.636012096412088, "CD_REGIAO": "2", "NM_REGIAO": "Nordeste", "CD_UF": "26", "NM_UF": "Pernambuco", "CD_MUN": "2607950", "NM_MUN": "Jaqueira", "CD_DIST": "260795005", "NM_DIST": "Jaqueira", "CD_SUBDIST": "26079500500", "NM_SUBDIST": null, "CD_BAIRRO": null, "NM_BAIRRO": null, "CD_NU": null, "NM_NU": null, "CD_FCU": null, "NM_FCU": null, "CD_AGLOM": "260795000001", "NM_AGLOM": "Frei Caneca", "CD_RGINT": "2601", "NM_RGINT": "Recife", "CD_RGI": "260003", "NM_RGI": "Palmares", "CD_CONCURB": null, "NM_CONCURB": null, "mun_code_x": "2607950", "index_right": 49668, "dist_m": 789.78044704431147, "local_id": 254223, "ano": 2022, "cod_localidade_ibge": 2607950, "NR_ZONA": "43", "nr_cep": 55409000.0, "nm_localidade": "JAQUEIRA", "nm_locvot": "ESCOLA MUNICIPAL  FREI FIDELLES", "ds_endereco": "USINA FREI CANECA                                 SN", "ds_bairro": "CENTRO", "pred_long": -35.8108092, "pred_lat": -8.7429497, "pred_dist": 0.0, "tse_long": -35.8108801, "tse_lat": -8.7429145, "long": -35.8108801, "lat": -8.7429145, "ID_UNICO": "LOC_024626", "SG_UF": "PE", "CD_MUNICIPIO": "23302", "NR_LOCAL_VOTACAO": "1112", "QT_SECOES_AGREGADAS": 0, "QT_ELEITORES_TRANSFERIDOS": 0, "CIRO GOMES (PDT) (NÃO ELEITO) 1T": 10.0, "CONSTITUINTE EYMAEL (DC) (NÃO ELEITO) 1T": 0.0, "FELIPE D AVILA (NOVO) (NÃO ELEITO) 1T": 0.0, "JAIR BOLSONARO (PL) (2º TURNO) 1T": 72.0, "LULA (PT) (2º TURNO) 1T": 283.0, "LÉO PÉRICLES (UP) (NÃO ELEITO) 1T": 0.0, "PADRE KELMON (PTB) (NÃO ELEITO) 1T": 0.0, "SIMONE TEBET (MDB) (NÃO ELEITO) 1T": 5.0, "SOFIA MANZANO (PCB) (NÃO ELEITO) 1T": 0.0, "SORAYA THRONICKE (UNIÃO) (NÃO ELEITO) 1T": 0.0, "VERA (PSTU) (NÃO ELEITO) 1T": 0.0, "Total_Votos_Validos 1T": 370.0, "Votos_Brancos 1T": 5.0, "Votos_Nulos 1T": 25.0, "Abstenções 1T": 137.0, "Eleitores_Aptos 1T": 537.0, "JAIR BOLSONARO (PL) (NÃO ELEITO) 2T": 73.0, "LULA (PT) (ELEITO) 2T": 301.0, "Total_Votos_Validos 2T": 374.0, "Votos_Brancos 2T": 2.0, "Votos_Nulos 2T": 16.0, "Abstenções 2T": 145.0, "Eleitores_Aptos 2T": 537.0, "mun_code_y": "2607950", "mun_code": "2607950" }, "geometry": { "type": "MultiPolygon", "coordinates": [ [ [ [ 7000089.665556811727583, 8984326.418967200443149 ], [ 7000073.882880265824497, 8984313.968154303729534 ], [ 7000043.608339877799153, 8984310.654355512931943 ], [ 7000010.857395662926137, 8984305.763494599610567 ], [ 6999990.821425369009376, 8984293.518183019012213 ], [ 6999971.922330517321825, 8984266.02921799197793 ], [ 6999941.941476236097515, 8984224.177434202283621 ], [ 6999893.369361543096602, 8984166.640676181763411 ], [ 6999847.181586902588606, 8984108.977317713201046 ], [ 6999808.690986128523946, 8984061.912498828023672 ], [ 6999766.619039108045399, 8984017.833128971979022 ], [ 6999706.128129702061415, 8983956.364094475284219 ], [ 6999650.207735670730472, 8983895.801723919808865 ], [ 6999604.401557547971606, 8983840.375394627451897 ], [ 6999591.57072501257062, 8983766.772815987467766 ], [ 6999586.210445674136281, 8983712.901784652844071 ], [ 6999579.109820213168859, 8983675.709495015442371 ], [ 6999569.4713040208444, 8983643.985482387244701 ], [ 6999561.284231399185956, 8983626.1015271153301 ], [ 6999541.313067564740777, 8983603.871488247066736 ], [ 6999521.723118482157588, 8983587.10809919051826 ], [ 6999494.877980127930641, 8983580.387159762904048 ], [ 6999488.688451513648033, 8983581.80190172418952 ], [ 6999461.27076603192836, 8983588.054221630096436 ], [ 6999428.853285891935229, 8983595.954258536919951 ], [ 6999400.545486649498343, 8983602.946773011237383 ], [ 6999390.744793680496514, 8983599.539073990657926 ], [ 6999380.207826875150204, 8983590.147399822250009 ], [ 6999355.919863312505186, 8983555.901103172451258 ], [ 6999344.402008724398911, 8983521.026073437184095 ], [ 6999332.360826143994927, 8983469.593564724549651 ], [ 6999323.389662940055132, 8983421.103835258632898 ], [ 6999319.099919372238219, 8983364.508992291986942 ], [ 6999313.723951874300838, 8983318.65775297023356 ], [ 6999312.379851720295846, 8983273.738837223500013 ], [ 6999303.910333921201527, 8983230.012701969593763 ], [ 6999303.073060303926468, 8983195.748758416622877 ], [ 6999301.719193577766418, 8983161.509789772331715 ], [ 6999296.336644655093551, 8983143.769495556131005 ], [ 6999284.838591421954334, 8983120.43317005969584 ], [ 6999278.688486505299807, 8983097.674990639090538 ], [ 6999279.374436707235873, 8983078.525725897401571 ], [ 6999282.02859964594245, 8983050.275226654484868 ], [ 6999272.170966307632625, 8983016.737988041713834 ], [ 6999268.666579887270927, 8982993.561396339908242 ], [ 6999268.728343848139048, 8982966.853979492560029 ], [ 6999267.106018976308405, 8982943.876905361190438 ], [ 6999270.761517010629177, 8982914.450762471184134 ], [ 6999272.259484154172242, 8982889.916684560477734 ], [ 6999273.868787975050509, 8982856.382769264280796 ], [ 6999274.157115035690367, 8982823.331077434122562 ], [ 6999274.116527357138693, 8982791.701398251578212 ], [ 6999271.075879517942667, 8982764.156244281679392 ], [ 6999266.066565601155162, 8982745.700760580599308 ], [ 6999254.62017878703773, 8982729.241628497838974 ], [ 6999237.379070539958775, 8982722.487185707315803 ], [ 6999214.849225897341967, 8982719.637445621192455 ], [ 6999197.306450088508427, 8982723.437571315094829 ], [ 6999190.32363296020776, 8982727.621746063232422 ], [ 6999179.688692044466734, 8982733.992929076775908 ], [ 6999146.797686439007521, 8982754.141876123845577 ], [ 6999104.430908002890646, 8982782.337273340672255 ], [ 6999083.466557822190225, 8982798.260381534695625 ], [ 6999070.251940157264471, 8982806.208799436688423 ], [ 6999056.202418372035027, 8982807.72489620000124 ], [ 6999048.398636282421649, 8982803.91885307058692 ], [ 6999039.692473185248673, 8982799.668383721262217 ], [ 6999039.947319310158491, 8982788.128419887274504 ], [ 6999046.687762918882072, 8982767.280463982373476 ], [ 6999051.479298640973866, 8982744.830134237185121 ], [ 6999049.545713557861745, 8982726.656042443588376 ], [ 6999042.446825878694654, 8982706.186847915872931 ], [ 6999030.414963219314814, 8982680.20404308103025 ], [ 6999022.342046670615673, 8982647.836010271683335 ], [ 6999021.767925555817783, 8982624.669060688465834 ], [ 6999024.123035822063684, 8982592.923874141648412 ], [ 6999028.330631660297513, 8982574.871111936867237 ], [ 6999035.372635608538985, 8982552.03299723751843 ], [ 6999042.078170170076191, 8982536.24161184579134 ], [ 6999041.001739576458931, 8982510.856155404821038 ], [ 6999035.779441446997225, 8982471.040897941216826 ], [ 6999042.409769118763506, 8982450.895389046519995 ], [ 6999047.75004187040031, 8982434.193873995915055 ], [ 6999049.796654887497425, 8982412.863989723846316 ], [ 6999043.599066389724612, 8982389.120748892426491 ], [ 6999030.583559405058622, 8982361.919044630602002 ], [ 6999015.729697601869702, 8982340.9884715359658 ], [ 6998995.590646465308964, 8982329.586858006194234 ], [ 6998979.642540169879794, 8982327.546242343261838 ], [ 6998957.061867128126323, 8982330.102875566110015 ], [ 6998928.481666160747409, 8982347.312749618664384 ], [ 6998902.544193219393492, 8982367.973841024562716 ], [ 6998899.848424982279539, 8982360.864655070006847 ], [ 6998891.839896669611335, 8982328.005723072215915 ], [ 6998884.039886985905468, 8982303.921847566962242 ], [ 6998866.857059590518475, 8982284.510175364091992 ], [ 6998837.96652901545167, 8982260.040618127211928 ], [ 6998816.623910363763571, 8982242.794124020263553 ], [ 6998783.482075704261661, 8982184.796079453080893 ], [ 6998762.6675536474213, 8982150.651208184659481 ], [ 6998758.391916083171964, 8982116.844966825097799 ], [ 6998761.011701079085469, 8982098.996990077197552 ], [ 6998767.713977506384254, 8982077.593150954693556 ], [ 6998782.799177857115865, 8982052.95988117903471 ], [ 6998795.068160612136126, 8982030.717222277075052 ], [ 6998798.823497448116541, 8982014.510838717222214 ], [ 6998795.516508879140019, 8981995.264642430469394 ], [ 6998782.472991058602929, 8981962.161565067246556 ], [ 6998762.287058003246784, 8981924.337646970525384 ], [ 6998732.404666665010154, 8981895.698404237627983 ], [ 6998703.808366431854665, 8981877.408902760595083 ], [ 6998686.475297765806317, 8981871.496267132461071 ], [ 6998662.125330410897732, 8981863.95936793461442 ], [ 6998641.298176864162087, 8981851.754888327792287 ], [ 6998625.708733879961073, 8981832.266598124057055 ], [ 6998598.208889624103904, 8981803.233392454683781 ], [ 6998581.660019463859499, 8981786.034330608323216 ], [ 6998576.428099430166185, 8981760.141688982024789 ], [ 6998576.528451669029891, 8981734.269867608323693 ], [ 6998580.955767339095473, 8981720.843212220817804 ], [ 6998587.460204310715199, 8981700.84345973469317 ], [ 6998601.513136551715434, 8981688.078064244240522 ], [ 6998608.72822299040854, 8981668.892168497666717 ], [ 6998614.124269344843924, 8981653.373391391709447 ], [ 6998616.336023105308414, 8981615.871868439018726 ], [ 6998615.910461815074086, 8981551.224904442206025 ], [ 6998609.469049545004964, 8981511.051237540319562 ], [ 6998601.777924615889788, 8981472.623050797730684 ], [ 6998589.425899093970656, 8981414.747209651395679 ], [ 6998577.424379657022655, 8981369.776330634951591 ], [ 6998569.331933998502791, 8981356.676873257383704 ], [ 6998550.812501573935151, 8981348.288855155929923 ], [ 6998542.432893924415112, 8981340.258184354752302 ], [ 6998540.685096083208919, 8981326.003268897533417 ], [ 6998542.62666663620621, 8981316.357313150539994 ], [ 6998562.996852120384574, 8981318.740915087983012 ], [ 6998588.799128773622215, 8981312.146192666143179 ], [ 6998614.177405589260161, 8981302.202050877735019 ], [ 6998635.759630594402552, 8981285.411326706409454 ], [ 6998661.046226357109845, 8981259.446955004706979 ], [ 6998675.274509519338608, 8981250.600400079041719 ], [ 6998693.760677890852094, 8981241.419811708852649 ], [ 6998717.486986128613353, 8981233.101001940667629 ], [ 6998752.216056034900248, 8981218.05559672601521 ], [ 6998772.302307007834315, 8981208.936871817335486 ], [ 6998794.342369053512812, 8981207.300076184794307 ], [ 6998815.494594575837255, 8981198.129679540172219 ], [ 6998831.148432767018676, 8981188.226184360682964 ], [ 6998842.37193610612303, 8981175.039455983787775 ], [ 6998838.088420950807631, 8981152.191755633801222 ], [ 6998837.969534422270954, 8981135.603374626487494 ], [ 6998836.198735972866416, 8981126.415946982800961 ], [ 6998810.95294142048806, 8981100.086430955678225 ], [ 6998784.011176556348801, 8981068.912011219188571 ], [ 6998763.869444159790874, 8981046.135281318798661 ], [ 6998758.701934818178415, 8981029.930944899097085 ], [ 6998768.282017966732383, 8981015.545535614714026 ], [ 6998784.426811230368912, 8980999.308210551738739 ], [ 6998801.923121407628059, 8980980.460489511489868 ], [ 6998808.396291576325893, 8980954.279611861333251 ], [ 6998820.391475666314363, 8980929.097846621647477 ], [ 6998836.366734331473708, 8980906.535405084490776 ], [ 6998850.359649056568742, 8980898.071736181154847 ], [ 6998861.364981683902442, 8980891.402910830453038 ], [ 6998885.732314585708082, 8980885.446330856531858 ], [ 6998936.761177094653249, 8980879.604106321930885 ], [ 6998968.59685735963285, 8980876.655597222968936 ], [ 6998997.429965056478977, 8980876.80417868681252 ], [ 6999013.250724069774151, 8980876.874342460185289 ], [ 6999057.331077121198177, 8980871.996118471026421 ], [ 6999078.598700968548656, 8980869.640899185091257 ], [ 6999127.528735500760376, 8980864.59732729382813 ], [ 6999209.275525482371449, 8980857.545186745002866 ], [ 6999245.577548455446959, 8980853.322518911212683 ], [ 6999254.998116930946708, 8980852.22688327729702 ], [ 6999279.366401921957731, 8980844.213027203455567 ], [ 6999285.233756934292614, 8980842.290172584354877 ], [ 6999291.599439937621355, 8980840.192097451537848 ], [ 6999333.965461375191808, 8980817.616688948124647 ], [ 6999398.845274785533547, 8980783.944499282166362 ], [ 6999403.771277221851051, 8980778.220714503899217 ], [ 6999404.408453261479735, 8980777.49258191511035 ], [ 6999402.397585017606616, 8980771.128830689936876 ], [ 6999349.122867457568645, 8980602.663470992818475 ], [ 6999337.756526946090162, 8980568.514570295810699 ], [ 6999253.265106750652194, 8980314.651461649686098 ], [ 6999551.606266637332737, 8979346.614027267321944 ], [ 6998726.843858369626105, 8979004.56482407823205 ], [ 6998643.940560564398766, 8978873.66270955465734 ], [ 6998653.534528041258454, 8978756.561878195032477 ], [ 6998885.532717728987336, 8978491.561812691390514 ], [ 6998854.732265367172658, 8978253.463092789053917 ], [ 6998509.731369516812265, 8978177.662771034985781 ], [ 6998175.430371579714119, 8978166.462969759479165 ], [ 6997751.232566028833389, 8978256.467655858024955 ], [ 6997471.930905416607857, 8978259.661749834194779 ], [ 6997397.427179880440235, 8978212.569380195811391 ], [ 6997243.629881391301751, 8977930.563719872385263 ], [ 6997161.625371905043721, 8977627.459416540339589 ], [ 6996928.626919090747833, 8977559.366489646956325 ], [ 6996646.730044443160295, 8977678.467382926493883 ], [ 6996532.727266620844603, 8977651.363613959401846 ], [ 6996428.525011060759425, 8977593.562229612842202 ], [ 6996304.823441497981548, 8977551.568961443379521 ], [ 6995684.703029405325651, 8983097.061639104038477 ], [ 6995683.002308392897248, 8983112.271300921216607 ], [ 6995682.483522903174162, 8983116.885734817013144 ], [ 6995677.672779918648303, 8983159.839947486296296 ], [ 6995487.349751142784953, 8983380.844566216692328 ], [ 6995388.087749077938497, 8983520.432360323145986 ], [ 6995249.228686443530023, 8983643.885038094595075 ], [ 6995056.638296935707331, 8983738.638625832274556 ], [ 6994948.222275141626596, 8983791.978223307058215 ], [ 6994905.970963596366346, 8983901.844628697261214 ], [ 6994919.87757180351764, 8984009.421464245766401 ], [ 6994965.349251419305801, 8984102.499191179871559 ], [ 6995093.164761027321219, 8984200.275283517315984 ], [ 6995655.436259143054485, 8984911.98617378436029 ], [ 6996329.641260167583823, 8985346.684904050081968 ], [ 6996499.347445886582136, 8985705.079591592773795 ], [ 6996865.544162472710013, 8985999.58165629580617 ], [ 6996879.050608326680958, 8986174.382477659732103 ], [ 6997020.445353623479605, 8988001.686270393431187 ], [ 6997035.450361988507211, 8988194.995937308296561 ], [ 6997501.45294432900846, 8988484.085782961919904 ], [ 6997695.359010684303939, 8988368.390094803646207 ], [ 6997900.655556904152036, 8988461.590571641921997 ], [ 6998094.454903188161552, 8988345.989022646099329 ], [ 6998134.345185634680092, 8988379.26822310872376 ], [ 6998232.052756206132472, 8988460.791595287621021 ], [ 6998301.057081029750407, 8988439.289399284869432 ], [ 6998350.854005908593535, 8988380.887083282694221 ], [ 6998393.158335976302624, 8988387.184931561350822 ], [ 6998459.753643499687314, 8988430.487001031637192 ], [ 6998521.462886240333319, 8988509.291233593598008 ], [ 6998578.663020079955459, 8988529.584307909011841 ], [ 6998672.162262552417815, 8988506.787748536095023 ], [ 6998742.76002867333591, 8988461.688660752028227 ], [ 6998787.654894706793129, 8988464.991710085421801 ], [ 6999025.85688569303602, 8988659.382471071556211 ], [ 6999418.7669369392097, 8988757.383456792682409 ], [ 6999724.966531346552074, 8988891.488203033804893 ], [ 6999858.867422117851675, 8989507.486443107947707 ], [ 7000084.173209175467491, 8989967.587420979514718 ], [ 7000006.862997275777161, 8990392.186869975179434 ], [ 6999760.470826348289847, 8990458.2849255874753 ], [ 6999877.366046850569546, 8990766.888695871457458 ], [ 7000143.574755481444299, 8991067.08780363202095 ], [ 7000167.640210513025522, 8991187.081637276336551 ], [ 7000171.876113280653954, 8991208.191260365769267 ], [ 7000161.867897231131792, 8991257.793208863586187 ], [ 7000130.870660288259387, 8991412.38610746525228 ], [ 7000083.973990574479103, 8991805.086218219250441 ], [ 7000047.178302563726902, 8992087.68036549910903 ], [ 6999806.117641158401966, 8992138.87228923663497 ], [ 7000547.891909740865231, 8992674.647298961877823 ], [ 7000694.107658373191953, 8992780.262449787929654 ], [ 7000589.901403155177832, 8992677.201563894748688 ], [ 7000559.576551243662834, 8992560.769741155207157 ], [ 7000559.447086378931999, 8992426.51690860465169 ], [ 7000573.412224165163934, 8992327.614016015082598 ], [ 7000601.295615090988576, 8992260.780612660571933 ], [ 7000641.886983786709607, 8992199.892151897773147 ], [ 7000681.390969537198544, 8992148.887094520032406 ], [ 7000720.894191774539649, 8992097.870220633223653 ], [ 7000785.799726040102541, 8992025.995135270059109 ], [ 7000802.229378066956997, 8991979.36132887750864 ], [ 7000780.710845686495304, 8991918.172851415351033 ], [ 7000795.120140683837235, 8991894.564660478383303 ], [ 7000778.582510858774185, 8991741.445445762947202 ], [ 7000747.312186647206545, 8991670.905015058815479 ], [ 7000705.812756085768342, 8991646.701279446482658 ], [ 7000700.553294756449759, 8991601.107735812664032 ], [ 7000710.011321807280183, 8991538.445466835051775 ], [ 7000732.782371947541833, 8991494.772755060344934 ], [ 7000772.136409655213356, 8991407.747142309322953 ], [ 7000774.324554937891662, 8991322.504529744386673 ], [ 7000763.032938228920102, 8991214.991549471393228 ], [ 7000745.075209211558104, 8991163.452934373170137 ], [ 7000700.938608230091631, 8991149.196709729731083 ], [ 7000638.224926453083754, 8991135.832025498151779 ], [ 7000616.856859171763062, 8991143.411839520558715 ], [ 7000541.589386626146734, 8991127.372388141229749 ], [ 7000505.352557027712464, 8991083.265859004110098 ], [ 7000499.485866, 8991024.604907987639308 ], [ 7000476.885266236029565, 8990940.553062563762069 ], [ 7000405.19401977211237, 8990868.677503805607557 ], [ 7000345.274249272421002, 8990783.151966780424118 ], [ 7000301.613768294453621, 8990713.208771714940667 ], [ 7000238.284430677071214, 8990621.281755920499563 ], [ 7000179.29021761752665, 8990555.352407954633236 ], [ 7000148.789645066484809, 8990501.152205090969801 ], [ 7000138.8597741574049, 8990426.940959215164185 ], [ 7000174.946137346327305, 8990184.398033915087581 ], [ 7000215.839299214072526, 8989909.60722223483026 ], [ 7000330.367189488373697, 8989139.784821145236492 ], [ 7000431.464879975654185, 8989165.080893095582724 ], [ 7000519.269031815230846, 8989249.587156368419528 ], [ 7000542.663547014817595, 8989337.48103353753686 ], [ 7000714.566430853679776, 8989510.381335366517305 ], [ 7000729.168419437482953, 8989710.98407613299787 ], [ 7000792.675668607465923, 8989793.081519754603505 ], [ 7000858.866596760228276, 8989917.480107503011823 ], [ 7000943.072628349065781, 8990009.786949552595615 ], [ 7001258.972950193099678, 8990042.58041456528008 ], [ 7001494.971568927168846, 8990121.585942024365067 ], [ 7001614.980058815330267, 8990061.486476570367813 ], [ 7001775.774660184979439, 8989796.286162007600069 ], [ 7001793.6738216932863, 8989701.229900324717164 ], [ 7001795.92808040138334, 8989672.74076477997005 ], [ 7001794.294395214878023, 8989668.949221167713404 ], [ 7001785.776307824999094, 8989635.620387125760317 ], [ 7001790.119566569104791, 8989597.733253058046103 ], [ 7001792.489478342235088, 8989563.311358481645584 ], [ 7001788.499365912750363, 8989529.753176402300596 ], [ 7001779.952008222229779, 8989495.577402368187904 ], [ 7001764.646707103587687, 8989453.858642522245646 ], [ 7001742.034306230023503, 8989387.178880821913481 ], [ 7001737.594612092711031, 8989349.71421560831368 ], [ 7001736.987050352618098, 8989314.308256130665541 ], [ 7001729.649753106757998, 8989277.540844200178981 ], [ 7001716.169325163587928, 8989257.38610952720046 ], [ 7001694.602305420674384, 8989235.365755749866366 ], [ 7001666.649026788771152, 8989213.652651064097881 ], [ 7001645.321376066654921, 8989196.687986303120852 ], [ 7001635.551516686566174, 8989170.439334908500314 ], [ 7001631.860939338803291, 8989126.465466842055321 ], [ 7001633.344014817848802, 8989084.497339142486453 ], [ 7001627.026017107069492, 8989058.094291292130947 ], [ 7001611.304374158382416, 8989035.514029061421752 ], [ 7001592.558716498315334, 8989017.007470158860087 ], [ 7001567.223139764741063, 8988994.04143437743187 ], [ 7001549.660933524370193, 8988943.994508739560843 ], [ 7001538.959188739769161, 8988892.490228226408362 ], [ 7001536.726851612329483, 8988845.355002079159021 ], [ 7001535.34824426099658, 8988788.335024859756231 ], [ 7001536.323938887566328, 8988730.086049571633339 ], [ 7001531.924876108765602, 8988699.081580687314272 ], [ 7001514.083078775554895, 8988643.144518651068211 ], [ 7001494.491791237145662, 8988589.813673069700599 ], [ 7001468.091649217531085, 8988510.661646828055382 ], [ 7001447.106316206045449, 8988461.628436928614974 ], [ 7001425.513106409460306, 8988410.927796764299273 ], [ 7001420.075968405231833, 8988386.156271966174245 ], [ 7001423.911251120269299, 8988365.726537182927132 ], [ 7001435.631503503769636, 8988331.9821668099612 ], [ 7001431.4451366905123, 8988305.476894784718752 ], [ 7001416.103934274986386, 8988279.775983652099967 ], [ 7001398.454081997275352, 8988239.298796033486724 ], [ 7001382.811853897757828, 8988190.275996839627624 ], [ 7001374.559086707420647, 8988153.9835294354707 ], [ 7001373.695859394967556, 8988121.821256637573242 ], [ 7001381.605507295578718, 8988069.282003574073315 ], [ 7001384.54081008490175, 8988035.681644709780812 ], [ 7001380.604156865738332, 8987997.484590660780668 ], [ 7001371.208030177280307, 8987979.377165984362364 ], [ 7001349.03759990632534, 8987966.952029157429934 ], [ 7001326.473710705526173, 8987966.214062128216028 ], [ 7001315.255246904678643, 8987967.997845826670527 ], [ 7001303.720227257348597, 8987969.843356540426612 ], [ 7001268.935451426543295, 8987975.307163514196873 ], [ 7001248.622619624249637, 8987974.181832598522305 ], [ 7001242.603677234612405, 8987972.24032093770802 ], [ 7001226.159304328262806, 8987966.965708658099174 ], [ 7001198.853143563494086, 8987947.756829792633653 ], [ 7001182.550001508556306, 8987918.732425969094038 ], [ 7001179.62842504773289, 8987896.373631970956922 ], [ 7001184.066685572266579, 8987866.362005550414324 ], [ 7001192.015508029609919, 8987826.047213170677423 ], [ 7001192.696175053715706, 8987789.743268111720681 ], [ 7001190.514096829108894, 8987757.656401513144374 ], [ 7001177.457064445130527, 8987726.930108638480306 ], [ 7001169.290044097229838, 8987692.458572179079056 ], [ 7001172.627815904095769, 8987667.125324139371514 ], [ 7001172.653217165730894, 8987636.75675106421113 ], [ 7001160.528298664838076, 8987617.095928126946092 ], [ 7001157.50014228746295, 8987615.498553939163685 ], [ 7001142.212625654414296, 8987607.437404256314039 ], [ 7001109.564194846898317, 8987599.166618099436164 ], [ 7001105.589113880880177, 8987596.417836587876081 ], [ 7001077.316745604388416, 8987576.81439702026546 ], [ 7001041.986171066761017, 8987551.240488551557064 ], [ 7000988.90978767350316, 8987511.064847772940993 ], [ 7000934.988077063113451, 8987464.445270918309689 ], [ 7000888.643418109044433, 8987425.909670937806368 ], [ 7000870.693422212265432, 8987395.849647605791688 ], [ 7000872.439748142845929, 8987359.494870668277144 ], [ 7000888.582580937072635, 8987328.908014150336385 ], [ 7000904.88918299973011, 8987279.474754815921187 ], [ 7000932.556271465495229, 8987250.308141183108091 ], [ 7000955.576968398876488, 8987229.790936836972833 ], [ 7000959.555123771540821, 8987206.821034818887711 ], [ 7000936.92438437230885, 8987165.179191103205085 ], [ 7000913.524239918217063, 8987124.271791962906718 ], [ 7000890.3788898345083, 8987094.311266995966434 ], [ 7000857.646347369067371, 8987078.45644217543304 ], [ 7000846.548456837423146, 8987078.131270138546824 ], [ 7000821.472962480038404, 8987077.387264914810658 ], [ 7000752.754698638804257, 8987083.929517226293683 ], [ 7000740.667529945261776, 8987081.560137566179037 ], [ 7000728.002218491397798, 8987079.079160513356328 ], [ 7000709.943813602440059, 8987069.269290594384074 ], [ 7000688.730409651063383, 8987043.573947196826339 ], [ 7000665.778966668993235, 8986992.383747454732656 ], [ 7000648.248531396500766, 8986931.925826106220484 ], [ 7000642.307200295850635, 8986902.124437274411321 ], [ 7000624.162011389620602, 8986879.105424344539642 ], [ 7000597.562229478731751, 8986852.263753402978182 ], [ 7000579.942179369740188, 8986823.5947779212147 ], [ 7000551.81702714972198, 8986775.74565053358674 ], [ 7000530.960473926737905, 8986757.343321522697806 ], [ 7000518.400958785787225, 8986734.334190832450986 ], [ 7000502.581499360501766, 8986676.048881277441978 ], [ 7000485.977451503276825, 8986623.983993912115693 ], [ 7000466.176002249121666, 8986594.153746839612722 ], [ 7000442.589847018942237, 8986577.428844971582294 ], [ 7000414.003613822162151, 8986556.31974726729095 ], [ 7000401.640268509276211, 8986545.805829966440797 ], [ 7000389.192457667551935, 8986527.707324761897326 ], [ 7000374.965685315430164, 8986498.11985071003437 ], [ 7000351.489940063096583, 8986449.129256043583155 ], [ 7000346.420530449599028, 8986443.284136096015573 ], [ 7000339.790851059369743, 8986435.898891400545835 ], [ 7000338.562109709717333, 8986426.951689342036843 ], [ 7000309.89830101840198, 8986384.475193448364735 ], [ 7000270.599866294302046, 8986348.415089923888445 ], [ 7000250.556531966663897, 8986319.294242188334465 ], [ 7000234.626275861635804, 8986275.634614447131753 ], [ 7000217.871735712513328, 8986242.694627927616239 ], [ 7000187.152776017785072, 8986196.378076473250985 ], [ 7000133.165889026597142, 8986125.884473076090217 ], [ 7000095.829571297392249, 8986069.195923238992691 ], [ 7000061.680571306496859, 8986012.353832341730595 ], [ 7000038.517458668909967, 8985962.303344894200563 ], [ 7000029.404461091384292, 8985910.726988365873694 ], [ 7000028.949965295381844, 8985873.073439015075564 ], [ 7000039.193304218351841, 8985819.436258221045136 ], [ 7000030.842522442340851, 8985744.476459549739957 ], [ 7000032.480193379335105, 8985678.041177287697792 ], [ 7000026.738306444138288, 8985629.962921207770705 ], [ 7000016.163847263902426, 8985553.425432411953807 ], [ 7000014.693788839504123, 8985516.669213686138391 ], [ 7000022.753233628347516, 8985467.634571308270097 ], [ 7000038.999960169196129, 8985439.297076432034373 ], [ 7000056.365597296506166, 8985412.021162146702409 ], [ 7000087.352698893286288, 8985368.63180385902524 ], [ 7000119.786812405101955, 8985322.081239603459835 ], [ 7000150.79240463860333, 8985290.218849193304777 ], [ 7000186.158173151314259, 8985260.400406995788217 ], [ 7000207.581586706452072, 8985241.562768992036581 ], [ 7000217.549842734821141, 8985232.958434734493494 ], [ 7000298.085290879011154, 8985246.596020568162203 ], [ 7000397.160591994412243, 8985264.870421135798097 ], [ 7000483.16146444529295, 8985279.6968166641891 ], [ 7000580.871195625513792, 8985297.049278665333986 ], [ 7000700.094915209338069, 8985318.569589056074619 ], [ 7000706.046641111373901, 8985320.257930085062981 ], [ 7000789.719466893933713, 8985336.393654152750969 ], [ 7000790.476121932268143, 8985335.857402887195349 ], [ 7000814.51801392622292, 8985331.32656092941761 ], [ 7000840.547792571596801, 8985323.887320563197136 ], [ 7000846.059749114327133, 8985319.797742649912834 ], [ 7000859.605273662135005, 8985309.741990813985467 ], [ 7000902.764211694709957, 8985343.09255475923419 ], [ 7000939.095100700855255, 8985367.208279242739081 ], [ 7000979.359343249350786, 8985384.382023435086012 ], [ 7001006.401813069358468, 8985375.766521224752069 ], [ 7001054.980369247496128, 8985332.373612388968468 ], [ 7001074.383619598113, 8985297.687513813376427 ], [ 7001045.903724912554026, 8985259.130585726350546 ], [ 7000999.403973329812288, 8985273.473823487758636 ], [ 7000945.404379148036242, 8985255.173723135143518 ], [ 7000922.437083183787763, 8985234.794303404167295 ], [ 7000902.702657499350607, 8985213.828829316422343 ], [ 7000883.390868930146098, 8985150.296447874978185 ], [ 7000879.908845707774162, 8985102.758073683828115 ], [ 7000867.866568358615041, 8985055.203079359605908 ], [ 7000856.100280073471367, 8985013.22476894967258 ], [ 7000866.617396767251194, 8984977.468705018982291 ], [ 7000881.049376647919416, 8984938.095169050619006 ], [ 7000895.836131203919649, 8984897.844438517466187 ], [ 7000923.280596426688135, 8984875.448987692594528 ], [ 7000942.754042225889862, 8984830.671743789687753 ], [ 7000937.543922461569309, 8984789.66671197861433 ], [ 7000916.534200677648187, 8984742.114916447550058 ], [ 7000895.965797627344728, 8984720.760173654183745 ], [ 7000882.311687199398875, 8984718.095975702628493 ], [ 7000828.939988326281309, 8984707.669593587517738 ], [ 7000784.898796473629773, 8984689.598781909793615 ], [ 7000772.967387903481722, 8984678.913879714906216 ], [ 7000714.267773823812604, 8984626.396218277513981 ], [ 7000673.212082744576037, 8984585.39167196303606 ], [ 7000661.851802376098931, 8984543.394308334216475 ], [ 7000658.650782305747271, 8984476.074774470180273 ], [ 7000666.157797858119011, 8984437.035865310579538 ], [ 7000685.415342181921005, 8984387.969293659552932 ], [ 7000695.475898777134717, 8984359.545151755213737 ], [ 7000687.786718055605888, 8984334.988615415990353 ], [ 7000651.853060767054558, 8984281.708930596709251 ], [ 7000611.222012676298618, 8984261.452090015634894 ], [ 7000604.700780248269439, 8984258.211049309000373 ], [ 7000593.301247442141175, 8984264.038023412227631 ], [ 7000560.15707912761718, 8984280.991463823243976 ], [ 7000510.794743210077286, 8984305.29453887976706 ], [ 7000497.32564489915967, 8984307.676915850490332 ], [ 7000460.698439469560981, 8984314.164892541244626 ], [ 7000361.855039104819298, 8984308.620790271088481 ], [ 7000278.808148617856205, 8984301.453408570960164 ], [ 7000256.630212098360062, 8984304.395898444578052 ], [ 7000200.610760643146932, 8984268.856887625530362 ], [ 7000193.850398006848991, 8984275.412462595850229 ], [ 7000163.118828140199184, 8984301.638662308454514 ], [ 7000139.075861296616495, 8984323.044255601242185 ], [ 7000103.36311446968466, 8984341.120432570576668 ], [ 7000091.887638762593269, 8984328.670716430991888 ], [ 7000089.665556811727583, 8984326.418967200443149 ] ] ], [ [ [ 6999735.925305256620049, 8982981.679532768204808 ], [ 6999765.587199116125703, 8983128.110574692487717 ], [ 7000050.768086803145707, 8983081.872458273544908 ], [ 7000042.222482081502676, 8983018.985332453623414 ], [ 7000091.043994970619678, 8983017.158401785418391 ], [ 7000122.571814615279436, 8982874.679751504212618 ], [ 7000028.205295132473111, 8982840.953227384015918 ], [ 7000010.072651361115277, 8982767.362125566229224 ], [ 6999892.717171550728381, 8982632.087592598050833 ], [ 6999715.591722150333226, 8982660.331764293834567 ], [ 6999597.488790209405124, 8982816.571151349693537 ], [ 6999742.432968194596469, 8982853.440885121002793 ], [ 6999750.336068086326122, 8982887.096513347700238 ], [ 6999735.925305256620049, 8982981.679532768204808 ] ] ] ] } }
]
}
