{
"type": "FeatureCollection",
"name": "2610301",
"crs": { "type": "name", "properties": { "name": "urn:ogc:def:crs:EPSG::5880" } },
"features": [
{ "type": "Feature", "properties": { "lv_id": "LOC_025660", "id": 115113.0, "CD_SETOR": "261030105000003", "SITUACAO": "Urbana", "CD_SIT": "1", "CD_TIPO": "0", "AREA_KM2": 0.16653832227759999, "CD_REGIAO": "2", "NM_REGIAO": "Nordeste", "CD_UF": "26", "NM_UF": "Pernambuco", "CD_MUN": "2610301", "NM_MUN": "Paranatama", "CD_DIST": "261030105", "NM_DIST": "Paranatama", "CD_SUBDIST": "26103010500", "NM_SUBDIST": null, "CD_BAIRRO": null, "NM_BAIRRO": null, "CD_NU": null, "NM_NU": null, "CD_FCU": null, "NM_FCU": null, "CD_AGLOM": null, "NM_AGLOM": null, "CD_RGINT": "2602", "NM_RGINT": "Caruaru", "CD_RGI": "260010", "NM_RGI": "Garanhuns", "CD_CONCURB": null, "NM_CONCURB": null, "mun_code_x": "2610301", "index_right": 51126, "dist_m": 0.0, "local_id": 267505, "ano": 2022, "cod_localidade_ibge": 2610301, "NR_ZONA": "92", "nr_cep": 55355000.0, "nm_localidade": "PARANATAMA", "nm_locvot": "ESCOLA JOAO BEZERRA SOBRINHO", "ds_endereco": "AVENIDA RUI BARBOSA, 85", "ds_bairro": "CENTRO", "pred_long": -36.655991, "pred_lat": -8.920561, "pred_dist": 0.0, "tse_long": -36.6561048, "tse_lat": -8.9205027, "long": -36.6561048, "lat": -8.9205027, "ID_UNICO": "LOC_025660", "SG_UF": "PE", "CD_MUNICIPIO": "25054", "NR_LOCAL_VOTACAO": "1252", "QT_SECOES_AGREGADAS": 0, "QT_ELEITORES_TRANSFERIDOS": 0, "CIRO GOMES (PDT) (NÃO ELEITO) 1T": 32.0, "CONSTITUINTE EYMAEL (DC) (NÃO ELEITO) 1T": 0.0, "FELIPE D AVILA (NOVO) (NÃO ELEITO) 1T": 3.0, "JAIR BOLSONARO (PL) (2º TURNO) 1T": 161.0, "LULA (PT) (2º TURNO) 1T": 1024.0, "LÉO PÉRICLES (UP) (NÃO ELEITO) 1T": 0.0, "PADRE KELMON (PTB) (NÃO ELEITO) 1T": 0.0, "SIMONE TEBET (MDB) (NÃO ELEITO) 1T": 11.0, "SOFIA MANZANO (PCB) (NÃO ELEITO) 1T": 0.0, "SORAYA THRONICKE (UNIÃO) (NÃO ELEITO) 1T": 3.0, "VERA (PSTU) (NÃO ELEITO) 1T": 0.0, "Total_Votos_Validos 1T": 1234.0, "Votos_Brancos 1T": 15.0, "Votos_Nulos 1T": 54.0, "Abstenções 1T": 281.0, "Eleitores_Aptos 1T": 1584.0, "JAIR BOLSONARO (PL) (NÃO ELEITO) 2T": 178.0, "LULA (PT) (ELEITO) 2T": 1062.0, "Total_Votos_Validos 2T": 1240.0, "Votos_Brancos 2T": 14.0, "Votos_Nulos 2T": 61.0, "Abstenções 2T": 269.0, "Eleitores_Aptos 2T": 1584.0, "mun_code_y": "2610301", "mun_code": "2610301" }, "geometry": { "type": "Polygon", "coordinates": [ [ [ 6906241.522065650671721, 8967211.657921569421887 ], [ 6906160.816029667854309, 8967228.157860182225704 ], [ 6903990.594382625073195, 8967009.79585225507617 ], [ 6903950.508911682292819, 8967005.756165565922856 ], [ 6903991.872791537083685, 8967022.184124359861016 ], [ 6903984.786803448572755, 8967058.87875927425921 ], [ 6903951.986196415498853, 8967170.060126623138785 ], [ 6903942.585591221228242, 8967210.033293958753347 ], [ 6903929.745104698464274, 8967270.587407309561968 ], [ 6903921.644823459908366, 8967342.453103253617883 ], [ 6903918.403738378547132, 8967444.135293111205101 ], [ 6903906.128374920226634, 8967534.036392867565155 ], [ 6903904.768449091352522, 8967576.24624958820641 ], [ 6903919.50927825178951, 8967623.553904164582491 ], [ 6903926.233558068051934, 8967653.942354388535023 ], [ 6903919.505630174651742, 8967668.90470408461988 ], [ 6903881.123235175386071, 8967702.383087633177638 ], [ 6903855.321837723255157, 8967729.613333832472563 ], [ 6903843.70836138818413, 8967760.099208517000079 ], [ 6903837.899584668688476, 8967798.017447801306844 ], [ 6903853.811571858823299, 8967843.99752364307642 ], [ 6903879.386020411737263, 8967887.036679156124592 ], [ 6903913.886478125117719, 8967939.293861623853445 ], [ 6903933.85457316134125, 8967964.675965683534741 ], [ 6903947.214704187586904, 8967992.867235818877816 ], [ 6903957.041447095572948, 8968024.405896008014679 ], [ 6903979.488097054883838, 8968080.989190904423594 ], [ 6903998.903753486461937, 8968122.98743905685842 ], [ 6904008.540981414727867, 8968195.408629627898335 ], [ 6904014.771953893825412, 8968243.706261333078146 ], [ 6904014.030418052338064, 8968301.21620131470263 ], [ 6904006.941512746736407, 8968337.898901868611574 ], [ 6904010.639696314930916, 8968369.05437008664012 ], [ 6904014.341714266687632, 8968415.527108449488878 ], [ 6904029.61867260094732, 8968460.889811087399721 ], [ 6904034.294060560874641, 8968516.27138120867312 ], [ 6904031.363147269003093, 8968580.258606411516666 ], [ 6904030.151725097559392, 8968610.961907448247075 ], [ 6904030.736194766126573, 8968670.977941440418363 ], [ 6904032.941733194515109, 8968725.815961588174105 ], [ 6904030.248417358845472, 8968750.19107179902494 ], [ 6904014.001361813396215, 8968801.938076533377171 ], [ 6904001.921552425250411, 8968820.945793801918626 ], [ 6903975.819197108969092, 8968840.518691506236792 ], [ 6903963.03218827303499, 8968872.331716403365135 ], [ 6903923.446405861526728, 8968936.522256808355451 ], [ 6903866.838147963397205, 8969003.315586935728788 ], [ 6903841.140705213882029, 8969033.084459146484733 ], [ 6903775.85670773871243, 8969097.033116126433015 ], [ 6903689.006073623895645, 8969186.761408075690269 ], [ 6903663.186587035655975, 8969228.671159084886312 ], [ 6903625.334668886847794, 8969290.869720516726375 ], [ 6903511.700333697721362, 8969459.593806594610214 ], [ 6903452.759367152117193, 8969544.355373138561845 ], [ 6903307.587958164513111, 8969764.796479418873787 ], [ 6903227.625965531915426, 8969889.365028958767653 ], [ 6903203.50089059304446, 8969912.695196676999331 ], [ 6903178.661163913086057, 8969918.162190746515989 ], [ 6903155.21748417802155, 8969925.727091785520315 ], [ 6903151.301586447283626, 8969940.116694394499063 ], [ 6903190.562437666580081, 8969949.626568617299199 ], [ 6903308.999348070472479, 8969978.49575537443161 ], [ 6903460.093698963522911, 8970008.81999116204679 ], [ 6903804.288134266622365, 8970086.901586642488837 ], [ 6903774.297099623829126, 8970324.207589393481612 ], [ 6903739.31991970911622, 8970580.696009173989296 ], [ 6903704.994402770884335, 8970786.712815774604678 ], [ 6903695.761987697333097, 8970830.736311150714755 ], [ 6903680.061986206099391, 8970902.110365049913526 ], [ 6903628.233143788762391, 8971004.201225509867072 ], [ 6903608.245037221349776, 8971041.346889292821288 ], [ 6903582.853889267891645, 8971091.690740508958697 ], [ 6903537.209515452384949, 8971195.168641271069646 ], [ 6903504.885388016700745, 8971310.308845091611147 ], [ 6903489.998198163695633, 8971352.074166035279632 ], [ 6903412.330288129858673, 8971553.404051341116428 ], [ 6903396.614805072546005, 8971597.278494633734226 ], [ 6903360.058339333161712, 8971668.908813752233982 ], [ 6903336.540950953960419, 8971708.58982352539897 ], [ 6903297.55356827378273, 8971782.195891238749027 ], [ 6903221.218456138856709, 8971901.693219188600779 ], [ 6903172.438900925219059, 8971976.9129947591573 ], [ 6903169.078556129708886, 8971980.691011829301715 ], [ 6903139.829362048767507, 8972014.519390739500523 ], [ 6903033.387359855696559, 8972074.941976822912693 ], [ 6903006.062000103294849, 8972092.935408195480704 ], [ 6902969.09878241084516, 8972121.131341317668557 ], [ 6902945.511600904166698, 8972142.593973653391004 ], [ 6902897.418140503577888, 8972197.361728420481086 ], [ 6902862.067793873138726, 8972240.740522179752588 ], [ 6902835.672115784138441, 8972268.40744886547327 ], [ 6902779.512137143872678, 8972322.325143288820982 ], [ 6902771.451832682825625, 8972332.118293171748519 ], [ 6902762.856694327667356, 8972342.491697702556849 ], [ 6902747.795954214408994, 8972360.466722598299384 ], [ 6902690.338624280877411, 8972435.001204054802656 ], [ 6902588.500439441762865, 8972593.811550788581371 ], [ 6902552.122098624706268, 8972657.226591462269425 ], [ 6902542.685342666693032, 8972672.046481497585773 ], [ 6902501.51504086330533, 8972728.003729172050953 ], [ 6902492.640830513089895, 8972737.822982598096132 ], [ 6902471.659453941509128, 8972764.252507265657187 ], [ 6902462.292866373434663, 8972775.575432810932398 ], [ 6902412.775592266581953, 8972835.114680325612426 ], [ 6902386.84256599098444, 8972864.250706860795617 ], [ 6902330.270088398829103, 8972929.602045485749841 ], [ 6902240.883522069081664, 8973048.05464543774724 ], [ 6902209.684736279770732, 8973107.30430905520916 ], [ 6902193.664591960608959, 8973176.25658967345953 ], [ 6902188.020993446931243, 8973212.750756135210395 ], [ 6902175.529188321903348, 8973258.356085939332843 ], [ 6902162.660597858019173, 8973280.449770733714104 ], [ 6902150.098930845968425, 8973291.26194903254509 ], [ 6902124.482533695176244, 8973315.812807632610202 ], [ 6902075.507255382835865, 8973357.741007816046476 ], [ 6902035.963739569298923, 8973396.938515359535813 ], [ 6901982.659867281094193, 8973454.65005393140018 ], [ 6901920.607753420248628, 8973537.154206415638328 ], [ 6901885.68916018307209, 8973605.112519139423966 ], [ 6901714.822018257342279, 8973783.369103400036693 ], [ 6901668.402399009093642, 8973836.859165091067553 ], [ 6901608.835551997646689, 8973921.743294635787606 ], [ 6901525.641563603654504, 8974031.140957556664944 ], [ 6901554.729246015660465, 8974066.292399238795042 ], [ 6901606.653890397399664, 8974097.128981964662671 ], [ 6901711.393605241551995, 8974155.892136229202151 ], [ 6901785.944304211065173, 8974168.473207946866751 ], [ 6901841.600719918496907, 8974159.262207612395287 ], [ 6901896.996512204408646, 8974150.849853571504354 ], [ 6901924.118960341438651, 8974145.143515627831221 ], [ 6901982.578273541294038, 8974140.139504188671708 ], [ 6902234.456024431623518, 8974118.541037099435925 ], [ 6902321.949242928996682, 8974104.860254764556885 ], [ 6902390.666458503343165, 8974082.51108592748642 ], [ 6902536.948071826249361, 8974011.822371872141957 ], [ 6902731.810644068755209, 8973919.593675903975964 ], [ 6902765.445360558107495, 8973904.894861083477736 ], [ 6902808.93984133657068, 8973899.8814070019871 ], [ 6902847.018214263953269, 8973894.657813156023622 ], [ 6902858.107430279254913, 8973892.046665489673615 ], [ 6902874.027437008917332, 8973886.73454924300313 ], [ 6902907.410994545556605, 8973871.364675331860781 ], [ 6902949.036834848113358, 8973851.815801477059722 ], [ 6902992.417461763136089, 8973839.299486253410578 ], [ 6903045.174684725701809, 8973825.720922080799937 ], [ 6903092.00634865090251, 8973824.079659271985292 ], [ 6903158.616186713799834, 8973835.177867215126753 ], [ 6903219.738923007622361, 8973832.071479205042124 ], [ 6903336.727138508111238, 8973824.553553573787212 ], [ 6903385.271391260437667, 8973820.645616203546524 ], [ 6903463.951939242891967, 8973822.700507745146751 ], [ 6903731.105062568560243, 8974279.796594703570008 ], [ 6903772.499771414324641, 8974274.128811061382294 ], [ 6903813.189042929559946, 8974272.276871720328927 ], [ 6903856.395816426724195, 8974316.073619030416012 ], [ 6903880.124708388932049, 8974324.21011902205646 ], [ 6903911.268904157914221, 8974345.860148442909122 ], [ 6903955.551148182712495, 8974366.827908024191856 ], [ 6903968.872746671549976, 8974371.574393216520548 ], [ 6904099.295189722441137, 8974300.102276323363185 ], [ 6904120.073588147759438, 8974305.854366306215525 ], [ 6904149.267457809299231, 8974305.683851538226008 ], [ 6904226.489497750997543, 8974291.807485541328788 ], [ 6904280.236727104522288, 8974282.982897993177176 ], [ 6904324.832387040369213, 8974276.28590221889317 ], [ 6904355.426732143387198, 8974277.357177957892418 ], [ 6904399.207212131470442, 8974266.822474271059036 ], [ 6904469.613953424617648, 8974249.850578194484115 ], [ 6904578.676351497881114, 8974226.076500555500388 ], [ 6904618.06535086967051, 8974216.544622989371419 ], [ 6904650.346625254489481, 8974203.06380956992507 ], [ 6904713.408329233527184, 8974162.150105936452746 ], [ 6904766.639594226144254, 8974156.715213861316442 ], [ 6904830.747004967182875, 8974170.602359794080257 ], [ 6904829.393789928406477, 8974233.810893209651113 ], [ 6904828.54188687633723, 8974268.188402578234673 ], [ 6904861.201505242846906, 8974421.866645654663444 ], [ 6904860.567349451594055, 8974523.706358885392547 ], [ 6904868.414246125146747, 8974618.185582544654608 ], [ 6904885.672013759613037, 8974651.533030413091183 ], [ 6904926.548158532939851, 8974698.7492985278368 ], [ 6904974.727983644232154, 8974755.852280341088772 ], [ 6905010.134809114970267, 8974852.470833921805024 ], [ 6905012.944352384656668, 8974856.817121563479304 ], [ 6905020.560823573730886, 8974939.842494199052453 ], [ 6905014.58947117254138, 8975043.956393443048 ], [ 6904999.141090994700789, 8975140.020267706364393 ], [ 6904959.89593349583447, 8975288.538519656285644 ], [ 6904934.750036891549826, 8975330.319483717903495 ], [ 6904914.166548780165613, 8975560.051190299913287 ], [ 6904890.435270954854786, 8975817.440830163657665 ], [ 6904733.810195464640856, 8976128.501363068819046 ], [ 6904728.918901395983994, 8976180.015539951622486 ], [ 6904720.165445103310049, 8976275.487453572452068 ], [ 6904718.723355256021023, 8976329.224144631996751 ], [ 6904724.483921555802226, 8976359.718341879546642 ], [ 6904737.211638757027686, 8976400.936653021723032 ], [ 6904739.29065580572933, 8976411.923125712200999 ], [ 6904739.936131021939218, 8976429.582382287830114 ], [ 6904738.373995143920183, 8976462.719926722347736 ], [ 6904734.768653934821486, 8976470.778028879314661 ], [ 6904716.900995646603405, 8976523.891320867463946 ], [ 6904663.85587752237916, 8976644.540482463315129 ], [ 6904618.812090554274619, 8976750.239352315664291 ], [ 6904595.512687262147665, 8976790.589650262147188 ], [ 6904562.53363583330065, 8976831.656527264043689 ], [ 6904501.18831991404295, 8976928.175284599885345 ], [ 6904478.279725273139775, 8976969.374587710946798 ], [ 6904358.063242215663195, 8977218.577613025903702 ], [ 6904288.582670727744699, 8977390.138408672064543 ], [ 6904288.925491094589233, 8977435.322297278791666 ], [ 6904290.960404492914677, 8977466.255528965964913 ], [ 6904305.204768562689424, 8977580.95844261161983 ], [ 6904328.232949352823198, 8977676.372451523318887 ], [ 6904339.921686387620866, 8977731.255717979744077 ], [ 6904333.338946925476193, 8977751.009244982153177 ], [ 6904302.56521371845156, 8977806.374658398330212 ], [ 6904256.080433493480086, 8977892.329731531441212 ], [ 6904240.167967357672751, 8977921.644740998744965 ], [ 6904244.963467694818974, 8977969.340157054364681 ], [ 6904362.238633525557816, 8978120.427355036139488 ], [ 6904410.294752106070518, 8978233.374130021780729 ], [ 6904446.364739411510527, 8978324.827913865447044 ], [ 6904457.301010359078646, 8978355.382370788604021 ], [ 6904479.116156153380871, 8978372.450814709067345 ], [ 6904540.437145451083779, 8978412.949942907318473 ], [ 6904607.799978401511908, 8978468.509012054651976 ], [ 6904599.366910556331277, 8978491.877115923911333 ], [ 6904595.710655756294727, 8978524.567685782909393 ], [ 6904591.229401548393071, 8978533.718828169628978 ], [ 6904586.094049889594316, 8978541.812871379777789 ], [ 6904578.377741828560829, 8978548.615425158292055 ], [ 6904566.08998189587146, 8978553.224048702046275 ], [ 6904561.178324911743402, 8978561.874563053250313 ], [ 6904559.644144487567246, 8978573.098417272791266 ], [ 6904565.333738810382783, 8978589.366194287315011 ], [ 6904564.224334282800555, 8978595.919552141800523 ], [ 6904562.28455984313041, 8978605.982209073379636 ], [ 6904559.715864399448037, 8978612.892601015046239 ], [ 6904551.74624512065202, 8978619.695317476987839 ], [ 6904539.346079370938241, 8978620.167396642267704 ], [ 6904535.325905454345047, 8978627.365035040304065 ], [ 6904533.66595795378089, 8978636.084232825785875 ], [ 6904532.993546210229397, 8978648.332372615113854 ], [ 6904534.060023060068488, 8978655.027562655508518 ], [ 6904536.07876343652606, 8978674.820925038307905 ], [ 6904533.189323843456805, 8978696.36945285089314 ], [ 6904526.054226004518569, 8978714.181768210604787 ], [ 6904513.582898765802383, 8978733.780677435919642 ], [ 6904498.44929788261652, 8978743.819989340379834 ], [ 6904490.974356181919575, 8978759.021878395229578 ], [ 6904482.358045430853963, 8978782.004872713238001 ], [ 6904470.645517122931778, 8978795.089801961556077 ], [ 6904444.793557886965573, 8978809.14394254796207 ], [ 6904419.133151711896062, 8978815.356948688626289 ], [ 6904388.057766414247453, 8978849.05477624759078 ], [ 6904332.759625647217035, 8978877.075121426954865 ], [ 6904299.420207019895315, 8978910.634880125522614 ], [ 6904274.693840756081045, 8978934.365828618407249 ], [ 6904290.715744018554688, 8978943.004033908247948 ], [ 6904332.888328148983419, 8978949.64094484783709 ], [ 6904454.610185250639915, 8978973.036833291873336 ], [ 6904491.190006030723453, 8978981.148238066583872 ], [ 6904541.496105655096471, 8978989.848376117646694 ], [ 6904600.343266665004194, 8979002.779386384412646 ], [ 6904656.503601178526878, 8979008.257453069090843 ], [ 6904692.0591961722821, 8979026.227020250633359 ], [ 6904706.988002839498222, 8979049.712991431355476 ], [ 6904739.436936981976032, 8979054.186936227604747 ], [ 6904744.06381666008383, 8979053.98358011059463 ], [ 6906036.342609057202935, 8978997.787634450942278 ], [ 6906059.039478532969952, 8978831.480635089799762 ], [ 6906081.805676768533885, 8978734.95934746041894 ], [ 6906120.143229807727039, 8978572.37862940877676 ], [ 6906164.144550412893295, 8978470.680757697671652 ], [ 6906196.844258595257998, 8978330.980250691995025 ], [ 6906198.943893317133188, 8978183.678344294428825 ], [ 6906055.943653156980872, 8977922.974721333011985 ], [ 6905973.140513368882239, 8977509.284234877675772 ], [ 6905888.036677573807538, 8977422.573327749967575 ], [ 6905649.136723472736776, 8977275.073921574279666 ], [ 6905546.14004682470113, 8977151.677377181127667 ], [ 6905505.341312993317842, 8976927.576318826526403 ], [ 6905498.540335260331631, 8976659.47826012223959 ], [ 6905465.135775691829622, 8976452.376629032194614 ], [ 6905514.239537673071027, 8976286.980407197028399 ], [ 6905883.641948102042079, 8975764.372410850599408 ], [ 6905938.842315683141351, 8975633.07204500772059 ], [ 6905960.834189370274544, 8975553.822419490665197 ], [ 6905970.469842305406928, 8975519.102984013035893 ], [ 6906052.03283463139087, 8975225.274890933185816 ], [ 6906050.942335313186049, 8975136.676845019683242 ], [ 6905989.440579909831285, 8974938.866377960890532 ], [ 6905980.937781217508018, 8974911.773079918697476 ], [ 6906014.339146412909031, 8974815.872935021296144 ], [ 6906071.63505357131362, 8974788.670212276279926 ], [ 6906381.239299040287733, 8974765.169287940487266 ], [ 6906482.835603739134967, 8974783.473787477239966 ], [ 6906761.537743754684925, 8974880.471529645845294 ], [ 6906851.643268816173077, 8974876.866079436615109 ], [ 6907086.044421502389014, 8974828.571141524240375 ], [ 6907214.843087572604418, 8974862.266332555562258 ], [ 6907307.643361799418926, 8974927.969382848590612 ], [ 6907515.44236361887306, 8975011.27024694159627 ], [ 6907596.542161105200648, 8975013.673121143132448 ], [ 6907672.339576071128249, 8974985.568287223577499 ], [ 6907713.145137493498623, 8974941.972688011825085 ], [ 6907812.143910054117441, 8974633.369397733360529 ], [ 6907855.941569861024618, 8974592.363621672615409 ], [ 6907910.645667418837547, 8974573.46919664926827 ], [ 6908009.945435648784041, 8974597.362936424091458 ], [ 6908088.641599922440946, 8974641.068781415000558 ], [ 6908139.149403255432844, 8974644.864303769543767 ], [ 6908256.743912922218442, 8974595.467842668294907 ], [ 6908308.64220164436847, 8974529.771095618605614 ], [ 6908329.750093411654234, 8974395.669561237096786 ], [ 6908269.839527608826756, 8974225.562347453087568 ], [ 6908279.349228826351464, 8974128.463760519400239 ], [ 6908340.943027190864086, 8974081.566812677308917 ], [ 6908466.846622752025723, 8974040.259424077346921 ], [ 6908552.139810998924077, 8973981.260380620136857 ], [ 6908594.24059434607625, 8973907.560476657003164 ], [ 6908643.037172899581492, 8973745.292127007618546 ], [ 6908645.844215964898467, 8973735.961555186659098 ], [ 6908764.246850760653615, 8973609.164753146469593 ], [ 6908937.749663623049855, 8973569.061830682680011 ], [ 6909007.341450691223145, 8973504.163127375766635 ], [ 6909131.617716478183866, 8973321.924976672977209 ], [ 6909179.945986993610859, 8973251.065547302365303 ], [ 6909429.251808727160096, 8972992.553990047425032 ], [ 6909448.944834059104323, 8972972.156229503452778 ], [ 6909538.748603722080588, 8972837.361174203455448 ], [ 6909607.047057804651558, 8972681.354317905381322 ], [ 6909697.947329174727201, 8972561.062838021665812 ], [ 6909762.150072637014091, 8972502.855544965714216 ], [ 6910024.544074451550841, 8972434.061744101345539 ], [ 6910070.949935102835298, 8972396.058905771002173 ], [ 6910344.245118507184088, 8971963.054638965055346 ], [ 6910361.55215922370553, 8971802.255052259191871 ], [ 6910459.950781921856105, 8971737.149748714640737 ], [ 6910596.647864192724228, 8971712.358796015381813 ], [ 6910640.653299383819103, 8971671.549158645793796 ], [ 6910755.554505504667759, 8971461.449920427054167 ], [ 6910811.252021666616201, 8971392.547655453905463 ], [ 6910866.444084658287466, 8971373.650923825800419 ], [ 6910964.251361763104796, 8971372.450094912201166 ], [ 6910995.051182398572564, 8971340.151289816945791 ], [ 6911077.147395987994969, 8971104.147364135831594 ], [ 6911147.746932163834572, 8971012.554506866261363 ], [ 6911230.74486761726439, 8970964.748831273987889 ], [ 6911270.04773551505059, 8970885.445473624393344 ], [ 6911291.444863844662905, 8970496.054168237373233 ], [ 6911491.545833908952773, 8970199.847727734595537 ], [ 6911680.650428970344365, 8970135.949901886284351 ], [ 6911702.649408347904682, 8970196.542391080409288 ], [ 6911857.747113981284201, 8970091.641278501600027 ], [ 6911939.053927572444081, 8969951.14905459061265 ], [ 6912103.15127372648567, 8969667.348174626007676 ], [ 6912160.546374496072531, 8969620.541431158781052 ], [ 6912228.547206062823534, 8969595.641426905989647 ], [ 6912373.854637684300542, 8969572.241658179089427 ], [ 6912393.05011510103941, 8969548.839364530518651 ], [ 6912406.147999946959317, 8969532.841719392687082 ], [ 6912424.856711957603693, 8969443.643563739955425 ], [ 6912419.552558708004653, 8969311.746613390743732 ], [ 6912394.155579155310988, 8969165.645922567695379 ], [ 6912284.352326107211411, 8968845.137930037453771 ], [ 6912275.354283081367612, 8968765.137607352808118 ], [ 6912334.050488685257733, 8968478.440173262730241 ], [ 6912291.449202130548656, 8968397.742989279329777 ], [ 6912157.652793462388217, 8968355.947397196665406 ], [ 6912036.943647789768875, 8968372.640531620010734 ], [ 6911847.543992080725729, 8968440.343310058116913 ], [ 6911543.440898235887289, 8968361.444988157600164 ], [ 6911430.243704087100923, 8968271.946911191567779 ], [ 6911394.447962773963809, 8968163.747091287747025 ], [ 6911377.444600189104676, 8968040.346445528790355 ], [ 6911391.447401656769216, 8967904.444377379491925 ], [ 6911439.345406664535403, 8967764.445006905123591 ], [ 6911551.539787657558918, 8967653.842301670461893 ], [ 6911591.645309159532189, 8967675.341325048357248 ], [ 6911633.748355668969452, 8967744.346668813377619 ], [ 6911746.750316759571433, 8967825.345363888889551 ], [ 6911826.344584857113659, 8967845.342419590801001 ], [ 6911932.945036562159657, 8967841.139914037659764 ], [ 6911975.642991554923356, 8967780.739907005801797 ], [ 6912031.852388915605843, 8967643.144782986491919 ], [ 6912045.649422471411526, 8967565.936370521783829 ], [ 6912109.547719900496304, 8967475.139223098754883 ], [ 6912140.348265838809311, 8967335.742963885888457 ], [ 6912103.242259193211794, 8967113.743751859292388 ], [ 6912133.344034525565803, 8967018.335831720381975 ], [ 6912209.745770585723221, 8966962.338273972272873 ], [ 6912321.446136326529086, 8966940.240191176533699 ], [ 6912353.341715191490948, 8966897.637482028454542 ], [ 6912336.64388271048665, 8966689.638187194243073 ], [ 6912280.544461307115853, 8966556.736413221806288 ], [ 6912202.147055763751268, 8966424.239671614021063 ], [ 6912167.641350271180272, 8966266.837116677314043 ], [ 6912119.042795171961188, 8966174.738247351720929 ], [ 6912111.346076074056327, 8966110.834168791770935 ], [ 6912106.047955429181457, 8966066.53805285692215 ], [ 6912060.869507611729205, 8966051.253269838169217 ], [ 6911934.942101199179888, 8966008.637294009327888 ], [ 6910771.54219360370189, 8965885.043872583657503 ], [ 6910279.538384384475648, 8965749.036105236038566 ], [ 6910032.238458963111043, 8965617.243382481858134 ], [ 6909620.531680998392403, 8965058.144043356180191 ], [ 6909611.356891889125109, 8965035.340278286486864 ], [ 6909393.929837916046381, 8964495.34175837226212 ], [ 6909377.42762852460146, 8964745.83443964086473 ], [ 6909312.926090432330966, 8965032.84555340744555 ], [ 6908979.327697198837996, 8965962.937852950766683 ], [ 6908356.234308565966785, 8966700.451902166008949 ], [ 6907869.730217963457108, 8966924.750419920310378 ], [ 6907596.105857889167964, 8967050.901434674859047 ], [ 6907387.326241245493293, 8967147.151575416326523 ], [ 6906547.582326381467283, 8967194.42692101188004 ], [ 6906241.522065650671721, 8967211.657921569421887 ] ] ] } },
{ "type": "Feature", "properties": { "lv_id": "LOC_025661", "id": 115114.0, "CD_SETOR": "261030105000004", "SITUACAO": "Rural", "CD_SIT": "8", "CD_TIPO": "0", "AREA_KM2": 9.7649291277612225, "CD_REGIAO": "2", "NM_REGIAO": "Nordeste", "CD_UF": "26", "NM_UF": "Pernambuco", "CD_MUN": "2610301", "NM_MUN": "Paranatama", "CD_DIST": "261030105", "NM_DIST": "Paranatama", "CD_SUBDIST": "26103010500", "NM_SUBDIST": null, "CD_BAIRRO": null, "NM_BAIRRO": null, "CD_NU": null, "NM_NU": null, "CD_FCU": null, "NM_FCU": null, "CD_AGLOM": "261030100002", "NM_AGLOM": "Campo Sujo", "CD_RGINT": "2602", "NM_RGINT": "Caruaru", "CD_RGI": "260010", "NM_RGI": "Garanhuns", "CD_CONCURB": null, "NM_CONCURB": null, "mun_code_x": "2610301", "index_right": 51127, "dist_m": 44.485822380886503, "local_id": 267506, "ano": 2022, "cod_localidade_ibge": 2610301, "NR_ZONA": "92", "nr_cep": 55355000.0, "nm_localidade": "PARANATAMA", "nm_locvot": "ESCOLA JOSÉ ALEXANDRE DA SILVA (ALTO DA SERRA)", "ds_endereco": "POVOADO ALTO DA SERRA", "ds_bairro": "POVOADO ALTO DA SERRA", "pred_long": -36.705734, "pred_lat": -8.915678, "pred_dist": 0.0, "tse_long": -36.7058877, "tse_lat": -8.9158293, "long": -36.7058877, "lat": -8.9158293, "ID_UNICO": "LOC_025661", "SG_UF": "PE", "CD_MUNICIPIO": "25054", "NR_LOCAL_VOTACAO": "1350", "QT_SECOES_AGREGADAS": 1, "QT_ELEITORES_TRANSFERIDOS": 0, "CIRO GOMES (PDT) (NÃO ELEITO) 1T": 9.0, "CONSTITUINTE EYMAEL (DC) (NÃO ELEITO) 1T": 0.0, "FELIPE D AVILA (NOVO) (NÃO ELEITO) 1T": 0.0, "JAIR BOLSONARO (PL) (2º TURNO) 1T": 104.0, "LULA (PT) (2º TURNO) 1T": 331.0, "LÉO PÉRICLES (UP) (NÃO ELEITO) 1T": 0.0, "PADRE KELMON (PTB) (NÃO ELEITO) 1T": 0.0, "SIMONE TEBET (MDB) (NÃO ELEITO) 1T": 7.0, "SOFIA MANZANO (PCB) (NÃO ELEITO) 1T": 0.0, "SORAYA THRONICKE (UNIÃO) (NÃO ELEITO) 1T": 0.0, "VERA (PSTU) (NÃO ELEITO) 1T": 0.0, "Total_Votos_Validos 1T": 451.0, "Votos_Brancos 1T": 10.0, "Votos_Nulos 1T": 19.0, "Abstenções 1T": 126.0, "Eleitores_Aptos 1T": 606.0, "JAIR BOLSONARO (PL) (NÃO ELEITO) 2T": 104.0, "LULA (PT) (ELEITO) 2T": 340.0, "Total_Votos_Validos 2T": 444.0, "Votos_Brancos 2T": 8.0, "Votos_Nulos 2T": 29.0, "Abstenções 2T": 125.0, "Eleitores_Aptos 2T": 606.0, "mun_code_y": "2610301", "mun_code": "2610301" }, "geometry": { "type": "Polygon", "coordinates": [ [ [ 6900814.199239738285542, 8968415.604657895863056 ], [ 6900813.991569429636002, 8968747.516422303393483 ], [ 6900813.291050389409065, 8968753.089993668720126 ], [ 6900800.236624041572213, 8968808.484374191612005 ], [ 6900786.625084418803453, 8968865.408521113917232 ], [ 6900744.424823584966362, 8969068.875760747119784 ], [ 6900720.41715061571449, 8969187.546635653823614 ], [ 6900702.457603353075683, 8969177.236602704972029 ], [ 6900643.241170361638069, 8969143.248237334191799 ], [ 6900641.589049455709755, 8969142.041622219607234 ], [ 6900569.923599805682898, 8969091.89846296608448 ], [ 6900428.412798296660185, 8969002.180917516350746 ], [ 6900400.814667139202356, 8968981.981334445998073 ], [ 6900359.734426096081734, 8968954.732466200366616 ], [ 6900293.419197163544595, 8968911.013834042474627 ], [ 6900256.11710443906486, 8968886.665076764300466 ], [ 6900222.994682509452105, 8968865.567649679258466 ], [ 6900192.502881493419409, 8968845.885506374761462 ], [ 6900169.12429724726826, 8968830.277371864765882 ], [ 6900148.201080908998847, 8968816.104270773008466 ], [ 6900115.423663411289454, 8968794.609115559607744 ], [ 6900100.459991256706417, 8968785.038278944790363 ], [ 6900087.942494285292923, 8968777.180494468659163 ], [ 6900076.98502063844353, 8968769.24967160820961 ], [ 6900053.511739389970899, 8968743.478736823424697 ], [ 6900030.887660090811551, 8968720.363176744431257 ], [ 6900020.59322795085609, 8968703.182503873482347 ], [ 6899994.529985539615154, 8968644.914256379008293 ], [ 6899966.873105524107814, 8968575.975102948024869 ], [ 6899793.177964333444834, 8968154.945167040452361 ], [ 6899771.611991947516799, 8968187.8913669642061 ], [ 6899751.796671506948769, 8968219.887977972626686 ], [ 6899731.920690571889281, 8968248.903130443766713 ], [ 6899682.049226339906454, 8968341.482857281342149 ], [ 6899660.847801446914673, 8968391.160210518166423 ], [ 6899638.201207628473639, 8968442.686401423066854 ], [ 6899626.932326277717948, 8968484.299095273017883 ], [ 6899591.240404663607478, 8968512.481254015117884 ], [ 6899560.285887045785785, 8968537.156541874632239 ], [ 6899514.680138598196208, 8968619.148065790534019 ], [ 6899468.376212316565216, 8968716.798386609181762 ], [ 6899428.478293577209115, 8968794.381053242832422 ], [ 6899345.133291324600577, 8968895.071054715663195 ], [ 6899263.694176803342998, 8968992.224110405892134 ], [ 6899165.217798250727355, 8969114.590196704491973 ], [ 6899150.806671528145671, 8969131.318664129823446 ], [ 6899123.753641820512712, 8969142.739656936377287 ], [ 6898929.322425925172865, 8969220.169282037764788 ], [ 6898781.740599009208381, 8969282.38206885010004 ], [ 6898704.052101314999163, 8969371.408744186162949 ], [ 6898658.044948630034924, 8969430.477346826344728 ], [ 6898626.479650214314461, 8969459.145368948578835 ], [ 6898593.752060457132757, 8969488.873883521184325 ], [ 6898567.918278623372316, 8969531.777642330154777 ], [ 6898547.981261495500803, 8969642.437480973079801 ], [ 6898534.996526480652392, 8969742.466713931411505 ], [ 6898513.056048668920994, 8969804.410861359909177 ], [ 6898497.769779328256845, 8969874.336749944835901 ], [ 6898487.359857983887196, 8969927.275402300059795 ], [ 6898478.84484688192606, 8970014.661713216453791 ], [ 6898427.756205623969436, 8970155.656360128894448 ], [ 6898387.273299527354538, 8970277.614495102316141 ], [ 6898339.542082047089934, 8970451.645275009796023 ], [ 6898291.404243827797472, 8970599.659207107499242 ], [ 6898276.985120221972466, 8970686.579740773886442 ], [ 6898230.988726433366537, 8970762.506385672837496 ], [ 6898158.761743041686714, 8970779.01734584569931 ], [ 6898114.995241364464164, 8970797.900498740375042 ], [ 6898074.815559489652514, 8970849.509296528995037 ], [ 6898014.59239062666893, 8970885.225224705412984 ], [ 6897945.490393478423357, 8970918.452295066788793 ], [ 6897904.227224208414555, 8970931.44664646871388 ], [ 6897744.682010361924767, 8970915.750043619424105 ], [ 6897630.512708726339042, 8970901.543987723067403 ], [ 6897572.89715850353241, 8970893.430574929341674 ], [ 6897495.302731669507921, 8970939.751552645117044 ], [ 6897420.822254499420524, 8970975.263408940285444 ], [ 6897292.822817702777684, 8971095.571325991302729 ], [ 6897263.475747970864177, 8971112.229863934218884 ], [ 6897230.254946075379848, 8971128.930261868983507 ], [ 6897200.183003624901175, 8971152.57325659878552 ], [ 6897197.610407067462802, 8971179.952785233035684 ], [ 6897212.980730091221631, 8971206.530049279332161 ], [ 6897221.824202296324074, 8971239.622383184731007 ], [ 6897191.985807219520211, 8971267.151830296963453 ], [ 6897150.967548022046685, 8971293.629728710278869 ], [ 6897116.123188924044371, 8971300.88715779222548 ], [ 6897071.316549319773912, 8971309.626900892704725 ], [ 6897004.879746937192976, 8971315.605039874091744 ], [ 6896960.071889803744853, 8971327.432575596496463 ], [ 6896940.191998897120357, 8971341.428335385397077 ], [ 6896917.577303467318416, 8971387.668128155171871 ], [ 6896887.233228416182101, 8971423.847990471869707 ], [ 6896843.044658712111413, 8971459.933067983016372 ], [ 6896775.62720176205039, 8971504.710788970813155 ], [ 6896731.456064777448773, 8971580.474409993737936 ], [ 6896734.895785094238818, 8971655.568081276491284 ], [ 6896742.733692694455385, 8971760.491290912032127 ], [ 6896747.201887844130397, 8971859.661831187084317 ], [ 6896732.052880624309182, 8971928.717452585697174 ], [ 6896733.0433453572914, 8972004.688537443056703 ], [ 6896747.675080480054021, 8972105.339964210987091 ], [ 6896775.239582265727222, 8972190.076785078272223 ], [ 6896847.194517090916634, 8972261.782005414366722 ], [ 6897033.739963844418526, 8972316.780388686805964 ], [ 6897079.503639197908342, 8972365.049575829878449 ], [ 6897072.308860413730145, 8972431.59578893147409 ], [ 6897006.030199889093637, 8972479.903334697708488 ], [ 6896648.196387398988008, 8972595.023359775543213 ], [ 6896895.208321595564485, 8973066.37555855885148 ], [ 6896916.253800772130489, 8973531.806065414100885 ], [ 6896546.150247598066926, 8973868.321844607591629 ], [ 6896038.797225626185536, 8974100.829831158742309 ], [ 6895798.065864488482475, 8973996.571116434410214 ], [ 6895590.57596031203866, 8973906.704036563634872 ], [ 6895016.312552265822887, 8973728.84843816421926 ], [ 6893720.972090795636177, 8973351.590631047263741 ], [ 6894154.202143212780356, 8974942.815332069993019 ], [ 6894426.157406822778285, 8975941.917996346950531 ], [ 6895085.766523499973118, 8978365.717332158237696 ], [ 6895889.63139908015728, 8979289.114939054474235 ], [ 6895973.344884865917265, 8979318.560855444520712 ], [ 6896697.106095081195235, 8979322.080971579998732 ], [ 6896727.671694241464138, 8979322.228260312229395 ], [ 6898392.108903899788857, 8979330.297649804502726 ], [ 6899572.919327104464173, 8979278.897357009351254 ], [ 6899676.625395286828279, 8979274.393684864044189 ], [ 6901591.323336148634553, 8979191.092391302809119 ], [ 6903963.562406893819571, 8979088.079817268997431 ], [ 6904027.735434266738594, 8979085.285151200369 ], [ 6904120.175245691090822, 8979081.247202252969146 ], [ 6904710.620189934968948, 8979055.444520197808743 ], [ 6904739.436936981976032, 8979054.186936227604747 ], [ 6904706.988002839498222, 8979049.712991431355476 ], [ 6904692.0591961722821, 8979026.227020250633359 ], [ 6904656.503601178526878, 8979008.257453069090843 ], [ 6904600.343266665004194, 8979002.779386384412646 ], [ 6904541.496105655096471, 8978989.848376117646694 ], [ 6904491.190006030723453, 8978981.148238066583872 ], [ 6904454.610185250639915, 8978973.036833291873336 ], [ 6904332.888328148983419, 8978949.64094484783709 ], [ 6904290.715744018554688, 8978943.004033908247948 ], [ 6904274.693840756081045, 8978934.365828618407249 ], [ 6904299.420207019895315, 8978910.634880125522614 ], [ 6904332.759625647217035, 8978877.075121426954865 ], [ 6904388.057766414247453, 8978849.05477624759078 ], [ 6904419.133151711896062, 8978815.356948688626289 ], [ 6904444.793557886965573, 8978809.14394254796207 ], [ 6904470.645517122931778, 8978795.089801961556077 ], [ 6904482.358045430853963, 8978782.004872713238001 ], [ 6904490.974356181919575, 8978759.021878395229578 ], [ 6904498.44929788261652, 8978743.819989340379834 ], [ 6904513.582898765802383, 8978733.780677435919642 ], [ 6904526.054226004518569, 8978714.181768210604787 ], [ 6904533.189323843456805, 8978696.36945285089314 ], [ 6904536.07876343652606, 8978674.820925038307905 ], [ 6904534.060023060068488, 8978655.027562655508518 ], [ 6904532.993546210229397, 8978648.332372615113854 ], [ 6904533.66595795378089, 8978636.084232825785875 ], [ 6904535.325905454345047, 8978627.365035040304065 ], [ 6904539.346079370938241, 8978620.167396642267704 ], [ 6904551.74624512065202, 8978619.695317476987839 ], [ 6904559.715864399448037, 8978612.892601015046239 ], [ 6904562.28455984313041, 8978605.982209073379636 ], [ 6904564.224334282800555, 8978595.919552141800523 ], [ 6904565.333738810382783, 8978589.366194287315011 ], [ 6904559.644144487567246, 8978573.098417272791266 ], [ 6904561.178324911743402, 8978561.874563053250313 ], [ 6904566.08998189587146, 8978553.224048702046275 ], [ 6904578.377741828560829, 8978548.615425158292055 ], [ 6904586.094049889594316, 8978541.812871379777789 ], [ 6904591.229401548393071, 8978533.718828169628978 ], [ 6904595.710655756294727, 8978524.567685782909393 ], [ 6904599.366910556331277, 8978491.877115923911333 ], [ 6904607.799978401511908, 8978468.509012054651976 ], [ 6904540.437145451083779, 8978412.949942907318473 ], [ 6904479.116156153380871, 8978372.450814709067345 ], [ 6904457.301010359078646, 8978355.382370788604021 ], [ 6904446.364739411510527, 8978324.827913865447044 ], [ 6904410.294752106070518, 8978233.374130021780729 ], [ 6904362.238633525557816, 8978120.427355036139488 ], [ 6904244.963467694818974, 8977969.340157054364681 ], [ 6904240.167967357672751, 8977921.644740998744965 ], [ 6904256.080433493480086, 8977892.329731531441212 ], [ 6904302.56521371845156, 8977806.374658398330212 ], [ 6904333.338946925476193, 8977751.009244982153177 ], [ 6904339.921686387620866, 8977731.255717979744077 ], [ 6904328.232949352823198, 8977676.372451523318887 ], [ 6904305.204768562689424, 8977580.95844261161983 ], [ 6904290.960404492914677, 8977466.255528965964913 ], [ 6904288.925491094589233, 8977435.322297278791666 ], [ 6904288.582670727744699, 8977390.138408672064543 ], [ 6904358.063242215663195, 8977218.577613025903702 ], [ 6904478.279725273139775, 8976969.374587710946798 ], [ 6904501.18831991404295, 8976928.175284599885345 ], [ 6904562.53363583330065, 8976831.656527264043689 ], [ 6904595.512687262147665, 8976790.589650262147188 ], [ 6904618.812090554274619, 8976750.239352315664291 ], [ 6904663.85587752237916, 8976644.540482463315129 ], [ 6904716.900995646603405, 8976523.891320867463946 ], [ 6904734.768653934821486, 8976470.778028879314661 ], [ 6904738.373995143920183, 8976462.719926722347736 ], [ 6904739.936131021939218, 8976429.582382287830114 ], [ 6904739.29065580572933, 8976411.923125712200999 ], [ 6904737.211638757027686, 8976400.936653021723032 ], [ 6904724.483921555802226, 8976359.718341879546642 ], [ 6904718.723355256021023, 8976329.224144631996751 ], [ 6904720.165445103310049, 8976275.487453572452068 ], [ 6904728.918901395983994, 8976180.015539951622486 ], [ 6904733.810195464640856, 8976128.501363068819046 ], [ 6904890.435270954854786, 8975817.440830163657665 ], [ 6904914.166548780165613, 8975560.051190299913287 ], [ 6904934.750036891549826, 8975330.319483717903495 ], [ 6904959.89593349583447, 8975288.538519656285644 ], [ 6904999.141090994700789, 8975140.020267706364393 ], [ 6905014.58947117254138, 8975043.956393443048 ], [ 6905020.560823573730886, 8974939.842494199052453 ], [ 6905012.944352384656668, 8974856.817121563479304 ], [ 6905010.134809114970267, 8974852.470833921805024 ], [ 6904974.727983644232154, 8974755.852280341088772 ], [ 6904926.548158532939851, 8974698.7492985278368 ], [ 6904885.672013759613037, 8974651.533030413091183 ], [ 6904868.414246125146747, 8974618.185582544654608 ], [ 6904860.567349451594055, 8974523.706358885392547 ], [ 6904861.201505242846906, 8974421.866645654663444 ], [ 6904828.54188687633723, 8974268.188402578234673 ], [ 6904829.393789928406477, 8974233.810893209651113 ], [ 6904830.747004967182875, 8974170.602359794080257 ], [ 6904766.639594226144254, 8974156.715213861316442 ], [ 6904713.408329233527184, 8974162.150105936452746 ], [ 6904650.346625254489481, 8974203.06380956992507 ], [ 6904618.06535086967051, 8974216.544622989371419 ], [ 6904578.676351497881114, 8974226.076500555500388 ], [ 6904469.613953424617648, 8974249.850578194484115 ], [ 6904399.207212131470442, 8974266.822474271059036 ], [ 6904355.426732143387198, 8974277.357177957892418 ], [ 6904324.832387040369213, 8974276.28590221889317 ], [ 6904280.236727104522288, 8974282.982897993177176 ], [ 6904226.489497750997543, 8974291.807485541328788 ], [ 6904149.267457809299231, 8974305.683851538226008 ], [ 6904120.073588147759438, 8974305.854366306215525 ], [ 6904099.295189722441137, 8974300.102276323363185 ], [ 6903968.872746671549976, 8974371.574393216520548 ], [ 6903955.551148182712495, 8974366.827908024191856 ], [ 6903911.268904157914221, 8974345.860148442909122 ], [ 6903880.124708388932049, 8974324.21011902205646 ], [ 6903856.395816426724195, 8974316.073619030416012 ], [ 6903813.189042929559946, 8974272.276871720328927 ], [ 6903772.499771414324641, 8974274.128811061382294 ], [ 6903731.105062568560243, 8974279.796594703570008 ], [ 6903463.951939242891967, 8973822.700507745146751 ], [ 6903385.271391260437667, 8973820.645616203546524 ], [ 6903336.727138508111238, 8973824.553553573787212 ], [ 6903219.738923007622361, 8973832.071479205042124 ], [ 6903158.616186713799834, 8973835.177867215126753 ], [ 6903092.00634865090251, 8973824.079659271985292 ], [ 6903045.174684725701809, 8973825.720922080799937 ], [ 6902992.417461763136089, 8973839.299486253410578 ], [ 6902949.036834848113358, 8973851.815801477059722 ], [ 6902907.410994545556605, 8973871.364675331860781 ], [ 6902874.027437008917332, 8973886.73454924300313 ], [ 6902858.107430279254913, 8973892.046665489673615 ], [ 6902847.018214263953269, 8973894.657813156023622 ], [ 6902808.93984133657068, 8973899.8814070019871 ], [ 6902765.445360558107495, 8973904.894861083477736 ], [ 6902731.810644068755209, 8973919.593675903975964 ], [ 6902536.948071826249361, 8974011.822371872141957 ], [ 6902390.666458503343165, 8974082.51108592748642 ], [ 6902321.949242928996682, 8974104.860254764556885 ], [ 6902234.456024431623518, 8974118.541037099435925 ], [ 6901982.578273541294038, 8974140.139504188671708 ], [ 6901924.118960341438651, 8974145.143515627831221 ], [ 6901896.996512204408646, 8974150.849853571504354 ], [ 6901841.600719918496907, 8974159.262207612395287 ], [ 6901785.944304211065173, 8974168.473207946866751 ], [ 6901711.393605241551995, 8974155.892136229202151 ], [ 6901606.653890397399664, 8974097.128981964662671 ], [ 6901554.729246015660465, 8974066.292399238795042 ], [ 6901525.641563603654504, 8974031.140957556664944 ], [ 6901608.835551997646689, 8973921.743294635787606 ], [ 6901668.402399009093642, 8973836.859165091067553 ], [ 6901714.822018257342279, 8973783.369103400036693 ], [ 6901885.68916018307209, 8973605.112519139423966 ], [ 6901920.607753420248628, 8973537.154206415638328 ], [ 6901982.659867281094193, 8973454.65005393140018 ], [ 6902035.963739569298923, 8973396.938515359535813 ], [ 6902075.507255382835865, 8973357.741007816046476 ], [ 6902124.482533695176244, 8973315.812807632610202 ], [ 6902150.098930845968425, 8973291.26194903254509 ], [ 6902162.660597858019173, 8973280.449770733714104 ], [ 6902175.529188321903348, 8973258.356085939332843 ], [ 6902188.020993446931243, 8973212.750756135210395 ], [ 6902193.664591960608959, 8973176.25658967345953 ], [ 6902209.684736279770732, 8973107.30430905520916 ], [ 6902240.883522069081664, 8973048.05464543774724 ], [ 6902330.270088398829103, 8972929.602045485749841 ], [ 6902386.84256599098444, 8972864.250706860795617 ], [ 6902412.775592266581953, 8972835.114680325612426 ], [ 6902462.292866373434663, 8972775.575432810932398 ], [ 6902471.659453941509128, 8972764.252507265657187 ], [ 6902492.640830513089895, 8972737.822982598096132 ], [ 6902501.51504086330533, 8972728.003729172050953 ], [ 6902542.685342666693032, 8972672.046481497585773 ], [ 6902552.122098624706268, 8972657.226591462269425 ], [ 6902588.500439441762865, 8972593.811550788581371 ], [ 6902690.338624280877411, 8972435.001204054802656 ], [ 6902747.795954214408994, 8972360.466722598299384 ], [ 6902762.856694327667356, 8972342.491697702556849 ], [ 6902771.451832682825625, 8972332.118293171748519 ], [ 6902779.512137143872678, 8972322.325143288820982 ], [ 6902835.672115784138441, 8972268.40744886547327 ], [ 6902862.067793873138726, 8972240.740522179752588 ], [ 6902897.418140503577888, 8972197.361728420481086 ], [ 6902945.511600904166698, 8972142.593973653391004 ], [ 6902969.09878241084516, 8972121.131341317668557 ], [ 6903006.062000103294849, 8972092.935408195480704 ], [ 6903033.387359855696559, 8972074.941976822912693 ], [ 6903139.829362048767507, 8972014.519390739500523 ], [ 6903169.078556129708886, 8971980.691011829301715 ], [ 6903172.438900925219059, 8971976.9129947591573 ], [ 6903221.218456138856709, 8971901.693219188600779 ], [ 6903297.55356827378273, 8971782.195891238749027 ], [ 6903336.540950953960419, 8971708.58982352539897 ], [ 6903360.058339333161712, 8971668.908813752233982 ], [ 6903396.614805072546005, 8971597.278494633734226 ], [ 6903412.330288129858673, 8971553.404051341116428 ], [ 6903489.998198163695633, 8971352.074166035279632 ], [ 6903504.885388016700745, 8971310.308845091611147 ], [ 6903537.209515452384949, 8971195.168641271069646 ], [ 6903582.853889267891645, 8971091.690740508958697 ], [ 6903608.245037221349776, 8971041.346889292821288 ], [ 6903628.233143788762391, 8971004.201225509867072 ], [ 6903680.061986206099391, 8970902.110365049913526 ], [ 6903695.761987697333097, 8970830.736311150714755 ], [ 6903704.994402770884335, 8970786.712815774604678 ], [ 6903739.31991970911622, 8970580.696009173989296 ], [ 6903774.297099623829126, 8970324.207589393481612 ], [ 6903804.288134266622365, 8970086.901586642488837 ], [ 6903460.093698963522911, 8970008.81999116204679 ], [ 6903308.999348070472479, 8969978.49575537443161 ], [ 6903190.562437666580081, 8969949.626568617299199 ], [ 6903151.301586447283626, 8969940.116694394499063 ], [ 6903155.21748417802155, 8969925.727091785520315 ], [ 6903178.661163913086057, 8969918.162190746515989 ], [ 6903203.50089059304446, 8969912.695196676999331 ], [ 6903227.625965531915426, 8969889.365028958767653 ], [ 6903307.587958164513111, 8969764.796479418873787 ], [ 6903452.759367152117193, 8969544.355373138561845 ], [ 6903511.700333697721362, 8969459.593806594610214 ], [ 6903625.334668886847794, 8969290.869720516726375 ], [ 6903663.186587035655975, 8969228.671159084886312 ], [ 6903689.006073623895645, 8969186.761408075690269 ], [ 6903775.85670773871243, 8969097.033116126433015 ], [ 6903841.140705213882029, 8969033.084459146484733 ], [ 6903866.838147963397205, 8969003.315586935728788 ], [ 6903923.446405861526728, 8968936.522256808355451 ], [ 6903963.03218827303499, 8968872.331716403365135 ], [ 6903975.819197108969092, 8968840.518691506236792 ], [ 6904001.921552425250411, 8968820.945793801918626 ], [ 6904014.001361813396215, 8968801.938076533377171 ], [ 6904030.248417358845472, 8968750.19107179902494 ], [ 6904032.941733194515109, 8968725.815961588174105 ], [ 6904030.736194766126573, 8968670.977941440418363 ], [ 6904030.151725097559392, 8968610.961907448247075 ], [ 6904031.363147269003093, 8968580.258606411516666 ], [ 6904034.294060560874641, 8968516.27138120867312 ], [ 6904029.61867260094732, 8968460.889811087399721 ], [ 6904014.341714266687632, 8968415.527108449488878 ], [ 6904010.639696314930916, 8968369.05437008664012 ], [ 6904006.941512746736407, 8968337.898901868611574 ], [ 6904014.030418052338064, 8968301.21620131470263 ], [ 6904014.771953893825412, 8968243.706261333078146 ], [ 6904008.540981414727867, 8968195.408629627898335 ], [ 6903998.903753486461937, 8968122.98743905685842 ], [ 6903979.488097054883838, 8968080.989190904423594 ], [ 6903957.041447095572948, 8968024.405896008014679 ], [ 6903947.214704187586904, 8967992.867235818877816 ], [ 6903933.85457316134125, 8967964.675965683534741 ], [ 6903913.886478125117719, 8967939.293861623853445 ], [ 6903879.386020411737263, 8967887.036679156124592 ], [ 6903853.811571858823299, 8967843.99752364307642 ], [ 6903837.899584668688476, 8967798.017447801306844 ], [ 6903843.70836138818413, 8967760.099208517000079 ], [ 6903855.321837723255157, 8967729.613333832472563 ], [ 6903881.123235175386071, 8967702.383087633177638 ], [ 6903919.505630174651742, 8967668.90470408461988 ], [ 6903926.233558068051934, 8967653.942354388535023 ], [ 6903919.50927825178951, 8967623.553904164582491 ], [ 6903904.768449091352522, 8967576.24624958820641 ], [ 6903906.128374920226634, 8967534.036392867565155 ], [ 6903918.403738378547132, 8967444.135293111205101 ], [ 6903921.644823459908366, 8967342.453103253617883 ], [ 6903929.745104698464274, 8967270.587407309561968 ], [ 6903942.585591221228242, 8967210.033293958753347 ], [ 6903951.986196415498853, 8967170.060126623138785 ], [ 6903984.786803448572755, 8967058.87875927425921 ], [ 6903991.872791537083685, 8967022.184124359861016 ], [ 6903950.508911682292819, 8967005.756165565922856 ], [ 6900922.693067715503275, 8966701.165461799129844 ], [ 6900509.396846090443432, 8965885.26733435317874 ], [ 6900435.824687754735351, 8965740.014242820441723 ], [ 6900323.491658756509423, 8965518.261367937549949 ], [ 6899159.586913011968136, 8965478.366122607141733 ], [ 6899227.710171944461763, 8965489.058909703046083 ], [ 6899246.797611893154681, 8965559.655877025797963 ], [ 6899255.774714482948184, 8965587.827052274718881 ], [ 6899309.366020846180618, 8965761.470772039145231 ], [ 6899338.247001453302801, 8965854.348472064360976 ], [ 6899348.197189133614302, 8965887.852666910737753 ], [ 6899356.873430840671062, 8965917.379920393228531 ], [ 6899363.883627528324723, 8965938.738363824784756 ], [ 6899377.55191570147872, 8965981.460244998335838 ], [ 6899384.793139321729541, 8966003.767913268879056 ], [ 6899404.622546615079045, 8966065.204755829647183 ], [ 6899415.237511265091598, 8966097.13955020532012 ], [ 6899481.627932721748948, 8966307.163582935929298 ], [ 6899647.140950011089444, 8966287.182374116033316 ], [ 6899657.817518278025091, 8966346.632099933922291 ], [ 6899702.740239157341421, 8966358.40427334420383 ], [ 6899657.522812866605818, 8966457.60626420751214 ], [ 6899770.802640310488641, 8966537.46939598210156 ], [ 6899844.209745625965297, 8966409.831363881006837 ], [ 6899915.528025451116264, 8966336.539312928915024 ], [ 6899998.525739258155227, 8966337.71038437448442 ], [ 6900040.77509746607393, 8966406.15898103825748 ], [ 6899854.86464761942625, 8966541.888102991506457 ], [ 6899833.202380239963531, 8966690.521141367033124 ], [ 6899819.115853480063379, 8966784.919961117208004 ], [ 6899849.851827716454864, 8966784.160623252391815 ], [ 6899863.616212779656053, 8966788.74318571574986 ], [ 6899877.342306619510055, 8966793.211877206340432 ], [ 6899892.572298866696656, 8966802.109553638845682 ], [ 6899910.846211626194417, 8966813.027464816346765 ], [ 6899928.903530649840832, 8966824.499193346127868 ], [ 6899947.497141489759088, 8966836.616659859195352 ], [ 6900011.604664918966591, 8966877.332573989406228 ], [ 6900033.907482518814504, 8966893.000676406547427 ], [ 6900049.06171484105289, 8966903.116524327546358 ], [ 6900072.13492463901639, 8966928.302872814238071 ], [ 6900091.792942781001329, 8966957.96395505219698 ], [ 6900117.737457165494561, 8967017.39291781745851 ], [ 6900144.226973112672567, 8967072.181188404560089 ], [ 6900175.197668144479394, 8967106.736826289445162 ], [ 6900207.39236683677882, 8967134.190786147490144 ], [ 6900227.471440309658647, 8967150.576544675976038 ], [ 6900270.80813764501363, 8967173.991635696962476 ], [ 6900279.049170046113431, 8967173.882736634463072 ], [ 6900299.448550704866648, 8967174.811426360160112 ], [ 6900324.195661677978933, 8967175.00410557538271 ], [ 6900365.028800969943404, 8967188.797138776630163 ], [ 6900376.75887871067971, 8967191.763390317559242 ], [ 6900402.916187749244273, 8967194.596627498045564 ], [ 6900434.132756841368973, 8967197.319801710546017 ], [ 6900462.513917049393058, 8967201.818498384207487 ], [ 6900478.866025742143393, 8967209.981413060799241 ], [ 6900485.467649905011058, 8967213.465820571407676 ], [ 6900491.334706660360098, 8967223.207848392426968 ], [ 6900489.72566503752023, 8967244.127448935061693 ], [ 6900488.140027443878353, 8967271.269111080095172 ], [ 6900485.499944200739264, 8967286.557554675266147 ], [ 6900481.385573677718639, 8967303.534546928480268 ], [ 6900474.52719659730792, 8967311.166676258668303 ], [ 6900465.790795688517392, 8967322.946964677423239 ], [ 6900461.428350645117462, 8967328.842618297785521 ], [ 6900455.708868274465203, 8967355.634435724467039 ], [ 6900452.968935123644769, 8967368.764457773417234 ], [ 6900458.310811813920736, 8967400.728596173226833 ], [ 6900470.373442051932216, 8967422.08277883194387 ], [ 6900495.533568711951375, 8967459.07473960891366 ], [ 6900508.226000013761222, 8967510.728703357279301 ], [ 6900520.078853610903025, 8967549.698134018108249 ], [ 6900536.601750925183296, 8967572.751896817237139 ], [ 6900546.449527388438582, 8967585.014116179198027 ], [ 6900570.891963731497526, 8967623.393359126523137 ], [ 6900604.222875760868192, 8967675.4332978669554 ], [ 6900621.651826242916286, 8967701.417520288378 ], [ 6900636.901609934866428, 8967724.79719845764339 ], [ 6900649.391673348844051, 8967743.968552375212312 ], [ 6900655.186966520734131, 8967746.681214336305857 ], [ 6900676.930096205323935, 8967760.005288310348988 ], [ 6900692.688203472644091, 8967771.990547517314553 ], [ 6900721.270346282050014, 8967793.935566833242774 ], [ 6900742.550344034098089, 8967802.95522596873343 ], [ 6900762.443448137491941, 8967809.599203450605273 ], [ 6900780.282212764956057, 8967816.339497236534953 ], [ 6900797.681140715256333, 8967824.99746422842145 ], [ 6900814.130559274926782, 8967840.744485290721059 ], [ 6900835.764762460254133, 8967846.231096263974905 ], [ 6900845.110232336446643, 8967853.10355000756681 ], [ 6900859.701804192736745, 8967884.634667940437794 ], [ 6900875.576878097839653, 8967915.828033180907369 ], [ 6900888.268765545450151, 8967939.605573292821646 ], [ 6900904.791632938198745, 8967990.537357695400715 ], [ 6900926.951905869878829, 8968057.445622561499476 ], [ 6900952.860876987688243, 8968138.533486351370811 ], [ 6900956.838967964053154, 8968174.356472374871373 ], [ 6900960.417061904445291, 8968203.905526716262102 ], [ 6900967.20012379437685, 8968281.621592570096254 ], [ 6900967.4721525516361, 8968313.488715808838606 ], [ 6900970.962930526584387, 8968343.296371502801776 ], [ 6900974.914854028262198, 8968383.088263625279069 ], [ 6900814.199239738285542, 8968415.604657895863056 ] ] ] } },
{ "type": "Feature", "properties": { "lv_id": "LOC_025662", "id": 115139.0, "CD_SETOR": "261030105000035", "SITUACAO": "Rural", "CD_SIT": "8", "CD_TIPO": "0", "AREA_KM2": 29.26626037831581, "CD_REGIAO": "2", "NM_REGIAO": "Nordeste", "CD_UF": "26", "NM_UF": "Pernambuco", "CD_MUN": "2610301", "NM_MUN": "Paranatama", "CD_DIST": "261030105", "NM_DIST": "Paranatama", "CD_SUBDIST": "26103010500", "NM_SUBDIST": null, "CD_BAIRRO": null, "NM_BAIRRO": null, "CD_NU": null, "NM_NU": null, "CD_FCU": null, "NM_FCU": null, "CD_AGLOM": "261030100001", "NM_AGLOM": "Brejo Velho", "CD_RGINT": "2602", "NM_RGINT": "Caruaru", "CD_RGI": "260010", "NM_RGI": "Garanhuns", "CD_CONCURB": null, "NM_CONCURB": null, "mun_code_x": "2610301", "index_right": 51131, "dist_m": 1340.9681469554289, "local_id": 267510, "ano": 2022, "cod_localidade_ibge": 2610301, "NR_ZONA": "92", "nr_cep": 55355000.0, "nm_localidade": "PARANATAMA", "nm_locvot": "ESCOLA MIN. MARCO MACIEL (BREJO VELHO)", "ds_endereco": "POVOADO BREJO VELHO", "ds_bairro": "ZONA RURAL", "pred_long": -36.72122, "pred_lat": -8.937431, "pred_dist": 0.0, "tse_long": -36.7211667, "tse_lat": -8.9372946, "long": -36.7211667, "lat": -8.9372946, "ID_UNICO": "LOC_025662", "SG_UF": "PE", "CD_MUNICIPIO": "25054", "NR_LOCAL_VOTACAO": "1333", "QT_SECOES_AGREGADAS": 0, "QT_ELEITORES_TRANSFERIDOS": 2, "CIRO GOMES (PDT) (NÃO ELEITO) 1T": 5.0, "CONSTITUINTE EYMAEL (DC) (NÃO ELEITO) 1T": 0.0, "FELIPE D AVILA (NOVO) (NÃO ELEITO) 1T": 0.0, "JAIR BOLSONARO (PL) (2º TURNO) 1T": 41.0, "LULA (PT) (2º TURNO) 1T": 378.0, "LÉO PÉRICLES (UP) (NÃO ELEITO) 1T": 0.0, "PADRE KELMON (PTB) (NÃO ELEITO) 1T": 0.0, "SIMONE TEBET (MDB) (NÃO ELEITO) 1T": 3.0, "SOFIA MANZANO (PCB) (NÃO ELEITO) 1T": 0.0, "SORAYA THRONICKE (UNIÃO) (NÃO ELEITO) 1T": 1.0, "VERA (PSTU) (NÃO ELEITO) 1T": 0.0, "Total_Votos_Validos 1T": 428.0, "Votos_Brancos 1T": 8.0, "Votos_Nulos 1T": 18.0, "Abstenções 1T": 90.0, "Eleitores_Aptos 1T": 544.0, "JAIR BOLSONARO (PL) (NÃO ELEITO) 2T": 48.0, "LULA (PT) (ELEITO) 2T": 380.0, "Total_Votos_Validos 2T": 428.0, "Votos_Brancos 2T": 4.0, "Votos_Nulos 2T": 25.0, "Abstenções 2T": 87.0, "Eleitores_Aptos 2T": 544.0, "mun_code_y": "2610301", "mun_code": "2610301" }, "geometry": { "type": "Polygon", "coordinates": [ [ [ 6899833.202380239963531, 8966690.521141367033124 ], [ 6899854.86464761942625, 8966541.888102991506457 ], [ 6900040.77509746607393, 8966406.15898103825748 ], [ 6899998.525739258155227, 8966337.71038437448442 ], [ 6899915.528025451116264, 8966336.539312928915024 ], [ 6899844.209745625965297, 8966409.831363881006837 ], [ 6899770.802640310488641, 8966537.46939598210156 ], [ 6899657.522812866605818, 8966457.60626420751214 ], [ 6899702.740239157341421, 8966358.40427334420383 ], [ 6899657.817518278025091, 8966346.632099933922291 ], [ 6899647.140950011089444, 8966287.182374116033316 ], [ 6899481.627932721748948, 8966307.163582935929298 ], [ 6899415.237511265091598, 8966097.13955020532012 ], [ 6899404.622546615079045, 8966065.204755829647183 ], [ 6899384.793139321729541, 8966003.767913268879056 ], [ 6899377.55191570147872, 8965981.460244998335838 ], [ 6899363.883627528324723, 8965938.738363824784756 ], [ 6899356.873430840671062, 8965917.379920393228531 ], [ 6899348.197189133614302, 8965887.852666910737753 ], [ 6899338.247001453302801, 8965854.348472064360976 ], [ 6899309.366020846180618, 8965761.470772039145231 ], [ 6899255.774714482948184, 8965587.827052274718881 ], [ 6899246.797611893154681, 8965559.655877025797963 ], [ 6899227.710171944461763, 8965489.058909703046083 ], [ 6899159.586913011968136, 8965478.366122607141733 ], [ 6899087.086688047274947, 8965475.859721256420016 ], [ 6898883.085457473993301, 8965379.662615859881043 ], [ 6898643.281717918813229, 8965290.560449291020632 ], [ 6898629.389941499568522, 8965285.360134376212955 ], [ 6898323.003624714910984, 8965517.66132383979857 ], [ 6897901.188047965988517, 8965837.46379485912621 ], [ 6897833.553023071959615, 8965875.183598574250937 ], [ 6884508.486446402966976, 8973222.055516017600894 ], [ 6884019.492175112478435, 8973491.365585828199983 ], [ 6883969.342596301808953, 8973583.214956318959594 ], [ 6883638.011030564084649, 8973701.793779753148556 ], [ 6882624.07081950083375, 8974261.782636404037476 ], [ 6882783.792980633676052, 8974245.599909842014313 ], [ 6883744.854931484907866, 8974148.257548468187451 ], [ 6884181.544475960545242, 8974226.415349876508117 ], [ 6884719.085330047644675, 8974241.562912600114942 ], [ 6885145.561821784824133, 8974253.575829278677702 ], [ 6885546.348010823130608, 8974250.313386151567101 ], [ 6885734.699034117162228, 8974241.63765611499548 ], [ 6886294.23739942535758, 8974111.605480261147022 ], [ 6886801.695735469460487, 8973966.700462469831109 ], [ 6887215.68295525200665, 8973745.145227679982781 ], [ 6887436.199250061996281, 8973527.511116525158286 ], [ 6888176.989268964156508, 8972796.359582586213946 ], [ 6888799.82017401792109, 8972295.190945237874985 ], [ 6893380.112320572137833, 8968607.848812196403742 ], [ 6894764.576708594337106, 8970269.362486707046628 ], [ 6896648.196387398988008, 8972595.023359775543213 ], [ 6897006.030199889093637, 8972479.903334697708488 ], [ 6897072.308860413730145, 8972431.59578893147409 ], [ 6897079.503639197908342, 8972365.049575829878449 ], [ 6897033.739963844418526, 8972316.780388686805964 ], [ 6896847.194517090916634, 8972261.782005414366722 ], [ 6896775.239582265727222, 8972190.076785078272223 ], [ 6896747.675080480054021, 8972105.339964210987091 ], [ 6896733.0433453572914, 8972004.688537443056703 ], [ 6896732.052880624309182, 8971928.717452585697174 ], [ 6896747.201887844130397, 8971859.661831187084317 ], [ 6896742.733692694455385, 8971760.491290912032127 ], [ 6896734.895785094238818, 8971655.568081276491284 ], [ 6896731.456064777448773, 8971580.474409993737936 ], [ 6896775.62720176205039, 8971504.710788970813155 ], [ 6896843.044658712111413, 8971459.933067983016372 ], [ 6896887.233228416182101, 8971423.847990471869707 ], [ 6896917.577303467318416, 8971387.668128155171871 ], [ 6896940.191998897120357, 8971341.428335385397077 ], [ 6896960.071889803744853, 8971327.432575596496463 ], [ 6897004.879746937192976, 8971315.605039874091744 ], [ 6897071.316549319773912, 8971309.626900892704725 ], [ 6897116.123188924044371, 8971300.88715779222548 ], [ 6897150.967548022046685, 8971293.629728710278869 ], [ 6897191.985807219520211, 8971267.151830296963453 ], [ 6897221.824202296324074, 8971239.622383184731007 ], [ 6897212.980730091221631, 8971206.530049279332161 ], [ 6897197.610407067462802, 8971179.952785233035684 ], [ 6897200.183003624901175, 8971152.57325659878552 ], [ 6897230.254946075379848, 8971128.930261868983507 ], [ 6897263.475747970864177, 8971112.229863934218884 ], [ 6897292.822817702777684, 8971095.571325991302729 ], [ 6897420.822254499420524, 8970975.263408940285444 ], [ 6897495.302731669507921, 8970939.751552645117044 ], [ 6897572.89715850353241, 8970893.430574929341674 ], [ 6897630.512708726339042, 8970901.543987723067403 ], [ 6897744.682010361924767, 8970915.750043619424105 ], [ 6897904.227224208414555, 8970931.44664646871388 ], [ 6897945.490393478423357, 8970918.452295066788793 ], [ 6898014.59239062666893, 8970885.225224705412984 ], [ 6898074.815559489652514, 8970849.509296528995037 ], [ 6898114.995241364464164, 8970797.900498740375042 ], [ 6898158.761743041686714, 8970779.01734584569931 ], [ 6898230.988726433366537, 8970762.506385672837496 ], [ 6898276.985120221972466, 8970686.579740773886442 ], [ 6898291.404243827797472, 8970599.659207107499242 ], [ 6898339.542082047089934, 8970451.645275009796023 ], [ 6898387.273299527354538, 8970277.614495102316141 ], [ 6898427.756205623969436, 8970155.656360128894448 ], [ 6898478.84484688192606, 8970014.661713216453791 ], [ 6898487.359857983887196, 8969927.275402300059795 ], [ 6898497.769779328256845, 8969874.336749944835901 ], [ 6898513.056048668920994, 8969804.410861359909177 ], [ 6898534.996526480652392, 8969742.466713931411505 ], [ 6898547.981261495500803, 8969642.437480973079801 ], [ 6898567.918278623372316, 8969531.777642330154777 ], [ 6898593.752060457132757, 8969488.873883521184325 ], [ 6898626.479650214314461, 8969459.145368948578835 ], [ 6898658.044948630034924, 8969430.477346826344728 ], [ 6898704.052101314999163, 8969371.408744186162949 ], [ 6898781.740599009208381, 8969282.38206885010004 ], [ 6898929.322425925172865, 8969220.169282037764788 ], [ 6899123.753641820512712, 8969142.739656936377287 ], [ 6899150.806671528145671, 8969131.318664129823446 ], [ 6899165.217798250727355, 8969114.590196704491973 ], [ 6899263.694176803342998, 8968992.224110405892134 ], [ 6899345.133291324600577, 8968895.071054715663195 ], [ 6899428.478293577209115, 8968794.381053242832422 ], [ 6899468.376212316565216, 8968716.798386609181762 ], [ 6899514.680138598196208, 8968619.148065790534019 ], [ 6899560.285887045785785, 8968537.156541874632239 ], [ 6899591.240404663607478, 8968512.481254015117884 ], [ 6899626.932326277717948, 8968484.299095273017883 ], [ 6899638.201207628473639, 8968442.686401423066854 ], [ 6899660.847801446914673, 8968391.160210518166423 ], [ 6899682.049226339906454, 8968341.482857281342149 ], [ 6899731.920690571889281, 8968248.903130443766713 ], [ 6899751.796671506948769, 8968219.887977972626686 ], [ 6899771.611991947516799, 8968187.8913669642061 ], [ 6899793.177964333444834, 8968154.945167040452361 ], [ 6899966.873105524107814, 8968575.975102948024869 ], [ 6899994.529985539615154, 8968644.914256379008293 ], [ 6900020.59322795085609, 8968703.182503873482347 ], [ 6900030.887660090811551, 8968720.363176744431257 ], [ 6900053.511739389970899, 8968743.478736823424697 ], [ 6900076.98502063844353, 8968769.24967160820961 ], [ 6900087.942494285292923, 8968777.180494468659163 ], [ 6900100.459991256706417, 8968785.038278944790363 ], [ 6900115.423663411289454, 8968794.609115559607744 ], [ 6900148.201080908998847, 8968816.104270773008466 ], [ 6900169.12429724726826, 8968830.277371864765882 ], [ 6900192.502881493419409, 8968845.885506374761462 ], [ 6900222.994682509452105, 8968865.567649679258466 ], [ 6900256.11710443906486, 8968886.665076764300466 ], [ 6900293.419197163544595, 8968911.013834042474627 ], [ 6900359.734426096081734, 8968954.732466200366616 ], [ 6900400.814667139202356, 8968981.981334445998073 ], [ 6900428.412798296660185, 8969002.180917516350746 ], [ 6900569.923599805682898, 8969091.89846296608448 ], [ 6900641.589049455709755, 8969142.041622219607234 ], [ 6900643.241170361638069, 8969143.248237334191799 ], [ 6900702.457603353075683, 8969177.236602704972029 ], [ 6900720.41715061571449, 8969187.546635653823614 ], [ 6900744.424823584966362, 8969068.875760747119784 ], [ 6900786.625084418803453, 8968865.408521113917232 ], [ 6900800.236624041572213, 8968808.484374191612005 ], [ 6900813.291050389409065, 8968753.089993668720126 ], [ 6900813.991569429636002, 8968747.516422303393483 ], [ 6900814.199239738285542, 8968415.604657895863056 ], [ 6900974.914854028262198, 8968383.088263625279069 ], [ 6900970.962930526584387, 8968343.296371502801776 ], [ 6900967.4721525516361, 8968313.488715808838606 ], [ 6900967.20012379437685, 8968281.621592570096254 ], [ 6900960.417061904445291, 8968203.905526716262102 ], [ 6900956.838967964053154, 8968174.356472374871373 ], [ 6900952.860876987688243, 8968138.533486351370811 ], [ 6900926.951905869878829, 8968057.445622561499476 ], [ 6900904.791632938198745, 8967990.537357695400715 ], [ 6900888.268765545450151, 8967939.605573292821646 ], [ 6900875.576878097839653, 8967915.828033180907369 ], [ 6900859.701804192736745, 8967884.634667940437794 ], [ 6900845.110232336446643, 8967853.10355000756681 ], [ 6900835.764762460254133, 8967846.231096263974905 ], [ 6900814.130559274926782, 8967840.744485290721059 ], [ 6900797.681140715256333, 8967824.99746422842145 ], [ 6900780.282212764956057, 8967816.339497236534953 ], [ 6900762.443448137491941, 8967809.599203450605273 ], [ 6900742.550344034098089, 8967802.95522596873343 ], [ 6900721.270346282050014, 8967793.935566833242774 ], [ 6900692.688203472644091, 8967771.990547517314553 ], [ 6900676.930096205323935, 8967760.005288310348988 ], [ 6900655.186966520734131, 8967746.681214336305857 ], [ 6900649.391673348844051, 8967743.968552375212312 ], [ 6900636.901609934866428, 8967724.79719845764339 ], [ 6900621.651826242916286, 8967701.417520288378 ], [ 6900604.222875760868192, 8967675.4332978669554 ], [ 6900570.891963731497526, 8967623.393359126523137 ], [ 6900546.449527388438582, 8967585.014116179198027 ], [ 6900536.601750925183296, 8967572.751896817237139 ], [ 6900520.078853610903025, 8967549.698134018108249 ], [ 6900508.226000013761222, 8967510.728703357279301 ], [ 6900495.533568711951375, 8967459.07473960891366 ], [ 6900470.373442051932216, 8967422.08277883194387 ], [ 6900458.310811813920736, 8967400.728596173226833 ], [ 6900452.968935123644769, 8967368.764457773417234 ], [ 6900455.708868274465203, 8967355.634435724467039 ], [ 6900461.428350645117462, 8967328.842618297785521 ], [ 6900465.790795688517392, 8967322.946964677423239 ], [ 6900474.52719659730792, 8967311.166676258668303 ], [ 6900481.385573677718639, 8967303.534546928480268 ], [ 6900485.499944200739264, 8967286.557554675266147 ], [ 6900488.140027443878353, 8967271.269111080095172 ], [ 6900489.72566503752023, 8967244.127448935061693 ], [ 6900491.334706660360098, 8967223.207848392426968 ], [ 6900485.467649905011058, 8967213.465820571407676 ], [ 6900478.866025742143393, 8967209.981413060799241 ], [ 6900462.513917049393058, 8967201.818498384207487 ], [ 6900434.132756841368973, 8967197.319801710546017 ], [ 6900402.916187749244273, 8967194.596627498045564 ], [ 6900376.75887871067971, 8967191.763390317559242 ], [ 6900365.028800969943404, 8967188.797138776630163 ], [ 6900324.195661677978933, 8967175.00410557538271 ], [ 6900299.448550704866648, 8967174.811426360160112 ], [ 6900279.049170046113431, 8967173.882736634463072 ], [ 6900270.80813764501363, 8967173.991635696962476 ], [ 6900227.471440309658647, 8967150.576544675976038 ], [ 6900207.39236683677882, 8967134.190786147490144 ], [ 6900175.197668144479394, 8967106.736826289445162 ], [ 6900144.226973112672567, 8967072.181188404560089 ], [ 6900117.737457165494561, 8967017.39291781745851 ], [ 6900091.792942781001329, 8966957.96395505219698 ], [ 6900072.13492463901639, 8966928.302872814238071 ], [ 6900049.06171484105289, 8966903.116524327546358 ], [ 6900033.907482518814504, 8966893.000676406547427 ], [ 6900011.604664918966591, 8966877.332573989406228 ], [ 6899947.497141489759088, 8966836.616659859195352 ], [ 6899928.903530649840832, 8966824.499193346127868 ], [ 6899910.846211626194417, 8966813.027464816346765 ], [ 6899892.572298866696656, 8966802.109553638845682 ], [ 6899877.342306619510055, 8966793.211877206340432 ], [ 6899863.616212779656053, 8966788.74318571574986 ], [ 6899849.851827716454864, 8966784.160623252391815 ], [ 6899819.115853480063379, 8966784.919961117208004 ], [ 6899833.202380239963531, 8966690.521141367033124 ] ] ] } }
]
}
