{
"type": "FeatureCollection",
"name": "2612406",
"crs": { "type": "name", "properties": { "name": "urn:ogc:def:crs:EPSG::5880" } },
"features": [
{ "type": "Feature", "properties": { "lv_id": "LOC_026175", "id": 120614.0, "CD_SETOR": "261240605000001", "SITUACAO": "Urbana", "CD_SIT": "1", "CD_TIPO": "0", "AREA_KM2": 0.118755308265901, "CD_REGIAO": "2", "NM_REGIAO": "Nordeste", "CD_UF": "26", "NM_UF": "Pernambuco", "CD_MUN": "2612406", "NM_MUN": "Sanharó", "CD_DIST": "261240605", "NM_DIST": "Sanharó", "CD_SUBDIST": "26124060500", "NM_SUBDIST": null, "CD_BAIRRO": null, "NM_BAIRRO": null, "CD_NU": null, "NM_NU": null, "CD_FCU": null, "NM_FCU": null, "CD_AGLOM": "261240600004", "NM_AGLOM": "Sítio Pagão", "CD_RGINT": "2602", "NM_RGINT": "Caruaru", "CD_RGI": "260012", "NM_RGI": "Belo Jardim ¿ Pesqueira", "CD_CONCURB": null, "NM_CONCURB": null, "mun_code_x": "2612406", "index_right": 51987, "dist_m": 107.73303556445991, "local_id": 274860, "ano": 2022, "cod_localidade_ibge": 2612406, "NR_ZONA": "45", "nr_cep": 55250000.0, "nm_localidade": "SANHARÓ", "nm_locvot": "ESCOLA DE REFERÊNCIA EM ENSINO MÉDIO NOSSA SENHORA DE FÁTIMA", "ds_endereco": "PRAÇA PREFEITO ANTÔNIO CORDEIRO DE SOUZA, S/N", "ds_bairro": "DR. TONICO", "pred_long": -36.562464, "pred_lat": -8.361155, "pred_dist": 0.0, "tse_long": -36.5624956, "tse_lat": -8.3610314, "long": -36.5624956, "lat": -8.3610314, "ID_UNICO": "LOC_026175", "SG_UF": "PE", "CD_MUNICIPIO": "25470", "NR_LOCAL_VOTACAO": "1031", "QT_SECOES_AGREGADAS": 0, "QT_ELEITORES_TRANSFERIDOS": 4, "CIRO GOMES (PDT) (NÃO ELEITO) 1T": 67.0, "CONSTITUINTE EYMAEL (DC) (NÃO ELEITO) 1T": 1.0, "FELIPE D AVILA (NOVO) (NÃO ELEITO) 1T": 2.0, "JAIR BOLSONARO (PL) (2º TURNO) 1T": 592.0, "LULA (PT) (2º TURNO) 1T": 2825.0, "LÉO PÉRICLES (UP) (NÃO ELEITO) 1T": 0.0, "PADRE KELMON (PTB) (NÃO ELEITO) 1T": 0.0, "SIMONE TEBET (MDB) (NÃO ELEITO) 1T": 28.0, "SOFIA MANZANO (PCB) (NÃO ELEITO) 1T": 0.0, "SORAYA THRONICKE (UNIÃO) (NÃO ELEITO) 1T": 5.0, "VERA (PSTU) (NÃO ELEITO) 1T": 1.0, "Total_Votos_Validos 1T": 3521.0, "Votos_Brancos 1T": 65.0, "Votos_Nulos 1T": 124.0, "Abstenções 1T": 1027.0, "Eleitores_Aptos 1T": 4737.0, "JAIR BOLSONARO (PL) (NÃO ELEITO) 2T": 701.0, "LULA (PT) (ELEITO) 2T": 2889.0, "Total_Votos_Validos 2T": 3590.0, "Votos_Brancos 2T": 38.0, "Votos_Nulos 2T": 203.0, "Abstenções 2T": 906.0, "Eleitores_Aptos 2T": 4737.0, "mun_code_y": "2612406", "mun_code": "2612406" }, "geometry": { "type": "MultiPolygon", "coordinates": [ [ [ [ 6920950.816337862983346, 9028951.168724136427045 ], [ 6920706.616018246859312, 9028843.376038238406181 ], [ 6920553.513555505312979, 9028820.968865105882287 ], [ 6920153.603514172136784, 9028667.468678303062916 ], [ 6919971.210786752402782, 9028580.671878766268492 ], [ 6919777.444988796487451, 9028378.277455907315016 ], [ 6919728.806978831067681, 9028327.470991685986519 ], [ 6919705.907820133492351, 9028197.175328522920609 ], [ 6919627.105550895445049, 9028086.974222678691149 ], [ 6919495.001487894915044, 9028064.469394752755761 ], [ 6919243.804382992908359, 9028055.470583481714129 ], [ 6919057.899881348013878, 9027874.971157737076283 ], [ 6918997.704179091379046, 9027708.673340467736125 ], [ 6918831.804880509153008, 9027583.670449094846845 ], [ 6918559.193963075987995, 9027481.47555641643703 ], [ 6918325.400164781138301, 9027452.976672671735287 ], [ 6918134.59486829675734, 9027375.871434831991792 ], [ 6917909.793445104733109, 9027122.074968239292502 ], [ 6917758.095886627212167, 9026902.877496484667063 ], [ 6917735.193495445884764, 9026772.57091517560184 ], [ 6916957.88370366115123, 9024447.765652408823371 ], [ 6916627.021447942592204, 9023523.977345064282417 ], [ 6915634.696968093514442, 9026637.320229537785053 ], [ 6914693.048880559392273, 9029561.636143637821078 ], [ 6913886.022122436203063, 9032074.271733213216066 ], [ 6913657.342040092684329, 9032787.476375378668308 ], [ 6913636.497509396634996, 9032787.29741382598877 ], [ 6913181.723833605647087, 9034270.010476633906364 ], [ 6912929.467175694182515, 9035056.119036639109254 ], [ 6912929.320658955723047, 9035056.553646933287382 ], [ 6914776.865636710077524, 9037523.267706053331494 ], [ 6914800.482101522386074, 9037557.098297782242298 ], [ 6915142.161213278770447, 9038013.987427607178688 ], [ 6915783.003536198288202, 9038868.399125831201673 ], [ 6916898.490845680236816, 9039509.924978883937001 ], [ 6921706.73657051846385, 9039558.895829511806369 ], [ 6921979.432651102542877, 9038902.795798342674971 ], [ 6922878.340076360851526, 9038502.497180130332708 ], [ 6923319.437423490919173, 9038485.885993771255016 ], [ 6923610.743093647994101, 9038737.990631990134716 ], [ 6923885.944051273167133, 9038759.489546956494451 ], [ 6923999.447792276740074, 9038807.186239490285516 ], [ 6924127.226970730349422, 9038860.887776771560311 ], [ 6924108.210564373992383, 9038808.954959651455283 ], [ 6924042.802775026299059, 9038728.259679969400167 ], [ 6923958.937721153721213, 9038629.819773098453879 ], [ 6923920.81409802660346, 9038566.504164632409811 ], [ 6923886.096506671980023, 9038479.82538122497499 ], [ 6923862.805111462250352, 9038350.859213532879949 ], [ 6923846.544721633195877, 9038281.937168199568987 ], [ 6923839.714509045705199, 9038226.527035385370255 ], [ 6923781.319278645329177, 9038103.752785926684737 ], [ 6923734.368794541805983, 9038040.827893741428852 ], [ 6923648.708683846518397, 9038002.824199741706252 ], [ 6923598.95697339810431, 9037977.163962511345744 ], [ 6923584.509192619472742, 9037949.946036819368601 ], [ 6923570.061394612304866, 9037922.728142630308867 ], [ 6923567.240645073354244, 9037857.85668770968914 ], [ 6923578.263127025216818, 9037806.302021905779839 ], [ 6923617.177281588315964, 9037760.485975271090865 ], [ 6923656.079754021950066, 9037714.658667240291834 ], [ 6923647.434495235793293, 9037617.545941900461912 ], [ 6923619.344388030469418, 9037581.64522654004395 ], [ 6923572.393134577199817, 9037518.721754694357514 ], [ 6923571.36355540715158, 9037393.417766252532601 ], [ 6923588.388140606693923, 9037276.60170067474246 ], [ 6923574.320033209398389, 9037156.515934960916638 ], [ 6923551.92944270092994, 9037048.39850415661931 ], [ 6923529.53891499619931, 9036940.292834194377065 ], [ 6923504.626364525407553, 9036774.260909523814917 ], [ 6923422.143970240838826, 9036606.130419328808784 ], [ 6923396.246558305807412, 9036519.066313756629825 ], [ 6923405.24795500934124, 9036421.175068777054548 ], [ 6923401.615806451067328, 9036337.769721811637282 ], [ 6923397.781533336266875, 9036249.730770757421851 ], [ 6923368.075601735152304, 9036176.763080867007375 ], [ 6923333.956724649295211, 9036103.990638267248869 ], [ 6923326.91997052077204, 9036043.948742613196373 ], [ 6923332.515812119469047, 9035969.420766793191433 ], [ 6923337.389911230653524, 9035890.733628926798701 ], [ 6923337.707609281875193, 9035885.625523319467902 ], [ 6923372.404094357974827, 9035870.163742305710912 ], [ 6923458.43847655877471, 9035815.291243351995945 ], [ 6923630.505716228857636, 9035705.532976612448692 ], [ 6923712.328304392285645, 9035655.487648321315646 ], [ 6923842.488742209970951, 9035598.66074800863862 ], [ 6923885.808117928914726, 9035578.173651780933142 ], [ 6923941.557571277953684, 9035538.56579208932817 ], [ 6924085.157334605231881, 9035485.785014215856791 ], [ 6924220.133282475173473, 9035438.027519127354026 ], [ 6924272.075558976270258, 9035412.515052549540997 ], [ 6924309.567048108205199, 9035359.78546055033803 ], [ 6924327.992710299789906, 9035275.400249602273107 ], [ 6924353.019815827719867, 9035139.652191272005439 ], [ 6924392.425762423314154, 9034826.841499570757151 ], [ 6924411.847342921420932, 9034714.55454545468092 ], [ 6924431.257233979180455, 9034602.267867609858513 ], [ 6924477.128655439242721, 9034437.737767232581973 ], [ 6924550.851300881244242, 9034202.330296305939555 ], [ 6924710.636044785380363, 9034014.177019823342562 ], [ 6924726.790125313214958, 9033989.239270126447082 ], [ 6924737.298330398276448, 9033982.451702944934368 ], [ 6924776.961034453473985, 9033942.438801934942603 ], [ 6924808.56151466537267, 9033929.36686179228127 ], [ 6924817.522762536071241, 9033910.641156664118171 ], [ 6924819.905863566324115, 9033890.238801760599017 ], [ 6924838.447931092232466, 9033790.515044072642922 ], [ 6924850.680128179490566, 9033717.214686905965209 ], [ 6924853.340968236327171, 9033673.654958073049784 ], [ 6924769.301780790090561, 9033655.869681023061275 ], [ 6924747.667924849316478, 9033746.6414396148175 ], [ 6924734.304585446603596, 9033745.613081747666001 ], [ 6924725.030028287321329, 9033779.369613083079457 ], [ 6924664.061007000505924, 9033767.00989549793303 ], [ 6924649.046252440661192, 9033798.334679299965501 ], [ 6924561.293081314302981, 9033770.489955158904195 ], [ 6924540.238529794849455, 9033757.448720490559936 ], [ 6924490.195955126546323, 9033760.744339412078261 ], [ 6924470.727205327711999, 9033760.530793966725469 ], [ 6924454.187674028798938, 9033756.957085030153394 ], [ 6924411.900117347016931, 9033738.396766643971205 ], [ 6924363.47243800573051, 9033720.108727533370256 ], [ 6924343.582152798771858, 9033710.2462248634547 ], [ 6924332.018571794964373, 9033703.221649069339037 ], [ 6924330.918731636367738, 9033695.964693622663617 ], [ 6924328.734717581421137, 9033695.436317166313529 ], [ 6924303.008350520394742, 9033672.112684736028314 ], [ 6924299.738859141245484, 9033667.684345280751586 ], [ 6924292.995887660421431, 9033662.738495107740164 ], [ 6924290.968003300949931, 9033657.45622555539012 ], [ 6924266.182696107774973, 9033632.20372305996716 ], [ 6924222.655496092513204, 9033582.241335730999708 ], [ 6924205.3010892290622, 9033566.072326043620706 ], [ 6924197.273997595533729, 9033552.175822323188186 ], [ 6924179.266462432220578, 9033538.721886849030852 ], [ 6924155.059027908369899, 9033523.667265713214874 ], [ 6924142.362776120193303, 9033508.634809248149395 ], [ 6924121.107758240774274, 9033490.751659525558352 ], [ 6924107.875419253483415, 9033480.860436420887709 ], [ 6924090.769837331026793, 9033462.816480038687587 ], [ 6924030.722423537634313, 9033394.078594584017992 ], [ 6924029.809619151055813, 9033382.020220031961799 ], [ 6924026.572681838646531, 9033369.254465518519282 ], [ 6924020.39557527191937, 9033359.849323246628046 ], [ 6924020.131478951312602, 9033353.805821631103754 ], [ 6924024.064645011909306, 9033347.182532377541065 ], [ 6924019.007576644420624, 9033336.917275425046682 ], [ 6924004.681190614588559, 9033325.453786570578814 ], [ 6923989.177255894057453, 9033322.112280009314418 ], [ 6923970.356854505836964, 9033313.267877286300063 ], [ 6923958.878431668505073, 9033296.838585348799825 ], [ 6923940.353108214214444, 9033277.08640425466001 ], [ 6923923.55290668271482, 9033270.57220671698451 ], [ 6923910.454308328218758, 9033269.543810520321131 ], [ 6923910.664284529164433, 9033239.281731761991978 ], [ 6923891.104520666413009, 9033239.755575187504292 ], [ 6923872.818020791746676, 9033243.379983637481928 ], [ 6923858.049023941159248, 9033239.195479540154338 ], [ 6923801.171312894672155, 9033229.619224917143583 ], [ 6923770.66253163293004, 9033234.607651118189096 ], [ 6923764.997819405980408, 9033206.400851454585791 ], [ 6924505.936003239825368, 9033245.503944160416722 ], [ 6924633.09404072444886, 9033251.695533283054829 ], [ 6924860.936837979592383, 9033263.018016371876001 ], [ 6924981.977789027616382, 9033267.986773159354925 ], [ 6925746.525127846747637, 9033308.877551682293415 ], [ 6925747.436023399233818, 9033162.585554625838995 ], [ 6925750.598379540257156, 9032621.565085519105196 ], [ 6925999.316847342997789, 9032647.661923198029399 ], [ 6926033.854164187796414, 9032325.737972840666771 ], [ 6926054.74815071746707, 9032197.128136346116662 ], [ 6926123.78664762340486, 9031906.182176569476724 ], [ 6926162.10154367890209, 9031721.066630186513066 ], [ 6926235.341318843886256, 9031425.287090703845024 ], [ 6926088.110602704808116, 9031394.690816456452012 ], [ 6925916.821077089756727, 9031369.807849239557981 ], [ 6925925.081763064488769, 9031255.688988100737333 ], [ 6926037.175490610301495, 9030758.502102859318256 ], [ 6926047.216654830612242, 9030713.962270848453045 ], [ 6926496.103677062317729, 9030768.270891586318612 ], [ 6926608.948394073173404, 9030317.489243203774095 ], [ 6926672.156047323718667, 9030045.360761418938637 ], [ 6926717.100404286757112, 9029760.11441957205534 ], [ 6926762.107166330330074, 9029577.017631424590945 ], [ 6926608.635141083970666, 9029504.922955866903067 ], [ 6926554.808509210124612, 9029386.584983311593533 ], [ 6926524.060414051637053, 9029290.446525612846017 ], [ 6926496.502286261878908, 9029166.306248454377055 ], [ 6926453.67084501311183, 9028996.414503019303083 ], [ 6926413.282681320793927, 9028882.13376446813345 ], [ 6926359.454364931210876, 9028763.809695053845644 ], [ 6926359.570969861932099, 9028762.449722070246935 ], [ 6925499.232600150629878, 9027933.964248007163405 ], [ 6925211.742915051057935, 9027598.392805352807045 ], [ 6925117.62503041792661, 9027785.455107610672712 ], [ 6925090.231575923971832, 9028011.3600635509938 ], [ 6924895.721887088380754, 9028074.966795874759555 ], [ 6924677.828039583750069, 9027989.559213554486632 ], [ 6924444.425109770148993, 9027979.66285246796906 ], [ 6924324.125518258661032, 9028115.456938562914729 ], [ 6924254.32356780115515, 9028320.21451224386692 ], [ 6924184.529522720724344, 9028524.958627641201019 ], [ 6923958.420236188918352, 9028625.958805251866579 ], [ 6923890.320600934326649, 9028722.265402404591441 ], [ 6923770.121382256038487, 9028858.265819730237126 ], [ 6923686.426660642027855, 9029011.463849317282438 ], [ 6923527.620594290085137, 9029073.670309668406844 ], [ 6923522.020268955267966, 9028923.965286783874035 ], [ 6923422.526500817388296, 9028899.568630628287792 ], [ 6923104.720076631754637, 9029024.06840074621141 ], [ 6922940.215383095666766, 9028936.563087051734328 ], [ 6922760.717633738182485, 9028924.666093749925494 ], [ 6922546.813853906467557, 9028951.463333290070295 ], [ 6922410.020282781682909, 9029125.467761071398854 ], [ 6922161.014344722032547, 9029172.369638370350003 ], [ 6921721.012672274373472, 9029142.273186795413494 ], [ 6921411.114057343453169, 9029003.968201939016581 ], [ 6921126.507265396416187, 9029052.274727899581194 ], [ 6921031.92712267767638, 9028997.84792553819716 ], [ 6920950.816337862983346, 9028951.168724136427045 ] ] ], [ [ [ 6926943.562902775593102, 9032344.381031779572368 ], [ 6926962.942360271699727, 9032596.044281255453825 ], [ 6926995.77249707467854, 9032668.751635706052184 ], [ 6927015.619928540661931, 9032678.626900937408209 ], [ 6927027.138679017312825, 9032766.443283805623651 ], [ 6927031.511748905293643, 9032786.246721405535936 ], [ 6927230.588109921664, 9032811.374305866658688 ], [ 6927225.838771999813616, 9032739.676118042320013 ], [ 6927234.376109771430492, 9032694.703661102801561 ], [ 6927132.51362372841686, 9032682.811146976426244 ], [ 6927128.23764721211046, 9032597.509440120309591 ], [ 6927060.39152914378792, 9032562.301092708483338 ], [ 6927126.574252424761653, 9032399.700545294210315 ], [ 6927159.077090456150472, 9032160.168033691123128 ], [ 6926890.787719917483628, 9032050.224414322525263 ], [ 6926909.184604292735457, 9031965.605902288109064 ], [ 6926658.281385958194733, 9031847.596483789384365 ], [ 6926601.28461327124387, 9032105.292228404432535 ], [ 6926710.074880258180201, 9032168.391171680763364 ], [ 6926701.464396722614765, 9032209.91532875597477 ], [ 6926734.34005500562489, 9032217.705638328567147 ], [ 6926833.144863760098815, 9032315.60522916726768 ], [ 6926943.562902775593102, 9032344.381031779572368 ] ] ], [ [ [ 6927738.088060023263097, 9034672.590977361425757 ], [ 6928072.061798108741641, 9034744.264069873839617 ], [ 6928323.970556056126952, 9034785.347718190401793 ], [ 6928270.259970294311643, 9034442.053373452275991 ], [ 6928150.196993314661086, 9034452.975527392700315 ], [ 6927961.707596743479371, 9034428.534946488216519 ], [ 6927765.167629112489522, 9034414.884814897552133 ], [ 6927638.32343199569732, 9034404.105074709281325 ], [ 6927632.035782009363174, 9034617.636907525360584 ], [ 6927738.088060023263097, 9034672.590977361425757 ] ] ] ] } },
{ "type": "Feature", "properties": { "lv_id": "LOC_026176", "id": 120643.0, "CD_SETOR": "261240605000047", "SITUACAO": "Rural", "CD_SIT": "8", "CD_TIPO": "0", "AREA_KM2": 23.682349332686588, "CD_REGIAO": "2", "NM_REGIAO": "Nordeste", "CD_UF": "26", "NM_UF": "Pernambuco", "CD_MUN": "2612406", "NM_MUN": "Sanharó", "CD_DIST": "261240605", "NM_DIST": "Sanharó", "CD_SUBDIST": "26124060500", "NM_SUBDIST": null, "CD_BAIRRO": null, "NM_BAIRRO": null, "CD_NU": null, "NM_NU": null, "CD_FCU": null, "NM_FCU": null, "CD_AGLOM": null, "NM_AGLOM": null, "CD_RGINT": "2602", "NM_RGINT": "Caruaru", "CD_RGI": "260012", "NM_RGI": "Belo Jardim ¿ Pesqueira", "CD_CONCURB": null, "NM_CONCURB": null, "mun_code_x": "2612406", "index_right": 51988, "dist_m": 939.56700628135252, "local_id": 274861, "ano": 2022, "cod_localidade_ibge": 2612406, "NR_ZONA": "45", "nr_cep": 55250000.0, "nm_localidade": "SANHARÓ", "nm_locvot": "ESCOLA MUNICIPAL PADRE HERALDO CORDEIRO DE BARROS", "ds_endereco": "RUA ERNESTO DE SOUZA LEÃO, S/N", "ds_bairro": "DISTRITO DE JENIPAPO", "pred_long": -36.515912, "pred_lat": -8.274832, "pred_dist": 0.0, "tse_long": -36.5158795, "tse_lat": -8.2747894, "long": -36.5158795, "lat": -8.2747894, "ID_UNICO": "LOC_026176", "SG_UF": "PE", "CD_MUNICIPIO": "25470", "NR_LOCAL_VOTACAO": "1058", "QT_SECOES_AGREGADAS": 0, "QT_ELEITORES_TRANSFERIDOS": 0, "CIRO GOMES (PDT) (NÃO ELEITO) 1T": 11.0, "CONSTITUINTE EYMAEL (DC) (NÃO ELEITO) 1T": 0.0, "FELIPE D AVILA (NOVO) (NÃO ELEITO) 1T": 1.0, "JAIR BOLSONARO (PL) (2º TURNO) 1T": 99.0, "LULA (PT) (2º TURNO) 1T": 731.0, "LÉO PÉRICLES (UP) (NÃO ELEITO) 1T": 0.0, "PADRE KELMON (PTB) (NÃO ELEITO) 1T": 1.0, "SIMONE TEBET (MDB) (NÃO ELEITO) 1T": 7.0, "SOFIA MANZANO (PCB) (NÃO ELEITO) 1T": 0.0, "SORAYA THRONICKE (UNIÃO) (NÃO ELEITO) 1T": 2.0, "VERA (PSTU) (NÃO ELEITO) 1T": 0.0, "Total_Votos_Validos 1T": 852.0, "Votos_Brancos 1T": 14.0, "Votos_Nulos 1T": 64.0, "Abstenções 1T": 246.0, "Eleitores_Aptos 1T": 1176.0, "JAIR BOLSONARO (PL) (NÃO ELEITO) 2T": 120.0, "LULA (PT) (ELEITO) 2T": 749.0, "Total_Votos_Validos 2T": 869.0, "Votos_Brancos 2T": 12.0, "Votos_Nulos 2T": 57.0, "Abstenções 2T": 238.0, "Eleitores_Aptos 2T": 1176.0, "mun_code_y": "2612406", "mun_code": "2612406" }, "geometry": { "type": "Polygon", "coordinates": [ [ [ 6923858.049023941159248, 9033239.195479540154338 ], [ 6923872.818020791746676, 9033243.379983637481928 ], [ 6923891.104520666413009, 9033239.755575187504292 ], [ 6923910.664284529164433, 9033239.281731761991978 ], [ 6923910.454308328218758, 9033269.543810520321131 ], [ 6923923.55290668271482, 9033270.57220671698451 ], [ 6923940.353108214214444, 9033277.08640425466001 ], [ 6923958.878431668505073, 9033296.838585348799825 ], [ 6923970.356854505836964, 9033313.267877286300063 ], [ 6923989.177255894057453, 9033322.112280009314418 ], [ 6924004.681190614588559, 9033325.453786570578814 ], [ 6924019.007576644420624, 9033336.917275425046682 ], [ 6924024.064645011909306, 9033347.182532377541065 ], [ 6924020.131478951312602, 9033353.805821631103754 ], [ 6924020.39557527191937, 9033359.849323246628046 ], [ 6924026.572681838646531, 9033369.254465518519282 ], [ 6924029.809619151055813, 9033382.020220031961799 ], [ 6924030.722423537634313, 9033394.078594584017992 ], [ 6924090.769837331026793, 9033462.816480038687587 ], [ 6924107.875419253483415, 9033480.860436420887709 ], [ 6924121.107758240774274, 9033490.751659525558352 ], [ 6924142.362776120193303, 9033508.634809248149395 ], [ 6924155.059027908369899, 9033523.667265713214874 ], [ 6924179.266462432220578, 9033538.721886849030852 ], [ 6924197.273997595533729, 9033552.175822323188186 ], [ 6924205.3010892290622, 9033566.072326043620706 ], [ 6924222.655496092513204, 9033582.241335730999708 ], [ 6924266.182696107774973, 9033632.20372305996716 ], [ 6924290.968003300949931, 9033657.45622555539012 ], [ 6924292.995887660421431, 9033662.738495107740164 ], [ 6924299.738859141245484, 9033667.684345280751586 ], [ 6924303.008350520394742, 9033672.112684736028314 ], [ 6924328.734717581421137, 9033695.436317166313529 ], [ 6924330.918731636367738, 9033695.964693622663617 ], [ 6924332.018571794964373, 9033703.221649069339037 ], [ 6924343.582152798771858, 9033710.2462248634547 ], [ 6924363.47243800573051, 9033720.108727533370256 ], [ 6924411.900117347016931, 9033738.396766643971205 ], [ 6924454.187674028798938, 9033756.957085030153394 ], [ 6924470.727205327711999, 9033760.530793966725469 ], [ 6924490.195955126546323, 9033760.744339412078261 ], [ 6924540.238529794849455, 9033757.448720490559936 ], [ 6924561.293081314302981, 9033770.489955158904195 ], [ 6924649.046252440661192, 9033798.334679299965501 ], [ 6924664.061007000505924, 9033767.00989549793303 ], [ 6924725.030028287321329, 9033779.369613083079457 ], [ 6924734.304585446603596, 9033745.613081747666001 ], [ 6924747.667924849316478, 9033746.6414396148175 ], [ 6924769.301780790090561, 9033655.869681023061275 ], [ 6924853.340968236327171, 9033673.654958073049784 ], [ 6924850.680128179490566, 9033717.214686905965209 ], [ 6924838.447931092232466, 9033790.515044072642922 ], [ 6924819.905863566324115, 9033890.238801760599017 ], [ 6924817.522762536071241, 9033910.641156664118171 ], [ 6924808.56151466537267, 9033929.36686179228127 ], [ 6924776.961034453473985, 9033942.438801934942603 ], [ 6924737.298330398276448, 9033982.451702944934368 ], [ 6924726.790125313214958, 9033989.239270126447082 ], [ 6924710.636044785380363, 9034014.177019823342562 ], [ 6924550.851300881244242, 9034202.330296305939555 ], [ 6924477.128655439242721, 9034437.737767232581973 ], [ 6924431.257233979180455, 9034602.267867609858513 ], [ 6924411.847342921420932, 9034714.55454545468092 ], [ 6924392.425762423314154, 9034826.841499570757151 ], [ 6924353.019815827719867, 9035139.652191272005439 ], [ 6924327.992710299789906, 9035275.400249602273107 ], [ 6924309.567048108205199, 9035359.78546055033803 ], [ 6924272.075558976270258, 9035412.515052549540997 ], [ 6924220.133282475173473, 9035438.027519127354026 ], [ 6924085.157334605231881, 9035485.785014215856791 ], [ 6923941.557571277953684, 9035538.56579208932817 ], [ 6923885.808117928914726, 9035578.173651780933142 ], [ 6923842.488742209970951, 9035598.66074800863862 ], [ 6923712.328304392285645, 9035655.487648321315646 ], [ 6923630.505716228857636, 9035705.532976612448692 ], [ 6923458.43847655877471, 9035815.291243351995945 ], [ 6923372.404094357974827, 9035870.163742305710912 ], [ 6923337.707609281875193, 9035885.625523319467902 ], [ 6923337.389911230653524, 9035890.733628926798701 ], [ 6923332.515812119469047, 9035969.420766793191433 ], [ 6923326.91997052077204, 9036043.948742613196373 ], [ 6923333.956724649295211, 9036103.990638267248869 ], [ 6923368.075601735152304, 9036176.763080867007375 ], [ 6923397.781533336266875, 9036249.730770757421851 ], [ 6923401.615806451067328, 9036337.769721811637282 ], [ 6923405.24795500934124, 9036421.175068777054548 ], [ 6923396.246558305807412, 9036519.066313756629825 ], [ 6923422.143970240838826, 9036606.130419328808784 ], [ 6923504.626364525407553, 9036774.260909523814917 ], [ 6923529.53891499619931, 9036940.292834194377065 ], [ 6923551.92944270092994, 9037048.39850415661931 ], [ 6923574.320033209398389, 9037156.515934960916638 ], [ 6923588.388140606693923, 9037276.60170067474246 ], [ 6923571.36355540715158, 9037393.417766252532601 ], [ 6923572.393134577199817, 9037518.721754694357514 ], [ 6923619.344388030469418, 9037581.64522654004395 ], [ 6923647.434495235793293, 9037617.545941900461912 ], [ 6923656.079754021950066, 9037714.658667240291834 ], [ 6923617.177281588315964, 9037760.485975271090865 ], [ 6923578.263127025216818, 9037806.302021905779839 ], [ 6923567.240645073354244, 9037857.85668770968914 ], [ 6923570.061394612304866, 9037922.728142630308867 ], [ 6923584.509192619472742, 9037949.946036819368601 ], [ 6923598.95697339810431, 9037977.163962511345744 ], [ 6923648.708683846518397, 9038002.824199741706252 ], [ 6923734.368794541805983, 9038040.827893741428852 ], [ 6923781.319278645329177, 9038103.752785926684737 ], [ 6923839.714509045705199, 9038226.527035385370255 ], [ 6923846.544721633195877, 9038281.937168199568987 ], [ 6923862.805111462250352, 9038350.859213532879949 ], [ 6923886.096506671980023, 9038479.82538122497499 ], [ 6923920.81409802660346, 9038566.504164632409811 ], [ 6923958.937721153721213, 9038629.819773098453879 ], [ 6924042.802775026299059, 9038728.259679969400167 ], [ 6924108.210564373992383, 9038808.954959651455283 ], [ 6924127.226970730349422, 9038860.887776771560311 ], [ 6923999.447792276740074, 9038807.186239490285516 ], [ 6923885.944051273167133, 9038759.489546956494451 ], [ 6923610.743093647994101, 9038737.990631990134716 ], [ 6923319.437423490919173, 9038485.885993771255016 ], [ 6922878.340076360851526, 9038502.497180130332708 ], [ 6921979.432651102542877, 9038902.795798342674971 ], [ 6921706.73657051846385, 9039558.895829511806369 ], [ 6916898.490845680236816, 9039509.924978883937001 ], [ 6917555.090261726640165, 9039888.406213516369462 ], [ 6919778.97140247002244, 9041168.737576216459274 ], [ 6920065.500248740427196, 9041549.864896446466446 ], [ 6920074.194869061931968, 9041550.24732624553144 ], [ 6920083.164511020295322, 9041552.909633573144674 ], [ 6920090.061046886257827, 9041555.570313597097993 ], [ 6920098.418118144385517, 9041562.68134587444365 ], [ 6920104.448840553872287, 9041562.659780455753207 ], [ 6920115.137884562835097, 9041574.738555522635579 ], [ 6920133.817803747020662, 9041584.950281243771315 ], [ 6920146.658641250804067, 9041603.440095443278551 ], [ 6920156.456415587104857, 9041620.662824852392077 ], [ 6920165.795498638413846, 9041628.043339377269149 ], [ 6920178.763481694273651, 9041636.213809618726373 ], [ 6920187.689293639734387, 9041644.492210950702429 ], [ 6920203.090443147346377, 9041655.12569535523653 ], [ 6920217.680314116179943, 9041680.403149569407105 ], [ 6920248.110933850519359, 9041692.819607347249985 ], [ 6920274.130785582587123, 9041720.790439933538437 ], [ 6920374.81072352733463, 9041793.072700968012214 ], [ 6920395.025724444538355, 9041808.183239836245775 ], [ 6920405.863561375066638, 9041824.978573543950915 ], [ 6920418.522022707387805, 9041822.929883517324924 ], [ 6920438.345218861475587, 9041823.113457212224603 ], [ 6920462.201721942052245, 9041846.190393194556236 ], [ 6920471.704369926825166, 9041854.293143922463059 ], [ 6920482.087214034982026, 9041858.78038801625371 ], [ 6920496.965063736774027, 9041870.316794561222196 ], [ 6920509.884512655436993, 9041903.632027626037598 ], [ 6920520.047852056100965, 9041906.357841704040766 ], [ 6920538.292904661037028, 9041935.839409856125712 ], [ 6920559.867440290749073, 9041970.152506742626429 ], [ 6920574.086326034739614, 9041983.280643790960312 ], [ 6920590.785644982010126, 9041995.119241047650576 ], [ 6920594.265594406053424, 9041994.248865155503154 ], [ 6920607.290889583528042, 9041990.991814499720931 ], [ 6920622.152044730260968, 9041974.087405743077397 ], [ 6920633.658388095907867, 9041972.67964674718678 ], [ 6920659.77969326172024, 9041979.023081453517079 ], [ 6920645.418227938003838, 9042005.189380086958408 ], [ 6920701.638189243152738, 9042941.508428582921624 ], [ 6921260.842668015509844, 9043181.912333026528358 ], [ 6921480.246890230104327, 9043696.603472549468279 ], [ 6921586.670869048684835, 9043776.794379398226738 ], [ 6921748.558593245223165, 9043898.78905344568193 ], [ 6921943.147073962725699, 9044045.411014160141349 ], [ 6922150.745669120922685, 9044246.904949758201838 ], [ 6922519.748019279912114, 9044756.207674708217382 ], [ 6922881.051834209822118, 9045056.204092090949416 ], [ 6923280.55046291090548, 9045041.410012245178223 ], [ 6923542.05725128389895, 9045345.507764399051666 ], [ 6923449.754697961732745, 9045558.204308865591884 ], [ 6922812.053470555692911, 9045895.605550043284893 ], [ 6922727.760720353573561, 9046317.214177517220378 ], [ 6922847.159704364836216, 9046835.71857762336731 ], [ 6923304.257690188474953, 9047028.008551016449928 ], [ 6923747.964764065109193, 9046854.512452129274607 ], [ 6924147.566852596588433, 9046839.705463835969567 ], [ 6924339.562901865690947, 9046623.410978313535452 ], [ 6924465.965777339413762, 9045991.111387208104134 ], [ 6924767.662691934034228, 9046032.205773973837495 ], [ 6924998.46919484809041, 9046860.209920644760132 ], [ 6925259.765570771880448, 9047164.411346530541778 ], [ 6925674.969966715201735, 9047567.414148354902864 ], [ 6926080.274031210690737, 9047709.105663033202291 ], [ 6926639.179520566016436, 9047737.10620723105967 ], [ 6926684.251043202355504, 9047714.049991678446531 ], [ 6927073.072347966022789, 9047515.205622179433703 ], [ 6927505.175955072976649, 9047028.505330948159099 ], [ 6927756.875954927876592, 9047071.305704286321998 ], [ 6928171.780350316315889, 9047474.49790396541357 ], [ 6928455.98598818294704, 9047045.297360446304083 ], [ 6928835.278664471581578, 9045783.095758089795709 ], [ 6928839.045853770337999, 9045770.238726196810603 ], [ 6928839.093394792638719, 9045770.062939371913671 ], [ 6928840.583652565255761, 9045764.994966687634587 ], [ 6928900.977111604064703, 9045564.093850620090961 ], [ 6928983.084820885211229, 9045090.196897588670254 ], [ 6928620.082774860784411, 9044737.599630238488317 ], [ 6928594.878630191087723, 9044694.135073773562908 ], [ 6928352.875467598438263, 9044276.689355343580246 ], [ 6927628.269843559712172, 9043623.796816634014249 ], [ 6927409.270797702483833, 9043108.793103063479066 ], [ 6927488.466587211936712, 9043072.089876046404243 ], [ 6927900.771726293489337, 9042881.38832064345479 ], [ 6927969.471654554829001, 9042041.894679438322783 ], [ 6927765.769238068722188, 9041944.793051302433014 ], [ 6927512.267688851803541, 9041849.688040435314178 ], [ 6927546.567560337483883, 9041429.984174262732267 ], [ 6927431.062439340166748, 9041015.686794962733984 ], [ 6926009.360896367579699, 9040441.385589133948088 ], [ 6924995.046518908813596, 9040061.191190922632813 ], [ 6924583.545023716986179, 9039762.695830821990967 ], [ 6924372.248995608650148, 9039456.786599710583687 ], [ 6924384.642376968637109, 9039375.785816047340631 ], [ 6924452.745998611673713, 9038930.693153912201524 ], [ 6924696.353164631873369, 9038764.584234453737736 ], [ 6925087.851349408738315, 9038540.884582472965121 ], [ 6925106.676101833581924, 9038519.652938658371568 ], [ 6925327.850575289689004, 9038270.184266837313771 ], [ 6925467.445155182853341, 9037768.288434572517872 ], [ 6925844.549907863140106, 9037255.585723746567965 ], [ 6926974.85754964966327, 9036848.372661516070366 ], [ 6927374.260793901979923, 9036833.477543262764812 ], [ 6927681.851681161671877, 9037030.973480224609375 ], [ 6927811.062126036733389, 9037810.780555604025722 ], [ 6928308.666731785982847, 9037739.581896556541324 ], [ 6928815.763566868379712, 9037930.179567957296968 ], [ 6928815.608682921156287, 9037929.15577288903296 ], [ 6928645.569067325443029, 9036841.524137521162629 ], [ 6928465.542056909762323, 9035690.414809331297874 ], [ 6928323.970556056126952, 9034785.347718190401793 ], [ 6928072.061798108741641, 9034744.264069873839617 ], [ 6927738.088060023263097, 9034672.590977361425757 ], [ 6927632.035782009363174, 9034617.636907525360584 ], [ 6927638.32343199569732, 9034404.105074709281325 ], [ 6927765.167629112489522, 9034414.884814897552133 ], [ 6927961.707596743479371, 9034428.534946488216519 ], [ 6928150.196993314661086, 9034452.975527392700315 ], [ 6928270.259970294311643, 9034442.053373452275991 ], [ 6928121.269722667522728, 9033489.954963181167841 ], [ 6928115.652278567664325, 9033454.063200417906046 ], [ 6927908.007079214788973, 9033426.927218675613403 ], [ 6927772.142725020647049, 9033427.14984387345612 ], [ 6927547.929884852841496, 9033403.099825674667954 ], [ 6927137.105019663460553, 9033380.795101802796125 ], [ 6926606.984148608520627, 9033354.34806714206934 ], [ 6925746.525127846747637, 9033308.877551682293415 ], [ 6924981.977789027616382, 9033267.986773159354925 ], [ 6924860.936837979592383, 9033263.018016371876001 ], [ 6924633.09404072444886, 9033251.695533283054829 ], [ 6924505.936003239825368, 9033245.503944160416722 ], [ 6923764.997819405980408, 9033206.400851454585791 ], [ 6923770.66253163293004, 9033234.607651118189096 ], [ 6923801.171312894672155, 9033229.619224917143583 ], [ 6923858.049023941159248, 9033239.195479540154338 ] ] ] } },
{ "type": "Feature", "properties": { "lv_id": "LOC_026178", "id": 120648.0, "CD_SETOR": "261240605000053", "SITUACAO": "Rural", "CD_SIT": "8", "CD_TIPO": "0", "AREA_KM2": 5.8685188522775773, "CD_REGIAO": "2", "NM_REGIAO": "Nordeste", "CD_UF": "26", "NM_UF": "Pernambuco", "CD_MUN": "2612406", "NM_MUN": "Sanharó", "CD_DIST": "261240605", "NM_DIST": "Sanharó", "CD_SUBDIST": "26124060500", "NM_SUBDIST": null, "CD_BAIRRO": null, "NM_BAIRRO": null, "CD_NU": "2612406003", "NM_NU": "Cachoeirinha de Mulungu", "CD_FCU": null, "NM_FCU": null, "CD_AGLOM": "261240600009", "NM_AGLOM": "Sítio Cova dos Caboclos", "CD_RGINT": "2602", "NM_RGINT": "Caruaru", "CD_RGI": "260012", "NM_RGI": "Belo Jardim ¿ Pesqueira", "CD_CONCURB": null, "NM_CONCURB": null, "mun_code_x": "2612406", "index_right": 51989, "dist_m": 4943.3503670826303, "local_id": 274862, "ano": 2022, "cod_localidade_ibge": 2612406, "NR_ZONA": "45", "nr_cep": 55250000.0, "nm_localidade": "SANHARÓ", "nm_locvot": "ESCOLA MUNICIPAL NOSSA SENHORA DO CARMO", "ds_endereco": "RUA MANOEL RAIMUNDO DE OLIVEIRA, N. 222", "ds_bairro": "DISTRITO MULUNGU", "pred_long": -36.527854, "pred_lat": -8.430341, "pred_dist": 0.0, "tse_long": -36.5280555, "tse_lat": -8.4305051, "long": -36.5280555, "lat": -8.4305051, "ID_UNICO": "LOC_026178", "SG_UF": "PE", "CD_MUNICIPIO": "25470", "NR_LOCAL_VOTACAO": "1066", "QT_SECOES_AGREGADAS": 0, "QT_ELEITORES_TRANSFERIDOS": 0, "CIRO GOMES (PDT) (NÃO ELEITO) 1T": 30.0, "CONSTITUINTE EYMAEL (DC) (NÃO ELEITO) 1T": 0.0, "FELIPE D AVILA (NOVO) (NÃO ELEITO) 1T": 1.0, "JAIR BOLSONARO (PL) (2º TURNO) 1T": 185.0, "LULA (PT) (2º TURNO) 1T": 767.0, "LÉO PÉRICLES (UP) (NÃO ELEITO) 1T": 0.0, "PADRE KELMON (PTB) (NÃO ELEITO) 1T": 1.0, "SIMONE TEBET (MDB) (NÃO ELEITO) 1T": 6.0, "SOFIA MANZANO (PCB) (NÃO ELEITO) 1T": 0.0, "SORAYA THRONICKE (UNIÃO) (NÃO ELEITO) 1T": 7.0, "VERA (PSTU) (NÃO ELEITO) 1T": 0.0, "Total_Votos_Validos 1T": 997.0, "Votos_Brancos 1T": 9.0, "Votos_Nulos 1T": 36.0, "Abstenções 1T": 268.0, "Eleitores_Aptos 1T": 1310.0, "JAIR BOLSONARO (PL) (NÃO ELEITO) 2T": 200.0, "LULA (PT) (ELEITO) 2T": 776.0, "Total_Votos_Validos 2T": 976.0, "Votos_Brancos 2T": 10.0, "Votos_Nulos 2T": 49.0, "Abstenções 2T": 275.0, "Eleitores_Aptos 2T": 1310.0, "mun_code_y": "2612406", "mun_code": "2612406" }, "geometry": { "type": "MultiPolygon", "coordinates": [ [ [ [ 6916627.021447942592204, 9023523.977345064282417 ], [ 6916957.88370366115123, 9024447.765652408823371 ], [ 6917735.193495445884764, 9026772.57091517560184 ], [ 6917758.095886627212167, 9026902.877496484667063 ], [ 6917909.793445104733109, 9027122.074968239292502 ], [ 6918134.59486829675734, 9027375.871434831991792 ], [ 6918325.400164781138301, 9027452.976672671735287 ], [ 6918559.193963075987995, 9027481.47555641643703 ], [ 6918831.804880509153008, 9027583.670449094846845 ], [ 6918997.704179091379046, 9027708.673340467736125 ], [ 6919057.899881348013878, 9027874.971157737076283 ], [ 6919243.804382992908359, 9028055.470583481714129 ], [ 6919495.001487894915044, 9028064.469394752755761 ], [ 6919627.105550895445049, 9028086.974222678691149 ], [ 6919705.907820133492351, 9028197.175328522920609 ], [ 6919728.806978831067681, 9028327.470991685986519 ], [ 6919777.444988796487451, 9028378.277455907315016 ], [ 6919971.210786752402782, 9028580.671878766268492 ], [ 6920153.603514172136784, 9028667.468678303062916 ], [ 6920553.513555505312979, 9028820.968865105882287 ], [ 6920706.616018246859312, 9028843.376038238406181 ], [ 6920950.816337862983346, 9028951.168724136427045 ], [ 6921031.92712267767638, 9028997.84792553819716 ], [ 6921126.507265396416187, 9029052.274727899581194 ], [ 6921411.114057343453169, 9029003.968201939016581 ], [ 6921721.012672274373472, 9029142.273186795413494 ], [ 6922161.014344722032547, 9029172.369638370350003 ], [ 6922410.020282781682909, 9029125.467761071398854 ], [ 6922546.813853906467557, 9028951.463333290070295 ], [ 6922760.717633738182485, 9028924.666093749925494 ], [ 6922940.215383095666766, 9028936.563087051734328 ], [ 6923104.720076631754637, 9029024.06840074621141 ], [ 6923422.526500817388296, 9028899.568630628287792 ], [ 6923522.020268955267966, 9028923.965286783874035 ], [ 6923527.620594290085137, 9029073.670309668406844 ], [ 6923686.426660642027855, 9029011.463849317282438 ], [ 6923770.121382256038487, 9028858.265819730237126 ], [ 6923890.320600934326649, 9028722.265402404591441 ], [ 6923958.420236188918352, 9028625.958805251866579 ], [ 6924184.529522720724344, 9028524.958627641201019 ], [ 6924254.32356780115515, 9028320.21451224386692 ], [ 6924324.125518258661032, 9028115.456938562914729 ], [ 6924444.425109770148993, 9027979.66285246796906 ], [ 6924677.828039583750069, 9027989.559213554486632 ], [ 6924895.721887088380754, 9028074.966795874759555 ], [ 6925090.231575923971832, 9028011.3600635509938 ], [ 6925117.62503041792661, 9027785.455107610672712 ], [ 6925211.742915051057935, 9027598.392805352807045 ], [ 6925243.030849582515657, 9027020.470353476703167 ], [ 6925293.665992831811309, 9026084.835426228120923 ], [ 6925236.810514586046338, 9026055.895070055499673 ], [ 6924917.324391722679138, 9026008.766670275479555 ], [ 6924898.661562201566994, 9026006.011717991903424 ], [ 6924777.503824806772172, 9025964.9986991006881 ], [ 6924742.74308555573225, 9025878.336540352553129 ], [ 6924482.132467954419553, 9025481.412285221740603 ], [ 6924420.920164240524173, 9025432.892821628600359 ], [ 6924376.784269953146577, 9025397.908953208476305 ], [ 6924102.538841504603624, 9025212.89430545270443 ], [ 6924155.446325056254864, 9025129.770122978836298 ], [ 6924220.967183414846659, 9025048.720979595556855 ], [ 6924267.794234949164093, 9024979.970121873542666 ], [ 6924139.458953633904457, 9024913.394899129867554 ], [ 6924017.709880782291293, 9024891.691593416035175 ], [ 6923948.668363497592509, 9024799.608967980369925 ], [ 6923926.90915053896606, 9024774.369877129793167 ], [ 6923896.430559894070029, 9024735.129491915926337 ], [ 6923754.931002166122198, 9024555.241020582616329 ], [ 6923741.497606702148914, 9024537.329042775556445 ], [ 6923292.618633641861379, 9024478.165788758546114 ], [ 6923264.152607101947069, 9024594.325012920424342 ], [ 6923104.170062519609928, 9024704.51145520247519 ], [ 6923044.974505707621574, 9024619.204467473551631 ], [ 6923039.921505427919328, 9024580.344614455476403 ], [ 6922984.958067551255226, 9024549.28641496039927 ], [ 6922968.979674423113465, 9024505.392964007332921 ], [ 6922938.678836076520383, 9024475.674471309408545 ], [ 6922960.046157744713128, 9024444.524308471009135 ], [ 6922916.722154648974538, 9024420.945780599489808 ], [ 6922805.029095634818077, 9024437.531882129609585 ], [ 6922734.154275422915816, 9024510.630166724324226 ], [ 6922674.783372963778675, 9024539.126652391627431 ], [ 6922626.810567419044673, 9024505.857317864894867 ], [ 6922579.585262916982174, 9024533.312478739768267 ], [ 6922536.467070356011391, 9024629.700288381427526 ], [ 6922509.784357765689492, 9024702.337051330134273 ], [ 6922526.995633294805884, 9024800.49536432698369 ], [ 6922581.705414110794663, 9024888.352109 ], [ 6922600.123320930637419, 9024938.850910231471062 ], [ 6922566.574927320703864, 9024953.502662757411599 ], [ 6922507.610940067097545, 9024910.443285528570414 ], [ 6922453.651105348952115, 9024889.643360449001193 ], [ 6922358.966314855031669, 9024847.451937640085816 ], [ 6922308.601649150252342, 9024807.921632038429379 ], [ 6922177.796827586367726, 9024748.775799926370382 ], [ 6922074.28918294981122, 9024706.979487586766481 ], [ 6922031.114742622710764, 9024629.98915147036314 ], [ 6921991.330965180881321, 9024529.635549489408731 ], [ 6921871.526513740420341, 9024418.933617550879717 ], [ 6921774.596489584073424, 9024325.778987864032388 ], [ 6921763.527413163334131, 9024275.208308890461922 ], [ 6921783.951526204124093, 9024237.15615120716393 ], [ 6921835.460416574031115, 9024202.35591221600771 ], [ 6921820.18370904494077, 9024156.615707624703646 ], [ 6921790.901682576164603, 9024143.998441148549318 ], [ 6921761.608664661645889, 9024131.381683802232146 ], [ 6921645.071338228881359, 9024094.813376143574715 ], [ 6921465.752002155408263, 9024037.841896045953035 ], [ 6921388.101722607389092, 9023980.965579595416784 ], [ 6921247.26108808722347, 9023894.420379424467683 ], [ 6921174.430889861658216, 9023846.613634143024683 ], [ 6921176.800148880109191, 9023800.085505340248346 ], [ 6921220.098022811114788, 9023779.579759264364839 ], [ 6921258.780117543414235, 9023754.638152880594134 ], [ 6921283.206441456452012, 9023707.123008381575346 ], [ 6921298.196862511336803, 9023646.103188155218959 ], [ 6921317.802814465016127, 9023589.518993150442839 ], [ 6921342.432919895276427, 9023546.636618871241808 ], [ 6921353.010793001390994, 9023485.802366424351931 ], [ 6921350.763298586010933, 9023434.838118303567171 ], [ 6921333.646690436638892, 9023347.401313105598092 ], [ 6921338.995624233037233, 9023268.243556519970298 ], [ 6921363.420520563609898, 9023220.727651074528694 ], [ 6921415.131277913227677, 9023190.559223091229796 ], [ 6921404.264593444764614, 9023144.622961223125458 ], [ 6921381.594371025450528, 9023131.711051693186164 ], [ 6921314.605684547685087, 9023116.140938399359584 ], [ 6921290.504752757027745, 9023070.797383913770318 ], [ 6921217.673996310681105, 9023022.993313148617744 ], [ 6921099.792526525445282, 9023056.123903324827552 ], [ 6921023.248361280187964, 9023124.54104527272284 ], [ 6920924.033674940466881, 9023180.045706523582339 ], [ 6920792.30417403485626, 9023199.867614569142461 ], [ 6920713.307278515771031, 9023212.687081208452582 ], [ 6920667.641767216846347, 9023279.720160825178027 ], [ 6920457.405066369101405, 9023423.7467887904495 ], [ 6920247.493731105700135, 9023474.914785895496607 ], [ 6920088.273286792449653, 9023472.752123661339283 ], [ 6919989.996411037631333, 9023449.295628873631358 ], [ 6919798.262695617042482, 9023411.451006701216102 ], [ 6919759.330791626125574, 9023380.698673017323017 ], [ 6919720.409899286925793, 9023349.945926487445831 ], [ 6919676.41925731766969, 9023254.433420181274414 ], [ 6919618.98993781208992, 9023154.880460226908326 ], [ 6919612.536446056328714, 9023108.750258704647422 ], [ 6919569.56632761284709, 9023036.402311263605952 ], [ 6919537.665420667268336, 9023014.619995377957821 ], [ 6919513.770395068451762, 9022973.91211580298841 ], [ 6919532.559494534507394, 9022898.801628256216645 ], [ 6919391.395187423564494, 9022905.117021139711142 ], [ 6919347.485564894974232, 9022911.723181765526533 ], [ 6919321.425697343423963, 9022922.172614080831409 ], [ 6919303.167484935373068, 9022909.063905837014318 ], [ 6919270.449770675972104, 9022868.751154685392976 ], [ 6919218.523296354338527, 9022894.283094152808189 ], [ 6919212.763669924810529, 9022964.167777394875884 ], [ 6919215.622406532987952, 9023029.025139804929495 ], [ 6919232.123521790839732, 9023102.555977055802941 ], [ 6919206.675932390615344, 9023126.903074217960238 ], [ 6919148.51096769515425, 9023110.937142280861735 ], [ 6919028.178048990666866, 9023088.467877579852939 ], [ 6918911.440037750639021, 9023047.270880900323391 ], [ 6918838.796958043240011, 9023062.696657370775938 ], [ 6918774.150084284134209, 9023039.95965613052249 ], [ 6918730.702162712812424, 9023016.274761041626334 ], [ 6918687.094319671392441, 9022960.695592850446701 ], [ 6918665.454143275506794, 9022838.328758338466287 ], [ 6918731.135246404446661, 9022863.2761174980551 ], [ 6918750.433757359161973, 9022803.957627788186073 ], [ 6918776.085227272473276, 9022784.243458520621061 ], [ 6918822.357938967645168, 9022730.975882196798921 ], [ 6918838.573886570520699, 9022697.758432146161795 ], [ 6918845.354353304952383, 9022651.037849143147469 ], [ 6918834.693532473407686, 9022609.73925312794745 ], [ 6918812.024054927751422, 9022596.828276872634888 ], [ 6918789.967296064831316, 9022597.815051890909672 ], [ 6918750.469360077753663, 9022604.223788537085056 ], [ 6918710.767186723649502, 9022605.999910058453679 ], [ 6918687.893520151264966, 9022588.456398893147707 ], [ 6918572.58574406709522, 9022579.689645249396563 ], [ 6918486.115306473337114, 9022523.216265089809895 ], [ 6918449.395015662536025, 9022492.367419684305787 ], [ 6918416.881842195987701, 9022456.688804322853684 ], [ 6918357.49220550339669, 9022412.929396538063884 ], [ 6918294.099736262112856, 9022378.632457844913006 ], [ 6918230.094612189568579, 9022330.438255401328206 ], [ 6918167.519168076105416, 9022314.67138640396297 ], [ 6918127.000358073972166, 9022297.917778750881553 ], [ 6918125.570715572685003, 9022265.490704596042633 ], [ 6918123.11979038733989, 9022209.901443220674992 ], [ 6918119.64740966912359, 9022131.150008222088218 ], [ 6918116.174751435406506, 9022052.398595040664077 ], [ 6918118.134583335369825, 9021996.611964412033558 ], [ 6918111.476007401943207, 9021945.852600174024701 ], [ 6918105.430264863185585, 9021908.990560797974467 ], [ 6918089.540321047417819, 9021849.361264761537313 ], [ 6918047.795650755986571, 9021804.813988761976361 ], [ 6917974.967810063622892, 9021757.01656729914248 ], [ 6917884.086334628984332, 9021700.744378162547946 ], [ 6917829.013638048432767, 9021632.162903260439634 ], [ 6917790.548508678562939, 9021584.251742199063301 ], [ 6917753.623785349540412, 9021548.772572357207537 ], [ 6917739.777014350518584, 9021535.467907389625907 ], [ 6917694.029824894852936, 9021500.383806249126792 ], [ 6917687.983720514923334, 9021463.522531116381288 ], [ 6917681.120075565762818, 9021408.131909986957908 ], [ 6917662.657685592770576, 9021390.392508761957288 ], [ 6917630.961635740473866, 9021373.245603075250983 ], [ 6917519.046189222484827, 9021341.12425534054637 ], [ 6917472.481559312902391, 9021287.511521553620696 ], [ 6917453.201679717749357, 9021251.243141528218985 ], [ 6917438.33297324180603, 9021214.777313632890582 ], [ 6917423.873018580488861, 9021187.576102817431092 ], [ 6917400.181856690905988, 9021151.50538350827992 ], [ 6917385.37519801966846, 9021152.168354239314795 ], [ 6917382.704222643747926, 9021157.832198331132531 ], [ 6916627.021447942592204, 9023523.977345064282417 ] ] ], [ [ [ 6927562.845311483368278, 9029921.258764993399382 ], [ 6926359.570969861932099, 9028762.449722070246935 ], [ 6926359.454364931210876, 9028763.809695053845644 ], [ 6926413.282681320793927, 9028882.13376446813345 ], [ 6926453.67084501311183, 9028996.414503019303083 ], [ 6926496.502286261878908, 9029166.306248454377055 ], [ 6926524.060414051637053, 9029290.446525612846017 ], [ 6926554.808509210124612, 9029386.584983311593533 ], [ 6926608.635141083970666, 9029504.922955866903067 ], [ 6926762.107166330330074, 9029577.017631424590945 ], [ 6926717.100404286757112, 9029760.11441957205534 ], [ 6926672.156047323718667, 9030045.360761418938637 ], [ 6926608.948394073173404, 9030317.489243203774095 ], [ 6926496.103677062317729, 9030768.270891586318612 ], [ 6926047.216654830612242, 9030713.962270848453045 ], [ 6926037.175490610301495, 9030758.502102859318256 ], [ 6925925.081763064488769, 9031255.688988100737333 ], [ 6925916.821077089756727, 9031369.807849239557981 ], [ 6926088.110602704808116, 9031394.690816456452012 ], [ 6926235.341318843886256, 9031425.287090703845024 ], [ 6926162.10154367890209, 9031721.066630186513066 ], [ 6926123.78664762340486, 9031906.182176569476724 ], [ 6926054.74815071746707, 9032197.128136346116662 ], [ 6926033.854164187796414, 9032325.737972840666771 ], [ 6925999.316847342997789, 9032647.661923198029399 ], [ 6925750.598379540257156, 9032621.565085519105196 ], [ 6925747.436023399233818, 9033162.585554625838995 ], [ 6925746.525127846747637, 9033308.877551682293415 ], [ 6926606.984148608520627, 9033354.34806714206934 ], [ 6927137.105019663460553, 9033380.795101802796125 ], [ 6927547.929884852841496, 9033403.099825674667954 ], [ 6927772.142725020647049, 9033427.14984387345612 ], [ 6927908.007079214788973, 9033426.927218675613403 ], [ 6928115.652278567664325, 9033454.063200417906046 ], [ 6928100.147350078448653, 9033355.765867101028562 ], [ 6928000.224182901903987, 9032716.774607805535197 ], [ 6927581.046604747883976, 9030037.461817028000951 ], [ 6927577.188046142458916, 9030012.864502117037773 ], [ 6927562.845311483368278, 9029921.258764993399382 ] ], [ [ 6927159.077090456150472, 9032160.168033691123128 ], [ 6927126.574252424761653, 9032399.700545294210315 ], [ 6927060.39152914378792, 9032562.301092708483338 ], [ 6927128.23764721211046, 9032597.509440120309591 ], [ 6927132.51362372841686, 9032682.811146976426244 ], [ 6927234.376109771430492, 9032694.703661102801561 ], [ 6927225.838771999813616, 9032739.676118042320013 ], [ 6927230.588109921664, 9032811.374305866658688 ], [ 6927031.511748905293643, 9032786.246721405535936 ], [ 6927027.138679017312825, 9032766.443283805623651 ], [ 6927015.619928540661931, 9032678.626900937408209 ], [ 6926995.77249707467854, 9032668.751635706052184 ], [ 6926962.942360271699727, 9032596.044281255453825 ], [ 6926943.562902775593102, 9032344.381031779572368 ], [ 6926833.144863760098815, 9032315.60522916726768 ], [ 6926734.34005500562489, 9032217.705638328567147 ], [ 6926701.464396722614765, 9032209.91532875597477 ], [ 6926710.074880258180201, 9032168.391171680763364 ], [ 6926601.28461327124387, 9032105.292228404432535 ], [ 6926658.281385958194733, 9031847.596483789384365 ], [ 6926909.184604292735457, 9031965.605902288109064 ], [ 6926890.787719917483628, 9032050.224414322525263 ], [ 6927159.077090456150472, 9032160.168033691123128 ] ] ] ] } },
{ "type": "Feature", "properties": { "lv_id": "LOC_026180", "id": 120666.0, "CD_SETOR": "261240615000010", "SITUACAO": "Rural", "CD_SIT": "8", "CD_TIPO": "0", "AREA_KM2": 37.612878095664911, "CD_REGIAO": "2", "NM_REGIAO": "Nordeste", "CD_UF": "26", "NM_UF": "Pernambuco", "CD_MUN": "2612406", "NM_MUN": "Sanharó", "CD_DIST": "261240615", "NM_DIST": "Mulungu", "CD_SUBDIST": "26124061500", "NM_SUBDIST": null, "CD_BAIRRO": null, "NM_BAIRRO": null, "CD_NU": null, "NM_NU": null, "CD_FCU": null, "NM_FCU": null, "CD_AGLOM": "261240600010", "NM_AGLOM": "Milho Branco", "CD_RGINT": "2602", "NM_RGINT": "Caruaru", "CD_RGI": "260012", "NM_RGI": "Belo Jardim ¿ Pesqueira", "CD_CONCURB": null, "NM_CONCURB": null, "mun_code_x": "2612406", "index_right": 51991, "dist_m": 222.15276383815399, "local_id": 274864, "ano": 2022, "cod_localidade_ibge": 2612406, "NR_ZONA": "45", "nr_cep": 55250000.0, "nm_localidade": "SANHARÓ", "nm_locvot": "ESCOLA MUNICIPAL VILMA BARBOSA", "ds_endereco": "SITIO MASSARANDUBA", "ds_bairro": "SITIO MASSARANDUBA", "pred_long": -36.558478, "pred_lat": -8.499512, "pred_dist": 0.0, "tse_long": -36.5584633, "tse_lat": -8.4993567, "long": -36.5584633, "lat": -8.4993567, "ID_UNICO": "LOC_026180", "SG_UF": "PE", "CD_MUNICIPIO": "25470", "NR_LOCAL_VOTACAO": "1074", "QT_SECOES_AGREGADAS": 0, "QT_ELEITORES_TRANSFERIDOS": 0, "CIRO GOMES (PDT) (NÃO ELEITO) 1T": 9.0, "CONSTITUINTE EYMAEL (DC) (NÃO ELEITO) 1T": 0.0, "FELIPE D AVILA (NOVO) (NÃO ELEITO) 1T": 0.0, "JAIR BOLSONARO (PL) (2º TURNO) 1T": 60.0, "LULA (PT) (2º TURNO) 1T": 378.0, "LÉO PÉRICLES (UP) (NÃO ELEITO) 1T": 0.0, "PADRE KELMON (PTB) (NÃO ELEITO) 1T": 1.0, "SIMONE TEBET (MDB) (NÃO ELEITO) 1T": 2.0, "SOFIA MANZANO (PCB) (NÃO ELEITO) 1T": 1.0, "SORAYA THRONICKE (UNIÃO) (NÃO ELEITO) 1T": 0.0, "VERA (PSTU) (NÃO ELEITO) 1T": 1.0, "Total_Votos_Validos 1T": 452.0, "Votos_Brancos 1T": 6.0, "Votos_Nulos 1T": 24.0, "Abstenções 1T": 115.0, "Eleitores_Aptos 1T": 597.0, "JAIR BOLSONARO (PL) (NÃO ELEITO) 2T": 66.0, "LULA (PT) (ELEITO) 2T": 389.0, "Total_Votos_Validos 2T": 455.0, "Votos_Brancos 2T": 3.0, "Votos_Nulos 2T": 31.0, "Abstenções 2T": 108.0, "Eleitores_Aptos 2T": 597.0, "mun_code_y": "2612406", "mun_code": "2612406" }, "geometry": { "type": "Polygon", "coordinates": [ [ [ 6920111.2110516699031, 9016453.067898217588663 ], [ 6919768.202204243279994, 9016102.901336884126067 ], [ 6919683.518277507275343, 9016282.429556014016271 ], [ 6919197.155514529906213, 9017313.26752907037735 ], [ 6919190.662710092961788, 9017327.161125624552369 ], [ 6917426.717045586556196, 9021064.687901437282562 ], [ 6917385.37519801966846, 9021152.168354239314795 ], [ 6917400.181856690905988, 9021151.50538350827992 ], [ 6917423.873018580488861, 9021187.576102817431092 ], [ 6917438.33297324180603, 9021214.777313632890582 ], [ 6917453.201679717749357, 9021251.243141528218985 ], [ 6917472.481559312902391, 9021287.511521553620696 ], [ 6917519.046189222484827, 9021341.12425534054637 ], [ 6917630.961635740473866, 9021373.245603075250983 ], [ 6917662.657685592770576, 9021390.392508761957288 ], [ 6917681.120075565762818, 9021408.131909986957908 ], [ 6917687.983720514923334, 9021463.522531116381288 ], [ 6917694.029824894852936, 9021500.383806249126792 ], [ 6917739.777014350518584, 9021535.467907389625907 ], [ 6917753.623785349540412, 9021548.772572357207537 ], [ 6917790.548508678562939, 9021584.251742199063301 ], [ 6917829.013638048432767, 9021632.162903260439634 ], [ 6917884.086334628984332, 9021700.744378162547946 ], [ 6917974.967810063622892, 9021757.01656729914248 ], [ 6918047.795650755986571, 9021804.813988761976361 ], [ 6918089.540321047417819, 9021849.361264761537313 ], [ 6918105.430264863185585, 9021908.990560797974467 ], [ 6918111.476007401943207, 9021945.852600174024701 ], [ 6918118.134583335369825, 9021996.611964412033558 ], [ 6918116.174751435406506, 9022052.398595040664077 ], [ 6918119.64740966912359, 9022131.150008222088218 ], [ 6918123.11979038733989, 9022209.901443220674992 ], [ 6918125.570715572685003, 9022265.490704596042633 ], [ 6918127.000358073972166, 9022297.917778750881553 ], [ 6918167.519168076105416, 9022314.67138640396297 ], [ 6918230.094612189568579, 9022330.438255401328206 ], [ 6918294.099736262112856, 9022378.632457844913006 ], [ 6918357.49220550339669, 9022412.929396538063884 ], [ 6918416.881842195987701, 9022456.688804322853684 ], [ 6918449.395015662536025, 9022492.367419684305787 ], [ 6918486.115306473337114, 9022523.216265089809895 ], [ 6918572.58574406709522, 9022579.689645249396563 ], [ 6918687.893520151264966, 9022588.456398893147707 ], [ 6918710.767186723649502, 9022605.999910058453679 ], [ 6918750.469360077753663, 9022604.223788537085056 ], [ 6918789.967296064831316, 9022597.815051890909672 ], [ 6918812.024054927751422, 9022596.828276872634888 ], [ 6918834.693532473407686, 9022609.73925312794745 ], [ 6918845.354353304952383, 9022651.037849143147469 ], [ 6918838.573886570520699, 9022697.758432146161795 ], [ 6918822.357938967645168, 9022730.975882196798921 ], [ 6918776.085227272473276, 9022784.243458520621061 ], [ 6918750.433757359161973, 9022803.957627788186073 ], [ 6918731.135246404446661, 9022863.2761174980551 ], [ 6918665.454143275506794, 9022838.328758338466287 ], [ 6918687.094319671392441, 9022960.695592850446701 ], [ 6918730.702162712812424, 9023016.274761041626334 ], [ 6918774.150084284134209, 9023039.95965613052249 ], [ 6918838.796958043240011, 9023062.696657370775938 ], [ 6918911.440037750639021, 9023047.270880900323391 ], [ 6919028.178048990666866, 9023088.467877579852939 ], [ 6919148.51096769515425, 9023110.937142280861735 ], [ 6919206.675932390615344, 9023126.903074217960238 ], [ 6919232.123521790839732, 9023102.555977055802941 ], [ 6919215.622406532987952, 9023029.025139804929495 ], [ 6919212.763669924810529, 9022964.167777394875884 ], [ 6919218.523296354338527, 9022894.283094152808189 ], [ 6919270.449770675972104, 9022868.751154685392976 ], [ 6919303.167484935373068, 9022909.063905837014318 ], [ 6919321.425697343423963, 9022922.172614080831409 ], [ 6919347.485564894974232, 9022911.723181765526533 ], [ 6919391.395187423564494, 9022905.117021139711142 ], [ 6919532.559494534507394, 9022898.801628256216645 ], [ 6919513.770395068451762, 9022973.91211580298841 ], [ 6919537.665420667268336, 9023014.619995377957821 ], [ 6919569.56632761284709, 9023036.402311263605952 ], [ 6919612.536446056328714, 9023108.750258704647422 ], [ 6919618.98993781208992, 9023154.880460226908326 ], [ 6919676.41925731766969, 9023254.433420181274414 ], [ 6919720.409899286925793, 9023349.945926487445831 ], [ 6919759.330791626125574, 9023380.698673017323017 ], [ 6919798.262695617042482, 9023411.451006701216102 ], [ 6919989.996411037631333, 9023449.295628873631358 ], [ 6920088.273286792449653, 9023472.752123661339283 ], [ 6920247.493731105700135, 9023474.914785895496607 ], [ 6920457.405066369101405, 9023423.7467887904495 ], [ 6920667.641767216846347, 9023279.720160825178027 ], [ 6920713.307278515771031, 9023212.687081208452582 ], [ 6920792.30417403485626, 9023199.867614569142461 ], [ 6920924.033674940466881, 9023180.045706523582339 ], [ 6921023.248361280187964, 9023124.54104527272284 ], [ 6921099.792526525445282, 9023056.123903324827552 ], [ 6921217.673996310681105, 9023022.993313148617744 ], [ 6921290.504752757027745, 9023070.797383913770318 ], [ 6921314.605684547685087, 9023116.140938399359584 ], [ 6921381.594371025450528, 9023131.711051693186164 ], [ 6921404.264593444764614, 9023144.622961223125458 ], [ 6921415.131277913227677, 9023190.559223091229796 ], [ 6921363.420520563609898, 9023220.727651074528694 ], [ 6921338.995624233037233, 9023268.243556519970298 ], [ 6921333.646690436638892, 9023347.401313105598092 ], [ 6921350.763298586010933, 9023434.838118303567171 ], [ 6921353.010793001390994, 9023485.802366424351931 ], [ 6921342.432919895276427, 9023546.636618871241808 ], [ 6921317.802814465016127, 9023589.518993150442839 ], [ 6921298.196862511336803, 9023646.103188155218959 ], [ 6921283.206441456452012, 9023707.123008381575346 ], [ 6921258.780117543414235, 9023754.638152880594134 ], [ 6921220.098022811114788, 9023779.579759264364839 ], [ 6921176.800148880109191, 9023800.085505340248346 ], [ 6921174.430889861658216, 9023846.613634143024683 ], [ 6921247.26108808722347, 9023894.420379424467683 ], [ 6921388.101722607389092, 9023980.965579595416784 ], [ 6921465.752002155408263, 9024037.841896045953035 ], [ 6921645.071338228881359, 9024094.813376143574715 ], [ 6921761.608664661645889, 9024131.381683802232146 ], [ 6921790.901682576164603, 9024143.998441148549318 ], [ 6921820.18370904494077, 9024156.615707624703646 ], [ 6921835.460416574031115, 9024202.35591221600771 ], [ 6921783.951526204124093, 9024237.15615120716393 ], [ 6921763.527413163334131, 9024275.208308890461922 ], [ 6921774.596489584073424, 9024325.778987864032388 ], [ 6921871.526513740420341, 9024418.933617550879717 ], [ 6921991.330965180881321, 9024529.635549489408731 ], [ 6922031.114742622710764, 9024629.98915147036314 ], [ 6922074.28918294981122, 9024706.979487586766481 ], [ 6922177.796827586367726, 9024748.775799926370382 ], [ 6922308.601649150252342, 9024807.921632038429379 ], [ 6922358.966314855031669, 9024847.451937640085816 ], [ 6922453.651105348952115, 9024889.643360449001193 ], [ 6922507.610940067097545, 9024910.443285528570414 ], [ 6922566.574927320703864, 9024953.502662757411599 ], [ 6922600.123320930637419, 9024938.850910231471062 ], [ 6922581.705414110794663, 9024888.352109 ], [ 6922526.995633294805884, 9024800.49536432698369 ], [ 6922509.784357765689492, 9024702.337051330134273 ], [ 6922536.467070356011391, 9024629.700288381427526 ], [ 6922579.585262916982174, 9024533.312478739768267 ], [ 6922626.810567419044673, 9024505.857317864894867 ], [ 6922674.783372963778675, 9024539.126652391627431 ], [ 6922734.154275422915816, 9024510.630166724324226 ], [ 6922805.029095634818077, 9024437.531882129609585 ], [ 6922916.722154648974538, 9024420.945780599489808 ], [ 6922960.046157744713128, 9024444.524308471009135 ], [ 6922938.678836076520383, 9024475.674471309408545 ], [ 6922968.979674423113465, 9024505.392964007332921 ], [ 6922984.958067551255226, 9024549.28641496039927 ], [ 6923039.921505427919328, 9024580.344614455476403 ], [ 6923044.974505707621574, 9024619.204467473551631 ], [ 6923104.170062519609928, 9024704.51145520247519 ], [ 6923264.152607101947069, 9024594.325012920424342 ], [ 6923292.618633641861379, 9024478.165788758546114 ], [ 6923741.497606702148914, 9024537.329042775556445 ], [ 6923754.931002166122198, 9024555.241020582616329 ], [ 6923896.430559894070029, 9024735.129491915926337 ], [ 6923926.90915053896606, 9024774.369877129793167 ], [ 6923948.668363497592509, 9024799.608967980369925 ], [ 6924017.709880782291293, 9024891.691593416035175 ], [ 6924139.458953633904457, 9024913.394899129867554 ], [ 6924267.794234949164093, 9024979.970121873542666 ], [ 6924220.967183414846659, 9025048.720979595556855 ], [ 6924155.446325056254864, 9025129.770122978836298 ], [ 6924102.538841504603624, 9025212.89430545270443 ], [ 6924376.784269953146577, 9025397.908953208476305 ], [ 6924420.920164240524173, 9025432.892821628600359 ], [ 6924482.132467954419553, 9025481.412285221740603 ], [ 6924742.74308555573225, 9025878.336540352553129 ], [ 6924777.503824806772172, 9025964.9986991006881 ], [ 6924898.661562201566994, 9026006.011717991903424 ], [ 6924917.324391722679138, 9026008.766670275479555 ], [ 6925236.810514586046338, 9026055.895070055499673 ], [ 6925293.665992831811309, 9026084.835426228120923 ], [ 6925354.351452177390456, 9024962.417811244726181 ], [ 6925395.120878109708428, 9024207.67836095392704 ], [ 6925424.454623682424426, 9023664.298911044374108 ], [ 6925472.870054681785405, 9021927.684575626626611 ], [ 6924996.851493135094643, 9021441.542264670133591 ], [ 6920344.108722167089581, 9016690.829910403117537 ], [ 6920111.2110516699031, 9016453.067898217588663 ] ] ] } }
]
}
