{
"type": "FeatureCollection",
"name": "2702009",
"crs": { "type": "name", "properties": { "name": "urn:ogc:def:crs:EPSG::5880" } },
"features": [
{ "type": "Feature", "properties": { "lv_id": "LOC_026770", "id": 124856.0, "CD_SETOR": "270200905000001", "SITUACAO": "Urbana", "CD_SIT": "2", "CD_TIPO": "0", "AREA_KM2": 0.93641319180390303, "CD_REGIAO": "2", "NM_REGIAO": "Nordeste", "CD_UF": "27", "NM_UF": "Alagoas", "CD_MUN": "2702009", "NM_MUN": "Coité do Nóia", "CD_DIST": "270200905", "NM_DIST": "Coité do Nóia", "CD_SUBDIST": "27020090500", "NM_SUBDIST": null, "CD_BAIRRO": null, "NM_BAIRRO": null, "CD_NU": "2702009002", "NM_NU": "Oitizeiro de Baixo", "CD_FCU": null, "NM_FCU": null, "CD_AGLOM": "270200900001", "NM_AGLOM": "Mumbuça", "CD_RGINT": "2702", "NM_RGINT": "Arapiraca", "CD_RGI": "270007", "NM_RGI": "Arapiraca", "CD_CONCURB": null, "NM_CONCURB": null, "mun_code_x": "2702009", "index_right": 867, "dist_m": 0.0, "local_id": 282129, "ano": 2022, "cod_localidade_ibge": 2702009, "NR_ZONA": "45", "nr_cep": 57325000.0, "nm_localidade": "COITÉ DO NÓIA", "nm_locvot": "ESCOLA DE ENSINO FUNDAMENTAL PREFEITO JOSÉ CUSTÓDIO DA SILVA", "ds_endereco": "RUA 15 DE NOVEMBRO S/N", "ds_bairro": "CENTRO", "pred_long": -36.579269, "pred_lat": -9.633846, "pred_dist": 0.0, "tse_long": -36.57907907, "tse_lat": -9.6338212, "long": -36.57907907, "lat": -9.6338212, "ID_UNICO": "LOC_026770", "SG_UF": "AL", "CD_MUNICIPIO": "27391", "NR_LOCAL_VOTACAO": "1031", "QT_SECOES_AGREGADAS": 0, "QT_ELEITORES_TRANSFERIDOS": 0, "CIRO GOMES (PDT) (NÃO ELEITO) 1T": 40.0, "CONSTITUINTE EYMAEL (DC) (NÃO ELEITO) 1T": 0.0, "FELIPE D AVILA (NOVO) (NÃO ELEITO) 1T": 4.0, "JAIR BOLSONARO (PL) (2º TURNO) 1T": 275.0, "LULA (PT) (2º TURNO) 1T": 1297.0, "LÉO PÉRICLES (UP) (NÃO ELEITO) 1T": 1.0, "PADRE KELMON (PTB) (NÃO ELEITO) 1T": 3.0, "SIMONE TEBET (MDB) (NÃO ELEITO) 1T": 70.0, "SOFIA MANZANO (PCB) (NÃO ELEITO) 1T": 1.0, "SORAYA THRONICKE (UNIÃO) (NÃO ELEITO) 1T": 20.0, "VERA (PSTU) (NÃO ELEITO) 1T": 0.0, "Total_Votos_Validos 1T": 1711.0, "Votos_Brancos 1T": 17.0, "Votos_Nulos 1T": 71.0, "Abstenções 1T": 533.0, "Eleitores_Aptos 1T": 2332.0, "JAIR BOLSONARO (PL) (NÃO ELEITO) 2T": 353.0, "LULA (PT) (ELEITO) 2T": 1301.0, "Total_Votos_Validos 2T": 1654.0, "Votos_Brancos 2T": 25.0, "Votos_Nulos 2T": 124.0, "Abstenções 2T": 529.0, "Eleitores_Aptos 2T": 2332.0, "mun_code_y": "2702009", "mun_code": "2702009" }, "geometry": { "type": "Polygon", "coordinates": [ [ [ 6911098.756414745934308, 8878904.874476810917258 ], [ 6911088.212190924212337, 8878894.082261815667152 ], [ 6911084.052565645426512, 8878889.827226078137755 ], [ 6911080.970506755635142, 8878886.674534890800714 ], [ 6911075.837784053757787, 8878881.427561035379767 ], [ 6911043.77628256380558, 8878848.609941376373172 ], [ 6911019.652536820620298, 8878823.928404210135341 ], [ 6910844.654755735769868, 8878672.031381232663989 ], [ 6910582.648917576298118, 8878523.924775555729866 ], [ 6910492.657038898207247, 8878421.024964675307274 ], [ 6910421.849757224321365, 8878356.834356172010303 ], [ 6910338.491410776972771, 8878345.214509719982743 ], [ 6910293.023945851251483, 8878401.983987245708704 ], [ 6910291.371815658174455, 8878409.083319762721658 ], [ 6910265.340354016050696, 8878521.297517489641905 ], [ 6910204.698416218161583, 8878563.066883731633425 ], [ 6910176.092517379671335, 8878582.775480514392257 ], [ 6910108.62294509075582, 8878657.756291907280684 ], [ 6910048.348701737821102, 8878752.948531478643417 ], [ 6910027.196129092946649, 8878807.116025436669588 ], [ 6910024.422423313371837, 8878814.203230595216155 ], [ 6910022.224792486056685, 8878819.86032504029572 ], [ 6910052.848186092451215, 8878856.420078622177243 ], [ 6910150.188449113629758, 8878972.591105567291379 ], [ 6910196.54976687207818, 8879027.930316258221865 ], [ 6910153.557303540408611, 8879191.028314225375652 ], [ 6910023.756711626425385, 8879313.832834819331765 ], [ 6909226.742221466265619, 8879355.506485514342785 ], [ 6909226.150395082309842, 8879355.536779474467039 ], [ 6909280.655070117674768, 8880116.436436759307981 ], [ 6909177.95717846788466, 8880339.837341733276844 ], [ 6908834.447334600612521, 8880748.434818459674716 ], [ 6908761.812643274664879, 8880860.970028145238757 ], [ 6908539.651186114177108, 8881205.141952574253082 ], [ 6908327.64913557190448, 8881665.33838927000761 ], [ 6908326.255412979051471, 8881678.476775696501136 ], [ 6908312.64804085996002, 8881805.94318950548768 ], [ 6908203.646574471145868, 8881941.044808933511376 ], [ 6908082.751263236626983, 8881955.942126540467143 ], [ 6907904.746124340221286, 8882069.342493342235684 ], [ 6907872.752318546175957, 8882329.049856584519148 ], [ 6907719.548041441477835, 8882518.14590085670352 ], [ 6907677.255539092235267, 8882804.844245942309499 ], [ 6907882.757704081945121, 8883087.346580369397998 ], [ 6907900.850600153207779, 8883254.546385288238525 ], [ 6907986.750719288364053, 8883397.144924107939005 ], [ 6908005.157389717176557, 8883548.751113440841436 ], [ 6907843.650269165635109, 8883824.244428277015686 ], [ 6907864.673397799953818, 8883885.105005346238613 ], [ 6907865.754111828282475, 8883888.24432996660471 ], [ 6907929.652904218062758, 8883963.251612361520529 ], [ 6908056.309195178560913, 8883935.572821086272597 ], [ 6908184.854665204882622, 8883893.653656600043178 ], [ 6908191.757803925313056, 8883904.852803979068995 ], [ 6908155.674996353685856, 8884069.109011108055711 ], [ 6908162.866592165082693, 8884068.325996847823262 ], [ 6908158.636202598921955, 8884098.321372801437974 ], [ 6908143.520759497769177, 8884141.556282751262188 ], [ 6908153.37783739157021, 8884191.458881609141827 ], [ 6908178.332296686246991, 8884232.131960704922676 ], [ 6908203.326638109050691, 8884283.451170137152076 ], [ 6908239.113258426077664, 8884329.53333692252636 ], [ 6908219.876874729990959, 8884359.205044150352478 ], [ 6908185.116384916007519, 8884384.57473280839622 ], [ 6908127.449346473440528, 8884394.085531482473016 ], [ 6908083.648335019126534, 8884392.380957841873169 ], [ 6908014.102820057421923, 8884365.784029774367809 ], [ 6907967.777961174957454, 8884345.979078715667129 ], [ 6907916.183648101985455, 8884313.144149776548147 ], [ 6907913.07306878361851, 8884311.161391230300069 ], [ 6907869.454221395775676, 8884305.639730913564563 ], [ 6907843.321175249293447, 8884338.03461485542357 ], [ 6907843.731017060577869, 8884379.702610336244106 ], [ 6907881.971777721308172, 8884447.325684782117605 ], [ 6907887.917384375818074, 8884457.844483325257897 ], [ 6907924.076438622549176, 8884538.95313991047442 ], [ 6907950.461544926278293, 8884619.101314568892121 ], [ 6907954.963277064263821, 8884710.791723577305675 ], [ 6907950.104245103895664, 8884738.793185193091631 ], [ 6907933.799823828041553, 8884759.020926617085934 ], [ 6907888.476945369504392, 8884777.149420578032732 ], [ 6907886.431473593227565, 8884778.653971042484045 ], [ 6907840.626960883848369, 8884812.593505430966616 ], [ 6907789.027410294860601, 8884869.466074956580997 ], [ 6907784.361189144663513, 8884872.180347695946693 ], [ 6907735.901253722608089, 8884930.744571197777987 ], [ 6907683.802002090029418, 8885000.234060261398554 ], [ 6907650.408249758183956, 8885064.500672547146678 ], [ 6907673.317036833614111, 8885148.783586440607905 ], [ 6907707.182435502298176, 8885191.214225675910711 ], [ 6907734.843947914429009, 8885225.858996748924255 ], [ 6907811.276903100311756, 8885306.088328033685684 ], [ 6907854.848172545433044, 8885339.356820622459054 ], [ 6907896.086509965360165, 8885352.837144654244184 ], [ 6907910.530576621182263, 8885373.73375229164958 ], [ 6907910.695404645055532, 8885376.144293526187539 ], [ 6907911.08468212839216, 8885382.154445540159941 ], [ 6907917.991877041757107, 8885414.487501733005047 ], [ 6907915.442398423328996, 8885467.092868331819773 ], [ 6907870.449835675768554, 8885543.129798559471965 ], [ 6907859.38340815808624, 8885596.619587743654847 ], [ 6907837.058831353671849, 8885675.009951993823051 ], [ 6907844.442383632995188, 8885740.095651634037495 ], [ 6907876.202839872799814, 8885776.060496930032969 ], [ 6907914.957678164355457, 8885821.113949103280902 ], [ 6907944.819722983054817, 8885859.108340894803405 ], [ 6907979.26188735011965, 8885887.842317581176758 ], [ 6908008.887614053674042, 8885895.467533627524972 ], [ 6908015.050748998299241, 8885897.399447986856103 ], [ 6908037.122525786049664, 8885904.286143088713288 ], [ 6908036.704198888503015, 8885915.892852433025837 ], [ 6908036.400214230641723, 8885924.299360606819391 ], [ 6908035.78419735468924, 8885941.390557510778308 ], [ 6908029.523619470186532, 8885951.986500395461917 ], [ 6908020.203104520216584, 8885967.74951121583581 ], [ 6907988.150407643988729, 8886002.920335588976741 ], [ 6907947.557368753477931, 8886031.268481142818928 ], [ 6907894.618719085119665, 8886054.272091249004006 ], [ 6907851.906432650983334, 8886096.037492783740163 ], [ 6907797.65342248044908, 8886142.38230824097991 ], [ 6907720.513513077050447, 8886212.516762748360634 ], [ 6907688.829012588597834, 8886299.36733627691865 ], [ 6907665.429563456214964, 8886361.190978167578578 ], [ 6907623.121476450003684, 8886485.211413776502013 ], [ 6907622.687613509595394, 8886490.592047214508057 ], [ 6907584.68441426474601, 8886553.7822430357337 ], [ 6907531.165874967351556, 8886619.658535925671458 ], [ 6907527.987468743696809, 8886625.537363458424807 ], [ 6907482.872912970371544, 8886666.774435056373477 ], [ 6907433.59570411965251, 8886741.866947593167424 ], [ 6907444.044625038281083, 8886777.815869070589542 ], [ 6907443.013892045244575, 8886780.935209412127733 ], [ 6907422.114244490861893, 8886831.705049771815538 ], [ 6907414.323012555018067, 8886851.035044172778726 ], [ 6907413.253617809154093, 8886854.260500606149435 ], [ 6907409.819187507033348, 8886876.760216599330306 ], [ 6907410.413982368074358, 8886883.153294367715716 ], [ 6907394.006937894970179, 8886922.248577700927854 ], [ 6907387.379022607579827, 8886938.03580355271697 ], [ 6907361.815238125622272, 8886987.63022269308567 ], [ 6907358.235326453112066, 8886996.249085899442434 ], [ 6907331.408358843065798, 8886999.312797477468848 ], [ 6907274.646163310855627, 8887050.05148684233427 ], [ 6907272.087174095213413, 8887055.354750793427229 ], [ 6907227.416139353066683, 8887083.744292724877596 ], [ 6907221.726927224546671, 8887085.792335793375969 ], [ 6907185.880155826918781, 8887094.626010693609715 ], [ 6907181.539160015061498, 8887094.846432568505406 ], [ 6907144.657631877809763, 8887074.000664265826344 ], [ 6907085.959007360972464, 8887016.880929984152317 ], [ 6907010.550046239979565, 8886967.114137910306454 ], [ 6906929.897730385884643, 8886899.536421956494451 ], [ 6906869.509903846308589, 8886850.384557651355863 ], [ 6906830.824921988882124, 8886812.386778192594647 ], [ 6906785.321064554154873, 8886767.698892811313272 ], [ 6906722.25170870218426, 8886711.300037056207657 ], [ 6906664.790704161860049, 8886675.390311732888222 ], [ 6906655.303177212364972, 8886672.909409936517477 ], [ 6906617.414019704796374, 8886636.758121037855744 ], [ 6906578.960043935105205, 8886631.47780160792172 ], [ 6906575.024696986190975, 8886631.677652673795819 ], [ 6906526.754582277499139, 8886642.820292185992002 ], [ 6906495.589678194373846, 8886660.431509084999561 ], [ 6906486.447697691619396, 8886665.293481895700097 ], [ 6906478.580662790685892, 8886668.620936710387468 ], [ 6906472.048783814534545, 8886673.373506164178252 ], [ 6906441.765772486105561, 8886688.185445696115494 ], [ 6906436.468348760157824, 8886689.93577716499567 ], [ 6906433.823725406080484, 8886691.551405152305961 ], [ 6906399.295408022589982, 8886705.201643828302622 ], [ 6906392.637060180306435, 8886708.525548230856657 ], [ 6906364.601189733482897, 8886714.439373515546322 ], [ 6906355.261570516973734, 8886714.913587490096688 ], [ 6906349.93567511998117, 8886713.679525006562471 ], [ 6906329.121641238220036, 8886677.679849993437529 ], [ 6906333.956786820665002, 8886613.771693047136068 ], [ 6906336.761391487903893, 8886598.005829263478518 ], [ 6906357.845373917371035, 8886557.714505601674318 ], [ 6906374.727682182565331, 8886514.280311308801174 ], [ 6906374.740164484828711, 8886511.455877738073468 ], [ 6906374.769090281799436, 8886504.788389783352613 ], [ 6906373.505381477996707, 8886502.156069546937943 ], [ 6906382.496329164132476, 8886447.075119111686945 ], [ 6906406.062510304152966, 8886392.712024163454771 ], [ 6906407.29244729410857, 8886391.376528156921268 ], [ 6906414.549554295837879, 8886366.866707880049944 ], [ 6906415.010309567674994, 8886309.117296462878585 ], [ 6906405.609541159123182, 8886274.783300220966339 ], [ 6906411.320442790165544, 8886238.929448431357741 ], [ 6906375.364163037389517, 8886218.119224168360233 ], [ 6906339.024539400823414, 8886253.746594496071339 ], [ 6906316.762598885223269, 8886386.623566733673215 ], [ 6906297.846015789546072, 8886427.175240717828274 ], [ 6906270.424128209240735, 8886461.816816560924053 ], [ 6906260.449674980714917, 8886474.417027795687318 ], [ 6906251.59491391479969, 8886485.01611952483654 ], [ 6906208.857744863256812, 8886494.060674728825688 ], [ 6906143.97631059307605, 8886487.738346241414547 ], [ 6906097.230584097094834, 8886448.091209562495351 ], [ 6906044.939246978610754, 8886424.117595935240388 ], [ 6906021.577439335174859, 8886413.407107885926962 ], [ 6906016.491024075075984, 8886412.346102178096771 ], [ 6905979.476871257647872, 8886399.817605976015329 ], [ 6905932.687945025973022, 8886417.932403828948736 ], [ 6905912.58676983602345, 8886454.805329516530037 ], [ 6905907.702144062146544, 8886460.411509586498141 ], [ 6905840.110542422160506, 8886512.807368438690901 ], [ 6905765.588404889218509, 8886586.59365670569241 ], [ 6905733.703659792430699, 8886644.513010162860155 ], [ 6905690.99000122025609, 8886668.750141847878695 ], [ 6905636.12246822193265, 8886684.878341186791658 ], [ 6905608.76853412669152, 8886704.204192876815796 ], [ 6905636.182572521269321, 8886749.565823458135128 ], [ 6905646.833191565237939, 8886792.214004587382078 ], [ 6905649.164693283848464, 8886793.34550816193223 ], [ 6905677.457121306098998, 8886819.579561997205019 ], [ 6905679.7102135643363, 8886821.999602815136313 ], [ 6905713.544908804818988, 8886863.899446159601212 ], [ 6905718.344081324525177, 8886866.248138483613729 ], [ 6905753.799794179387391, 8886874.864025119692087 ], [ 6905761.275907313451171, 8886874.484594905748963 ], [ 6905763.775253037922084, 8886874.357746934518218 ], [ 6905822.737073995172977, 8886922.93292567320168 ], [ 6905889.529594179242849, 8886977.99661217816174 ], [ 6905893.317390501499176, 8886980.558675270527601 ], [ 6905948.03952519223094, 8887021.051788676530123 ], [ 6905953.201050063595176, 8887023.613580394536257 ], [ 6906028.97851537913084, 8887077.041304407641292 ], [ 6906030.293967921286821, 8887076.974545791745186 ], [ 6906121.868427528068423, 8887098.63203227519989 ], [ 6906129.856404662132263, 8887099.696380734443665 ], [ 6906131.688285852782428, 8887100.945855753496289 ], [ 6906172.24297656212002, 8887128.664513871073723 ], [ 6906170.618730971589684, 8887184.736240742728114 ], [ 6906164.713265161961317, 8887239.37028949894011 ], [ 6906152.429703950881958, 8887268.65945914760232 ], [ 6906138.074963407590985, 8887302.902686847373843 ], [ 6906137.755015984177589, 8887369.902257716283202 ], [ 6906154.358026385307312, 8887451.816943047568202 ], [ 6906172.10780250839889, 8887508.097648108378053 ], [ 6906225.998056083917618, 8887501.405687663704157 ], [ 6906273.466597774066031, 8887489.808508681133389 ], [ 6906274.71629202645272, 8887489.745103837922215 ], [ 6906320.525249985978007, 8887470.455044742673635 ], [ 6906365.801959504373372, 8887482.496592253446579 ], [ 6906418.056676741689444, 8887502.215704653412104 ], [ 6906421.95930895768106, 8887504.6563187148422 ], [ 6906453.032023412175477, 8887541.872256260365248 ], [ 6906471.568397912196815, 8887574.979417003691196 ], [ 6906469.568857621401548, 8887627.957740848883986 ], [ 6906429.879308110103011, 8887692.928151484578848 ], [ 6906422.777191298082471, 8887738.816372524946928 ], [ 6906445.526219336315989, 8887766.062355825677514 ], [ 6906466.431766154244542, 8887755.998101234436035 ], [ 6906515.656522103585303, 8887750.503564519807696 ], [ 6906581.705750922672451, 8887754.652143858373165 ], [ 6906584.380554815754294, 8887754.516447113826871 ], [ 6906627.660705982707441, 8887743.328499468043447 ], [ 6906658.443400029093027, 8887716.50279313325882 ], [ 6906702.364379766397178, 8887680.550460670143366 ], [ 6906737.494580397382379, 8887662.646678198128939 ], [ 6906749.636583371087909, 8887656.452356718480587 ], [ 6906780.994163414463401, 8887644.862073037773371 ], [ 6906802.381792305037379, 8887650.813298730179667 ], [ 6906802.547388166189194, 8887651.047932093963027 ], [ 6906841.109202438034117, 8887703.080019600689411 ], [ 6906883.123119192197919, 8887721.293858662247658 ], [ 6906897.717935347929597, 8887719.095088241621852 ], [ 6906925.324871801771224, 8887694.478430727496743 ], [ 6906933.305654988624156, 8887666.83012674190104 ], [ 6906957.636206071823835, 8887619.117416614666581 ], [ 6906962.358293745666742, 8887594.655017709359527 ], [ 6906964.355333770625293, 8887584.26506993919611 ], [ 6906998.784152260050178, 8887549.927566763013601 ], [ 6907034.672190117649734, 8887533.338699847459793 ], [ 6907063.552227165549994, 8887538.573879471048713 ], [ 6907069.072559881955385, 8887537.76133319362998 ], [ 6907119.203264037147164, 8887530.390924263745546 ], [ 6907169.694137398153543, 8887526.48572089895606 ], [ 6907234.167379453778267, 8887528.571712210774422 ], [ 6907337.281713327392936, 8887512.643858769908547 ], [ 6907339.802450481802225, 8887512.504329916089773 ], [ 6907414.424923858605325, 8887512.720755647867918 ], [ 6907437.902366654016078, 8887539.79141852632165 ], [ 6907478.786448959261179, 8887571.881022464483976 ], [ 6907538.146302834153175, 8887586.864617623388767 ], [ 6907540.857517356052995, 8887588.115814279764891 ], [ 6907546.133901144377887, 8887589.236796537414193 ], [ 6907567.591153535991907, 8887621.838179539889097 ], [ 6907588.855509726330638, 8887662.226840421557426 ], [ 6907590.468844530172646, 8887665.038338152691722 ], [ 6907632.135226145386696, 8887729.020069668069482 ], [ 6907668.660531385801733, 8887775.474313633516431 ], [ 6907722.115164007991552, 8887809.715686528012156 ], [ 6907775.573480201885104, 8887847.764709580689669 ], [ 6907794.428175963461399, 8887872.281354747712612 ], [ 6907792.431830339133739, 8887896.525345701724291 ], [ 6907791.153861276805401, 8887935.790206164121628 ], [ 6907783.063294970430434, 8887968.931125534698367 ], [ 6907772.975794775411487, 8888032.021801799535751 ], [ 6907752.625680831260979, 8888067.694412754848599 ], [ 6907750.161820936016738, 8888078.200993726029992 ], [ 6907746.287221029400826, 8888087.529206307604909 ], [ 6907744.891853320412338, 8888096.766330299898982 ], [ 6907724.79961091466248, 8888118.919314067810774 ], [ 6907721.479282255284488, 8888123.069119928404689 ], [ 6907719.112019361928105, 8888124.520205544307828 ], [ 6907693.264701886102557, 8888155.321279246360064 ], [ 6907689.74930518027395, 8888158.207872249186039 ], [ 6907654.005551818758249, 8888184.511176371946931 ], [ 6907645.317604448646307, 8888187.694917570799589 ], [ 6907607.318822474218905, 8888208.904390651732683 ], [ 6907596.205347732640803, 8888215.01196351274848 ], [ 6907583.89007156714797, 8888222.580898143351078 ], [ 6907550.569893168285489, 8888245.265721593052149 ], [ 6907544.182848920114338, 8888246.990145429968834 ], [ 6907506.174893823452294, 8888308.903784025460482 ], [ 6907503.721660120412707, 8888311.933179320767522 ], [ 6907504.127982296049595, 8888319.180722897872329 ], [ 6907513.279538976028562, 8888362.857814554125071 ], [ 6907514.958051858469844, 8888368.733023205772042 ], [ 6907516.551724900491536, 8888373.131128054112196 ], [ 6907545.460398125462234, 8888447.737427981570363 ], [ 6907545.658341023139656, 8888450.817515984177589 ], [ 6907537.69894593860954, 8888498.255974527448416 ], [ 6907506.720870774239302, 8888536.584577620029449 ], [ 6907504.463237401098013, 8888546.386089071631432 ], [ 6907482.913417586125433, 8888589.965256137773395 ], [ 6907477.619105711579323, 8888596.842206690460443 ], [ 6907468.035067391581833, 8888637.951117880642414 ], [ 6907463.374849835410714, 8888657.954920671880245 ], [ 6907452.762424690648913, 8888733.68582552112639 ], [ 6907442.517330005764961, 8888792.142002910375595 ], [ 6907442.658090748824179, 8888796.058264303952456 ], [ 6907445.852449981495738, 8888850.303075624629855 ], [ 6907446.180095146410167, 8888859.718822732567787 ], [ 6907473.74605974368751, 8888910.343896334990859 ], [ 6907476.55532826948911, 8888915.756729636341333 ], [ 6907495.707408108748496, 8888940.305234579369426 ], [ 6907512.440808955579996, 8888961.758967837318778 ], [ 6907547.089415615424514, 8888992.685897151008248 ], [ 6907556.637228506617248, 8889001.20603209733963 ], [ 6907561.033752622082829, 8889008.251301072537899 ], [ 6907563.843049579299986, 8889011.025401618331671 ], [ 6907583.138120708987117, 8889042.395171657204628 ], [ 6907571.550722869113088, 8889069.82156646810472 ], [ 6907539.298646208830178, 8889092.578166017308831 ], [ 6907514.620720071718097, 8889138.248138630762696 ], [ 6907512.509851620532572, 8889150.773474236950278 ], [ 6907472.704134372062981, 8889179.410104427486658 ], [ 6907423.565493315458298, 8889188.208266906440258 ], [ 6907377.35279509332031, 8889215.977292602881789 ], [ 6907374.590180611237884, 8889216.117309391498566 ], [ 6907305.471943490207195, 8889269.605677355080843 ], [ 6907261.72190868947655, 8889303.776811674237251 ], [ 6907244.069350766949356, 8889357.434143055230379 ], [ 6907243.260871412232518, 8889360.611481081694365 ], [ 6907198.806862501427531, 8889417.003941599279642 ], [ 6907170.929975881241262, 8889408.764310805127025 ], [ 6907166.020565633662045, 8889404.210153823718429 ], [ 6907160.25073094945401, 8889402.893819054588675 ], [ 6907140.508650876581669, 8889356.397440403699875 ], [ 6907111.519360381178558, 8889319.061219157651067 ], [ 6907097.347440970130265, 8889287.709868080914021 ], [ 6907093.768033583648503, 8889281.838439580053091 ], [ 6907091.175793349742889, 8889246.000157596543431 ], [ 6907090.09362980723381, 8889238.636546980589628 ], [ 6907072.170077754184604, 8889207.209198597818613 ], [ 6907033.953919771127403, 8889209.145811393857002 ], [ 6907003.578443692997098, 8889241.539210710674524 ], [ 6906978.384810372255743, 8889287.685052655637264 ], [ 6906943.823207008652389, 8889316.806792033836246 ], [ 6906911.344441530294716, 8889371.1333450935781 ], [ 6906907.875287190079689, 8889377.593322178348899 ], [ 6906873.734622600488365, 8889395.120314432308078 ], [ 6906830.030356226488948, 8889400.50547119602561 ], [ 6906828.574596980586648, 8889400.845402428880334 ], [ 6906796.131864830851555, 8889408.576403502374887 ], [ 6906777.521704491227865, 8889419.078538578003645 ], [ 6906770.84056537412107, 8889422.622735098004341 ], [ 6906764.582627801224589, 8889453.573645241558552 ], [ 6906765.037207972258329, 8889455.193992333486676 ], [ 6906782.769739709794521, 8889519.567828115075827 ], [ 6906769.489801591262221, 8889558.24644142575562 ], [ 6906762.504493012093008, 8889601.050228916108608 ], [ 6906761.832648205570877, 8889604.764489093795419 ], [ 6906735.697544543072581, 8889618.425076063722372 ], [ 6906677.133882253430784, 8889638.785419406369328 ], [ 6906622.394789162091911, 8889654.079661544412374 ], [ 6906616.545053895562887, 8889656.887250740081072 ], [ 6906557.482268843799829, 8889683.764918614178896 ], [ 6906553.935959349386394, 8889685.379551922902465 ], [ 6906511.512909257784486, 8889744.408753335475922 ], [ 6906510.667221013456583, 8889749.705679884180427 ], [ 6906480.084890247322619, 8889816.745285831391811 ], [ 6906476.538924981839955, 8889821.010060150176287 ], [ 6906471.721257027238607, 8889825.339222112670541 ], [ 6906427.403049567714334, 8889880.100801603868604 ], [ 6906427.785019092261791, 8889887.094619615003467 ], [ 6906427.849050510674715, 8889887.276543658226728 ], [ 6906444.545442368835211, 8889930.25770116224885 ], [ 6906448.372764656320214, 8889935.815654642879963 ], [ 6906479.336328996345401, 8889980.805799582973123 ], [ 6906480.948085868731141, 8889985.13347527384758 ], [ 6906518.144039571285248, 8890020.445738678798079 ], [ 6906533.255211228504777, 8890077.475888084620237 ], [ 6906540.653420502319932, 8890110.327225625514984 ], [ 6906550.027008388191462, 8890151.931874601170421 ], [ 6906558.016286225058138, 8890199.937013139948249 ], [ 6906558.152304995805025, 8890201.561910722404718 ], [ 6906546.837327386252582, 8890273.493251098319888 ], [ 6906530.151042021811008, 8890308.257987478747964 ], [ 6906486.59914206340909, 8890346.025650633499026 ], [ 6906482.004066482186317, 8890349.973094677552581 ], [ 6906481.845953899435699, 8890350.108398154377937 ], [ 6906469.416139220818877, 8890405.430838666856289 ], [ 6906469.53645314835012, 8890408.063364680856466 ], [ 6906444.020331622101367, 8890465.668123019859195 ], [ 6906444.271159406751394, 8890472.460269501432776 ], [ 6906431.15484472271055, 8890538.26752938143909 ], [ 6906432.545114294625819, 8890541.020958725363016 ], [ 6906404.867058165371418, 8890622.94515985250473 ], [ 6906406.161804018542171, 8890671.832719786092639 ], [ 6906407.530291637405753, 8890673.267953768372536 ], [ 6906419.433102892711759, 8890713.598887534812093 ], [ 6906447.707506639882922, 8890747.662406545132399 ], [ 6906502.6832644212991, 8890755.805999461561441 ], [ 6906570.569688152521849, 8890768.064444541931152 ], [ 6906642.445035542361438, 8890789.784471778199077 ], [ 6906687.598763935267925, 8890814.75439827889204 ], [ 6906730.299912272021174, 8890847.185742300003767 ], [ 6906748.051726125180721, 8890860.661326855421066 ], [ 6906794.17185833491385, 8890920.220598196610808 ], [ 6906842.051334609277546, 8891002.50155096128583 ], [ 6906866.428119079209864, 8891045.90571010299027 ], [ 6906891.913100188598037, 8891104.484058551490307 ], [ 6906894.749502817168832, 8891146.165678540244699 ], [ 6906888.964335123077035, 8891194.590699642896652 ], [ 6906887.785567703656852, 8891232.89931196346879 ], [ 6906857.342256106436253, 8891245.502867680042982 ], [ 6906830.265024483203888, 8891242.72915968298912 ], [ 6906781.192501787096262, 8891214.99384581297636 ], [ 6906774.822788247838616, 8891215.315995031967759 ], [ 6906757.677042037248611, 8891200.767903817817569 ], [ 6906741.70250179246068, 8891187.225309424102306 ], [ 6906717.640850649215281, 8891192.469629801809788 ], [ 6906699.854291145689785, 8891201.447108097374439 ], [ 6906668.697603607550263, 8891207.015478380024433 ], [ 6906668.043829901143909, 8891207.129552248865366 ], [ 6906639.62009244877845, 8891227.616062512621284 ], [ 6906627.117349933832884, 8891264.101268924772739 ], [ 6906631.424425729550421, 8891294.725318428128958 ], [ 6906658.888142250478268, 8891346.271163595840335 ], [ 6906688.393684251233935, 8891399.091053888201714 ], [ 6906732.313135868869722, 8891396.870266709476709 ], [ 6906747.098599665798247, 8891393.171516463160515 ], [ 6906769.52693434804678, 8891387.570218274369836 ], [ 6906813.56526155769825, 8891397.217231323942542 ], [ 6906863.323550219647586, 8891411.146347086876631 ], [ 6906901.054486071690917, 8891453.239152986556292 ], [ 6906928.445708724670112, 8891492.082082163542509 ], [ 6906971.985414575785398, 8891566.043025534600019 ], [ 6906987.87506138253957, 8891587.807150766253471 ], [ 6906992.418232589960098, 8891624.495661126449704 ], [ 6906986.226777444593608, 8891670.302592447027564 ], [ 6906985.542270487174392, 8891671.344060655683279 ], [ 6906973.409337382763624, 8891689.456012841314077 ], [ 6906972.304610542021692, 8891717.576627381145954 ], [ 6906973.492543832398951, 8891766.563355084508657 ], [ 6906973.37428699247539, 8891773.675214475020766 ], [ 6906972.853369893506169, 8891805.573852930217981 ], [ 6906970.974311826750636, 8891846.834335351362824 ], [ 6906951.745148777030408, 8891856.4283187687397 ], [ 6906944.595576960593462, 8891854.336232988163829 ], [ 6906922.565257434733212, 8891847.857915492728353 ], [ 6906878.513712795451283, 8891814.566991133615375 ], [ 6906878.072402209974825, 8891813.871770545840263 ], [ 6906846.464634435251355, 8891764.733369197696447 ], [ 6906800.264746109955013, 8891746.561439786106348 ], [ 6906762.131550183519721, 8891725.505144335329533 ], [ 6906741.721614308655262, 8891750.886416453868151 ], [ 6906709.452164125628769, 8891782.665148410946131 ], [ 6906682.011127083562315, 8891807.672570770606399 ], [ 6906675.52394047845155, 8891809.389218866825104 ], [ 6906661.920039597898722, 8891836.810287369415164 ], [ 6906659.873102070763707, 8891865.44100684300065 ], [ 6906650.909172488376498, 8891905.033673446625471 ], [ 6906660.316324501298368, 8891948.917248273268342 ], [ 6906684.757795482873917, 8891992.99005207978189 ], [ 6906686.04980992898345, 8891995.980012601241469 ], [ 6906695.187230784446001, 8892004.660859325900674 ], [ 6906705.997749319300056, 8892014.935236249119043 ], [ 6906710.054283085279167, 8892014.730234280228615 ], [ 6906784.662648465484381, 8892024.882032813504338 ], [ 6906788.212365696206689, 8892025.755780283361673 ], [ 6906826.986937313340604, 8892035.19559738971293 ], [ 6906841.04137459397316, 8892059.621899597346783 ], [ 6906843.888501475565135, 8892065.808453384786844 ], [ 6906862.280419574119151, 8892090.374350413680077 ], [ 6906866.53230810072273, 8892094.973854433745146 ], [ 6906896.793166500516236, 8892135.616739632561803 ], [ 6906940.974315360188484, 8892188.94629942625761 ], [ 6906929.434295527637005, 8892240.381474209949374 ], [ 6906896.241698237136006, 8892278.803115207701921 ], [ 6906874.059771565720439, 8892339.467141447588801 ], [ 6906832.196782109327614, 8892339.082483870908618 ], [ 6906786.811803317628801, 8892358.908554060384631 ], [ 6906723.536454138346016, 8892384.765127073973417 ], [ 6906717.824190361425281, 8892391.893313378095627 ], [ 6906693.888849683105946, 8892421.768628593534231 ], [ 6906712.922855583019555, 8892474.690663335844874 ], [ 6906748.763545476831496, 8892504.011395270004869 ], [ 6906796.787024907767773, 8892498.981564501300454 ], [ 6906840.402717063203454, 8892510.723720477893949 ], [ 6906853.916143514215946, 8892514.357800550758839 ], [ 6906908.492646837607026, 8892537.848391726613045 ], [ 6906923.313019371591508, 8892547.642754390835762 ], [ 6906923.987513924017549, 8892547.944299446418881 ], [ 6906925.24764334410429, 8892548.52873238734901 ], [ 6906985.873006390407681, 8892576.285195399075747 ], [ 6906965.567461627535522, 8892574.649156892672181 ], [ 6906977.463171198032796, 8892603.40910778939724 ], [ 6906977.226731416769326, 8892611.464335557073355 ], [ 6906983.342262929305434, 8892634.289982292801142 ], [ 6906986.499780343845487, 8892646.050749601796269 ], [ 6906986.352710522711277, 8892651.485950294882059 ], [ 6906994.857319411821663, 8892719.430093619972467 ], [ 6907033.228555190376937, 8892742.397231230512261 ], [ 6907036.330698698759079, 8892742.448856800794601 ], [ 6907074.820710713043809, 8892743.073926262557507 ], [ 6907131.773394981399179, 8892773.666678261011839 ], [ 6907176.130879620090127, 8892793.901201853528619 ], [ 6907210.22393175214529, 8892828.958695372566581 ], [ 6907228.798407203517854, 8892879.498066205531359 ], [ 6907249.465296357870102, 8892878.454204741865396 ], [ 6907257.951329185627401, 8892878.025581426918507 ], [ 6907286.712418965995312, 8892839.31864376924932 ], [ 6907294.159566709771752, 8892796.387693619355559 ], [ 6907317.428085669875145, 8892769.890034100040793 ], [ 6907346.289570139721036, 8892774.045093121007085 ], [ 6907372.46024433337152, 8892772.723036844283342 ], [ 6907382.195705079473555, 8892738.668708235025406 ], [ 6907360.648347141221166, 8892703.706506526097655 ], [ 6907347.188897639513016, 8892676.876821260899305 ], [ 6907343.656489977613091, 8892657.589049503207207 ], [ 6907335.813990375027061, 8892614.87486432492733 ], [ 6907332.17208390776068, 8892548.142266051843762 ], [ 6907349.399686550721526, 8892515.56104370765388 ], [ 6907366.80550529435277, 8892498.918739015236497 ], [ 6907399.48179195355624, 8892489.40933177433908 ], [ 6907437.609411614015698, 8892495.34097496047616 ], [ 6907465.86814197525382, 8892507.037170520052314 ], [ 6907496.553696351125836, 8892513.391165100038052 ], [ 6907537.010426444001496, 8892508.708049315959215 ], [ 6907543.308784258551896, 8892511.803918212652206 ], [ 6907576.027830876410007, 8892527.869369022548199 ], [ 6907595.566907098516822, 8892511.026423025876284 ], [ 6907610.249809816479683, 8892499.741045098751783 ], [ 6907615.315063355490565, 8892499.485069554299116 ], [ 6907663.130055097863078, 8892491.814334537833929 ], [ 6907700.934095563367009, 8892487.276630386710167 ], [ 6907737.788276206701994, 8892506.477803207933903 ], [ 6907794.957147304899991, 8892487.779123667627573 ], [ 6907845.210487322881818, 8892511.626930495724082 ], [ 6907847.75407871697098, 8892511.49837564677 ], [ 6907869.419790956191719, 8892526.317003432661295 ], [ 6907864.222555682994425, 8892555.918620815500617 ], [ 6907869.686860714107752, 8892590.5945831425488 ], [ 6907904.237160947173834, 8892602.377980925142765 ], [ 6907935.833380223251879, 8892608.917393008247018 ], [ 6907949.938981514424086, 8892649.151885883882642 ], [ 6907968.84412242192775, 8892684.016771268099546 ], [ 6908007.55203849915415, 8892679.306101068854332 ], [ 6908054.274827817454934, 8892652.130953995510936 ], [ 6908082.35086169373244, 8892623.305570224300027 ], [ 6908095.921380267478526, 8892576.672221809625626 ], [ 6908099.169067880138755, 8892565.524654751643538 ], [ 6908109.022492027841508, 8892516.868534710258245 ], [ 6908127.035822926089168, 8892452.638345211744308 ], [ 6908162.627217995934188, 8892391.118815185502172 ], [ 6908195.099181368015707, 8892368.910693384706974 ], [ 6908276.448645845986903, 8892447.712444342672825 ], [ 6908308.726108521223068, 8892496.160463225096464 ], [ 6908299.345303780399263, 8892539.295651979744434 ], [ 6908288.032271244563162, 8892569.461673814803362 ], [ 6908274.775351393967867, 8892605.397062238305807 ], [ 6908262.103056444786489, 8892626.372699270024896 ], [ 6908257.736576524563134, 8892633.595527723431587 ], [ 6908288.060630200430751, 8892684.538273273035884 ], [ 6908328.09758663456887, 8892727.247360285371542 ], [ 6908362.504054733552039, 8892765.044497158378363 ], [ 6908405.461134600453079, 8892822.906826350837946 ], [ 6908462.660553839057684, 8892851.36952918022871 ], [ 6908488.548683861270547, 8892842.387661410495639 ], [ 6908524.406207836233079, 8892810.020294992253184 ], [ 6908552.545623079873621, 8892778.274383321404457 ], [ 6908587.359332539141178, 8892751.433989502489567 ], [ 6908601.733190922997892, 8892741.888083882629871 ], [ 6908632.056355108506978, 8892721.767517114058137 ], [ 6908688.245999244973063, 8892696.647170443087816 ], [ 6908742.449164154008031, 8892691.441763924434781 ], [ 6908785.429613724350929, 8892704.095249723643064 ], [ 6908835.244759702123702, 8892726.414783213287592 ], [ 6908845.349498712457716, 8892780.313639530912042 ], [ 6908845.9658287120983, 8892783.638962455093861 ], [ 6908834.352681985124946, 8892842.860224731266499 ], [ 6908828.614614742808044, 8892853.439615407958627 ], [ 6908824.998645124025643, 8892869.10848219320178 ], [ 6908818.361874943599105, 8892926.735501566901803 ], [ 6908828.221643162891269, 8892965.797254385426641 ], [ 6908848.766230341978371, 8892999.365307135507464 ], [ 6908889.443599056452513, 8892999.98297412507236 ], [ 6908923.11046249512583, 8892990.272049641236663 ], [ 6908952.203069793060422, 8892970.155663022771478 ], [ 6908987.433461288921535, 8892926.08298422396183 ], [ 6908995.93918664008379, 8892907.296434096992016 ], [ 6909013.099643874913454, 8892864.773584526032209 ], [ 6909050.500705052167177, 8892845.30167668685317 ], [ 6909051.572355397045612, 8892844.749810557812452 ], [ 6909092.065201925113797, 8892832.401663012802601 ], [ 6909106.164198810234666, 8892857.487778805196285 ], [ 6909102.337331511080265, 8892894.070540795102715 ], [ 6909100.180992181412876, 8892897.339307678863406 ], [ 6909086.284810648299754, 8892918.458676800131798 ], [ 6909076.939875014126301, 8892963.862073527649045 ], [ 6909090.233894924633205, 8893016.69756006449461 ], [ 6909121.681200401857495, 8893072.087797783315182 ], [ 6909156.960463414900005, 8893100.478581538423896 ], [ 6909156.806635078042746, 8893105.995687827467918 ], [ 6909167.561445307917893, 8893131.251046577468514 ], [ 6909178.800194762647152, 8893157.616241546347737 ], [ 6909172.472671864554286, 8893200.054677760228515 ], [ 6909142.607938788831234, 8893235.569089552387595 ], [ 6909135.057116230018437, 8893246.610540855675936 ], [ 6909112.209499238058925, 8893280.01090719550848 ], [ 6909092.236945140175521, 8893321.483571181073785 ], [ 6909072.288333404809237, 8893357.480351926758885 ], [ 6909038.145962468348444, 8893409.298511644825339 ], [ 6909014.655658402480185, 8893455.184734679758549 ], [ 6909004.645696023479104, 8893497.855044838041067 ], [ 6908999.585522942245007, 8893549.87019176594913 ], [ 6909005.586713859811425, 8893598.872794903814793 ], [ 6909093.314865102991462, 8893682.173065531998873 ], [ 6909145.906750969588757, 8893685.858941279351711 ], [ 6909186.870048935525119, 8893715.607092702761292 ], [ 6909194.676735736429691, 8893740.826480057090521 ], [ 6909199.172320641577244, 8893792.266723871231079 ], [ 6909238.415122741833329, 8893800.041491154581308 ], [ 6909339.987313389778137, 8893772.178574780002236 ], [ 6909342.910411082208157, 8893749.426291383802891 ], [ 6909354.299161828123033, 8893697.576743384823203 ], [ 6909366.539755271747708, 8893647.385515948757529 ], [ 6909368.355391880497336, 8893639.920939411967993 ], [ 6909409.702593602240086, 8893575.399839391931891 ], [ 6909439.408208877779543, 8893625.404737455770373 ], [ 6909440.272366254590452, 8893626.865740654990077 ], [ 6909457.337644141167402, 8893682.83362202718854 ], [ 6909488.18597334716469, 8893700.384301692247391 ], [ 6909529.344163883477449, 8893657.007279647514224 ], [ 6909526.103933084756136, 8893628.802134193480015 ], [ 6909564.590154378674924, 8893614.322329176589847 ], [ 6909581.599013611674309, 8893632.294460000470281 ], [ 6909629.304467539303005, 8893651.967923045158386 ], [ 6909657.773117911070585, 8893672.717641456052661 ], [ 6909680.590616161003709, 8893687.479576954618096 ], [ 6909692.985844206064939, 8893722.062848797068 ], [ 6909744.194633180275559, 8893738.804734971374273 ], [ 6909753.780151876620948, 8893699.754064472392201 ], [ 6909765.076928633265197, 8893638.787306228652596 ], [ 6909782.462659296579659, 8893593.92545342259109 ], [ 6909769.874279703944921, 8893560.324145995080471 ], [ 6909775.010012321174145, 8893492.411389220505953 ], [ 6909775.470834903419018, 8893490.408851359039545 ], [ 6909788.605778144672513, 8893434.140835143625736 ], [ 6909834.152574297040701, 8893372.090681303292513 ], [ 6909860.20198252145201, 8893355.970002636313438 ], [ 6909871.905826204456389, 8893325.921010026708245 ], [ 6909886.529708003625274, 8893301.754733256995678 ], [ 6909903.560277528129518, 8893274.711988119408488 ], [ 6909921.613532228395343, 8893265.106755685061216 ], [ 6909967.183010200038552, 8893268.601829446852207 ], [ 6909978.488986060023308, 8893273.146234799176455 ], [ 6910005.71012020111084, 8893284.073891844600439 ], [ 6910053.108662754297256, 8893307.95210674777627 ], [ 6910103.241737723350525, 8893328.914191976189613 ], [ 6910153.109126918017864, 8893344.102374890819192 ], [ 6910195.220330010168254, 8893333.118602382019162 ], [ 6910200.957439266145229, 8893309.285437505692244 ], [ 6910188.396136220544577, 8893263.227904934436083 ], [ 6910211.264052766375244, 8893198.711255567148328 ], [ 6910217.995079735293984, 8893171.887768851593137 ], [ 6910220.674079179763794, 8893161.242385320365429 ], [ 6910237.050693354569376, 8893156.814487397670746 ], [ 6910272.004271622747183, 8893147.338090354576707 ], [ 6910299.283946864306927, 8893131.871976267546415 ], [ 6910325.476812055334449, 8893130.547364316880703 ], [ 6910360.976308342069387, 8893162.678019914776087 ], [ 6910386.046426136977971, 8893172.788296623155475 ], [ 6910388.355609776452184, 8893127.378991043195128 ], [ 6910412.775353852659464, 8893112.09206310287118 ], [ 6910441.510687771253288, 8893110.615618590265512 ], [ 6910463.892976694740355, 8893124.79724383726716 ], [ 6910464.720528229139745, 8893163.010523114353418 ], [ 6910457.813338430598378, 8893183.870606450363994 ], [ 6910470.060150311328471, 8893224.932566590607166 ], [ 6910471.07586201839149, 8893228.330529479309916 ], [ 6910490.820648014545441, 8893228.628407943993807 ], [ 6910511.289397039450705, 8893209.490051280707121 ], [ 6910529.123808713629842, 8893186.676715143024921 ], [ 6910557.303093921393156, 8893183.966739363968372 ], [ 6910601.655674364417791, 8893186.862883638590574 ], [ 6910643.926989783532917, 8893166.748941546306014 ], [ 6910674.724010105244815, 8893139.598869891837239 ], [ 6910683.476332652382553, 8893114.964333586394787 ], [ 6910683.371633526869118, 8893112.423119401559234 ], [ 6910679.322069300338626, 8893088.517135540023446 ], [ 6910678.480786244384944, 8893083.547695679590106 ], [ 6910658.207851508632302, 8893034.291200729086995 ], [ 6910652.21383788716048, 8893017.683282483369112 ], [ 6910640.547086300328374, 8892985.400369068607688 ], [ 6910639.200134480372071, 8892981.752922898158431 ], [ 6910603.915061959065497, 8892939.159269753843546 ], [ 6910609.384244120679796, 8892891.228271892294288 ], [ 6910641.645584494806826, 8892890.81153991445899 ], [ 6910697.413065062835813, 8892907.494161924347281 ], [ 6910745.676237920299172, 8892938.122456951066852 ], [ 6910793.308124074712396, 8892973.94527180492878 ], [ 6910858.36886253580451, 8893011.676073174923658 ], [ 6910892.37345421873033, 8893051.290655395016074 ], [ 6910890.942544337362051, 8893054.777715936303139 ], [ 6910883.914395227096975, 8893071.882511802017689 ], [ 6910935.187810266390443, 8893090.795342147350311 ], [ 6910975.480019787326455, 8893056.566359050571918 ], [ 6910990.485256008803844, 8893043.815305802971125 ], [ 6911053.48696269467473, 8893039.366171848028898 ], [ 6911122.108713815920055, 8893058.570262910798192 ], [ 6911144.080974284559488, 8893067.830046430230141 ], [ 6911146.191705824807286, 8893068.718730315566063 ], [ 6911150.159339066594839, 8893100.234304701909423 ], [ 6911149.58713355474174, 8893103.307557411491871 ], [ 6911143.462580871768296, 8893136.329193867743015 ], [ 6911153.579694844782352, 8893167.950379010289907 ], [ 6911184.911678205244243, 8893187.027211556211114 ], [ 6911195.421704949811101, 8893194.563504979014397 ], [ 6911240.800920777022839, 8893227.086377788335085 ], [ 6911262.626708426512778, 8893221.282623179256916 ], [ 6911275.644158008508384, 8893217.822827545925975 ], [ 6911303.301432458683848, 8893203.320290219038725 ], [ 6911350.534203843213618, 8893200.930656522512436 ], [ 6911346.195499042980373, 8893234.938754253089428 ], [ 6911352.473344307392836, 8893287.87956502661109 ], [ 6911363.510662578046322, 8893311.282281687483191 ], [ 6911368.45183677598834, 8893321.762717321515083 ], [ 6911377.620464412495494, 8893322.67636650800705 ], [ 6911420.181970542296767, 8893326.901292448863387 ], [ 6911473.888752266764641, 8893330.018307894468307 ], [ 6911522.106492819264531, 8893329.523609606549144 ], [ 6911591.138723196461797, 8893351.439383869990706 ], [ 6911677.579321827739477, 8893374.627508100122213 ], [ 6911690.794449921697378, 8893398.939009247347713 ], [ 6911695.465262673795223, 8893407.523293953388929 ], [ 6911677.140773057937622, 8893424.470951734110713 ], [ 6911693.206808753311634, 8893455.919290449470282 ], [ 6911722.159787097945809, 8893470.706688411533833 ], [ 6911757.859678553417325, 8893460.762968301773071 ], [ 6911802.480172228068113, 8893480.927550284191966 ], [ 6911850.849318529479206, 8893529.98058046028018 ], [ 6911870.23258210811764, 8893573.508424000814557 ], [ 6911877.288057217374444, 8893589.357438590377569 ], [ 6911903.179801773279905, 8893642.835337195545435 ], [ 6911910.556744284927845, 8893658.077768918126822 ], [ 6911914.448972446843982, 8893667.581306129693985 ], [ 6911931.436402673833072, 8893709.1353470236063 ], [ 6911964.674056332558393, 8893733.800376605242491 ], [ 6911979.608593283221126, 8893777.391524706035852 ], [ 6912013.543419143185019, 8893796.858632059767842 ], [ 6912037.984628703445196, 8893810.879189986735582 ], [ 6912044.321410581469536, 8893814.517573591321707 ], [ 6912051.146510279737413, 8893817.14731914922595 ], [ 6912054.351906482130289, 8893818.385852118954062 ], [ 6912072.272700047120452, 8893825.304606506600976 ], [ 6912116.990745280869305, 8893842.571030076593161 ], [ 6912153.821054914966226, 8893827.071756482124329 ], [ 6912184.88879669085145, 8893830.697774788364768 ], [ 6912194.518592148087919, 8893831.819699825718999 ], [ 6912200.953763514757156, 8893856.613748712465167 ], [ 6912217.6808991599828, 8893870.897262211889029 ], [ 6912239.222919136285782, 8893871.960704684257507 ], [ 6912259.019753742963076, 8893879.027686111629009 ], [ 6912257.792124566622078, 8893880.860891759395599 ], [ 6912291.590934333391488, 8893890.761825917288661 ], [ 6912313.218471364118159, 8893933.007969312369823 ], [ 6912322.792999478988349, 8893951.76281107775867 ], [ 6912334.048202814534307, 8893963.660751327872276 ], [ 6912371.912117789499462, 8894003.731398705393076 ], [ 6912380.812077645212412, 8894013.143924305215478 ], [ 6912412.594599382951856, 8894046.761942515149713 ], [ 6912453.79766140691936, 8894075.759358681738377 ], [ 6912572.791671697981656, 8894066.858119040727615 ], [ 6912626.699280781671405, 8894002.766602020710707 ], [ 6912635.363025681115687, 8893970.841427953913808 ], [ 6912637.908386588096619, 8893961.486534930765629 ], [ 6912663.492771875113249, 8893867.259431805461645 ], [ 6912686.690115669742227, 8893781.82334653288126 ], [ 6912722.540845771320164, 8893649.708495136350393 ], [ 6912735.486052878201008, 8893602.042717697098851 ], [ 6912928.83092179056257, 8892889.625345792621374 ], [ 6913291.503109512850642, 8891552.984099270775914 ], [ 6913303.595216309651732, 8891508.380086664110422 ], [ 6913317.721081779338419, 8891456.31019282899797 ], [ 6913319.177971671335399, 8891450.934249943122268 ], [ 6913346.446013233624399, 8891350.432831211015582 ], [ 6913380.36692236084491, 8891225.387002782896161 ], [ 6913928.676261423155665, 8889203.538062173873186 ], [ 6913929.361949202604592, 8889200.991007775068283 ], [ 6913975.492615029215813, 8889030.849248515442014 ], [ 6913981.687757540494204, 8889007.750762226060033 ], [ 6914426.693122112192214, 8887367.536768894642591 ], [ 6915192.68839081376791, 8886521.336236264556646 ], [ 6915252.514367131516337, 8884957.001981224864721 ], [ 6915253.190888235345483, 8884939.438670165836811 ], [ 6915254.797918725758791, 8884897.132422031834722 ], [ 6915267.683123687282205, 8884558.229005755856633 ], [ 6915280.813160196878016, 8884507.981986477971077 ], [ 6915381.482378925196826, 8884122.528300944715738 ], [ 6915513.383536796085536, 8883617.760116536170244 ], [ 6915734.190510448999703, 8882772.589145999401808 ], [ 6915752.278621101751924, 8882703.317604504525661 ], [ 6915833.778982782736421, 8882391.328132657334208 ], [ 6915719.680189309641719, 8882224.529261626303196 ], [ 6915477.582767693325877, 8882120.232174079865217 ], [ 6915039.783831248059869, 8881848.030360639095306 ], [ 6914887.67712177336216, 8881740.922913156449795 ], [ 6914689.680594053119421, 8881562.822662748396397 ], [ 6914551.675241643562913, 8881374.126477215439081 ], [ 6914411.67175517603755, 8881255.126618729904294 ], [ 6914209.678919265046716, 8881133.028429266065359 ], [ 6914019.577891393564641, 8880997.031730987131596 ], [ 6913782.569254440255463, 8880883.931128699332476 ], [ 6913561.571842728182673, 8880808.053586209192872 ], [ 6913512.269009088166058, 8880791.129789525642991 ], [ 6913424.566464424133301, 8880761.030379438772798 ], [ 6913266.567377272062004, 8880649.025191437453032 ], [ 6913254.508331522345543, 8880641.96747343800962 ], [ 6913065.772220951505005, 8880531.433783147484064 ], [ 6913008.664829497225583, 8880498.124010825529695 ], [ 6912717.764372526668012, 8880478.028734097257257 ], [ 6912399.660979816690087, 8880338.930791366845369 ], [ 6912224.666686653159559, 8880080.02925531193614 ], [ 6912087.566514110192657, 8879917.031973084434867 ], [ 6911910.765884683467448, 8879732.929592799395323 ], [ 6911678.556858605705202, 8879548.92499634437263 ], [ 6911508.657018102705479, 8879442.935516687110066 ], [ 6911389.965723376721144, 8879358.123111672699451 ], [ 6911315.66431247163564, 8879305.034962229430676 ], [ 6911289.514173639006913, 8879272.86286598071456 ], [ 6911266.327510076574981, 8879244.324268154799938 ], [ 6911206.246743461117148, 8879170.389156626537442 ], [ 6911172.562014412134886, 8879128.926073933020234 ], [ 6911142.648835112340748, 8879027.68935995362699 ], [ 6911136.353043096140027, 8879006.376918250694871 ], [ 6911109.659633451141417, 8878916.030299462378025 ], [ 6911098.756414745934308, 8878904.874476810917258 ] ] ] } }
]
}
