{
"type": "FeatureCollection",
"name": "2703908",
"crs": { "type": "name", "properties": { "name": "urn:ogc:def:crs:EPSG::5880" } },
"features": [
{ "type": "Feature", "properties": { "lv_id": "LOC_026853", "id": 125786.0, "CD_SETOR": "270390805000001", "SITUACAO": "Urbana", "CD_SIT": "1", "CD_TIPO": "0", "AREA_KM2": 0.140200205722428, "CD_REGIAO": "2", "NM_REGIAO": "Nordeste", "CD_UF": "27", "NM_UF": "Alagoas", "CD_MUN": "2703908", "NM_MUN": "Jundiá", "CD_DIST": "270390805", "NM_DIST": "Jundiá", "CD_SUBDIST": "27039080500", "NM_SUBDIST": null, "CD_BAIRRO": null, "NM_BAIRRO": null, "CD_NU": "2703908001", "NM_NU": "Conjunto Maria de Lourdes Rufino", "CD_FCU": null, "NM_FCU": null, "CD_AGLOM": null, "NM_AGLOM": null, "CD_RGINT": "2701", "NM_RGINT": "Maceió", "CD_RGI": "270002", "NM_RGI": "Porto Calvo - São Luís do Quitunde", "CD_CONCURB": null, "NM_CONCURB": null, "mun_code_x": "2703908", "index_right": 1005, "dist_m": 91.761024005743749, "local_id": 283313, "ano": 2022, "cod_localidade_ibge": 2703908, "NR_ZONA": "14", "nr_cep": 57965000.0, "nm_localidade": "JUNDIÁ", "nm_locvot": "ESC.ENS.FUND. TEREZA M.A. VERÇOSA (PEDR SN", "ds_endereco": "RUA DO COMERCIO SN", "ds_bairro": "CENTRO", "pred_long": -35.553207, "pred_lat": -8.9424655, "pred_dist": 0.0, "tse_long": -35.5539897, "tse_lat": -8.94190273, "long": -35.5539897, "lat": -8.94190273, "ID_UNICO": "LOC_026853", "SG_UF": "AL", "CD_MUNICIPIO": "27774", "NR_LOCAL_VOTACAO": "1015", "QT_SECOES_AGREGADAS": 0, "QT_ELEITORES_TRANSFERIDOS": 0, "CIRO GOMES (PDT) (NÃO ELEITO) 1T": 39.0, "CONSTITUINTE EYMAEL (DC) (NÃO ELEITO) 1T": 0.0, "FELIPE D AVILA (NOVO) (NÃO ELEITO) 1T": 2.0, "JAIR BOLSONARO (PL) (2º TURNO) 1T": 587.0, "LULA (PT) (2º TURNO) 1T": 1067.0, "LÉO PÉRICLES (UP) (NÃO ELEITO) 1T": 1.0, "PADRE KELMON (PTB) (NÃO ELEITO) 1T": 3.0, "SIMONE TEBET (MDB) (NÃO ELEITO) 1T": 79.0, "SOFIA MANZANO (PCB) (NÃO ELEITO) 1T": 2.0, "SORAYA THRONICKE (UNIÃO) (NÃO ELEITO) 1T": 11.0, "VERA (PSTU) (NÃO ELEITO) 1T": 0.0, "Total_Votos_Validos 1T": 1791.0, "Votos_Brancos 1T": 22.0, "Votos_Nulos 1T": 64.0, "Abstenções 1T": 668.0, "Eleitores_Aptos 1T": 2545.0, "JAIR BOLSONARO (PL) (NÃO ELEITO) 2T": 579.0, "LULA (PT) (ELEITO) 2T": 1044.0, "Total_Votos_Validos 2T": 1623.0, "Votos_Brancos 2T": 22.0, "Votos_Nulos 2T": 116.0, "Abstenções 2T": 784.0, "Eleitores_Aptos 2T": 2545.0, "mun_code_y": "2703908", "mun_code": "2703908" }, "geometry": { "type": "Polygon", "coordinates": [ [ [ 7036251.619295874610543, 8957115.936831127852201 ], [ 7036044.927917351946235, 8956962.470558930188417 ], [ 7029921.017319401726127, 8952416.362832425162196 ], [ 7028805.847255087457597, 8951588.679843300953507 ], [ 7026209.80260391253978, 8952553.785318367183208 ], [ 7026306.434351325035095, 8952527.941800335422158 ], [ 7026379.399151500314474, 8952523.668101664632559 ], [ 7026431.422686371020973, 8952492.731022177264094 ], [ 7026483.518114410340786, 8952463.244741199538112 ], [ 7026557.121288402937353, 8952456.308314168825746 ], [ 7026652.728228418156505, 8952483.022019838914275 ], [ 7026728.833365691825747, 8952495.218791475519538 ], [ 7026759.26567470561713, 8952518.13342696428299 ], [ 7026783.346686746925116, 8952537.295467568561435 ], [ 7026804.675511441193521, 8952563.113265501335263 ], [ 7026828.312905211932957, 8952573.33702908270061 ], [ 7026850.723585681989789, 8952577.920401504263282 ], [ 7026874.533674968406558, 8952603.601487109437585 ], [ 7026883.431201176717877, 8952627.602685632184148 ], [ 7026901.969380122609437, 8952643.774418128654361 ], [ 7026921.157756367698312, 8952641.991841973736882 ], [ 7026952.365031727589667, 8952618.411285484209657 ], [ 7026974.182739032432437, 8952623.024592898786068 ], [ 7026993.924750140868127, 8952632.618685582652688 ], [ 7027022.140801137313247, 8952672.764092911034822 ], [ 7027043.052939564920962, 8952705.934819240123034 ], [ 7027074.901780243031681, 8952726.334595082327724 ], [ 7027117.888417694717646, 8952738.014706615358591 ], [ 7027192.401333476416767, 8952763.593980681151152 ], [ 7027242.143235561437905, 8952787.16440923884511 ], [ 7027290.549389415420592, 8952814.875430691987276 ], [ 7027320.738025269471109, 8952848.404933536425233 ], [ 7027327.125297596678138, 8952883.93812033906579 ], [ 7027311.910388990305364, 8952903.45372723415494 ], [ 7027209.981964645907283, 8952900.448752434924245 ], [ 7027171.331085439771414, 8952913.802997814491391 ], [ 7027131.981121703982353, 8952928.821667075157166 ], [ 7027094.099468063563108, 8952942.148588337004185 ], [ 7027080.206579075194895, 8952973.001870300620794 ], [ 7027060.851975529454648, 8953002.501303348690271 ], [ 7027024.265148799866438, 8953010.863340454176068 ], [ 7026999.448787789791822, 8953039.00882163643837 ], [ 7026951.683562684804201, 8953055.277583813294768 ], [ 7026856.674156527034938, 8953113.856033932417631 ], [ 7026807.424237264320254, 8953134.598115172237158 ], [ 7026766.00594400241971, 8953167.187591141089797 ], [ 7026744.402813907712698, 8953209.740215864032507 ], [ 7026741.036019803956151, 8953284.807192696258426 ], [ 7026700.350254384800792, 8953369.249577544629574 ], [ 7026640.445037012919784, 8953478.178945066407323 ], [ 7026629.258810202591121, 8953538.778829695656896 ], [ 7026623.306810459122062, 8953554.847128599882126 ], [ 7026618.85204289201647, 8953566.918245453387499 ], [ 7026578.998206333257258, 8953602.441530546173453 ], [ 7026526.748812042176723, 8953640.427889496088028 ], [ 7026503.156897589564323, 8953678.645829644054174 ], [ 7026448.719921063631773, 8953768.899246266111732 ], [ 7026405.468522418290377, 8953892.26617924310267 ], [ 7026374.434631627053022, 8953972.93776991777122 ], [ 7026333.962572149001062, 8954023.78172723390162 ], [ 7026269.479864228516817, 8954168.41810754314065 ], [ 7026218.476330369710922, 8954199.589922225102782 ], [ 7026180.856943015009165, 8954211.584980236366391 ], [ 7026087.398297287523746, 8954189.363064611330628 ], [ 7026027.981715999543667, 8954114.935078309848905 ], [ 7025960.351314064115286, 8954099.826340280473232 ], [ 7025867.639781488105655, 8954124.684171488508582 ], [ 7025796.490987753495574, 8954135.0040173381567 ], [ 7025772.742050362750888, 8954169.864535944536328 ], [ 7025761.104298916645348, 8954224.30482747592032 ], [ 7025702.908770553767681, 8954270.988109409809113 ], [ 7025641.955382619053125, 8954326.234746454283595 ], [ 7025587.195484155789018, 8954345.817441839724779 ], [ 7025498.739838766865432, 8954360.36996578797698 ], [ 7025404.36504372023046, 8954351.656313082203269 ], [ 7025361.55045595113188, 8954387.475185066461563 ], [ 7025326.506920865736902, 8954451.505055952817202 ], [ 7025325.218395872972906, 8954554.23773623816669 ], [ 7025341.798509382642806, 8954760.414883902296424 ], [ 7025333.066367397084832, 8954873.610689859837294 ], [ 7025316.909564740024507, 8954933.33831306360662 ], [ 7025319.066206689924002, 8955008.959317784756422 ], [ 7025353.051836654543877, 8955046.988301463425159 ], [ 7025416.210153113119304, 8955078.73276475071907 ], [ 7025479.079046620056033, 8955104.627124402672052 ], [ 7025530.501551862806082, 8955165.971762558445334 ], [ 7025569.701922124251723, 8955202.36588473059237 ], [ 7025620.73113227635622, 8955233.510640999302268 ], [ 7025646.361723917536438, 8955262.441794093698263 ], [ 7025659.275139727629721, 8955323.396290302276611 ], [ 7025688.06684591434896, 8955371.939148107543588 ], [ 7025692.85288171377033, 8955401.918647265061736 ], [ 7025690.918195458129048, 8955405.762901782989502 ], [ 7025689.84529937710613, 8955407.888157738372684 ], [ 7025683.569852047599852, 8955420.352268554270267 ], [ 7025674.827590887434781, 8955437.699753988534212 ], [ 7025646.299944899976254, 8955481.735486222431064 ], [ 7025619.945424501784146, 8955506.717566404491663 ], [ 7025612.309161745943129, 8955552.437346320599318 ], [ 7025595.593585783615708, 8955636.967421108856797 ], [ 7025575.479610310867429, 8955719.352488545700908 ], [ 7025527.471857706084847, 8955793.83012973703444 ], [ 7025479.96225371491164, 8955922.926985489204526 ], [ 7025411.491939030587673, 8956050.749034898355603 ], [ 7025372.562759548425674, 8956086.415527876466513 ], [ 7025325.60310747474432, 8956137.58925324305892 ], [ 7025132.82451749406755, 8956242.585936849936843 ], [ 7024952.75369253475219, 8956315.570732278749347 ], [ 7024899.052431205287576, 8956341.516532514244318 ], [ 7024890.725768213160336, 8956373.317183922976255 ], [ 7024887.124616472050548, 8956411.85051928460598 ], [ 7024885.605799464508891, 8956447.963697971776128 ], [ 7024856.251905697397888, 8956499.414487851783633 ], [ 7024791.080126226879656, 8956604.978904375806451 ], [ 7024694.158121360465884, 8956691.214836504310369 ], [ 7024559.879513457417488, 8956756.064566193148494 ], [ 7024509.528496783226728, 8956760.918865531682968 ], [ 7024481.646662510931492, 8956753.021203309297562 ], [ 7024439.087203945033252, 8956759.811531463637948 ], [ 7024394.549367507919669, 8956793.428469544276595 ], [ 7024360.010499906726182, 8956828.870593735948205 ], [ 7024331.648660382255912, 8956833.772948207333684 ], [ 7024309.405884344130754, 8956829.036356149241328 ], [ 7024258.556306497193873, 8956805.954592198133469 ], [ 7024209.672451741993427, 8956798.156607953831553 ], [ 7024177.922940826043487, 8956769.008412042632699 ], [ 7024132.250458592548966, 8956703.383122887462378 ], [ 7024092.614198761992157, 8956701.811707692220807 ], [ 7023938.1068599158898, 8956705.946415675804019 ], [ 7023756.856473325751722, 8956601.921473594382405 ], [ 7023670.636909525841475, 8956549.048410352319479 ], [ 7023610.66170363035053, 8956561.447708299383521 ], [ 7023527.643083468079567, 8956618.903071848675609 ], [ 7023527.319795804098248, 8956623.282527394592762 ], [ 7023524.270809133537114, 8956665.450540691614151 ], [ 7023597.733705067075789, 8956748.517703577876091 ], [ 7023669.892706187441945, 8956845.543374197557569 ], [ 7023868.601668135263026, 8957088.715728010982275 ], [ 7023901.999315870925784, 8957151.047339683398604 ], [ 7023890.618188519030809, 8957208.89964640326798 ], [ 7023913.496535070240498, 8957287.65311930142343 ], [ 7023942.10309543646872, 8957322.288544446229935 ], [ 7023975.818082908168435, 8957344.869447676464915 ], [ 7024010.933390934951603, 8957379.318242557346821 ], [ 7024100.828783739358187, 8957456.93406442925334 ], [ 7024199.540454368107021, 8957560.602658446878195 ], [ 7024238.863821536302567, 8957612.503954626619816 ], [ 7024249.352937187999487, 8957630.955785945057869 ], [ 7024263.308916652575135, 8957647.372094739228487 ], [ 7024277.600316863507032, 8957663.445804074406624 ], [ 7024292.184109822846949, 8957720.264693096280098 ], [ 7024283.801661759614944, 8957761.258598655462265 ], [ 7024279.770871179178357, 8957795.611406030133367 ], [ 7024273.056646272540092, 8957848.331823695451021 ], [ 7024273.09347502887249, 8957914.93257013708353 ], [ 7024277.328440119512379, 8957973.119725368916988 ], [ 7024302.450168950483203, 8958020.823457937687635 ], [ 7024335.812020398676395, 8958087.150289312005043 ], [ 7024331.228782454505563, 8958112.990176727995276 ], [ 7024321.373921096324921, 8958120.79130925796926 ], [ 7024295.171875724568963, 8958140.488883258774877 ], [ 7024245.312933868728578, 8958166.747634124010801 ], [ 7024230.821861501783133, 8958194.852506270632148 ], [ 7024241.284884974360466, 8958220.822531854733825 ], [ 7024262.493417759425938, 8958252.141751494258642 ], [ 7024271.934058977290988, 8958266.085252897813916 ], [ 7024324.738912165164948, 8958286.396355476230383 ], [ 7024418.670154944993556, 8958276.395025068894029 ], [ 7024459.019736643880606, 8958298.214637622237206 ], [ 7024504.402174859307706, 8958354.224025892093778 ], [ 7024511.300765584222972, 8958409.509045533835888 ], [ 7024494.731369681656361, 8958480.107450047507882 ], [ 7024460.166952023282647, 8958558.670191861689091 ], [ 7024426.498010391369462, 8958587.724256685003638 ], [ 7024383.375493258237839, 8958594.306164391338825 ], [ 7024356.880526729859412, 8958587.523391323164105 ], [ 7024334.289203250780702, 8958581.755174197256565 ], [ 7024304.673695720732212, 8958591.185954986140132 ], [ 7024265.176027488894761, 8958636.018658438697457 ], [ 7024247.688939191401005, 8958655.84906717389822 ], [ 7024215.78650975599885, 8958669.815732311457396 ], [ 7024171.601578447967768, 8958674.949440516531467 ], [ 7024041.706082753837109, 8958686.447102267295122 ], [ 7024024.468600735068321, 8958703.972475554794073 ], [ 7024018.669587942771614, 8958723.705830788239837 ], [ 7024002.873778702691197, 8958774.960039857774973 ], [ 7023986.920137287117541, 8958841.115472750738263 ], [ 7023979.5410295445472, 8958928.902289401739836 ], [ 7023996.496985783800483, 8958967.788438159972429 ], [ 7024043.242764710448682, 8959000.773243626579642 ], [ 7024063.721679378300905, 8959026.241939989849925 ], [ 7024088.000783852301538, 8959053.754430927336216 ], [ 7024101.773778929375112, 8959069.377865470945835 ], [ 7024124.766581147909164, 8959077.930717140436172 ], [ 7024193.310478387400508, 8959044.479024769738317 ], [ 7024215.007614407688379, 8959019.132402215152979 ], [ 7024227.283399805426598, 8959004.810976229608059 ], [ 7024256.41177430562675, 8959002.46810363419354 ], [ 7024288.328536107204854, 8959056.499894976615906 ], [ 7024282.725935028865933, 8959112.410411344841123 ], [ 7024247.193081089295447, 8959188.366545919328928 ], [ 7024241.040071712806821, 8959217.240016296505928 ], [ 7024237.687379203736782, 8959232.999576184898615 ], [ 7024252.160230281762779, 8959255.232095759361982 ], [ 7024267.852058339864016, 8959260.857762670144439 ], [ 7024304.044240174815059, 8959273.834807081148028 ], [ 7024353.6517139589414, 8959296.961445325985551 ], [ 7024377.057182700373232, 8959331.104015994817019 ], [ 7024387.866721057333052, 8959380.898867199197412 ], [ 7024392.029098603874445, 8959421.147794131189585 ], [ 7024394.582102264277637, 8959445.710931411013007 ], [ 7024395.817956397309899, 8959470.805429458618164 ], [ 7024411.314887022599578, 8959505.786234684288502 ], [ 7024441.272823099978268, 8959579.755968622863293 ], [ 7024455.672069313935935, 8959646.336274951696396 ], [ 7024456.1627959581092, 8959653.618945561349392 ], [ 7024465.885837684385478, 8959799.660954235121608 ], [ 7024484.487899923697114, 8959821.233604054898024 ], [ 7024493.680592869408429, 8959855.203738395124674 ], [ 7024472.144810043275356, 8959901.29992475733161 ], [ 7024437.730130482465029, 8959968.274830389767885 ], [ 7024406.804092148318887, 8960266.554996352642775 ], [ 7024382.608195077627897, 8960413.46678507886827 ], [ 7024416.60863222181797, 8960484.838470676913857 ], [ 7024421.760285496711731, 8960523.304364182054996 ], [ 7024450.687326826155186, 8960547.060795618221164 ], [ 7024583.823138008825481, 8960635.991156402975321 ], [ 7024626.537782609462738, 8960674.336216270923615 ], [ 7024626.864469678141177, 8960678.962557373568416 ], [ 7024626.915558742359281, 8960679.55342760682106 ], [ 7024628.564530555158854, 8960702.777443831786513 ], [ 7024615.4495495185256, 8960742.599182840436697 ], [ 7024575.419489163905382, 8960848.147038588300347 ], [ 7024568.369638480246067, 8960892.19166461750865 ], [ 7024567.714248502627015, 8960939.314253138378263 ], [ 7024583.189083265140653, 8960996.498361466452479 ], [ 7024584.93918239325285, 8961032.086073406040668 ], [ 7024584.549543612636626, 8961110.146463176235557 ], [ 7024591.849302704446018, 8961129.841655289754272 ], [ 7024616.374318405985832, 8961242.332186065614223 ], [ 7024626.517041832208633, 8961319.854718923568726 ], [ 7024621.78950016759336, 8961438.263642238453031 ], [ 7024614.0771190142259, 8961538.972355676814914 ], [ 7024605.652956117875874, 8961650.526114169508219 ], [ 7024616.32013716828078, 8961670.413985075429082 ], [ 7024633.923784549348056, 8961685.138191217556596 ], [ 7024674.452529789879918, 8961694.260781263932586 ], [ 7024705.911409441381693, 8961690.455275371670723 ], [ 7024715.210760002024472, 8961707.82842024974525 ], [ 7024713.299297926947474, 8961754.746326709166169 ], [ 7024677.131647187285125, 8961834.593969512730837 ], [ 7024647.497326831333339, 8961918.559865724295378 ], [ 7024643.695317773148417, 8961970.040101120248437 ], [ 7024656.185104448348284, 8962009.548094220459461 ], [ 7024648.439003085717559, 8962073.09372054040432 ], [ 7024645.355416080914438, 8962132.706324750557542 ], [ 7024670.400826396420598, 8962126.999318240210414 ], [ 7024693.446733858436346, 8962123.626189997419715 ], [ 7024723.124912374652922, 8962126.600822353735566 ], [ 7024745.591182071715593, 8962154.46380846761167 ], [ 7024751.66630591545254, 8962192.058268120512366 ], [ 7024736.903434034436941, 8962235.161266585811973 ], [ 7024730.335481539368629, 8962273.386927833780646 ], [ 7024754.473892528563738, 8962292.253570592030883 ], [ 7024785.037184027954936, 8962313.021930808201432 ], [ 7024839.40010338742286, 8962345.983385352417827 ], [ 7024882.452766372822225, 8962406.260447200387716 ], [ 7024901.247073481790721, 8962445.454336578026414 ], [ 7024964.846916582435369, 8962499.458247099071741 ], [ 7024974.426280714571476, 8962517.609154265373945 ], [ 7024969.858084702864289, 8962553.512889001518488 ], [ 7024952.876088439486921, 8962594.492776516824961 ], [ 7024927.261614235118032, 8962631.44690034724772 ], [ 7024876.437922902405262, 8962717.203162577003241 ], [ 7024871.255837323144078, 8962736.80055795609951 ], [ 7024873.112051204778254, 8962774.605878809466958 ], [ 7024884.256489072926342, 8962829.797102641314268 ], [ 7024900.515048617497087, 8962860.193162377923727 ], [ 7024913.802531222812831, 8962872.911367304623127 ], [ 7024915.549695738591254, 8962908.499753197655082 ], [ 7024923.39407061226666, 8962939.31574154086411 ], [ 7024934.319935989566147, 8962990.061518333852291 ], [ 7024930.296667410992086, 8963037.085000490769744 ], [ 7024913.324451092630625, 8963078.063848709687591 ], [ 7024896.449951627291739, 8963121.260190630331635 ], [ 7024895.552853862755001, 8963145.833310052752495 ], [ 7024904.816542467102408, 8963205.575079414993525 ], [ 7024918.723521656356752, 8963273.998348480090499 ], [ 7024916.470082517713308, 8963314.242808900773525 ], [ 7024903.158619767986238, 8963343.891641682013869 ], [ 7024890.174030667170882, 8963380.203097147867084 ], [ 7024887.276917960494757, 8963407.110004981979728 ], [ 7024900.77728642616421, 8963437.411312967538834 ], [ 7024923.782286018133163, 8963463.25919483602047 ], [ 7024954.017823971807957, 8963477.355020707473159 ], [ 7024992.449479462578893, 8963486.585577972233295 ], [ 7025040.750026866793633, 8963481.95429471321404 ], [ 7025076.319283804856241, 8963475.712159905582666 ], [ 7025107.313546601682901, 8963465.99791918694973 ], [ 7025107.725836675614119, 8963465.872632810845971 ], [ 7025107.688977553509176, 8963466.467904921621084 ], [ 7025107.02087212074548, 8963476.415060808882117 ], [ 7025102.737421134486794, 8963540.149356808513403 ], [ 7025102.879808621481061, 8963582.101493516936898 ], [ 7025115.149771185591817, 8963623.460497913882136 ], [ 7025131.241171188652515, 8963649.118247648701072 ], [ 7025136.187341209501028, 8963706.84198135137558 ], [ 7025130.94910226855427, 8963755.392414124682546 ], [ 7025130.767466442659497, 8963757.077048847451806 ], [ 7025130.648084090091288, 8963758.234961349517107 ], [ 7025123.130485011264682, 8963827.890264572575688 ], [ 7025129.967167049646378, 8963881.063167996704578 ], [ 7025143.981194654479623, 8963951.704582432284951 ], [ 7025152.728613405488431, 8964015.103410385549068 ], [ 7025153.380998123437166, 8964062.533982874825597 ], [ 7025140.648010940290987, 8964101.532414708286524 ], [ 7025141.278724017553031, 8964124.947423795238137 ], [ 7025152.210816222243011, 8964140.390341870486736 ], [ 7025199.97784792073071, 8964194.025118373334408 ], [ 7025228.201293683610857, 8964213.795945731922984 ], [ 7025297.696237644180655, 8964208.633355924859643 ], [ 7025336.618148408830166, 8964168.573637409135699 ], [ 7025378.986580670811236, 8963953.847107835114002 ], [ 7025389.636841783300042, 8963803.268576126545668 ], [ 7025398.394899372011423, 8963777.534956457093358 ], [ 7025428.958648193627596, 8963763.304208708927035 ], [ 7025462.241749009117484, 8963754.674410408362746 ], [ 7025562.036033526062965, 8963728.787458112463355 ], [ 7025687.796219206415117, 8963696.182484688237309 ], [ 7025740.7019068505615, 8963696.080433273687959 ], [ 7025776.835656248964369, 8963713.454831646755338 ], [ 7025798.172978198155761, 8963723.712737385183573 ], [ 7025901.022652151063085, 8963793.974965862929821 ], [ 7026105.091100046411157, 8963917.639452770352364 ], [ 7026278.586037621833384, 8964006.407751755788922 ], [ 7026338.644796311855316, 8964054.229524277150631 ], [ 7026362.92294336296618, 8964075.046868328005075 ], [ 7026383.374707635492086, 8964067.254343820735812 ], [ 7026389.948506128974259, 8964005.089243520051241 ], [ 7026390.836688261479139, 8963941.508734529837966 ], [ 7026418.12063424475491, 8963925.741592098027468 ], [ 7026474.075146509334445, 8963927.174606673419476 ], [ 7026508.011608285829425, 8963928.041845072060823 ], [ 7026552.657782067544758, 8963939.359924670308828 ], [ 7026579.682916898280382, 8963973.515612782910466 ], [ 7026605.588603997603059, 8964021.435350261628628 ], [ 7026639.621853459626436, 8964094.283121662214398 ], [ 7026681.292917417362332, 8964143.034306038171053 ], [ 7026734.013043109327555, 8964157.988075999543071 ], [ 7026846.017594084143639, 8964140.124541997909546 ], [ 7026919.000663754530251, 8964129.525165578350425 ], [ 7026958.252495041117072, 8964160.837315691635013 ], [ 7027016.009946645237505, 8964187.78191314637661 ], [ 7027064.166723159141839, 8964166.516098856925964 ], [ 7027174.630247392691672, 8964194.660131642594934 ], [ 7027323.925545692443848, 8964244.653465947136283 ], [ 7027522.635208838619292, 8964339.382830431684852 ], [ 7027593.542281433939934, 8964406.065240681171417 ], [ 7027663.09911859408021, 8964445.234773758798838 ], [ 7027777.505252739414573, 8964479.653544545173645 ], [ 7027871.041319420561194, 8964523.888205796480179 ], [ 7027933.563649685122073, 8964564.666035126894712 ], [ 7027990.021912852302194, 8964627.054889073595405 ], [ 7028080.203264670446515, 8964651.394377943128347 ], [ 7028159.442283023148775, 8964646.184792665764689 ], [ 7028215.655007561668754, 8964671.031742688268423 ], [ 7028218.097433717921376, 8964672.108584685251117 ], [ 7028234.612626309506595, 8964607.661453954875469 ], [ 7028241.052118731662631, 8964573.509406907483935 ], [ 7028242.00871741399169, 8964501.016987964510918 ], [ 7028268.839859530329704, 8964459.644526168704033 ], [ 7028309.706584344618022, 8964447.119808366522193 ], [ 7028357.312614068388939, 8964424.727386290207505 ], [ 7028395.645002502016723, 8964378.975020386278629 ], [ 7028421.682234478183091, 8964321.441778702661395 ], [ 7028432.677987629547715, 8964233.202051986008883 ], [ 7028454.188799508847296, 8964156.831635342910886 ], [ 7028456.286568104289472, 8964126.224153414368629 ], [ 7028468.52635451965034, 8964099.881906902417541 ], [ 7028496.852646047249436, 8964070.816339019685984 ], [ 7028557.774162988178432, 8964025.843728914856911 ], [ 7028605.125487238168716, 8963961.519419388845563 ], [ 7028671.732973149046302, 8963851.182669969275594 ], [ 7028774.605381650850177, 8963721.437221802771091 ], [ 7028816.185031112283468, 8963705.069031521677971 ], [ 7028837.513393661007285, 8963680.169008430093527 ], [ 7028862.429912284016609, 8963607.95545113272965 ], [ 7028943.831570815294981, 8963512.355340406298637 ], [ 7029024.63124461658299, 8963460.753450134769082 ], [ 7029081.521319851279259, 8963433.50573349557817 ], [ 7029109.952132103964686, 8963388.232325542718172 ], [ 7029123.818964864127338, 8963321.771717032417655 ], [ 7029154.36785008199513, 8963245.899919847026467 ], [ 7029168.667310141026974, 8963169.885660380125046 ], [ 7029187.02810684684664, 8963029.797338016331196 ], [ 7029220.547137408517301, 8962959.49069750122726 ], [ 7029224.116765623912215, 8962922.13946950994432 ], [ 7029251.235921948216856, 8962868.364650342613459 ], [ 7029289.574040247127414, 8962804.485271589830518 ], [ 7029291.692164706066251, 8962755.765938656404614 ], [ 7029284.287294922396541, 8962715.145907489582896 ], [ 7029348.233538748696446, 8962658.574595170095563 ], [ 7029394.454631142318249, 8962589.31891386769712 ], [ 7029446.662075391970575, 8962482.846255695447326 ], [ 7029472.211919775232673, 8962356.943479679524899 ], [ 7029520.975947543047369, 8962303.364388907328248 ], [ 7029562.648130695335567, 8962287.138705804944038 ], [ 7029606.044406039640307, 8962286.701649101451039 ], [ 7029636.071383999660611, 8962287.352451227605343 ], [ 7029654.366070962511003, 8962297.51703835465014 ], [ 7029682.604782650247216, 8962300.538467776030302 ], [ 7029746.392867226153612, 8962279.272079274058342 ], [ 7029796.0900725023821, 8962246.897313948720694 ], [ 7029845.287444682791829, 8962212.871379561722279 ], [ 7029850.129058932885528, 8962203.632385613396764 ], [ 7029850.013391819782555, 8962180.034895725548267 ], [ 7029844.272399560548365, 8962091.833187198266387 ], [ 7029859.824966257438064, 8962060.840737391263247 ], [ 7029868.306847435422242, 8962054.643424171954393 ], [ 7029883.102622095495462, 8962053.902898084372282 ], [ 7029908.65315417945385, 8962079.707421712577343 ], [ 7029940.00670924410224, 8962113.78768222220242 ], [ 7029956.33522997610271, 8962120.023552281782031 ], [ 7029997.171485154889524, 8962096.669128805398941 ], [ 7030032.156335390172899, 8962094.918105859309435 ], [ 7030066.350382511503994, 8962104.612681275233626 ], [ 7030104.026382901705801, 8962102.726919280365109 ], [ 7030156.868728674948215, 8962080.12131960503757 ], [ 7030208.370919080451131, 8962057.582630479708314 ], [ 7030242.944456122815609, 8962020.201934093609452 ], [ 7030283.031329003162682, 8962012.492092596367002 ], [ 7030328.500458549708128, 8962004.512740734964609 ], [ 7030365.881136832758784, 8961988.360308257862926 ], [ 7030383.469318933784962, 8961958.242580378428102 ], [ 7030380.384455379098654, 8961935.852268625050783 ], [ 7030333.845454105176032, 8961880.080503888428211 ], [ 7030312.248256478458643, 8961809.58215899579227 ], [ 7030285.247526230290532, 8961745.406777812168002 ], [ 7030243.223720954731107, 8961666.85322168841958 ], [ 7030205.669992754235864, 8961582.035474197939038 ], [ 7030178.888462271541357, 8961561.20457848161459 ], [ 7030150.023374288342893, 8961543.899902669712901 ], [ 7030197.231112866662443, 8961478.4760049469769 ], [ 7030228.908361358568072, 8961400.002599285915494 ], [ 7030264.208509362302721, 8961361.536762101575732 ], [ 7030303.807042925618589, 8961309.749936485663056 ], [ 7030331.493074852973223, 8961234.094491666182876 ], [ 7030353.830944721587002, 8961167.447680406272411 ], [ 7030378.935168714262545, 8961072.937899842858315 ], [ 7030658.893781006336212, 8960676.176500853151083 ], [ 7030695.240001805126667, 8960638.20281688682735 ], [ 7030709.646512086503208, 8960563.05919655226171 ], [ 7030714.045662632212043, 8960407.605966383591294 ], [ 7030689.499676456674933, 8960276.999265935271978 ], [ 7030673.577495268546045, 8960215.178769277408719 ], [ 7030648.27714884467423, 8960175.291490020230412 ], [ 7030653.318547430448234, 8960130.856119746342301 ], [ 7030697.336407532915473, 8960025.920048931613564 ], [ 7030789.951993048191071, 8959883.440928461030126 ], [ 7030849.351075774990022, 8959766.034003121778369 ], [ 7030865.891327352263033, 8959727.492420332506299 ], [ 7030861.918230966664851, 8959671.77633317373693 ], [ 7030878.831569970585406, 8959636.335261281579733 ], [ 7030919.226478418335319, 8959586.982005372643471 ], [ 7030969.093720918521285, 8959575.376897851005197 ], [ 7031011.820855319499969, 8959618.742390654981136 ], [ 7031050.097656612284482, 8959671.433464396744967 ], [ 7031077.891519650816917, 8959699.137104704976082 ], [ 7031109.901087266393006, 8959759.59227105230093 ], [ 7031156.530912894755602, 8959799.712878359481692 ], [ 7031156.657465312629938, 8959799.822922052815557 ], [ 7031238.806569535285234, 8959812.926416501402855 ], [ 7031347.329400275833905, 8959773.014530891552567 ], [ 7031492.122070221230388, 8959660.430290473625064 ], [ 7031540.05564456153661, 8959622.604082230478525 ], [ 7031675.553162443451583, 8959474.796145938336849 ], [ 7031682.688938602805138, 8959467.011596333235502 ], [ 7031683.257297912612557, 8959466.70369890704751 ], [ 7031721.014721353538334, 8959446.230398457497358 ], [ 7031721.23094960860908, 8959446.149700542911887 ], [ 7031760.673718103207648, 8959424.800142887979746 ], [ 7031834.084552641026676, 8959381.165096817538142 ], [ 7031897.58043047785759, 8959369.292572729289532 ], [ 7031935.511744943447411, 8959405.601449115201831 ], [ 7031966.735425263643265, 8959405.767562687397003 ], [ 7031986.844866941682994, 8959380.441548455506563 ], [ 7031957.574694342911243, 8959337.807783126831055 ], [ 7031924.235043495893478, 8959252.485208189114928 ], [ 7031937.792348561808467, 8959221.13281187042594 ], [ 7031967.939887353219092, 8959214.007858792319894 ], [ 7031978.825401432812214, 8959233.086073772981763 ], [ 7031994.487860549241304, 8959290.452801881358027 ], [ 7032089.849822962656617, 8959349.903951950371265 ], [ 7032156.42259427998215, 8959405.645003881305456 ], [ 7032268.839981742203236, 8959416.736606691032648 ], [ 7032406.10125709977001, 8959395.593705240637064 ], [ 7032485.640227587893605, 8959373.927875785157084 ], [ 7032583.037374516017735, 8959342.436357460916042 ], [ 7032723.331625976599753, 8959307.36873790435493 ], [ 7032818.336981792002916, 8959264.029838595539331 ], [ 7032944.841702112928033, 8959235.124699104577303 ], [ 7033148.357494249939919, 8959273.961613386869431 ], [ 7033262.874988868832588, 8959311.043809717521071 ], [ 7033381.766950412653387, 8959385.378052163869143 ], [ 7033463.98329052887857, 8959434.793775413185358 ], [ 7033516.137736011296511, 8959491.063754856586456 ], [ 7033543.419526456855237, 8959607.486847335472703 ], [ 7033588.241713425144553, 8959725.927433993667364 ], [ 7033663.416134158149362, 8959755.396648786962032 ], [ 7033725.042528756894171, 8959721.509631544351578 ], [ 7033768.477420226670802, 8959652.402790302410722 ], [ 7033795.689037816599011, 8959588.11548058129847 ], [ 7033916.813450378365815, 8959553.926160000264645 ], [ 7034032.585954781621695, 8959616.370782721787691 ], [ 7034143.834405497647822, 8959689.75315604172647 ], [ 7034366.952299490571022, 8959772.239674543961883 ], [ 7034515.349400818347931, 8959854.477952431887388 ], [ 7034580.08078339882195, 8959908.779863649979234 ], [ 7034630.577332902699709, 8959957.115230428054929 ], [ 7034663.608619123697281, 8960037.038856394588947 ], [ 7034800.018619102425873, 8959988.168745061382651 ], [ 7034983.846823366358876, 8960008.661831306293607 ], [ 7035112.007200846448541, 8959959.750567466020584 ], [ 7035449.827441883273423, 8959925.76986170001328 ], [ 7035574.716890459880233, 8959944.31123067624867 ], [ 7035634.382534340955317, 8959960.951347200199962 ], [ 7035733.410955721512437, 8959973.109193751588464 ], [ 7035821.053474468179047, 8960048.2532056607306 ], [ 7035895.701277337037027, 8960109.114091532304883 ], [ 7035914.135263281874359, 8960114.043275807052851 ], [ 7035934.023623336106539, 8960110.086161907762289 ], [ 7035936.750761201605201, 8960096.211196724325418 ], [ 7035925.249640027061105, 8960062.037413096055388 ], [ 7035925.769380453974009, 8960041.602439638227224 ], [ 7035967.242331204935908, 8959990.072330918163061 ], [ 7036012.067323666065931, 8959947.989925486966968 ], [ 7036026.733772829174995, 8959902.359645495191216 ], [ 7036040.916116325184703, 8959889.678084261715412 ], [ 7036092.769838022999465, 8959887.070143315941095 ], [ 7036169.410291445441544, 8959900.061976622790098 ], [ 7036216.858852822333574, 8959888.536190554499626 ], [ 7036281.492909284308553, 8959861.82567841000855 ], [ 7036293.776920202188194, 8959844.605649316683412 ], [ 7036275.966459167189896, 8959757.48465515486896 ], [ 7036321.774976855143905, 8959674.777294272556901 ], [ 7036352.37559247110039, 8959659.674249619245529 ], [ 7036375.251099669374526, 8959657.789857041090727 ], [ 7036383.30654352158308, 8959674.161425236612558 ], [ 7036386.770489908754826, 8959698.098789935931563 ], [ 7036413.409561522305012, 8959737.775170467793941 ], [ 7036473.262798132374883, 8959742.180260432884097 ], [ 7036597.28332582116127, 8959683.758268196135759 ], [ 7036623.482741412706673, 8959677.841161949560046 ], [ 7036638.511714399792254, 8959689.61244460567832 ], [ 7036640.360536944121122, 8959718.067210892215371 ], [ 7036593.420675811357796, 8959854.668462885543704 ], [ 7036559.204922273755074, 8959894.40286211296916 ], [ 7036533.558048082515597, 8959921.725843569263816 ], [ 7036521.432627284899354, 8959946.156505485996604 ], [ 7036456.581226236186922, 8960195.937684265896678 ], [ 7036456.106673065572977, 8960231.308279678225517 ], [ 7036469.062639262527227, 8960238.794909538701177 ], [ 7036491.678140884265304, 8960237.657662224024534 ], [ 7036512.189338336698711, 8960221.805236333981156 ], [ 7036569.607909089885652, 8960144.044191408902407 ], [ 7036595.08594295475632, 8960123.983282629400492 ], [ 7036707.154862865805626, 8960071.880752589553595 ], [ 7036732.210602439008653, 8960054.192610962316394 ], [ 7036804.991147443652153, 8959929.540263380855322 ], [ 7036836.05025302991271, 8959902.782776635140181 ], [ 7036884.183476449921727, 8959887.961565164849162 ], [ 7036941.236362181603909, 8959895.849022950977087 ], [ 7036977.534192574210465, 8959900.857091011479497 ], [ 7037009.007210362702608, 8959890.029118277132511 ], [ 7037031.465280136093497, 8959868.1398880854249 ], [ 7037018.142700590193272, 8959820.992978248745203 ], [ 7037002.29298491589725, 8959783.299218466505408 ], [ 7037002.709351746365428, 8959761.680759828537703 ], [ 7037022.52335365395993, 8959743.102950774133205 ], [ 7037072.24974418990314, 8959735.559180289506912 ], [ 7037122.539068844169378, 8959736.940407559275627 ], [ 7037144.122987509705126, 8959740.103861473500729 ], [ 7037165.269886288791895, 8959734.661876579746604 ], [ 7037190.234170826151967, 8959714.916474338620901 ], [ 7037194.695688406005502, 8959697.832911089062691 ], [ 7037208.657992980442941, 8959664.92571634799242 ], [ 7037273.262770948000252, 8959592.945314513519406 ], [ 7037319.14806747622788, 8959552.085489083081484 ], [ 7037371.585372711531818, 8959530.584042131900787 ], [ 7037415.669746386818588, 8959512.506861671805382 ], [ 7037441.852557579055429, 8959509.593630611896515 ], [ 7037471.083761922083795, 8959510.427360512316227 ], [ 7037490.449192859232426, 8959496.58674107119441 ], [ 7037502.856888649985194, 8959480.546531768515706 ], [ 7037504.896592250093818, 8959460.813475228846073 ], [ 7037488.193548074923456, 8959403.019520783796906 ], [ 7037463.801540417596698, 8959301.811309037730098 ], [ 7037463.000310637056828, 8959272.965022141113877 ], [ 7037478.538533691316843, 8959252.331010814756155 ], [ 7037494.076720937155187, 8959231.696963764727116 ], [ 7037513.969614486210048, 8959222.731256172060966 ], [ 7037569.290703875012696, 8959203.446870939806104 ], [ 7037608.041100539267063, 8959212.847473625093699 ], [ 7037631.205914731137455, 8959213.473903946578503 ], [ 7037682.57618569675833, 8959192.676673533394933 ], [ 7037747.927756533026695, 8959193.832967100664973 ], [ 7037769.163599297404289, 8959211.974875830113888 ], [ 7037803.175444850698113, 8959289.972121566534042 ], [ 7037854.371538727544248, 8959357.673073746263981 ], [ 7037928.433388600125909, 8959424.630340246483684 ], [ 7037975.202902485616505, 8959463.877038635313511 ], [ 7037994.400196212343872, 8959461.093927467241883 ], [ 7038006.345225262455642, 8959452.388557502999902 ], [ 7038012.935664918273687, 8959435.837344247847795 ], [ 7038005.669267524033785, 8959408.736388379707932 ], [ 7037983.505564942024648, 8959380.755625994876027 ], [ 7037907.977384641766548, 8959317.097479877993464 ], [ 7037902.106456473469734, 8959299.71849150210619 ], [ 7037910.810876545496285, 8959267.610060837119818 ], [ 7037924.866064608097076, 8959252.382829759269953 ], [ 7037943.503030086867511, 8959249.84899072535336 ], [ 7037970.563100607134402, 8959257.311756044626236 ], [ 7038073.147032453678548, 8959297.449528574943542 ], [ 7038118.312249371781945, 8959305.199687568470836 ], [ 7038185.026063643395901, 8959308.511104451492429 ], [ 7038225.632270619273186, 8959315.361443040892482 ], [ 7038280.86412108130753, 8959328.053701797500253 ], [ 7038312.468960382044315, 8959323.015204779803753 ], [ 7038330.507266820408404, 8959311.732094168663025 ], [ 7038371.20981553196907, 8959258.752392834052444 ], [ 7038410.857094380073249, 8959222.254842951893806 ], [ 7038462.916329210624099, 8959184.0372663307935 ], [ 7038541.526838481426239, 8959139.463171066716313 ], [ 7038586.212351638823748, 8959098.880258521065116 ], [ 7038604.269382023252547, 8959062.212263222783804 ], [ 7038690.98476495128125, 8958977.243711424991488 ], [ 7038709.341646591201425, 8958951.517133500427008 ], [ 7038710.956847747787833, 8958942.120635651051998 ], [ 7038697.010115067474544, 8958931.761879362165928 ], [ 7038696.313066387549043, 8958931.249749220907688 ], [ 7036251.619295874610543, 8957115.936831127852201 ] ] ] } }
]
}
