{
"type": "FeatureCollection",
"name": "2704104",
"crs": { "type": "name", "properties": { "name": "urn:ogc:def:crs:EPSG::5880" } },
"features": [
{ "type": "Feature", "properties": { "lv_id": "LOC_026864", "id": 125862.0, "CD_SETOR": "270410405000001", "SITUACAO": "Urbana", "CD_SIT": "1", "CD_TIPO": "0", "AREA_KM2": 0.17019776096898201, "CD_REGIAO": "2", "NM_REGIAO": "Nordeste", "CD_UF": "27", "NM_UF": "Alagoas", "CD_MUN": "2704104", "NM_MUN": "Lagoa da Canoa", "CD_DIST": "270410405", "NM_DIST": "Lagoa da Canoa", "CD_SUBDIST": "27041040500", "NM_SUBDIST": null, "CD_BAIRRO": null, "NM_BAIRRO": null, "CD_NU": null, "NM_NU": null, "CD_FCU": null, "NM_FCU": null, "CD_AGLOM": "270410400004", "NM_AGLOM": "Antonica", "CD_RGINT": "2702", "NM_RGINT": "Arapiraca", "CD_RGI": "270007", "NM_RGI": "Arapiraca", "CD_CONCURB": null, "NM_CONCURB": null, "mun_code_x": "2704104", "index_right": 1020, "dist_m": 50.207472622010954, "local_id": 283454, "ano": 2022, "cod_localidade_ibge": 2704104, "NR_ZONA": "44", "nr_cep": 57330000.0, "nm_localidade": "LAGOA DA CANOA", "nm_locvot": "GRUPO ESCOLAR MANOEL PEREIRA FILHO", "ds_endereco": "AV. JOÃO ANGELINO DOS SANTOS S/N", "ds_bairro": "CENTRO", "pred_long": -36.733899, "pred_lat": -9.825999, "pred_dist": 0.0, "tse_long": -36.73387418, "tse_lat": -9.82600763, "long": -36.73387418, "lat": -9.82600763, "ID_UNICO": "LOC_026864", "SG_UF": "AL", "CD_MUNICIPIO": "27812", "NR_LOCAL_VOTACAO": "1058", "QT_SECOES_AGREGADAS": 0, "QT_ELEITORES_TRANSFERIDOS": 4, "CIRO GOMES (PDT) (NÃO ELEITO) 1T": 44.0, "CONSTITUINTE EYMAEL (DC) (NÃO ELEITO) 1T": 1.0, "FELIPE D AVILA (NOVO) (NÃO ELEITO) 1T": 3.0, "JAIR BOLSONARO (PL) (2º TURNO) 1T": 426.0, "LULA (PT) (2º TURNO) 1T": 1357.0, "LÉO PÉRICLES (UP) (NÃO ELEITO) 1T": 0.0, "PADRE KELMON (PTB) (NÃO ELEITO) 1T": 1.0, "SIMONE TEBET (MDB) (NÃO ELEITO) 1T": 49.0, "SOFIA MANZANO (PCB) (NÃO ELEITO) 1T": 2.0, "SORAYA THRONICKE (UNIÃO) (NÃO ELEITO) 1T": 15.0, "VERA (PSTU) (NÃO ELEITO) 1T": 0.0, "Total_Votos_Validos 1T": 1898.0, "Votos_Brancos 1T": 33.0, "Votos_Nulos 1T": 53.0, "Abstenções 1T": 472.0, "Eleitores_Aptos 1T": 2456.0, "JAIR BOLSONARO (PL) (NÃO ELEITO) 2T": 509.0, "LULA (PT) (ELEITO) 2T": 1341.0, "Total_Votos_Validos 2T": 1850.0, "Votos_Brancos 2T": 24.0, "Votos_Nulos 2T": 103.0, "Abstenções 2T": 479.0, "Eleitores_Aptos 2T": 2456.0, "mun_code_y": "2704104", "mun_code": "2704104" }, "geometry": { "type": "Polygon", "coordinates": [ [ [ 6891735.944762503728271, 8860334.928068272769451 ], [ 6891816.677935197018087, 8860481.198455153033137 ], [ 6891858.420375554822385, 8860587.949060451239347 ], [ 6891894.625503816641867, 8860687.976835694164038 ], [ 6891887.001616762019694, 8860742.106337241828442 ], [ 6891901.964713524095714, 8860908.162800509482622 ], [ 6891961.892534486949444, 8861044.255870316177607 ], [ 6891927.659074522554874, 8861068.865663461387157 ], [ 6891764.119522180408239, 8860982.418073436245322 ], [ 6891803.158102774061263, 8860911.296422593295574 ], [ 6891799.889064867049456, 8860892.161482159048319 ], [ 6891762.024333300068974, 8860751.946668880060315 ], [ 6891710.616003002971411, 8860589.264805031940341 ], [ 6891634.171015684492886, 8860629.516702216118574 ], [ 6891522.440301513299346, 8860668.513026345521212 ], [ 6891434.890619696117938, 8860692.346923785284162 ], [ 6891309.218925638124347, 8860731.275068480521441 ], [ 6891247.621105859056115, 8860760.719771102070808 ], [ 6891336.186777208000422, 8860915.305571191012859 ], [ 6891387.357761297374964, 8860897.213155452162027 ], [ 6891660.320506589487195, 8860801.089155780151486 ], [ 6891663.688398184254766, 8860842.240415833890438 ], [ 6891676.007093986496329, 8860935.843900365754962 ], [ 6891579.813475765287876, 8861111.243099700659513 ], [ 6891439.450758221559227, 8861203.193271264433861 ], [ 6891404.426978979259729, 8861162.391793120652437 ], [ 6891391.499436009675264, 8861174.254418065771461 ], [ 6891424.889287022873759, 8861213.162442479282618 ], [ 6891294.825721964240074, 8861348.274829113855958 ], [ 6891293.749809892848134, 8861350.874783689156175 ], [ 6891174.15827383287251, 8861459.769286017864943 ], [ 6891215.372844913043082, 8861510.880546988919377 ], [ 6891256.495016126893461, 8861563.847232455387712 ], [ 6891315.034421941265464, 8861523.887418722733855 ], [ 6891293.153532534837723, 8861485.380156943574548 ], [ 6891344.959239611402154, 8861449.075113909319043 ], [ 6891378.291280995123088, 8861424.212844470515847 ], [ 6891685.274560236372054, 8861208.691911408677697 ], [ 6891762.649484196677804, 8861095.354797123000026 ], [ 6891994.253399668261409, 8861216.412642726674676 ], [ 6892046.914919005706906, 8861348.729591686278582 ], [ 6892087.240940340794623, 8861352.119574813172221 ], [ 6892120.222590567544103, 8861349.527118096128106 ], [ 6892131.386409977450967, 8861392.16225847415626 ], [ 6892139.535403906367719, 8861438.145254582166672 ], [ 6892140.39556822553277, 8861466.067871795967221 ], [ 6892116.427523272112012, 8861525.169993661344051 ], [ 6892113.767159643583, 8861587.313391266390681 ], [ 6892126.004432812333107, 8861800.736889984458685 ], [ 6892135.190546217374504, 8861938.84871687553823 ], [ 6892212.520068128593266, 8862136.47069176658988 ], [ 6892259.989771878346801, 8862219.231072951108217 ], [ 6892282.923578012734652, 8862257.061366008594632 ], [ 6892307.14715414494276, 8862287.42283271998167 ], [ 6892332.344605890102684, 8862315.120166150853038 ], [ 6892370.189907445572317, 8862353.743241935968399 ], [ 6892394.727532508783042, 8862386.610138261690736 ], [ 6892423.008249576203525, 8862437.801730206236243 ], [ 6892461.189425129443407, 8862510.910065239295363 ], [ 6892483.369853544980288, 8862559.420732507482171 ], [ 6892505.212259341031313, 8862614.680508475750685 ], [ 6892556.774224357679486, 8862727.408279992640018 ], [ 6892584.877495717257261, 8862783.328767850995064 ], [ 6892596.55711826030165, 8862806.541880667209625 ], [ 6892628.269995372742414, 8862853.092776337638497 ], [ 6892647.626372627913952, 8862880.617794767022133 ], [ 6892667.78824638389051, 8862912.323071483522654 ], [ 6892694.871608887799084, 8862948.390750823542476 ], [ 6892725.829551292583346, 8862991.325892807915807 ], [ 6892772.991179777309299, 8863059.184503830969334 ], [ 6892801.436969597823918, 8863110.611914189532399 ], [ 6892806.183235459029675, 8863129.232220537960529 ], [ 6892808.912776228040457, 8863145.990165013819933 ], [ 6892815.372186779975891, 8863185.792940016835928 ], [ 6892824.084423437714577, 8863234.917885463684797 ], [ 6892831.937312788330019, 8863269.07385491579771 ], [ 6892837.612684546038508, 8863290.202526655048132 ], [ 6892803.985509588383138, 8863296.122338939458132 ], [ 6892824.408186686225235, 8863461.846933959051967 ], [ 6892824.51304757874459, 8863461.748999727889895 ], [ 6892856.32387313991785, 8863704.243776932358742 ], [ 6892862.222141237929463, 8863729.120180886238813 ], [ 6892845.047117804177105, 8863730.698835112154484 ], [ 6892833.603082535788417, 8863736.123081212863326 ], [ 6892806.911317429505289, 8863742.79534625262022 ], [ 6892786.964607835747302, 8863749.490292428061366 ], [ 6892783.424731589853764, 8863744.236393243074417 ], [ 6892775.881243952549994, 8863732.815603399649262 ], [ 6892766.483822681009769, 8863715.383236676454544 ], [ 6892753.323233641684055, 8863699.764013988897204 ], [ 6892744.338196968659759, 8863690.453189708292484 ], [ 6892729.931892743334174, 8863681.016785893589258 ], [ 6892720.406714214943349, 8863676.209994601085782 ], [ 6892713.500653617084026, 8863665.878356780856848 ], [ 6892706.40209005959332, 8863655.649170912802219 ], [ 6892702.911368317902088, 8863647.686230117455125 ], [ 6892699.202903593890369, 8863635.651569861918688 ], [ 6892693.16303706727922, 8863623.343745723366737 ], [ 6892686.998975912109017, 8863608.590249991044402 ], [ 6892684.068293949589133, 8863596.515538353472948 ], [ 6892681.044637250714004, 8863582.82632446102798 ], [ 6892670.928073977120221, 8863558.803578816354275 ], [ 6892660.120533366687596, 8863543.884485648944974 ], [ 6892650.690555895678699, 8863533.38219403102994 ], [ 6892624.946155594661832, 8863513.935173155739903 ], [ 6892607.789082867093384, 8863499.643932569772005 ], [ 6892592.677476485259831, 8863491.458464048802853 ], [ 6892582.560239100828767, 8863490.348782330751419 ], [ 6892577.708128478378057, 8863493.860436117276549 ], [ 6892577.840242989361286, 8863504.032004943117499 ], [ 6892573.214843045920134, 8863512.008146278560162 ], [ 6892566.19595021661371, 8863518.488289933651686 ], [ 6892559.19697083439678, 8863525.360657405108213 ], [ 6892557.112206790596247, 8863529.94421243481338 ], [ 6892556.83000657428056, 8863539.743857318535447 ], [ 6892560.237062959000468, 8863553.413248101249337 ], [ 6892559.332117511890829, 8863566.09028591401875 ], [ 6892553.347155540250242, 8863577.791389748454094 ], [ 6892547.79873488470912, 8863590.302775375545025 ], [ 6892541.752246674150229, 8863600.792570192366838 ], [ 6892539.614411110058427, 8863611.902245108038187 ], [ 6892530.177800759673119, 8863624.197488175705075 ], [ 6892524.048177909106016, 8863640.405296234413981 ], [ 6892519.608378505334258, 8863652.038337262347341 ], [ 6892509.239711333997548, 8863661.119855368509889 ], [ 6892493.107936300337315, 8863670.914563976228237 ], [ 6892482.96804382186383, 8863676.930775554850698 ], [ 6892470.535619206726551, 8863691.011076120659709 ], [ 6892455.521480364724994, 8863707.676362682133913 ], [ 6892435.353111486881971, 8863729.476448301225901 ], [ 6892407.32056893967092, 8863741.10992387868464 ], [ 6892393.821532090194523, 8863749.542890878394246 ], [ 6892375.169846494682133, 8863762.925500441342592 ], [ 6892360.291288371197879, 8863774.691140031442046 ], [ 6892354.049448646605015, 8863781.119516536593437 ], [ 6892341.608526652678847, 8863787.462283864617348 ], [ 6892335.198929596692324, 8863798.375404112040997 ], [ 6892328.748917228542268, 8863808.492530502378941 ], [ 6892313.205934631638229, 8863822.31639046408236 ], [ 6892304.827245195396245, 8863832.521237874403596 ], [ 6892292.89384798053652, 8863841.289842445403337 ], [ 6892283.138257881626487, 8863847.089457791298628 ], [ 6892268.778752322308719, 8863853.935746107250452 ], [ 6892258.49245148524642, 8863864.643585167825222 ], [ 6892244.14388482272625, 8863871.489282537251711 ], [ 6892234.408765824511647, 8863877.692620892077684 ], [ 6892221.499120253138244, 8863890.166312526911497 ], [ 6892211.576295525766909, 8863900.462137129157782 ], [ 6892202.657268107868731, 8863915.170792510733008 ], [ 6892211.972342874854803, 8863930.987883595749736 ], [ 6892245.0657944586128, 8863950.461705919355154 ], [ 6892265.081088630482554, 8863953.120845844969153 ], [ 6892271.539105983451009, 8863953.979675620794296 ], [ 6892286.465036505833268, 8863958.508529115468264 ], [ 6892300.83021892234683, 8863967.137545719742775 ], [ 6892313.308311464264989, 8863976.673356328159571 ], [ 6892321.067792928777635, 8863992.570615865290165 ], [ 6892324.804730858653784, 8864012.746272822842002 ], [ 6892325.732136840932071, 8864031.019360534846783 ], [ 6892323.228356956504285, 8864050.290288165211678 ], [ 6892291.446933616884053, 8864064.244371570646763 ], [ 6892266.701085129752755, 8864072.041572423651814 ], [ 6892223.853370978496969, 8864088.91312718577683 ], [ 6892224.331062001176178, 8864095.296171087771654 ], [ 6892228.921944698318839, 8864120.181479074060917 ], [ 6892272.709787105210125, 8864214.042164139449596 ], [ 6892297.255372114479542, 8864266.584521997720003 ], [ 6892330.101501926779747, 8864246.549955142661929 ], [ 6892362.602537617087364, 8864232.269898150116205 ], [ 6892392.288930500857532, 8864222.263794576749206 ], [ 6892437.49312181584537, 8864353.561591934412718 ], [ 6892459.300040610134602, 8864411.010639069601893 ], [ 6892500.121021899394691, 8864520.443113218992949 ], [ 6892378.594095258973539, 8864587.512148845940828 ], [ 6892305.206649077124894, 8864627.259129408746958 ], [ 6892215.040005596354604, 8864676.185027882456779 ], [ 6891983.518407227471471, 8864807.121341729536653 ], [ 6891895.618571531027555, 8864855.500560089945793 ], [ 6891965.057054235599935, 8864998.018707323819399 ], [ 6892023.048348741605878, 8865118.190903294831514 ], [ 6892296.965825673192739, 8865145.718904733657837 ], [ 6892670.706450114957988, 8865183.656516544520855 ], [ 6892945.802082481794059, 8865211.433859126642346 ], [ 6893026.09900888428092, 8865222.77909054979682 ], [ 6893070.870628948323429, 8865223.448431424796581 ], [ 6893234.709794146940112, 8865239.737223586067557 ], [ 6893282.913339518010616, 8865243.318120963871479 ], [ 6893343.43617588095367, 8865250.486986076459289 ], [ 6893386.713563902303576, 8865255.477936781942844 ], [ 6893441.026848444715142, 8865261.92521983012557 ], [ 6893457.671211831271648, 8865263.729172714054585 ], [ 6893543.769343838095665, 8865270.553563678637147 ], [ 6893573.085000665858388, 8865277.037787035107613 ], [ 6893606.277654888108373, 8865286.329889373853803 ], [ 6893631.653897268697619, 8865298.302861699834466 ], [ 6893662.263597978278995, 8865313.407210363075137 ], [ 6893685.027577542699873, 8865328.23284132219851 ], [ 6893716.057670372538269, 8865350.325129203498363 ], [ 6893765.821738639846444, 8865394.194031305611134 ], [ 6893771.455742148682475, 8865399.375283585861325 ], [ 6893753.359052645042539, 8865412.683013908565044 ], [ 6893714.071625857613981, 8865433.303998498246074 ], [ 6893682.787637964822352, 8865449.950506431981921 ], [ 6893719.00898336712271, 8865530.651272851973772 ], [ 6893752.53778656385839, 8865513.866205710917711 ], [ 6893804.744739891029894, 8865486.357578203082085 ], [ 6893839.394759804941714, 8865468.508295595645905 ], [ 6893901.77930913399905, 8865529.263745410367846 ], [ 6893948.3933543888852, 8865574.694881800562143 ], [ 6893969.697122248820961, 8865595.379457730799913 ], [ 6894145.852040061727166, 8865766.959200009703636 ], [ 6894145.747198041528463, 8865759.26090819016099 ], [ 6894146.639554996974766, 8865754.981441885232925 ], [ 6894148.494580294936895, 8865747.159184876829386 ], [ 6894149.580061000771821, 8865734.992587555199862 ], [ 6894148.549411644227803, 8865713.588645314797759 ], [ 6894146.207525572739542, 8865691.454037318006158 ], [ 6894202.472207512706518, 8865665.980131644755602 ], [ 6894244.789761610329151, 8865645.757995678111911 ], [ 6894252.791501758620143, 8865643.264179183170199 ], [ 6894258.462918620556593, 8865644.418250659480691 ], [ 6894262.239522968418896, 8865646.329148188233376 ], [ 6894274.245959361083806, 8865663.235612483695149 ], [ 6894290.504004907794297, 8865687.303186118602753 ], [ 6894297.68506845831871, 8865695.481836665421724 ], [ 6894302.97718436922878, 8865699.119244493544102 ], [ 6894311.767231361009181, 8865701.338982943445444 ], [ 6894313.273405451327562, 8865701.365589171648026 ], [ 6894323.586558129638433, 8865701.563669325783849 ], [ 6894335.820983598008752, 8865699.361016739159822 ], [ 6894347.419944602996111, 8865694.808211741968989 ], [ 6894348.716913791373372, 8865692.659379029646516 ], [ 6894365.669168232008815, 8865684.071761669591069 ], [ 6894371.345417604781687, 8865681.639748886227608 ], [ 6894383.889349679462612, 8865679.259199602529407 ], [ 6894403.867255012504756, 8865674.668489502742887 ], [ 6894423.156384911388159, 8865669.708351301029325 ], [ 6894435.601401870138943, 8865665.37799889780581 ], [ 6894462.701933670789003, 8865656.33746999874711 ], [ 6894487.693468574434519, 8865647.729316147044301 ], [ 6894512.181291623972356, 8865638.719060098752379 ], [ 6894543.824064486660063, 8865627.628593720495701 ], [ 6894549.757457572966814, 8865624.419846702367067 ], [ 6894554.791848879307508, 8865618.862927969545126 ], [ 6894572.630010278895497, 8865593.098283842206001 ], [ 6894585.282794455066323, 8865573.812123250216246 ], [ 6894593.082648366689682, 8865563.659422559663653 ], [ 6894600.975497726351023, 8865551.442939078435302 ], [ 6894605.466606421396136, 8865542.756059000268579 ], [ 6894606.940009293146431, 8865537.590591475367546 ], [ 6894608.216630699113011, 8865532.227038964629173 ], [ 6894608.167056534439325, 8865525.404853792861104 ], [ 6894605.920793570578098, 8865513.606097443029284 ], [ 6894602.720981435850263, 8865502.064634768292308 ], [ 6894598.269235670566559, 8865486.631580349057913 ], [ 6894593.481042320840061, 8865464.784405020996928 ], [ 6894589.733519936911762, 8865448.077408457174897 ], [ 6894588.022120779380202, 8865439.027297805994749 ], [ 6894585.252216749824584, 8865426.434229712933302 ], [ 6894580.886904707178473, 8865410.973614387214184 ], [ 6894576.382836282253265, 8865392.778687501326203 ], [ 6894572.473130101338029, 8865380.452513268217444 ], [ 6894570.159751971252263, 8865372.960288191214204 ], [ 6894565.823960084468126, 8865363.709828985854983 ], [ 6894558.478501520119607, 8865350.345953920856118 ], [ 6894557.201306925155222, 8865348.121367868036032 ], [ 6894557.646461589261889, 8865347.369711199775338 ], [ 6894555.828770361840725, 8865344.88376497104764 ], [ 6894553.292947003617883, 8865340.584013594314456 ], [ 6894550.292970699258149, 8865334.064094847068191 ], [ 6894548.606215336360037, 8865326.366113649681211 ], [ 6894549.01077863201499, 8865320.052662737667561 ], [ 6894550.888057279400527, 8865315.271257905289531 ], [ 6894556.125618256628513, 8865307.876164976507425 ], [ 6894586.658470312133431, 8865271.243749618530273 ], [ 6894630.812243774533272, 8865219.045883281156421 ], [ 6894645.488056003116071, 8865202.188514985144138 ], [ 6894645.79270926117897, 8865201.698567193001509 ], [ 6894650.695894114673138, 8865197.45537749864161 ], [ 6894675.777128335088491, 8865166.169783186167479 ], [ 6894700.225206681527197, 8865178.676220253109932 ], [ 6894743.134168082848191, 8865194.581513274461031 ], [ 6894829.560511214658618, 8865218.252032523974776 ], [ 6894937.577264820225537, 8865237.294340848922729 ], [ 6894981.47026368137449, 8865245.317785851657391 ], [ 6895042.784949759952724, 8865264.613239109516144 ], [ 6895073.576752568595111, 8865276.584923868998885 ], [ 6895103.999701594002545, 8865289.512591706588864 ], [ 6895142.459926052019, 8865310.170033156871796 ], [ 6895183.152751066721976, 8865343.217195872217417 ], [ 6895199.287260426208377, 8865359.42557406052947 ], [ 6895234.555214876309037, 8865390.982335615903139 ], [ 6895259.720543939620256, 8865411.989066490903497 ], [ 6895273.424925327301025, 8865426.413978526368737 ], [ 6895285.623512092977762, 8865442.767271975055337 ], [ 6895289.956639224663377, 8865458.021764695644379 ], [ 6895295.4060900779441, 8865490.292737677693367 ], [ 6895299.362266382202506, 8865510.240011006593704 ], [ 6895305.58685021288693, 8865522.724993761628866 ], [ 6895317.040706820785999, 8865535.010152069851756 ], [ 6895339.663371827453375, 8865545.9568075761199 ], [ 6895366.305269474163651, 8865550.392110917717218 ], [ 6895392.495726562105119, 8865548.962658444419503 ], [ 6895490.343275310471654, 8865538.163803586736321 ], [ 6895540.54963864479214, 8865539.638924464583397 ], [ 6895599.457103761844337, 8865545.258396560326219 ], [ 6895648.786569619551301, 8865551.313192401081324 ], [ 6895667.394427951425314, 8865558.036090474575758 ], [ 6895682.64026958681643, 8865571.016844348981977 ], [ 6895708.07682329416275, 8865606.018758896738291 ], [ 6895765.177985449321568, 8865696.582265282049775 ], [ 6895796.21444652415812, 8865749.723855026066303 ], [ 6895840.787785010412335, 8865819.832929970696568 ], [ 6895865.563549963757396, 8865848.310235470533371 ], [ 6895887.889691144227982, 8865870.724816516041756 ], [ 6895924.080298285931349, 8865901.194196548312902 ], [ 6895952.093147826381028, 8865928.74150212854147 ], [ 6895987.287215780466795, 8865957.538674734532833 ], [ 6896022.843929990194738, 8865986.988189890980721 ], [ 6896049.268715050071478, 8866005.53645889647305 ], [ 6896076.877606705762446, 8866021.444105053320527 ], [ 6896096.330267274752259, 8866039.18299026787281 ], [ 6896119.640193434432149, 8866067.562664698809385 ], [ 6896149.518009336665273, 8866105.668558122590184 ], [ 6896158.699600985273719, 8866121.877167543396354 ], [ 6896177.614579888060689, 8866137.029442878440022 ], [ 6896197.326448831707239, 8866148.404190555214882 ], [ 6896215.004116619937122, 8866154.758963041007519 ], [ 6896272.739272459410131, 8866170.376833934336901 ], [ 6896351.456385994330049, 8866187.980112615972757 ], [ 6896444.168097794055939, 8866213.168937342241406 ], [ 6896471.149114417843521, 8866224.493448546156287 ], [ 6896497.357881504110992, 8866241.595624011009932 ], [ 6896526.191567536443472, 8866276.655586374923587 ], [ 6896512.163345020264387, 8866232.261247193440795 ], [ 6896498.774517452344298, 8866188.562841126695275 ], [ 6896491.823599252849817, 8866167.611838955432177 ], [ 6896485.394337061792612, 8866140.491204479709268 ], [ 6896477.313319141976535, 8866099.006785485893488 ], [ 6896469.252806050702929, 8866057.278400328010321 ], [ 6896462.693734228610992, 8866019.163022197782993 ], [ 6896462.333300360478461, 8866001.458907747641206 ], [ 6896464.460648093372583, 8865992.083133731037378 ], [ 6896468.073854660615325, 8865982.549865894019604 ], [ 6896481.966588832437992, 8865958.917590225115418 ], [ 6896492.37775716278702, 8865939.189575787633657 ], [ 6896499.937185144983232, 8865922.789693804457784 ], [ 6896500.2746238745749, 8865907.583074662834406 ], [ 6896493.980361725203693, 8865891.133118672296405 ], [ 6896480.082068216986954, 8865871.812504610046744 ], [ 6896475.703792864456773, 8865861.730596266686916 ], [ 6896474.052414122968912, 8865842.184175059199333 ], [ 6896475.49261318333447, 8865828.794846206903458 ], [ 6896479.594484529457986, 8865804.440465282648802 ], [ 6896485.245845755562186, 8865783.129721019417048 ], [ 6896489.709574984386563, 8865765.038291776552796 ], [ 6896491.491634597070515, 8865747.998875085264444 ], [ 6896494.414557974785566, 8865680.092488151043653 ], [ 6896497.829273079521954, 8865667.735121002420783 ], [ 6896511.448793510906398, 8865637.649937868118286 ], [ 6896525.986844993196428, 8865601.860459286719561 ], [ 6896529.806130846962333, 8865586.439732665196061 ], [ 6896530.653944108635187, 8865570.906002432107925 ], [ 6896520.097156455740333, 8865533.898900208994746 ], [ 6896508.420199823565781, 8865493.652551727369428 ], [ 6896501.001831455156207, 8865476.485523322597146 ], [ 6896491.154968654736876, 8865453.24297821521759 ], [ 6896480.559196011163294, 8865420.229069873690605 ], [ 6896466.903408646583557, 8865386.007781049236655 ], [ 6896454.935222470201552, 8865365.766682352870703 ], [ 6896438.317373929545283, 8865346.540245611220598 ], [ 6896403.558467157185078, 8865308.374150559306145 ], [ 6896387.667873427271843, 8865287.895637216046453 ], [ 6896387.007345095276833, 8865267.754538821056485 ], [ 6896389.227924740873277, 8865249.40846355445683 ], [ 6896391.952415743842721, 8865239.469718862324953 ], [ 6896427.957647196948528, 8865201.833606969565153 ], [ 6896451.415095597505569, 8865177.094829486683011 ], [ 6896468.67985903006047, 8865163.213884964585304 ], [ 6896543.139443397521973, 8865105.028396824374795 ], [ 6896566.318717001006007, 8865085.844921050593257 ], [ 6896595.042376811616123, 8865065.531138500198722 ], [ 6896634.495208620093763, 8865040.418659839779139 ], [ 6896684.65615988522768, 8865008.14850752800703 ], [ 6896698.526640293188393, 8864994.916450658813119 ], [ 6896703.687751886434853, 8864983.648783514276147 ], [ 6896703.053587450645864, 8864943.932143812999129 ], [ 6896697.496265787631273, 8864881.043101884424686 ], [ 6896695.738001914694905, 8864841.904997268691659 ], [ 6896690.802893207408488, 8864788.238695498555899 ], [ 6896693.078119583427906, 8864768.385551435872912 ], [ 6896707.75049336347729, 8864758.617235470563173 ], [ 6896719.957449531182647, 8864751.127754809334874 ], [ 6896725.434185207821429, 8864748.450705107301474 ], [ 6896701.867982423864305, 8864718.731564661487937 ], [ 6896694.465379394590855, 8864709.233740139752626 ], [ 6896355.253181951120496, 8864281.433906126767397 ], [ 6895276.348557037301362, 8862920.861646665260196 ], [ 6895245.153843214735389, 8862881.533117922022939 ], [ 6894065.150505430996418, 8861393.323938710615039 ], [ 6894043.567237600684166, 8861366.110604252666235 ], [ 6894041.748336128890514, 8861363.821706051006913 ], [ 6892888.643924967385828, 8859909.627143619582057 ], [ 6894134.858385734260082, 8858258.38885067217052 ], [ 6894147.818834311328828, 8858241.210962720215321 ], [ 6894190.146663157269359, 8858185.126156078651547 ], [ 6894151.06735426466912, 8858194.4956757966429 ], [ 6891468.545156571082771, 8858838.000604499131441 ], [ 6891383.270633803680539, 8859516.593800941482186 ], [ 6891363.748380680568516, 8859671.936735685914755 ], [ 6891367.591291535645723, 8859680.759550346061587 ], [ 6891377.682725640013814, 8859696.904583910480142 ], [ 6891380.975792271085083, 8859702.262932073324919 ], [ 6891392.83022437710315, 8859722.619397085160017 ], [ 6891398.978450921364129, 8859734.226165575906634 ], [ 6891424.708739319816232, 8859773.227097174152732 ], [ 6891445.426314663141966, 8859797.902491316199303 ], [ 6891476.945380806922913, 8859828.728172581642866 ], [ 6891500.001106725074351, 8859851.871837120503187 ], [ 6891524.420072734355927, 8859872.886391090229154 ], [ 6891548.444814397953451, 8859895.864413175731897 ], [ 6891591.802874023094773, 8859936.175833884626627 ], [ 6891626.301215268671513, 8859970.942265719175339 ], [ 6891642.615175230428576, 8859987.645161991938949 ], [ 6891654.427980748005211, 8860001.793171433731914 ], [ 6891660.046463553793728, 8860012.918572854250669 ], [ 6891664.425645558163524, 8860024.940739205107093 ], [ 6891671.617878224700689, 8860050.581115949898958 ], [ 6891682.702683505602181, 8860094.433487553149462 ], [ 6891687.757767906412482, 8860104.847796708345413 ], [ 6891693.040967371314764, 8860111.977156966924667 ], [ 6891699.477195041254163, 8860122.123519841581583 ], [ 6891703.483088956214488, 8860133.285986874252558 ], [ 6891704.482818779535592, 8860154.862739743664861 ], [ 6891701.402138628065586, 8860187.973317671567202 ], [ 6891698.645075514912605, 8860215.145390700548887 ], [ 6891697.902718959376216, 8860228.392071994021535 ], [ 6891698.910695760510862, 8860243.445181958377361 ], [ 6891708.177623745054007, 8860282.013370301574469 ], [ 6891600.181533767841756, 8860320.772742629051208 ], [ 6891624.067642972804606, 8860373.610097559168935 ], [ 6891735.944762503728271, 8860334.928068272769451 ] ] ] } },
{ "type": "Feature", "properties": { "lv_id": "LOC_026865", "id": 125868.0, "CD_SETOR": "270410405000007", "SITUACAO": "Urbana", "CD_SIT": "1", "CD_TIPO": "0", "AREA_KM2": 0.072660509044499999, "CD_REGIAO": "2", "NM_REGIAO": "Nordeste", "CD_UF": "27", "NM_UF": "Alagoas", "CD_MUN": "2704104", "NM_MUN": "Lagoa da Canoa", "CD_DIST": "270410405", "NM_DIST": "Lagoa da Canoa", "CD_SUBDIST": "27041040500", "NM_SUBDIST": null, "CD_BAIRRO": null, "NM_BAIRRO": null, "CD_NU": null, "NM_NU": null, "CD_FCU": null, "NM_FCU": null, "CD_AGLOM": null, "NM_AGLOM": null, "CD_RGINT": "2702", "NM_RGINT": "Arapiraca", "CD_RGI": "270007", "NM_RGI": "Arapiraca", "CD_CONCURB": null, "NM_CONCURB": null, "mun_code_x": "2704104", "index_right": 1019, "dist_m": 559.47079885722928, "local_id": 283453, "ano": 2022, "cod_localidade_ibge": 2704104, "NR_ZONA": "44", "nr_cep": 57330000.0, "nm_localidade": "LAGOA DA CANOA", "nm_locvot": "ESCOLA DE 1 GRAU NOSSA SENHORA APARECIDA", "ds_endereco": "RUA NOSSA SENHORA APARECIDA S/N", "ds_bairro": "COHAB", "pred_long": -36.745718, "pred_lat": -9.823622, "pred_dist": 0.0, "tse_long": -36.74570979, "tse_lat": -9.82363237, "long": -36.74570979, "lat": -9.82363237, "ID_UNICO": "LOC_026865", "SG_UF": "AL", "CD_MUNICIPIO": "27812", "NR_LOCAL_VOTACAO": "1031", "QT_SECOES_AGREGADAS": 0, "QT_ELEITORES_TRANSFERIDOS": 0, "CIRO GOMES (PDT) (NÃO ELEITO) 1T": 27.0, "CONSTITUINTE EYMAEL (DC) (NÃO ELEITO) 1T": 0.0, "FELIPE D AVILA (NOVO) (NÃO ELEITO) 1T": 0.0, "JAIR BOLSONARO (PL) (2º TURNO) 1T": 363.0, "LULA (PT) (2º TURNO) 1T": 994.0, "LÉO PÉRICLES (UP) (NÃO ELEITO) 1T": 1.0, "PADRE KELMON (PTB) (NÃO ELEITO) 1T": 3.0, "SIMONE TEBET (MDB) (NÃO ELEITO) 1T": 37.0, "SOFIA MANZANO (PCB) (NÃO ELEITO) 1T": 0.0, "SORAYA THRONICKE (UNIÃO) (NÃO ELEITO) 1T": 14.0, "VERA (PSTU) (NÃO ELEITO) 1T": 2.0, "Total_Votos_Validos 1T": 1441.0, "Votos_Brancos 1T": 19.0, "Votos_Nulos 1T": 44.0, "Abstenções 1T": 366.0, "Eleitores_Aptos 1T": 1870.0, "JAIR BOLSONARO (PL) (NÃO ELEITO) 2T": 441.0, "LULA (PT) (ELEITO) 2T": 975.0, "Total_Votos_Validos 2T": 1416.0, "Votos_Brancos 2T": 19.0, "Votos_Nulos 2T": 82.0, "Abstenções 2T": 353.0, "Eleitores_Aptos 2T": 1870.0, "mun_code_y": "2704104", "mun_code": "2704104" }, "geometry": { "type": "Polygon", "coordinates": [ [ [ 6891697.902718959376216, 8860228.392071994021535 ], [ 6891698.645075514912605, 8860215.145390700548887 ], [ 6891701.402138628065586, 8860187.973317671567202 ], [ 6891704.482818779535592, 8860154.862739743664861 ], [ 6891703.483088956214488, 8860133.285986874252558 ], [ 6891699.477195041254163, 8860122.123519841581583 ], [ 6891693.040967371314764, 8860111.977156966924667 ], [ 6891687.757767906412482, 8860104.847796708345413 ], [ 6891682.702683505602181, 8860094.433487553149462 ], [ 6891671.617878224700689, 8860050.581115949898958 ], [ 6891664.425645558163524, 8860024.940739205107093 ], [ 6891660.046463553793728, 8860012.918572854250669 ], [ 6891654.427980748005211, 8860001.793171433731914 ], [ 6891642.615175230428576, 8859987.645161991938949 ], [ 6891626.301215268671513, 8859970.942265719175339 ], [ 6891591.802874023094773, 8859936.175833884626627 ], [ 6891548.444814397953451, 8859895.864413175731897 ], [ 6891524.420072734355927, 8859872.886391090229154 ], [ 6891500.001106725074351, 8859851.871837120503187 ], [ 6891476.945380806922913, 8859828.728172581642866 ], [ 6891445.426314663141966, 8859797.902491316199303 ], [ 6891424.708739319816232, 8859773.227097174152732 ], [ 6891398.978450921364129, 8859734.226165575906634 ], [ 6891392.83022437710315, 8859722.619397085160017 ], [ 6891380.975792271085083, 8859702.262932073324919 ], [ 6891377.682725640013814, 8859696.904583910480142 ], [ 6891367.591291535645723, 8859680.759550346061587 ], [ 6891363.748380680568516, 8859671.936735685914755 ], [ 6891363.114337831735611, 8859676.954356430098414 ], [ 6891319.203627642244101, 8860026.31195923127234 ], [ 6891329.354138528928161, 8860052.250281220301986 ], [ 6891332.866955740377307, 8860061.494991287589073 ], [ 6891335.415438840165734, 8860090.844576740637422 ], [ 6891321.80243684630841, 8860145.316845066845417 ], [ 6891294.816677616909146, 8860172.686989489942789 ], [ 6891268.673175530508161, 8860195.676403904333711 ], [ 6891235.262882309965789, 8860204.283068003132939 ], [ 6891184.350252825766802, 8860232.171228827908635 ], [ 6891106.244499759748578, 8860248.405446022748947 ], [ 6891017.924116098321974, 8860269.156859098002315 ], [ 6890977.253766339272261, 8860284.660889426246285 ], [ 6890929.704129952937365, 8860321.233852811157703 ], [ 6890833.068746579810977, 8860379.955268729478121 ], [ 6890776.751009043306112, 8860406.744693169370294 ], [ 6890696.973436144180596, 8860430.928023714572191 ], [ 6890594.57949442602694, 8860513.989369677379727 ], [ 6890354.259726784192026, 8860672.539415488019586 ], [ 6890132.363701106980443, 8860850.049503112211823 ], [ 6890066.815015880391002, 8860921.479017853736877 ], [ 6890061.581021068617702, 8860930.862213272601366 ], [ 6890030.700199239887297, 8860986.220656292513013 ], [ 6889893.039209892973304, 8861264.910989491268992 ], [ 6889770.692646325565875, 8861425.331626910716295 ], [ 6889659.396279233507812, 8861603.765345990657806 ], [ 6889585.932329116389155, 8861669.295168213546276 ], [ 6889543.869322808459401, 8861722.520836180076003 ], [ 6889518.983381602913141, 8861786.125434283167124 ], [ 6889513.504785280674696, 8861845.850518411025405 ], [ 6889515.059770635329187, 8861914.534454122185707 ], [ 6889609.184590488672256, 8862083.030815470963717 ], [ 6889703.356531292200089, 8862192.545222092419863 ], [ 6889729.448924670927227, 8862246.990293864160776 ], [ 6889765.665456912480295, 8862305.285623718053102 ], [ 6889763.025688600726426, 8862449.080394977703691 ], [ 6889879.788901276886463, 8862700.965810732915998 ], [ 6890120.663715407252312, 8862976.048138462007046 ], [ 6890262.188492250628769, 8863087.605910196900368 ], [ 6890390.758412720635533, 8863272.645817968994379 ], [ 6890422.208304024301469, 8863332.045070460066199 ], [ 6890444.532160342670977, 8863369.604858426377177 ], [ 6890459.032843627035618, 8863474.217606209218502 ], [ 6890447.790932711213827, 8863574.777257753536105 ], [ 6890413.301116273738444, 8863679.759581271559 ], [ 6890410.415333438664675, 8863844.399463757872581 ], [ 6890430.726174487732351, 8863902.487362096086144 ], [ 6890428.854806364513934, 8863986.442698212340474 ], [ 6890398.8900698851794, 8864140.643994593992829 ], [ 6890354.317776110954583, 8864247.218997869640589 ], [ 6890318.28890217281878, 8864383.458166260272264 ], [ 6890279.855244184844196, 8864531.651495974510908 ], [ 6890282.164322335273027, 8864778.794016014784575 ], [ 6890282.157973701134324, 8864801.646914241835475 ], [ 6890282.965198779478669, 8864855.082291506230831 ], [ 6890287.06251653470099, 8864935.954395310953259 ], [ 6890290.842826313339174, 8865010.574535297229886 ], [ 6890335.007581288926303, 8865076.030213294550776 ], [ 6890410.950984963215888, 8865139.147765919566154 ], [ 6890411.753503208979964, 8865139.812002802267671 ], [ 6890511.108116265386343, 8865186.322127697989345 ], [ 6890651.774947082623839, 8865282.30223304592073 ], [ 6890534.062130818143487, 8865357.151665706187487 ], [ 6890535.14352441765368, 8865385.442369578406215 ], [ 6890536.747461407445371, 8865400.845747027546167 ], [ 6890545.74064130987972, 8865486.24366744235158 ], [ 6890538.222312761470675, 8865511.298412250354886 ], [ 6890488.995071661658585, 8865543.457044301554561 ], [ 6890486.663521410897374, 8865549.255295729264617 ], [ 6890484.283032763749361, 8865555.171710919588804 ], [ 6890463.944920155219734, 8865605.796124394983053 ], [ 6890354.653404347598553, 8865710.996328948065639 ], [ 6890286.362959248945117, 8865794.255815215408802 ], [ 6890219.711914256215096, 8865930.964846204966307 ], [ 6890229.070955140516162, 8866009.103200543671846 ], [ 6890194.110112349502742, 8866152.164195951074362 ], [ 6890210.625023618340492, 8866221.95538043230772 ], [ 6890251.049829848110676, 8866276.502687726169825 ], [ 6890309.726647486910224, 8866454.287070896476507 ], [ 6890307.272468063049018, 8866528.012825319543481 ], [ 6890193.494602565653622, 8866824.374545788392425 ], [ 6890101.287046882323921, 8867097.976937517523766 ], [ 6890041.959171896800399, 8867165.956185951828957 ], [ 6890023.287612982094288, 8867203.366061015054584 ], [ 6890021.820359898731112, 8867293.635529635474086 ], [ 6890022.024153959006071, 8867370.901360968127847 ], [ 6889972.748219882138073, 8867530.651334132999182 ], [ 6889933.667962945997715, 8867592.433012243360281 ], [ 6889911.643655593506992, 8867610.249888801947236 ], [ 6889781.66834663040936, 8867775.128398444503546 ], [ 6889662.660375157371163, 8867904.262957829982042 ], [ 6889608.936610585078597, 8867933.220923870801926 ], [ 6889507.217609466053545, 8867976.028575755655766 ], [ 6889417.358112119138241, 8867996.579345986247063 ], [ 6889370.536317188292742, 8868012.566069664433599 ], [ 6889756.507574368268251, 8868091.844446286559105 ], [ 6889781.381042380817235, 8868107.153931779786944 ], [ 6889819.9853231087327, 8868152.695601703599095 ], [ 6889895.103480513207614, 8868241.538750128820539 ], [ 6890023.787261473014951, 8868339.16857529990375 ], [ 6890138.127711204811931, 8868403.567860091105103 ], [ 6890140.830772607587278, 8868404.019203633069992 ], [ 6890143.035554989241064, 8868404.39198774471879 ], [ 6890290.48834634013474, 8868429.069902610033751 ], [ 6890390.837254822254181, 8868539.197481479495764 ], [ 6890451.040944322943687, 8868605.249239027500153 ], [ 6890499.068884482607245, 8868694.26861422881484 ], [ 6890517.258525118231773, 8868725.788484713062644 ], [ 6890520.135155843570828, 8868751.431231372058392 ], [ 6890513.724644949659705, 8868780.891946507617831 ], [ 6890481.907389686442912, 8868886.525902811437845 ], [ 6890516.763779320754111, 8869138.535875003784895 ], [ 6890537.096280391328037, 8869224.706918036565185 ], [ 6890581.784060537815094, 8869325.49853179231286 ], [ 6890631.372748659923673, 8869457.889886317774653 ], [ 6890692.778881976380944, 8869563.030828207731247 ], [ 6890739.207078165374696, 8869611.032149981707335 ], [ 6890778.310102042742074, 8869622.932004634290934 ], [ 6890834.779290856793523, 8869662.890667153522372 ], [ 6890935.034703991375864, 8869724.178271388635039 ], [ 6890986.993023896589875, 8869737.872109243646264 ], [ 6891033.100075468420982, 8869748.592469155788422 ], [ 6891066.464792663231492, 8869763.238036189228296 ], [ 6891166.862781039439142, 8869833.875306595116854 ], [ 6891242.693869614973664, 8869879.609455576166511 ], [ 6891275.610154943540692, 8869898.210400715470314 ], [ 6891302.333279407583177, 8869915.335725462064147 ], [ 6891358.469239948317409, 8869996.578059032559395 ], [ 6891369.396904896944761, 8870037.457844238728285 ], [ 6891371.837680971249938, 8870046.643129730597138 ], [ 6891377.376517724245787, 8870046.035819660872221 ], [ 6891405.440232114866376, 8870039.001813001930714 ], [ 6891420.798483686521649, 8870034.884896432980895 ], [ 6891420.453071342781186, 8870033.699763376265764 ], [ 6891379.103898495435715, 8869942.459521716460586 ], [ 6891247.092858309857547, 8869568.876009561121464 ], [ 6891302.055957054719329, 8869543.729039823636413 ], [ 6891321.32358617708087, 8869583.117531167343259 ], [ 6891362.159775651060045, 8869650.026356680318713 ], [ 6891380.644947596825659, 8869689.802037250250578 ], [ 6891396.222706967964768, 8869736.180164851248264 ], [ 6891414.30437150131911, 8869801.918037196621299 ], [ 6891424.690982451662421, 8869849.04777823574841 ], [ 6891448.206822892650962, 8869925.17104135081172 ], [ 6891616.946102843619883, 8869891.146843634545803 ], [ 6891655.929097604937851, 8869756.794088834896684 ], [ 6891738.009823471307755, 8869513.517260888591409 ], [ 6891788.471770720556378, 8869354.853578759357333 ], [ 6891807.986315881833434, 8869277.080691015347838 ], [ 6891867.291324608027935, 8869285.7240942530334 ], [ 6891872.950882293283939, 8869273.371077926829457 ], [ 6891888.62058999761939, 8869246.718843786045909 ], [ 6891896.024907670915127, 8869210.404649134725332 ], [ 6891909.176492938771844, 8869142.163542808964849 ], [ 6891870.326500123366714, 8869114.834776096045971 ], [ 6891904.19207466673106, 8868942.585214385762811 ], [ 6891729.18708523735404, 8868972.937734669074416 ], [ 6891713.439896156080067, 8868893.883493717759848 ], [ 6891967.90109287854284, 8868853.155034355819225 ], [ 6891984.596138302236795, 8868779.63124374859035 ], [ 6892067.349702195264399, 8868615.167493240907788 ], [ 6891770.897497594356537, 8868533.546638231724501 ], [ 6891783.755230602808297, 8868462.35965166054666 ], [ 6892060.142919497564435, 8868531.036557640880346 ], [ 6892066.239114185795188, 8868489.734497865661979 ], [ 6892095.420802438631654, 8868405.750292962417006 ], [ 6892083.210477505810559, 8868122.063142465427518 ], [ 6892186.674870748072863, 8867819.684590689837933 ], [ 6892165.772780982777476, 8867796.260199893265963 ], [ 6892214.582345379516482, 8867726.210637541487813 ], [ 6892254.063036164268851, 8867767.731003241613507 ], [ 6892267.729801833629608, 8867723.03263440541923 ], [ 6892298.609322928823531, 8867526.340562516823411 ], [ 6892315.720621396787465, 8867415.781458897516131 ], [ 6892316.852061169221997, 8867384.737901747226715 ], [ 6892303.836685137823224, 8867340.911303794011474 ], [ 6892293.599085357040167, 8867312.255623327568173 ], [ 6892290.28215900901705, 8867258.863482376560569 ], [ 6892296.77404719684273, 8867137.965630708262324 ], [ 6892296.012080463580787, 8867091.439779518172145 ], [ 6892300.627977902069688, 8867062.623051676899195 ], [ 6892316.789713176898658, 8867002.147034153342247 ], [ 6892353.210226350463927, 8866933.933900589123368 ], [ 6892380.168105240911245, 8866879.079506879672408 ], [ 6892400.790749474428594, 8866861.168654467910528 ], [ 6892421.628444982692599, 8866846.85534904897213 ], [ 6892467.579396419227123, 8866821.536727925762534 ], [ 6892530.492765610106289, 8866777.396042050793767 ], [ 6892562.576669557020068, 8866748.081816233694553 ], [ 6892586.45949399471283, 8866721.455699075013399 ], [ 6892604.898404648527503, 8866692.529865738004446 ], [ 6892658.328526869416237, 8866593.449881881475449 ], [ 6892663.952000560238957, 8866580.426524817943573 ], [ 6892675.764314073137939, 8866567.92955918982625 ], [ 6892723.357961663976312, 8866544.480079295113683 ], [ 6892770.934437032788992, 8866523.078567678108811 ], [ 6892794.996826061978936, 8866502.827216524630785 ], [ 6892834.123316953890026, 8866437.78018993884325 ], [ 6892868.923125445842743, 8866372.110870037227869 ], [ 6892880.944427844136953, 8866324.498844932764769 ], [ 6892891.304468462243676, 8866241.497955963015556 ], [ 6892922.247636780142784, 8866049.443271169438958 ], [ 6892942.560648083686829, 8865968.660041451454163 ], [ 6892974.7823057891801, 8865905.042044742032886 ], [ 6893006.686661133542657, 8865856.407168697565794 ], [ 6893057.580072519369423, 8865779.556610375642776 ], [ 6893135.332483838312328, 8865837.115777369588614 ], [ 6893143.899150369688869, 8865826.045625876635313 ], [ 6893151.028325442224741, 8865815.870604995638132 ], [ 6893161.056995356455445, 8865814.140443034470081 ], [ 6893288.848598567768931, 8865864.673655159771442 ], [ 6893422.743757251650095, 8865918.814346052706242 ], [ 6893480.716495722532272, 8865943.917277757078409 ], [ 6893585.096257856115699, 8865983.081858977675438 ], [ 6893651.296472478657961, 8866019.455910235643387 ], [ 6893651.441234945319593, 8866019.494733456522226 ], [ 6893704.110175791196525, 8865891.875869667157531 ], [ 6893711.421069343574345, 8865883.553438030183315 ], [ 6893738.490694088861346, 8865860.681538911536336 ], [ 6893768.54398943670094, 8865827.76641021296382 ], [ 6893789.35715268086642, 8865813.000676834955812 ], [ 6893820.237972736358643, 8865785.14381174556911 ], [ 6893866.156507299281657, 8865771.37682942673564 ], [ 6893908.35956624802202, 8865768.384645823389292 ], [ 6893955.122442416846752, 8865771.484990084543824 ], [ 6893987.040752593427896, 8865771.670631282031536 ], [ 6894033.801243847236037, 8865765.19352849945426 ], [ 6894085.107848085463047, 8865758.690678641200066 ], [ 6894124.720841991715133, 8865759.856827929615974 ], [ 6894145.852040061727166, 8865766.959200009703636 ], [ 6893969.697122248820961, 8865595.379457730799913 ], [ 6893948.3933543888852, 8865574.694881800562143 ], [ 6893901.77930913399905, 8865529.263745410367846 ], [ 6893839.394759804941714, 8865468.508295595645905 ], [ 6893804.744739891029894, 8865486.357578203082085 ], [ 6893752.53778656385839, 8865513.866205710917711 ], [ 6893719.00898336712271, 8865530.651272851973772 ], [ 6893682.787637964822352, 8865449.950506431981921 ], [ 6893714.071625857613981, 8865433.303998498246074 ], [ 6893753.359052645042539, 8865412.683013908565044 ], [ 6893771.455742148682475, 8865399.375283585861325 ], [ 6893765.821738639846444, 8865394.194031305611134 ], [ 6893716.057670372538269, 8865350.325129203498363 ], [ 6893685.027577542699873, 8865328.23284132219851 ], [ 6893662.263597978278995, 8865313.407210363075137 ], [ 6893631.653897268697619, 8865298.302861699834466 ], [ 6893606.277654888108373, 8865286.329889373853803 ], [ 6893573.085000665858388, 8865277.037787035107613 ], [ 6893543.769343838095665, 8865270.553563678637147 ], [ 6893457.671211831271648, 8865263.729172714054585 ], [ 6893441.026848444715142, 8865261.92521983012557 ], [ 6893386.713563902303576, 8865255.477936781942844 ], [ 6893343.43617588095367, 8865250.486986076459289 ], [ 6893282.913339518010616, 8865243.318120963871479 ], [ 6893234.709794146940112, 8865239.737223586067557 ], [ 6893070.870628948323429, 8865223.448431424796581 ], [ 6893026.09900888428092, 8865222.77909054979682 ], [ 6892945.802082481794059, 8865211.433859126642346 ], [ 6892670.706450114957988, 8865183.656516544520855 ], [ 6892296.965825673192739, 8865145.718904733657837 ], [ 6892023.048348741605878, 8865118.190903294831514 ], [ 6891965.057054235599935, 8864998.018707323819399 ], [ 6891895.618571531027555, 8864855.500560089945793 ], [ 6891983.518407227471471, 8864807.121341729536653 ], [ 6892215.040005596354604, 8864676.185027882456779 ], [ 6892305.206649077124894, 8864627.259129408746958 ], [ 6892378.594095258973539, 8864587.512148845940828 ], [ 6892500.121021899394691, 8864520.443113218992949 ], [ 6892459.300040610134602, 8864411.010639069601893 ], [ 6892437.49312181584537, 8864353.561591934412718 ], [ 6892392.288930500857532, 8864222.263794576749206 ], [ 6892362.602537617087364, 8864232.269898150116205 ], [ 6892330.101501926779747, 8864246.549955142661929 ], [ 6892297.255372114479542, 8864266.584521997720003 ], [ 6892272.709787105210125, 8864214.042164139449596 ], [ 6892228.921944698318839, 8864120.181479074060917 ], [ 6892224.331062001176178, 8864095.296171087771654 ], [ 6892223.853370978496969, 8864088.91312718577683 ], [ 6892266.701085129752755, 8864072.041572423651814 ], [ 6892291.446933616884053, 8864064.244371570646763 ], [ 6892323.228356956504285, 8864050.290288165211678 ], [ 6892325.732136840932071, 8864031.019360534846783 ], [ 6892324.804730858653784, 8864012.746272822842002 ], [ 6892321.067792928777635, 8863992.570615865290165 ], [ 6892313.308311464264989, 8863976.673356328159571 ], [ 6892300.83021892234683, 8863967.137545719742775 ], [ 6892286.465036505833268, 8863958.508529115468264 ], [ 6892271.539105983451009, 8863953.979675620794296 ], [ 6892265.081088630482554, 8863953.120845844969153 ], [ 6892245.0657944586128, 8863950.461705919355154 ], [ 6892211.972342874854803, 8863930.987883595749736 ], [ 6892202.657268107868731, 8863915.170792510733008 ], [ 6892211.576295525766909, 8863900.462137129157782 ], [ 6892221.499120253138244, 8863890.166312526911497 ], [ 6892234.408765824511647, 8863877.692620892077684 ], [ 6892244.14388482272625, 8863871.489282537251711 ], [ 6892258.49245148524642, 8863864.643585167825222 ], [ 6892268.778752322308719, 8863853.935746107250452 ], [ 6892283.138257881626487, 8863847.089457791298628 ], [ 6892292.89384798053652, 8863841.289842445403337 ], [ 6892304.827245195396245, 8863832.521237874403596 ], [ 6892313.205934631638229, 8863822.31639046408236 ], [ 6892328.748917228542268, 8863808.492530502378941 ], [ 6892335.198929596692324, 8863798.375404112040997 ], [ 6892341.608526652678847, 8863787.462283864617348 ], [ 6892354.049448646605015, 8863781.119516536593437 ], [ 6892360.291288371197879, 8863774.691140031442046 ], [ 6892375.169846494682133, 8863762.925500441342592 ], [ 6892393.821532090194523, 8863749.542890878394246 ], [ 6892407.32056893967092, 8863741.10992387868464 ], [ 6892435.353111486881971, 8863729.476448301225901 ], [ 6892455.521480364724994, 8863707.676362682133913 ], [ 6892470.535619206726551, 8863691.011076120659709 ], [ 6892482.96804382186383, 8863676.930775554850698 ], [ 6892493.107936300337315, 8863670.914563976228237 ], [ 6892509.239711333997548, 8863661.119855368509889 ], [ 6892519.608378505334258, 8863652.038337262347341 ], [ 6892524.048177909106016, 8863640.405296234413981 ], [ 6892530.177800759673119, 8863624.197488175705075 ], [ 6892539.614411110058427, 8863611.902245108038187 ], [ 6892541.752246674150229, 8863600.792570192366838 ], [ 6892547.79873488470912, 8863590.302775375545025 ], [ 6892553.347155540250242, 8863577.791389748454094 ], [ 6892559.332117511890829, 8863566.09028591401875 ], [ 6892560.237062959000468, 8863553.413248101249337 ], [ 6892556.83000657428056, 8863539.743857318535447 ], [ 6892557.112206790596247, 8863529.94421243481338 ], [ 6892559.19697083439678, 8863525.360657405108213 ], [ 6892566.19595021661371, 8863518.488289933651686 ], [ 6892573.214843045920134, 8863512.008146278560162 ], [ 6892577.840242989361286, 8863504.032004943117499 ], [ 6892577.708128478378057, 8863493.860436117276549 ], [ 6892582.560239100828767, 8863490.348782330751419 ], [ 6892592.677476485259831, 8863491.458464048802853 ], [ 6892607.789082867093384, 8863499.643932569772005 ], [ 6892624.946155594661832, 8863513.935173155739903 ], [ 6892650.690555895678699, 8863533.38219403102994 ], [ 6892660.120533366687596, 8863543.884485648944974 ], [ 6892670.928073977120221, 8863558.803578816354275 ], [ 6892681.044637250714004, 8863582.82632446102798 ], [ 6892684.068293949589133, 8863596.515538353472948 ], [ 6892686.998975912109017, 8863608.590249991044402 ], [ 6892693.16303706727922, 8863623.343745723366737 ], [ 6892699.202903593890369, 8863635.651569861918688 ], [ 6892702.911368317902088, 8863647.686230117455125 ], [ 6892706.40209005959332, 8863655.649170912802219 ], [ 6892713.500653617084026, 8863665.878356780856848 ], [ 6892720.406714214943349, 8863676.209994601085782 ], [ 6892729.931892743334174, 8863681.016785893589258 ], [ 6892744.338196968659759, 8863690.453189708292484 ], [ 6892753.323233641684055, 8863699.764013988897204 ], [ 6892766.483822681009769, 8863715.383236676454544 ], [ 6892775.881243952549994, 8863732.815603399649262 ], [ 6892783.424731589853764, 8863744.236393243074417 ], [ 6892786.964607835747302, 8863749.490292428061366 ], [ 6892806.911317429505289, 8863742.79534625262022 ], [ 6892833.603082535788417, 8863736.123081212863326 ], [ 6892845.047117804177105, 8863730.698835112154484 ], [ 6892862.222141237929463, 8863729.120180886238813 ], [ 6892856.32387313991785, 8863704.243776932358742 ], [ 6892824.51304757874459, 8863461.748999727889895 ], [ 6892824.408186686225235, 8863461.846933959051967 ], [ 6892803.985509588383138, 8863296.122338939458132 ], [ 6892837.612684546038508, 8863290.202526655048132 ], [ 6892831.937312788330019, 8863269.07385491579771 ], [ 6892824.084423437714577, 8863234.917885463684797 ], [ 6892815.372186779975891, 8863185.792940016835928 ], [ 6892808.912776228040457, 8863145.990165013819933 ], [ 6892806.183235459029675, 8863129.232220537960529 ], [ 6892801.436969597823918, 8863110.611914189532399 ], [ 6892772.991179777309299, 8863059.184503830969334 ], [ 6892725.829551292583346, 8862991.325892807915807 ], [ 6892694.871608887799084, 8862948.390750823542476 ], [ 6892667.78824638389051, 8862912.323071483522654 ], [ 6892647.626372627913952, 8862880.617794767022133 ], [ 6892628.269995372742414, 8862853.092776337638497 ], [ 6892596.55711826030165, 8862806.541880667209625 ], [ 6892584.877495717257261, 8862783.328767850995064 ], [ 6892556.774224357679486, 8862727.408279992640018 ], [ 6892505.212259341031313, 8862614.680508475750685 ], [ 6892483.369853544980288, 8862559.420732507482171 ], [ 6892461.189425129443407, 8862510.910065239295363 ], [ 6892423.008249576203525, 8862437.801730206236243 ], [ 6892394.727532508783042, 8862386.610138261690736 ], [ 6892370.189907445572317, 8862353.743241935968399 ], [ 6892332.344605890102684, 8862315.120166150853038 ], [ 6892307.14715414494276, 8862287.42283271998167 ], [ 6892282.923578012734652, 8862257.061366008594632 ], [ 6892259.989771878346801, 8862219.231072951108217 ], [ 6892212.520068128593266, 8862136.47069176658988 ], [ 6892135.190546217374504, 8861938.84871687553823 ], [ 6892126.004432812333107, 8861800.736889984458685 ], [ 6892113.767159643583, 8861587.313391266390681 ], [ 6892116.427523272112012, 8861525.169993661344051 ], [ 6892140.39556822553277, 8861466.067871795967221 ], [ 6892139.535403906367719, 8861438.145254582166672 ], [ 6892131.386409977450967, 8861392.16225847415626 ], [ 6892120.222590567544103, 8861349.527118096128106 ], [ 6892087.240940340794623, 8861352.119574813172221 ], [ 6892046.914919005706906, 8861348.729591686278582 ], [ 6891994.253399668261409, 8861216.412642726674676 ], [ 6891762.649484196677804, 8861095.354797123000026 ], [ 6891685.274560236372054, 8861208.691911408677697 ], [ 6891378.291280995123088, 8861424.212844470515847 ], [ 6891344.959239611402154, 8861449.075113909319043 ], [ 6891293.153532534837723, 8861485.380156943574548 ], [ 6891315.034421941265464, 8861523.887418722733855 ], [ 6891256.495016126893461, 8861563.847232455387712 ], [ 6891215.372844913043082, 8861510.880546988919377 ], [ 6891174.15827383287251, 8861459.769286017864943 ], [ 6891293.749809892848134, 8861350.874783689156175 ], [ 6891294.825721964240074, 8861348.274829113855958 ], [ 6891424.889287022873759, 8861213.162442479282618 ], [ 6891391.499436009675264, 8861174.254418065771461 ], [ 6891404.426978979259729, 8861162.391793120652437 ], [ 6891439.450758221559227, 8861203.193271264433861 ], [ 6891579.813475765287876, 8861111.243099700659513 ], [ 6891676.007093986496329, 8860935.843900365754962 ], [ 6891663.688398184254766, 8860842.240415833890438 ], [ 6891660.320506589487195, 8860801.089155780151486 ], [ 6891387.357761297374964, 8860897.213155452162027 ], [ 6891336.186777208000422, 8860915.305571191012859 ], [ 6891247.621105859056115, 8860760.719771102070808 ], [ 6891309.218925638124347, 8860731.275068480521441 ], [ 6891434.890619696117938, 8860692.346923785284162 ], [ 6891522.440301513299346, 8860668.513026345521212 ], [ 6891634.171015684492886, 8860629.516702216118574 ], [ 6891710.616003002971411, 8860589.264805031940341 ], [ 6891762.024333300068974, 8860751.946668880060315 ], [ 6891799.889064867049456, 8860892.161482159048319 ], [ 6891803.158102774061263, 8860911.296422593295574 ], [ 6891764.119522180408239, 8860982.418073436245322 ], [ 6891927.659074522554874, 8861068.865663461387157 ], [ 6891961.892534486949444, 8861044.255870316177607 ], [ 6891901.964713524095714, 8860908.162800509482622 ], [ 6891887.001616762019694, 8860742.106337241828442 ], [ 6891894.625503816641867, 8860687.976835694164038 ], [ 6891858.420375554822385, 8860587.949060451239347 ], [ 6891816.677935197018087, 8860481.198455153033137 ], [ 6891735.944762503728271, 8860334.928068272769451 ], [ 6891624.067642972804606, 8860373.610097559168935 ], [ 6891600.181533767841756, 8860320.772742629051208 ], [ 6891708.177623745054007, 8860282.013370301574469 ], [ 6891698.910695760510862, 8860243.445181958377361 ], [ 6891697.902718959376216, 8860228.392071994021535 ] ] ] } },
{ "type": "Feature", "properties": { "lv_id": "LOC_026866", "id": 125871.0, "CD_SETOR": "270410405000013", "SITUACAO": "Rural", "CD_SIT": "5", "CD_TIPO": "0", "AREA_KM2": 0.24477752151597601, "CD_REGIAO": "2", "NM_REGIAO": "Nordeste", "CD_UF": "27", "NM_UF": "Alagoas", "CD_MUN": "2704104", "NM_MUN": "Lagoa da Canoa", "CD_DIST": "270410405", "NM_DIST": "Lagoa da Canoa", "CD_SUBDIST": "27041040500", "NM_SUBDIST": null, "CD_BAIRRO": null, "NM_BAIRRO": null, "CD_NU": "2704104001", "NM_NU": "Residencial Mundo Novo", "CD_FCU": null, "NM_FCU": null, "CD_AGLOM": "270410400001", "NM_AGLOM": "Pau d'Arco", "CD_RGINT": "2702", "NM_RGINT": "Arapiraca", "CD_RGI": "270007", "NM_RGI": "Arapiraca", "CD_CONCURB": null, "NM_CONCURB": null, "mun_code_x": "2704104", "index_right": 1023, "dist_m": 1543.0314577922372, "local_id": 283457, "ano": 2022, "cod_localidade_ibge": 2704104, "NR_ZONA": "44", "nr_cep": 57330000.0, "nm_localidade": "LAGOA DA CANOA", "nm_locvot": "GRUPO ESCOLAR JOSÉ LÚCIO DE MELO", "ds_endereco": "POVOADO MATA LIMPA S/N", "ds_bairro": "ZONA RURAL", "pred_long": -36.73935, "pred_lat": -9.766539, "pred_dist": 0.0, "tse_long": -36.73943786, "tse_lat": -9.76631517, "long": -36.73943786, "lat": -9.76631517, "ID_UNICO": "LOC_026866", "SG_UF": "AL", "CD_MUNICIPIO": "27812", "NR_LOCAL_VOTACAO": "1040", "QT_SECOES_AGREGADAS": 0, "QT_ELEITORES_TRANSFERIDOS": 0, "CIRO GOMES (PDT) (NÃO ELEITO) 1T": 23.0, "CONSTITUINTE EYMAEL (DC) (NÃO ELEITO) 1T": 1.0, "FELIPE D AVILA (NOVO) (NÃO ELEITO) 1T": 1.0, "JAIR BOLSONARO (PL) (2º TURNO) 1T": 263.0, "LULA (PT) (2º TURNO) 1T": 838.0, "LÉO PÉRICLES (UP) (NÃO ELEITO) 1T": 1.0, "PADRE KELMON (PTB) (NÃO ELEITO) 1T": 1.0, "SIMONE TEBET (MDB) (NÃO ELEITO) 1T": 40.0, "SOFIA MANZANO (PCB) (NÃO ELEITO) 1T": 0.0, "SORAYA THRONICKE (UNIÃO) (NÃO ELEITO) 1T": 13.0, "VERA (PSTU) (NÃO ELEITO) 1T": 0.0, "Total_Votos_Validos 1T": 1181.0, "Votos_Brancos 1T": 23.0, "Votos_Nulos 1T": 47.0, "Abstenções 1T": 413.0, "Eleitores_Aptos 1T": 1664.0, "JAIR BOLSONARO (PL) (NÃO ELEITO) 2T": 342.0, "LULA (PT) (ELEITO) 2T": 845.0, "Total_Votos_Validos 2T": 1187.0, "Votos_Brancos 2T": 23.0, "Votos_Nulos 2T": 76.0, "Abstenções 2T": 378.0, "Eleitores_Aptos 2T": 1664.0, "mun_code_y": "2704104", "mun_code": "2704104" }, "geometry": { "type": "Polygon", "coordinates": [ [ [ 6891773.232469901442528, 8870014.578229323029518 ], [ 6891842.575237713754177, 8869978.968237422406673 ], [ 6891826.706896159797907, 8869911.380952874198556 ], [ 6891784.925935089588165, 8869890.180424930527806 ], [ 6891769.034952379763126, 8869873.946170341223478 ], [ 6891779.486528601497412, 8869789.814221147447824 ], [ 6891973.832714589312673, 8869715.129048261791468 ], [ 6891929.262162732891738, 8869629.754422623664141 ], [ 6891813.241390098817647, 8869671.168058620765805 ], [ 6891865.787499965168536, 8869534.615246901288629 ], [ 6891944.202101433649659, 8869297.131907094269991 ], [ 6891867.291324608027935, 8869285.7240942530334 ], [ 6891807.986315881833434, 8869277.080691015347838 ], [ 6891788.471770720556378, 8869354.853578759357333 ], [ 6891738.009823471307755, 8869513.517260888591409 ], [ 6891655.929097604937851, 8869756.794088834896684 ], [ 6891616.946102843619883, 8869891.146843634545803 ], [ 6891448.206822892650962, 8869925.17104135081172 ], [ 6891424.690982451662421, 8869849.04777823574841 ], [ 6891414.30437150131911, 8869801.918037196621299 ], [ 6891396.222706967964768, 8869736.180164851248264 ], [ 6891380.644947596825659, 8869689.802037250250578 ], [ 6891362.159775651060045, 8869650.026356680318713 ], [ 6891321.32358617708087, 8869583.117531167343259 ], [ 6891302.055957054719329, 8869543.729039823636413 ], [ 6891247.092858309857547, 8869568.876009561121464 ], [ 6891379.103898495435715, 8869942.459521716460586 ], [ 6891420.453071342781186, 8870033.699763376265764 ], [ 6891420.798483686521649, 8870034.884896432980895 ], [ 6891405.440232114866376, 8870039.001813001930714 ], [ 6891377.376517724245787, 8870046.035819660872221 ], [ 6891371.837680971249938, 8870046.643129730597138 ], [ 6891380.960067910142243, 8870080.918936733156443 ], [ 6891417.814037131145597, 8870220.027712726965547 ], [ 6891421.994988135993481, 8870243.893115937709808 ], [ 6891425.634366458281875, 8870335.201490858569741 ], [ 6891425.647292518988252, 8870348.524274488911033 ], [ 6891428.543505507521331, 8870357.593780292198062 ], [ 6891439.193945974111557, 8870365.329725809395313 ], [ 6891470.77022566832602, 8870389.377932632341981 ], [ 6891516.782125751487911, 8870469.416522078216076 ], [ 6891637.504764832556248, 8870673.166826162487268 ], [ 6891693.715888662263751, 8870780.974159399047494 ], [ 6891854.575447712093592, 8871041.971607405692339 ], [ 6891971.459000309929252, 8871170.052012719213963 ], [ 6892087.089232720434666, 8871273.27321569994092 ], [ 6892180.111706205643713, 8871352.750022953376174 ], [ 6892203.760146065615118, 8871376.869907543063164 ], [ 6892288.207745806314051, 8871496.537857823073864 ], [ 6892327.788417154923081, 8871557.767946351319551 ], [ 6892373.362464409321547, 8871631.981040788814425 ], [ 6892385.735772203654051, 8871659.511486487463117 ], [ 6892396.233027802780271, 8871680.117339447140694 ], [ 6892413.790678508579731, 8871718.092852791771293 ], [ 6892426.487335367128253, 8871735.475052688270807 ], [ 6892454.569744877517223, 8871776.949082178995013 ], [ 6892460.954499247483909, 8871786.580972671508789 ], [ 6892461.921230901964009, 8871793.991613926365972 ], [ 6892464.323903852142394, 8871818.122667580842972 ], [ 6892475.529350161552429, 8871852.999580644071102 ], [ 6892481.971558530814946, 8871863.553840747103095 ], [ 6892498.881112327799201, 8871876.684240924194455 ], [ 6892511.551076236180961, 8871893.755651919171214 ], [ 6892520.697091035544872, 8871900.412753369659185 ], [ 6892287.780397878028452, 8872201.54757247492671 ], [ 6892240.41792680695653, 8872262.768735874444246 ], [ 6892221.202844798564911, 8872287.610946279019117 ], [ 6892170.127035699784756, 8872353.636136217042804 ], [ 6892153.768632139079273, 8872374.781493779271841 ], [ 6892096.091961803846061, 8872449.355100020766258 ], [ 6889696.46684567630291, 8875550.589226206764579 ], [ 6889626.859677815809846, 8875535.766848215833306 ], [ 6889596.980870597995818, 8875584.261515967547894 ], [ 6889593.272024752572179, 8875590.267084440216422 ], [ 6889309.817356635816395, 8876050.128727175295353 ], [ 6891644.275069052353501, 8878498.939727691933513 ], [ 6891785.402016680687666, 8878246.988815799355507 ], [ 6891785.553116994909942, 8878246.715133637189865 ], [ 6891806.076804639771581, 8878210.073907528072596 ], [ 6891839.633504681289196, 8878149.789770932868123 ], [ 6891842.274267603643239, 8878145.040960624814034 ], [ 6893560.601408833637834, 8875057.212519481778145 ], [ 6893607.47465087287128, 8874972.965750796720386 ], [ 6893676.414944859221578, 8874853.679759318009019 ], [ 6894603.797122297808528, 8873251.236167285591364 ], [ 6895014.186786818318069, 8872541.968048026785254 ], [ 6895038.721798973158002, 8872499.556351175531745 ], [ 6895128.718918099999428, 8872340.342434713616967 ], [ 6895339.603753531351686, 8871921.414793474599719 ], [ 6895447.557192388921976, 8871706.943037005141377 ], [ 6897104.377936895005405, 8868414.335873160511255 ], [ 6897109.257391600869596, 8868404.621974799782038 ], [ 6897088.487675568088889, 8868389.065440675243735 ], [ 6896983.825536431744695, 8868307.14864076115191 ], [ 6896905.101272832602262, 8868248.262371700257063 ], [ 6896844.06501570623368, 8868196.57668586447835 ], [ 6896836.688925256021321, 8868190.83611267618835 ], [ 6896795.102178488858044, 8868373.649379866197705 ], [ 6896790.159905744716525, 8868386.894707202911377 ], [ 6896783.05004102922976, 8868402.021387850865722 ], [ 6896775.735382905229926, 8868409.419313382357359 ], [ 6896767.7703020228073, 8868413.518955716863275 ], [ 6896737.863904621452093, 8868423.385047219693661 ], [ 6896652.266493912786245, 8868463.876851694658399 ], [ 6896606.569110372103751, 8868479.05419790931046 ], [ 6896593.282407793216407, 8868485.659869022667408 ], [ 6896580.854707571677864, 8868497.080079788342118 ], [ 6896568.00218325201422, 8868509.655794100835919 ], [ 6896551.17085644043982, 8868520.885764406993985 ], [ 6896519.398194720968604, 8868535.116036409512162 ], [ 6896347.121024737134576, 8868596.70608532987535 ], [ 6896281.649667986668646, 8868617.94207845069468 ], [ 6896281.113316825591028, 8868626.657302893698215 ], [ 6896288.82809320371598, 8868645.163363551720977 ], [ 6896294.948832378722727, 8868672.323310365900397 ], [ 6896160.557810354977846, 8868714.173256818205118 ], [ 6896186.509696915745735, 8868865.515931654721498 ], [ 6896135.074521727859974, 8868906.678900426253676 ], [ 6896152.402962398715317, 8869021.365560142323375 ], [ 6896030.707473010756075, 8869039.748715903609991 ], [ 6895998.511232119053602, 8868791.706878375262022 ], [ 6895775.607378580607474, 8868871.634616013616323 ], [ 6895750.940640191547573, 8868817.919089561328292 ], [ 6895653.776340505108237, 8868882.771225275471807 ], [ 6895606.505467597395182, 8868913.978680748492479 ], [ 6895457.912747269496322, 8869003.008526334539056 ], [ 6895399.371600840240717, 8869038.356520239263773 ], [ 6895373.392383229918778, 8869051.824380911886692 ], [ 6895206.598994360305369, 8869130.05601704120636 ], [ 6895129.004664065316319, 8869165.096613040193915 ], [ 6895118.868573036976159, 8869171.238536667078733 ], [ 6895112.039021857082844, 8869181.941891193389893 ], [ 6895111.534606985747814, 8869192.818085504695773 ], [ 6895114.565283532254398, 8869218.203609719872475 ], [ 6895118.559683187864721, 8869265.032101606950164 ], [ 6895125.542347038164735, 8869322.511330559849739 ], [ 6895131.609358235262334, 8869367.752876468002796 ], [ 6895135.517043716274202, 8869407.876708652824163 ], [ 6895138.967076474800706, 8869446.554955452680588 ], [ 6895137.995491962879896, 8869449.716456497088075 ], [ 6895134.43656942807138, 8869454.283113792538643 ], [ 6895036.899192428216338, 8869472.51984691247344 ], [ 6894920.791369036771357, 8869495.861437480896711 ], [ 6894873.032581457868218, 8869504.858229780569673 ], [ 6894832.477400809526443, 8869512.28245478309691 ], [ 6894805.489555074833333, 8869517.113718731328845 ], [ 6894794.89773583970964, 8869521.416341967880726 ], [ 6894787.431057523936033, 8869528.866926060989499 ], [ 6894789.225423786789179, 8869542.412757406011224 ], [ 6894789.710842644795775, 8869562.225801756605506 ], [ 6894786.078538164496422, 8869569.687928790226579 ], [ 6894781.356250159442425, 8869574.05964620411396 ], [ 6894758.671329282224178, 8869576.437625596299767 ], [ 6894714.546509144827724, 8869582.136037619784474 ], [ 6894657.149952678009868, 8869592.147103987634182 ], [ 6894601.747158488258719, 8869602.483789280056953 ], [ 6894544.443493036553264, 8869610.639092031866312 ], [ 6894486.655199913308024, 8869620.507931614294648 ], [ 6894419.231637015938759, 8869632.524785056710243 ], [ 6894365.378589101135731, 8869637.229297995567322 ], [ 6894320.410870673134923, 8869641.466592082753778 ], [ 6894235.248242182657123, 8869654.392501622438431 ], [ 6894207.967339180409908, 8869656.253831297159195 ], [ 6894185.963456397876143, 8869655.589038318023086 ], [ 6894187.330149160698056, 8869636.768884848803282 ], [ 6894187.953375509008765, 8869612.585061261430383 ], [ 6894189.810077920556068, 8869590.420051645487547 ], [ 6894185.977206483483315, 8869548.709363557398319 ], [ 6894182.066916569136083, 8869520.246856799349189 ], [ 6894129.305903032422066, 8869534.600001502782106 ], [ 6893868.695633310824633, 8869590.68885657005012 ], [ 6893763.418481174856424, 8869613.597575277090073 ], [ 6893667.898848801851273, 8869633.518852347508073 ], [ 6893511.117429781705141, 8869670.228132614865899 ], [ 6893317.299939980730414, 8869711.841501794755459 ], [ 6893227.697501676157117, 8869733.435643885284662 ], [ 6893131.866026352159679, 8869754.80496110022068 ], [ 6893014.653709230944514, 8869782.844275267794728 ], [ 6892976.09503701236099, 8869791.528193030506372 ], [ 6892889.05348221771419, 8869807.935318490490317 ], [ 6892788.83532097004354, 8869827.064340705052018 ], [ 6892616.06119714025408, 8869875.366401696577668 ], [ 6892557.66814686730504, 8869893.069251133129001 ], [ 6892517.431547733955085, 8869906.164043759927154 ], [ 6892461.479068737477064, 8869924.123291481286287 ], [ 6892372.892512264661491, 8869953.237685827538371 ], [ 6892317.101160138845444, 8869971.997876444831491 ], [ 6892249.242044935002923, 8869988.680955711752176 ], [ 6892214.977934093214571, 8869996.923888085409999 ], [ 6892179.703194886445999, 8870008.214082892984152 ], [ 6892119.909787960350513, 8870027.780047964304686 ], [ 6892062.469328535720706, 8870054.789419766515493 ], [ 6892045.719482309184968, 8870063.546411575749516 ], [ 6892032.702650960534811, 8870067.694127529859543 ], [ 6892005.163866857998073, 8870074.898439656943083 ], [ 6891853.479518098756671, 8870122.553668512031436 ], [ 6891805.602265084162354, 8870135.540739711374044 ], [ 6891773.232469901442528, 8870014.578229323029518 ] ] ] } },
{ "type": "Feature", "properties": { "lv_id": "LOC_026867", "id": 125874.0, "CD_SETOR": "270410405000019", "SITUACAO": "Rural", "CD_SIT": "8", "CD_TIPO": "0", "AREA_KM2": 6.2751347137067874, "CD_REGIAO": "2", "NM_REGIAO": "Nordeste", "CD_UF": "27", "NM_UF": "Alagoas", "CD_MUN": "2704104", "NM_MUN": "Lagoa da Canoa", "CD_DIST": "270410405", "NM_DIST": "Lagoa da Canoa", "CD_SUBDIST": "27041040500", "NM_SUBDIST": null, "CD_BAIRRO": null, "NM_BAIRRO": null, "CD_NU": null, "NM_NU": null, "CD_FCU": null, "NM_FCU": null, "CD_AGLOM": "270410400003", "NM_AGLOM": "Capim", "CD_RGINT": "2702", "NM_RGINT": "Arapiraca", "CD_RGI": "270007", "NM_RGI": "Arapiraca", "CD_CONCURB": null, "NM_CONCURB": null, "mun_code_x": "2704104", "index_right": 1021, "dist_m": 894.58902226329712, "local_id": 283455, "ano": 2022, "cod_localidade_ibge": 2704104, "NR_ZONA": "44", "nr_cep": 57000000.0, "nm_localidade": "LAGOA DA CANOA", "nm_locvot": "ESCOLA DE ENSINO FUNDAMENTAL JOSÉ RODRIGUES FILHO", "ds_endereco": "AV. JOÃO ANGELINO DOS SANTOS S/N", "ds_bairro": "CENTRO", "pred_long": -36.728127, "pred_lat": -9.80734, "pred_dist": 0.0, "tse_long": -36.7337419, "tse_lat": -9.82556266, "long": -36.7337419, "lat": -9.82556266, "ID_UNICO": "LOC_026867", "SG_UF": "AL", "CD_MUNICIPIO": "27812", "NR_LOCAL_VOTACAO": "1082", "QT_SECOES_AGREGADAS": 0, "QT_ELEITORES_TRANSFERIDOS": 1, "CIRO GOMES (PDT) (NÃO ELEITO) 1T": 74.0, "CONSTITUINTE EYMAEL (DC) (NÃO ELEITO) 1T": 0.0, "FELIPE D AVILA (NOVO) (NÃO ELEITO) 1T": 3.0, "JAIR BOLSONARO (PL) (2º TURNO) 1T": 864.0, "LULA (PT) (2º TURNO) 1T": 2585.0, "LÉO PÉRICLES (UP) (NÃO ELEITO) 1T": 0.0, "PADRE KELMON (PTB) (NÃO ELEITO) 1T": 5.0, "SIMONE TEBET (MDB) (NÃO ELEITO) 1T": 89.0, "SOFIA MANZANO (PCB) (NÃO ELEITO) 1T": 0.0, "SORAYA THRONICKE (UNIÃO) (NÃO ELEITO) 1T": 19.0, "VERA (PSTU) (NÃO ELEITO) 1T": 1.0, "Total_Votos_Validos 1T": 3640.0, "Votos_Brancos 1T": 60.0, "Votos_Nulos 1T": 84.0, "Abstenções 1T": 974.0, "Eleitores_Aptos 1T": 4758.0, "JAIR BOLSONARO (PL) (NÃO ELEITO) 2T": 1023.0, "LULA (PT) (ELEITO) 2T": 2548.0, "Total_Votos_Validos 2T": 3571.0, "Votos_Brancos 2T": 51.0, "Votos_Nulos 2T": 189.0, "Abstenções 2T": 947.0, "Eleitores_Aptos 2T": 4758.0, "mun_code_y": "2704104", "mun_code": "2704104" }, "geometry": { "type": "Polygon", "coordinates": [ [ [ 6896727.324058464728296, 8864750.840496497228742 ], [ 6896727.018697635270655, 8864750.451342444866896 ], [ 6896725.434185207821429, 8864748.450705107301474 ], [ 6896719.957449531182647, 8864751.127754809334874 ], [ 6896707.75049336347729, 8864758.617235470563173 ], [ 6896693.078119583427906, 8864768.385551435872912 ], [ 6896690.802893207408488, 8864788.238695498555899 ], [ 6896695.738001914694905, 8864841.904997268691659 ], [ 6896697.496265787631273, 8864881.043101884424686 ], [ 6896703.053587450645864, 8864943.932143812999129 ], [ 6896703.687751886434853, 8864983.648783514276147 ], [ 6896698.526640293188393, 8864994.916450658813119 ], [ 6896684.65615988522768, 8865008.14850752800703 ], [ 6896634.495208620093763, 8865040.418659839779139 ], [ 6896595.042376811616123, 8865065.531138500198722 ], [ 6896566.318717001006007, 8865085.844921050593257 ], [ 6896543.139443397521973, 8865105.028396824374795 ], [ 6896468.67985903006047, 8865163.213884964585304 ], [ 6896451.415095597505569, 8865177.094829486683011 ], [ 6896427.957647196948528, 8865201.833606969565153 ], [ 6896391.952415743842721, 8865239.469718862324953 ], [ 6896389.227924740873277, 8865249.40846355445683 ], [ 6896387.007345095276833, 8865267.754538821056485 ], [ 6896387.667873427271843, 8865287.895637216046453 ], [ 6896403.558467157185078, 8865308.374150559306145 ], [ 6896438.317373929545283, 8865346.540245611220598 ], [ 6896454.935222470201552, 8865365.766682352870703 ], [ 6896466.903408646583557, 8865386.007781049236655 ], [ 6896480.559196011163294, 8865420.229069873690605 ], [ 6896491.154968654736876, 8865453.24297821521759 ], [ 6896501.001831455156207, 8865476.485523322597146 ], [ 6896508.420199823565781, 8865493.652551727369428 ], [ 6896520.097156455740333, 8865533.898900208994746 ], [ 6896530.653944108635187, 8865570.906002432107925 ], [ 6896529.806130846962333, 8865586.439732665196061 ], [ 6896525.986844993196428, 8865601.860459286719561 ], [ 6896511.448793510906398, 8865637.649937868118286 ], [ 6896497.829273079521954, 8865667.735121002420783 ], [ 6896494.414557974785566, 8865680.092488151043653 ], [ 6896491.491634597070515, 8865747.998875085264444 ], [ 6896489.709574984386563, 8865765.038291776552796 ], [ 6896485.245845755562186, 8865783.129721019417048 ], [ 6896479.594484529457986, 8865804.440465282648802 ], [ 6896475.49261318333447, 8865828.794846206903458 ], [ 6896474.052414122968912, 8865842.184175059199333 ], [ 6896475.703792864456773, 8865861.730596266686916 ], [ 6896480.082068216986954, 8865871.812504610046744 ], [ 6896493.980361725203693, 8865891.133118672296405 ], [ 6896500.2746238745749, 8865907.583074662834406 ], [ 6896499.937185144983232, 8865922.789693804457784 ], [ 6896492.37775716278702, 8865939.189575787633657 ], [ 6896481.966588832437992, 8865958.917590225115418 ], [ 6896468.073854660615325, 8865982.549865894019604 ], [ 6896464.460648093372583, 8865992.083133731037378 ], [ 6896462.333300360478461, 8866001.458907747641206 ], [ 6896462.693734228610992, 8866019.163022197782993 ], [ 6896469.252806050702929, 8866057.278400328010321 ], [ 6896477.313319141976535, 8866099.006785485893488 ], [ 6896485.394337061792612, 8866140.491204479709268 ], [ 6896491.823599252849817, 8866167.611838955432177 ], [ 6896498.774517452344298, 8866188.562841126695275 ], [ 6896512.163345020264387, 8866232.261247193440795 ], [ 6896526.191567536443472, 8866276.655586374923587 ], [ 6896497.357881504110992, 8866241.595624011009932 ], [ 6896471.149114417843521, 8866224.493448546156287 ], [ 6896444.168097794055939, 8866213.168937342241406 ], [ 6896351.456385994330049, 8866187.980112615972757 ], [ 6896272.739272459410131, 8866170.376833934336901 ], [ 6896215.004116619937122, 8866154.758963041007519 ], [ 6896197.326448831707239, 8866148.404190555214882 ], [ 6896177.614579888060689, 8866137.029442878440022 ], [ 6896158.699600985273719, 8866121.877167543396354 ], [ 6896149.518009336665273, 8866105.668558122590184 ], [ 6896119.640193434432149, 8866067.562664698809385 ], [ 6896096.330267274752259, 8866039.18299026787281 ], [ 6896076.877606705762446, 8866021.444105053320527 ], [ 6896049.268715050071478, 8866005.53645889647305 ], [ 6896022.843929990194738, 8865986.988189890980721 ], [ 6895987.287215780466795, 8865957.538674734532833 ], [ 6895952.093147826381028, 8865928.74150212854147 ], [ 6895924.080298285931349, 8865901.194196548312902 ], [ 6895887.889691144227982, 8865870.724816516041756 ], [ 6895865.563549963757396, 8865848.310235470533371 ], [ 6895840.787785010412335, 8865819.832929970696568 ], [ 6895796.21444652415812, 8865749.723855026066303 ], [ 6895765.177985449321568, 8865696.582265282049775 ], [ 6895708.07682329416275, 8865606.018758896738291 ], [ 6895682.64026958681643, 8865571.016844348981977 ], [ 6895667.394427951425314, 8865558.036090474575758 ], [ 6895648.786569619551301, 8865551.313192401081324 ], [ 6895599.457103761844337, 8865545.258396560326219 ], [ 6895540.54963864479214, 8865539.638924464583397 ], [ 6895490.343275310471654, 8865538.163803586736321 ], [ 6895392.495726562105119, 8865548.962658444419503 ], [ 6895366.305269474163651, 8865550.392110917717218 ], [ 6895339.663371827453375, 8865545.9568075761199 ], [ 6895317.040706820785999, 8865535.010152069851756 ], [ 6895305.58685021288693, 8865522.724993761628866 ], [ 6895299.362266382202506, 8865510.240011006593704 ], [ 6895295.4060900779441, 8865490.292737677693367 ], [ 6895289.956639224663377, 8865458.021764695644379 ], [ 6895285.623512092977762, 8865442.767271975055337 ], [ 6895273.424925327301025, 8865426.413978526368737 ], [ 6895259.720543939620256, 8865411.989066490903497 ], [ 6895234.555214876309037, 8865390.982335615903139 ], [ 6895199.287260426208377, 8865359.42557406052947 ], [ 6895183.152751066721976, 8865343.217195872217417 ], [ 6895142.459926052019, 8865310.170033156871796 ], [ 6895103.999701594002545, 8865289.512591706588864 ], [ 6895073.576752568595111, 8865276.584923868998885 ], [ 6895042.784949759952724, 8865264.613239109516144 ], [ 6894981.47026368137449, 8865245.317785851657391 ], [ 6894937.577264820225537, 8865237.294340848922729 ], [ 6894829.560511214658618, 8865218.252032523974776 ], [ 6894743.134168082848191, 8865194.581513274461031 ], [ 6894700.225206681527197, 8865178.676220253109932 ], [ 6894675.777128335088491, 8865166.169783186167479 ], [ 6894650.695894114673138, 8865197.45537749864161 ], [ 6894645.79270926117897, 8865201.698567193001509 ], [ 6894645.488056003116071, 8865202.188514985144138 ], [ 6894630.812243774533272, 8865219.045883281156421 ], [ 6894586.658470312133431, 8865271.243749618530273 ], [ 6894556.125618256628513, 8865307.876164976507425 ], [ 6894550.888057279400527, 8865315.271257905289531 ], [ 6894549.01077863201499, 8865320.052662737667561 ], [ 6894548.606215336360037, 8865326.366113649681211 ], [ 6894550.292970699258149, 8865334.064094847068191 ], [ 6894553.292947003617883, 8865340.584013594314456 ], [ 6894555.828770361840725, 8865344.88376497104764 ], [ 6894557.646461589261889, 8865347.369711199775338 ], [ 6894557.201306925155222, 8865348.121367868036032 ], [ 6894558.478501520119607, 8865350.345953920856118 ], [ 6894565.823960084468126, 8865363.709828985854983 ], [ 6894570.159751971252263, 8865372.960288191214204 ], [ 6894572.473130101338029, 8865380.452513268217444 ], [ 6894576.382836282253265, 8865392.778687501326203 ], [ 6894580.886904707178473, 8865410.973614387214184 ], [ 6894585.252216749824584, 8865426.434229712933302 ], [ 6894588.022120779380202, 8865439.027297805994749 ], [ 6894589.733519936911762, 8865448.077408457174897 ], [ 6894593.481042320840061, 8865464.784405020996928 ], [ 6894598.269235670566559, 8865486.631580349057913 ], [ 6894602.720981435850263, 8865502.064634768292308 ], [ 6894605.920793570578098, 8865513.606097443029284 ], [ 6894608.167056534439325, 8865525.404853792861104 ], [ 6894608.216630699113011, 8865532.227038964629173 ], [ 6894606.940009293146431, 8865537.590591475367546 ], [ 6894605.466606421396136, 8865542.756059000268579 ], [ 6894600.975497726351023, 8865551.442939078435302 ], [ 6894593.082648366689682, 8865563.659422559663653 ], [ 6894585.282794455066323, 8865573.812123250216246 ], [ 6894572.630010278895497, 8865593.098283842206001 ], [ 6894554.791848879307508, 8865618.862927969545126 ], [ 6894549.757457572966814, 8865624.419846702367067 ], [ 6894543.824064486660063, 8865627.628593720495701 ], [ 6894512.181291623972356, 8865638.719060098752379 ], [ 6894487.693468574434519, 8865647.729316147044301 ], [ 6894462.701933670789003, 8865656.33746999874711 ], [ 6894435.601401870138943, 8865665.37799889780581 ], [ 6894423.156384911388159, 8865669.708351301029325 ], [ 6894403.867255012504756, 8865674.668489502742887 ], [ 6894383.889349679462612, 8865679.259199602529407 ], [ 6894371.345417604781687, 8865681.639748886227608 ], [ 6894365.669168232008815, 8865684.071761669591069 ], [ 6894348.716913791373372, 8865692.659379029646516 ], [ 6894347.419944602996111, 8865694.808211741968989 ], [ 6894335.820983598008752, 8865699.361016739159822 ], [ 6894323.586558129638433, 8865701.563669325783849 ], [ 6894313.273405451327562, 8865701.365589171648026 ], [ 6894311.767231361009181, 8865701.338982943445444 ], [ 6894302.97718436922878, 8865699.119244493544102 ], [ 6894297.68506845831871, 8865695.481836665421724 ], [ 6894290.504004907794297, 8865687.303186118602753 ], [ 6894274.245959361083806, 8865663.235612483695149 ], [ 6894262.239522968418896, 8865646.329148188233376 ], [ 6894258.462918620556593, 8865644.418250659480691 ], [ 6894252.791501758620143, 8865643.264179183170199 ], [ 6894244.789761610329151, 8865645.757995678111911 ], [ 6894202.472207512706518, 8865665.980131644755602 ], [ 6894146.207525572739542, 8865691.454037318006158 ], [ 6894148.549411644227803, 8865713.588645314797759 ], [ 6894149.580061000771821, 8865734.992587555199862 ], [ 6894148.494580294936895, 8865747.159184876829386 ], [ 6894146.639554996974766, 8865754.981441885232925 ], [ 6894145.747198041528463, 8865759.26090819016099 ], [ 6894145.852040061727166, 8865766.959200009703636 ], [ 6894124.720841991715133, 8865759.856827929615974 ], [ 6894085.107848085463047, 8865758.690678641200066 ], [ 6894033.801243847236037, 8865765.19352849945426 ], [ 6893987.040752593427896, 8865771.670631282031536 ], [ 6893955.122442416846752, 8865771.484990084543824 ], [ 6893908.35956624802202, 8865768.384645823389292 ], [ 6893866.156507299281657, 8865771.37682942673564 ], [ 6893820.237972736358643, 8865785.14381174556911 ], [ 6893789.35715268086642, 8865813.000676834955812 ], [ 6893768.54398943670094, 8865827.76641021296382 ], [ 6893738.490694088861346, 8865860.681538911536336 ], [ 6893711.421069343574345, 8865883.553438030183315 ], [ 6893704.110175791196525, 8865891.875869667157531 ], [ 6893651.441234945319593, 8866019.494733456522226 ], [ 6893651.296472478657961, 8866019.455910235643387 ], [ 6893585.096257856115699, 8865983.081858977675438 ], [ 6893480.716495722532272, 8865943.917277757078409 ], [ 6893422.743757251650095, 8865918.814346052706242 ], [ 6893288.848598567768931, 8865864.673655159771442 ], [ 6893161.056995356455445, 8865814.140443034470081 ], [ 6893151.028325442224741, 8865815.870604995638132 ], [ 6893143.899150369688869, 8865826.045625876635313 ], [ 6893135.332483838312328, 8865837.115777369588614 ], [ 6893057.580072519369423, 8865779.556610375642776 ], [ 6893006.686661133542657, 8865856.407168697565794 ], [ 6892974.7823057891801, 8865905.042044742032886 ], [ 6892942.560648083686829, 8865968.660041451454163 ], [ 6892922.247636780142784, 8866049.443271169438958 ], [ 6892891.304468462243676, 8866241.497955963015556 ], [ 6892880.944427844136953, 8866324.498844932764769 ], [ 6892868.923125445842743, 8866372.110870037227869 ], [ 6892834.123316953890026, 8866437.78018993884325 ], [ 6892794.996826061978936, 8866502.827216524630785 ], [ 6892770.934437032788992, 8866523.078567678108811 ], [ 6892723.357961663976312, 8866544.480079295113683 ], [ 6892675.764314073137939, 8866567.92955918982625 ], [ 6892663.952000560238957, 8866580.426524817943573 ], [ 6892658.328526869416237, 8866593.449881881475449 ], [ 6892604.898404648527503, 8866692.529865738004446 ], [ 6892586.45949399471283, 8866721.455699075013399 ], [ 6892562.576669557020068, 8866748.081816233694553 ], [ 6892530.492765610106289, 8866777.396042050793767 ], [ 6892467.579396419227123, 8866821.536727925762534 ], [ 6892421.628444982692599, 8866846.85534904897213 ], [ 6892400.790749474428594, 8866861.168654467910528 ], [ 6892380.168105240911245, 8866879.079506879672408 ], [ 6892353.210226350463927, 8866933.933900589123368 ], [ 6892316.789713176898658, 8867002.147034153342247 ], [ 6892300.627977902069688, 8867062.623051676899195 ], [ 6892296.012080463580787, 8867091.439779518172145 ], [ 6892296.77404719684273, 8867137.965630708262324 ], [ 6892290.28215900901705, 8867258.863482376560569 ], [ 6892293.599085357040167, 8867312.255623327568173 ], [ 6892303.836685137823224, 8867340.911303794011474 ], [ 6892316.852061169221997, 8867384.737901747226715 ], [ 6892315.720621396787465, 8867415.781458897516131 ], [ 6892298.609322928823531, 8867526.340562516823411 ], [ 6892267.729801833629608, 8867723.03263440541923 ], [ 6892254.063036164268851, 8867767.731003241613507 ], [ 6892214.582345379516482, 8867726.210637541487813 ], [ 6892165.772780982777476, 8867796.260199893265963 ], [ 6892186.674870748072863, 8867819.684590689837933 ], [ 6892083.210477505810559, 8868122.063142465427518 ], [ 6892095.420802438631654, 8868405.750292962417006 ], [ 6892066.239114185795188, 8868489.734497865661979 ], [ 6892060.142919497564435, 8868531.036557640880346 ], [ 6891783.755230602808297, 8868462.35965166054666 ], [ 6891770.897497594356537, 8868533.546638231724501 ], [ 6892067.349702195264399, 8868615.167493240907788 ], [ 6891984.596138302236795, 8868779.63124374859035 ], [ 6891967.90109287854284, 8868853.155034355819225 ], [ 6891713.439896156080067, 8868893.883493717759848 ], [ 6891729.18708523735404, 8868972.937734669074416 ], [ 6891904.19207466673106, 8868942.585214385762811 ], [ 6891870.326500123366714, 8869114.834776096045971 ], [ 6891909.176492938771844, 8869142.163542808964849 ], [ 6891896.024907670915127, 8869210.404649134725332 ], [ 6891888.62058999761939, 8869246.718843786045909 ], [ 6891872.950882293283939, 8869273.371077926829457 ], [ 6891867.291324608027935, 8869285.7240942530334 ], [ 6891944.202101433649659, 8869297.131907094269991 ], [ 6891865.787499965168536, 8869534.615246901288629 ], [ 6891813.241390098817647, 8869671.168058620765805 ], [ 6891929.262162732891738, 8869629.754422623664141 ], [ 6891973.832714589312673, 8869715.129048261791468 ], [ 6891779.486528601497412, 8869789.814221147447824 ], [ 6891769.034952379763126, 8869873.946170341223478 ], [ 6891784.925935089588165, 8869890.180424930527806 ], [ 6891826.706896159797907, 8869911.380952874198556 ], [ 6891842.575237713754177, 8869978.968237422406673 ], [ 6891773.232469901442528, 8870014.578229323029518 ], [ 6891805.602265084162354, 8870135.540739711374044 ], [ 6891853.479518098756671, 8870122.553668512031436 ], [ 6892005.163866857998073, 8870074.898439656943083 ], [ 6892032.702650960534811, 8870067.694127529859543 ], [ 6892045.719482309184968, 8870063.546411575749516 ], [ 6892062.469328535720706, 8870054.789419766515493 ], [ 6892119.909787960350513, 8870027.780047964304686 ], [ 6892179.703194886445999, 8870008.214082892984152 ], [ 6892214.977934093214571, 8869996.923888085409999 ], [ 6892249.242044935002923, 8869988.680955711752176 ], [ 6892317.101160138845444, 8869971.997876444831491 ], [ 6892372.892512264661491, 8869953.237685827538371 ], [ 6892461.479068737477064, 8869924.123291481286287 ], [ 6892517.431547733955085, 8869906.164043759927154 ], [ 6892557.66814686730504, 8869893.069251133129001 ], [ 6892616.06119714025408, 8869875.366401696577668 ], [ 6892788.83532097004354, 8869827.064340705052018 ], [ 6892889.05348221771419, 8869807.935318490490317 ], [ 6892976.09503701236099, 8869791.528193030506372 ], [ 6893014.653709230944514, 8869782.844275267794728 ], [ 6893131.866026352159679, 8869754.80496110022068 ], [ 6893227.697501676157117, 8869733.435643885284662 ], [ 6893317.299939980730414, 8869711.841501794755459 ], [ 6893511.117429781705141, 8869670.228132614865899 ], [ 6893667.898848801851273, 8869633.518852347508073 ], [ 6893763.418481174856424, 8869613.597575277090073 ], [ 6893868.695633310824633, 8869590.68885657005012 ], [ 6894129.305903032422066, 8869534.600001502782106 ], [ 6894182.066916569136083, 8869520.246856799349189 ], [ 6894185.977206483483315, 8869548.709363557398319 ], [ 6894189.810077920556068, 8869590.420051645487547 ], [ 6894187.953375509008765, 8869612.585061261430383 ], [ 6894187.330149160698056, 8869636.768884848803282 ], [ 6894185.963456397876143, 8869655.589038318023086 ], [ 6894207.967339180409908, 8869656.253831297159195 ], [ 6894235.248242182657123, 8869654.392501622438431 ], [ 6894320.410870673134923, 8869641.466592082753778 ], [ 6894365.378589101135731, 8869637.229297995567322 ], [ 6894419.231637015938759, 8869632.524785056710243 ], [ 6894486.655199913308024, 8869620.507931614294648 ], [ 6894544.443493036553264, 8869610.639092031866312 ], [ 6894601.747158488258719, 8869602.483789280056953 ], [ 6894657.149952678009868, 8869592.147103987634182 ], [ 6894714.546509144827724, 8869582.136037619784474 ], [ 6894758.671329282224178, 8869576.437625596299767 ], [ 6894781.356250159442425, 8869574.05964620411396 ], [ 6894786.078538164496422, 8869569.687928790226579 ], [ 6894789.710842644795775, 8869562.225801756605506 ], [ 6894789.225423786789179, 8869542.412757406011224 ], [ 6894787.431057523936033, 8869528.866926060989499 ], [ 6894794.89773583970964, 8869521.416341967880726 ], [ 6894805.489555074833333, 8869517.113718731328845 ], [ 6894832.477400809526443, 8869512.28245478309691 ], [ 6894873.032581457868218, 8869504.858229780569673 ], [ 6894920.791369036771357, 8869495.861437480896711 ], [ 6895036.899192428216338, 8869472.51984691247344 ], [ 6895134.43656942807138, 8869454.283113792538643 ], [ 6895137.995491962879896, 8869449.716456497088075 ], [ 6895138.967076474800706, 8869446.554955452680588 ], [ 6895135.517043716274202, 8869407.876708652824163 ], [ 6895131.609358235262334, 8869367.752876468002796 ], [ 6895125.542347038164735, 8869322.511330559849739 ], [ 6895118.559683187864721, 8869265.032101606950164 ], [ 6895114.565283532254398, 8869218.203609719872475 ], [ 6895111.534606985747814, 8869192.818085504695773 ], [ 6895112.039021857082844, 8869181.941891193389893 ], [ 6895118.868573036976159, 8869171.238536667078733 ], [ 6895129.004664065316319, 8869165.096613040193915 ], [ 6895206.598994360305369, 8869130.05601704120636 ], [ 6895373.392383229918778, 8869051.824380911886692 ], [ 6895399.371600840240717, 8869038.356520239263773 ], [ 6895457.912747269496322, 8869003.008526334539056 ], [ 6895606.505467597395182, 8868913.978680748492479 ], [ 6895653.776340505108237, 8868882.771225275471807 ], [ 6895750.940640191547573, 8868817.919089561328292 ], [ 6895775.607378580607474, 8868871.634616013616323 ], [ 6895998.511232119053602, 8868791.706878375262022 ], [ 6896030.707473010756075, 8869039.748715903609991 ], [ 6896152.402962398715317, 8869021.365560142323375 ], [ 6896135.074521727859974, 8868906.678900426253676 ], [ 6896186.509696915745735, 8868865.515931654721498 ], [ 6896160.557810354977846, 8868714.173256818205118 ], [ 6896294.948832378722727, 8868672.323310365900397 ], [ 6896288.82809320371598, 8868645.163363551720977 ], [ 6896281.113316825591028, 8868626.657302893698215 ], [ 6896281.649667986668646, 8868617.94207845069468 ], [ 6896347.121024737134576, 8868596.70608532987535 ], [ 6896519.398194720968604, 8868535.116036409512162 ], [ 6896551.17085644043982, 8868520.885764406993985 ], [ 6896568.00218325201422, 8868509.655794100835919 ], [ 6896580.854707571677864, 8868497.080079788342118 ], [ 6896593.282407793216407, 8868485.659869022667408 ], [ 6896606.569110372103751, 8868479.05419790931046 ], [ 6896652.266493912786245, 8868463.876851694658399 ], [ 6896737.863904621452093, 8868423.385047219693661 ], [ 6896767.7703020228073, 8868413.518955716863275 ], [ 6896775.735382905229926, 8868409.419313382357359 ], [ 6896783.05004102922976, 8868402.021387850865722 ], [ 6896790.159905744716525, 8868386.894707202911377 ], [ 6896795.102178488858044, 8868373.649379866197705 ], [ 6896836.688925256021321, 8868190.83611267618835 ], [ 6896844.06501570623368, 8868196.57668586447835 ], [ 6896905.101272832602262, 8868248.262371700257063 ], [ 6896983.825536431744695, 8868307.14864076115191 ], [ 6897088.487675568088889, 8868389.065440675243735 ], [ 6897109.257391600869596, 8868404.621974799782038 ], [ 6897732.375568533316255, 8867165.740483835339546 ], [ 6898062.670985787175596, 8866965.517846751958132 ], [ 6898226.578312518075109, 8866641.7353261038661 ], [ 6896727.324058464728296, 8864750.840496497228742 ] ] ] } }
]
}
