{
"type": "FeatureCollection",
"name": "2801603",
"crs": { "type": "name", "properties": { "name": "urn:ogc:def:crs:EPSG::5880" } },
"features": [
{ "type": "Feature", "properties": { "lv_id": "LOC_027829", "id": 131916.0, "CD_SETOR": "280160305000002", "SITUACAO": "Urbana", "CD_SIT": "1", "CD_TIPO": "0", "AREA_KM2": 0.16211653238340201, "CD_REGIAO": "2", "NM_REGIAO": "Nordeste", "CD_UF": "28", "NM_UF": "Sergipe", "CD_MUN": "2801603", "NM_MUN": "Cedro de São João", "CD_DIST": "280160305", "NM_DIST": "Cedro de São João", "CD_SUBDIST": "28016030500", "NM_SUBDIST": null, "CD_BAIRRO": null, "NM_BAIRRO": null, "CD_NU": null, "NM_NU": null, "CD_FCU": null, "NM_FCU": null, "CD_AGLOM": null, "NM_AGLOM": null, "CD_RGINT": "2801", "NM_RGINT": "Aracaju", "CD_RGI": "280003", "NM_RGI": "Propriá", "CD_CONCURB": null, "NM_CONCURB": null, "mun_code_x": "2801603", "index_right": 79807, "dist_m": 33.006366666056095, "local_id": 294729, "ano": 2022, "cod_localidade_ibge": 2801603, "NR_ZONA": "3", "nr_cep": 49930000.0, "nm_localidade": "CEDRO DE SÃO JOÃO", "nm_locvot": "COLÉGIO ESTADUAL  MANOEL DANTAS", "ds_endereco": "RUA ANTÔNIO BATISTA, 106", "ds_bairro": "CENTRO", "pred_long": -36.881214, "pred_lat": -10.250414, "pred_dist": 0.0, "tse_long": -36.88125898, "tse_lat": -10.25039773, "long": -36.88125898, "lat": -10.25039773, "ID_UNICO": "LOC_027829", "SG_UF": "SE", "CD_MUNICIPIO": "31313", "NR_LOCAL_VOTACAO": "1023", "QT_SECOES_AGREGADAS": 0, "QT_ELEITORES_TRANSFERIDOS": 4, "CIRO GOMES (PDT) (NÃO ELEITO) 1T": 42.0, "CONSTITUINTE EYMAEL (DC) (NÃO ELEITO) 1T": 1.0, "FELIPE D AVILA (NOVO) (NÃO ELEITO) 1T": 2.0, "JAIR BOLSONARO (PL) (2º TURNO) 1T": 521.0, "LULA (PT) (2º TURNO) 1T": 1200.0, "LÉO PÉRICLES (UP) (NÃO ELEITO) 1T": 0.0, "PADRE KELMON (PTB) (NÃO ELEITO) 1T": 0.0, "SIMONE TEBET (MDB) (NÃO ELEITO) 1T": 31.0, "SOFIA MANZANO (PCB) (NÃO ELEITO) 1T": 0.0, "SORAYA THRONICKE (UNIÃO) (NÃO ELEITO) 1T": 1.0, "VERA (PSTU) (NÃO ELEITO) 1T": 0.0, "Total_Votos_Validos 1T": 1798.0, "Votos_Brancos 1T": 15.0, "Votos_Nulos 1T": 47.0, "Abstenções 1T": 273.0, "Eleitores_Aptos 1T": 2133.0, "JAIR BOLSONARO (PL) (NÃO ELEITO) 2T": 598.0, "LULA (PT) (ELEITO) 2T": 1185.0, "Total_Votos_Validos 2T": 1783.0, "Votos_Brancos 2T": 12.0, "Votos_Nulos 2T": 42.0, "Abstenções 2T": 296.0, "Eleitores_Aptos 2T": 2133.0, "mun_code_y": "2801603", "mun_code": "2801603" }, "geometry": { "type": "Polygon", "coordinates": [ [ [ 6874910.738028980791569, 8815308.698084622621536 ], [ 6874899.994342552497983, 8815308.415246089920402 ], [ 6874898.126747652888298, 8815308.364502403885126 ], [ 6874896.578216298483312, 8815308.331432579085231 ], [ 6874891.239191881380975, 8815308.188263215124607 ], [ 6874888.855621796101332, 8815308.130337914451957 ], [ 6874810.010721011087298, 8815315.60267180763185 ], [ 6874748.311744961887598, 8815524.781631151214242 ], [ 6874707.450548592023551, 8815532.772304680198431 ], [ 6874577.110461244359612, 8815537.103251127526164 ], [ 6874520.284748019650578, 8815521.648348802700639 ], [ 6874510.633212934248149, 8815523.988676782697439 ], [ 6874512.910522744059563, 8815535.599112793803215 ], [ 6874449.098157804459333, 8815555.676762344315648 ], [ 6874421.023919938132167, 8815613.299259170889854 ], [ 6874410.221947272308171, 8815635.511723576113582 ], [ 6874391.352457328699529, 8815664.325947027653456 ], [ 6874381.050605325959623, 8815677.889226377010345 ], [ 6874376.716898704878986, 8815685.609792958945036 ], [ 6874370.950250387191772, 8815695.498716842383146 ], [ 6874351.721898466348648, 8815738.999372471123934 ], [ 6874347.876007927581668, 8815744.729028958827257 ], [ 6874342.137489234097302, 8815756.407951863482594 ], [ 6874339.606259651482105, 8815761.686171626672149 ], [ 6874327.762287583202124, 8815792.472371503710747 ], [ 6874323.715327445417643, 8815822.369469199329615 ], [ 6874328.212223372422159, 8815838.230670031160116 ], [ 6874334.663453144952655, 8815849.526325989514589 ], [ 6874352.149836810305715, 8815876.473767155781388 ], [ 6874360.045755442231894, 8815890.212221356108785 ], [ 6874365.817413236945868, 8815896.504679065197706 ], [ 6874369.548464603722095, 8815899.033769758418202 ], [ 6874375.784713014028966, 8815904.145665764808655 ], [ 6874378.887822178192437, 8815909.967628354206681 ], [ 6874356.014143166132271, 8815935.030246552079916 ], [ 6874361.06101291347295, 8815945.487607415765524 ], [ 6874360.434027510695159, 8815952.559976484626532 ], [ 6874359.058522172272205, 8815961.25568094663322 ], [ 6874357.434992828406394, 8815967.525794912129641 ], [ 6874360.73822998162359, 8815980.503233414143324 ], [ 6874365.188325338065624, 8815982.728214362636209 ], [ 6874368.305633544921875, 8815984.850781481713057 ], [ 6874367.247075128369033, 8815986.837372334674001 ], [ 6874370.512033502571285, 8815991.772297721356153 ], [ 6874375.568263721652329, 8815998.438062263652682 ], [ 6874373.082775181159377, 8816002.708255002275109 ], [ 6874367.121433166787028, 8816004.713149789720774 ], [ 6874364.010798828676343, 8816007.94170356541872 ], [ 6874361.844725463539362, 8816008.057026322931051 ], [ 6874357.842634752392769, 8816008.096725152805448 ], [ 6874349.071011967025697, 8816012.782493652775884 ], [ 6874342.530367892235518, 8816015.245877418667078 ], [ 6874337.580282593145967, 8816022.7217689268291 ], [ 6874335.188600331544876, 8816031.286625141277909 ], [ 6874334.023137343116105, 8816040.849556619301438 ], [ 6874336.202604759484529, 8816053.736560873687267 ], [ 6874338.062465113587677, 8816063.670110799372196 ], [ 6874337.582294709980488, 8816076.883640982210636 ], [ 6874338.234247504733503, 8816082.824550265446305 ], [ 6874338.37878546398133, 8816101.460317930206656 ], [ 6874341.279527107253671, 8816112.205328993499279 ], [ 6874344.54194606281817, 8816117.510266780853271 ], [ 6874343.849126199260354, 8816119.985940840095282 ], [ 6874346.328015861101449, 8816125.829596020281315 ], [ 6874340.521363127976656, 8816144.366075117141008 ], [ 6874338.084874479100108, 8816146.853661360219121 ], [ 6874333.33362708799541, 8816148.50513431802392 ], [ 6874318.949283103458583, 8816148.045682964846492 ], [ 6874314.132222866639495, 8816145.308524869382381 ], [ 6874311.510755752213299, 8816146.1531254760921 ], [ 6874309.409818321466446, 8816148.345446601510048 ], [ 6874293.14581295568496, 8816152.412847319617867 ], [ 6874282.272164900787175, 8816158.435593940317631 ], [ 6874268.587392169982195, 8816167.959852145984769 ], [ 6874261.334866939112544, 8816176.089908447116613 ], [ 6874258.567252838052809, 8816180.629347676411271 ], [ 6874255.945584857836366, 8816184.814270677044988 ], [ 6874248.786264255642891, 8816194.511268392205238 ], [ 6874244.522407633252442, 8816198.7604821305722 ], [ 6874242.106220438145101, 8816202.680181397125125 ], [ 6874235.655905841849744, 8816215.853116581216455 ], [ 6874233.175537096336484, 8816218.759106883779168 ], [ 6874228.709863890893757, 8816223.134634964168072 ], [ 6874226.58385319262743, 8816225.894621595740318 ], [ 6874223.0003697341308, 8816231.402125254273415 ], [ 6874218.819478108547628, 8816236.814284440129995 ], [ 6874215.844436965882778, 8816242.000444075092673 ], [ 6874213.812289513647556, 8816246.13085413724184 ], [ 6874213.130587296560407, 8816247.773725377395749 ], [ 6874211.005882691591978, 8816250.140658993273973 ], [ 6874209.852097908966243, 8816253.657965278252959 ], [ 6874210.631086323410273, 8816256.795002920553088 ], [ 6874211.929494976997375, 8816258.332482099533081 ], [ 6874212.005716605111957, 8816259.784755937755108 ], [ 6874211.095784574747086, 8816262.722731983289123 ], [ 6874207.535110376775265, 8816271.800486654043198 ], [ 6874205.82162510510534, 8816275.104858744889498 ], [ 6874204.186994126066566, 8816276.567283352836967 ], [ 6874202.006272447295487, 8816279.33017192222178 ], [ 6874201.439655023626983, 8816282.538827313110232 ], [ 6874202.620377657935023, 8816288.104815937578678 ], [ 6874202.474763348698616, 8816292.01922894269228 ], [ 6874201.238882200792432, 8816298.153047565370798 ], [ 6874200.199208358302712, 8816304.680958725512028 ], [ 6874199.604657828807831, 8816307.775517867878079 ], [ 6874198.098520372994244, 8816310.641197400167584 ], [ 6874197.72931657359004, 8816314.2669966109097 ], [ 6874198.175157839432359, 8816317.745393857359886 ], [ 6874199.794572929851711, 8816323.72724562138319 ], [ 6874202.478938817046583, 8816329.097627559676766 ], [ 6874204.341015998274088, 8816331.968975620344281 ], [ 6874205.670478353276849, 8816333.262084294110537 ], [ 6874206.223106337711215, 8816335.012631565332413 ], [ 6874206.38376537989825, 8816336.610667370259762 ], [ 6874206.757224675267935, 8816337.873748801648617 ], [ 6874207.377669204026461, 8816338.199031407013535 ], [ 6874208.280770314857364, 8816340.774673128500581 ], [ 6874210.075393080711365, 8816343.614938054233789 ], [ 6874212.619578700512648, 8816345.687145698815584 ], [ 6874215.616792876273394, 8816346.775914145633578 ], [ 6874219.641301171854138, 8816347.162750799208879 ], [ 6874222.344504337757826, 8816347.666141400113702 ], [ 6874224.426001246087253, 8816348.029247157275677 ], [ 6874224.953223746269941, 8816349.295704357326031 ], [ 6874224.098236996680498, 8816351.190517129376531 ], [ 6874222.637719878926873, 8816353.880396690219641 ], [ 6874221.384351129643619, 8816356.963787598535419 ], [ 6874221.106705370359123, 8816358.989687740802765 ], [ 6874221.806200717575848, 8816359.148949248716235 ], [ 6874222.860922940075397, 8816358.133487077429891 ], [ 6874226.318650992587209, 8816355.036801632493734 ], [ 6874226.999550444073975, 8816354.214606931433082 ], [ 6874228.495099082589149, 8816352.401284419000149 ], [ 6874232.77855275478214, 8816350.196863757446408 ], [ 6874233.88524301443249, 8816350.380686165764928 ], [ 6874237.181671231985092, 8816350.690689641982317 ], [ 6874239.87630280572921, 8816351.448816370218992 ], [ 6874242.46416238322854, 8816351.426668537780643 ], [ 6874246.674338910728693, 8816353.051907535642385 ], [ 6874248.166690682061017, 8816354.313232973217964 ], [ 6874250.030755701474845, 8816354.086884327232838 ], [ 6874251.270694598555565, 8816353.674146829172969 ], [ 6874254.527044896036386, 8816353.847584310919046 ], [ 6874256.736537894234061, 8816355.186324490234256 ], [ 6874260.801110337488353, 8816358.21785569190979 ], [ 6874261.744550448842347, 8816359.889816489070654 ], [ 6874262.283007965423167, 8816362.415521873161197 ], [ 6874261.766086864285171, 8816366.153216414153576 ], [ 6874258.445098211988807, 8816374.154865968972445 ], [ 6874256.089824924245477, 8816377.354696787893772 ], [ 6874252.586935582570732, 8816378.754733577370644 ], [ 6874250.921757583506405, 8816378.381027333438396 ], [ 6874250.776703633368015, 8816380.006894731894135 ], [ 6874249.247623993083835, 8816382.226539220660925 ], [ 6874241.349371066316962, 8816383.698681093752384 ], [ 6874235.573820354416966, 8816383.601518929004669 ], [ 6874225.362202867865562, 8816385.936496807262301 ], [ 6874222.722404713742435, 8816387.059430882334709 ], [ 6874216.087239480577409, 8816392.740869704633951 ], [ 6874205.958459160290658, 8816399.163021022453904 ], [ 6874200.939235380850732, 8816407.624877853319049 ], [ 6874198.701869196258485, 8816415.580383595079184 ], [ 6874197.805714598856866, 8816424.007745945826173 ], [ 6874195.843481819145381, 8816442.223815932869911 ], [ 6874198.844438578933477, 8816454.882123546674848 ], [ 6874204.010548609308898, 8816466.361863410100341 ], [ 6874206.671913288533688, 8816478.402549535036087 ], [ 6874209.779280594550073, 8816483.681090403348207 ], [ 6874211.913492877036333, 8816489.439070718362927 ], [ 6874211.215829098597169, 8816491.614458279684186 ], [ 6874213.560211004689336, 8816497.823582477867603 ], [ 6874217.506748497486115, 8816501.323745215311646 ], [ 6874220.932937142439187, 8816502.85203405469656 ], [ 6874222.951059773564339, 8816503.888901207596064 ], [ 6874224.201466557569802, 8816505.348041566088796 ], [ 6874225.602577277459204, 8816509.261054635047913 ], [ 6874226.765535237267613, 8816512.816879352554679 ], [ 6874228.436193811707199, 8816517.894483966752887 ], [ 6874231.022481389343739, 8816519.305654756724834 ], [ 6874232.222866334021091, 8816521.484065366908908 ], [ 6874236.935466987080872, 8816523.903231970965862 ], [ 6874241.632022282108665, 8816527.271024227142334 ], [ 6874249.098833102732897, 8816535.137795219197869 ], [ 6874254.351243983022869, 8816539.481574246659875 ], [ 6874259.959711752831936, 8816541.829956248402596 ], [ 6874269.620297634974122, 8816543.627524193376303 ], [ 6874273.975886494852602, 8816544.678708825260401 ], [ 6874279.155138258822262, 8816542.819628288969398 ], [ 6874286.110154275782406, 8816545.009669072926044 ], [ 6874293.458545542322099, 8816551.351292170584202 ], [ 6874293.58119726087898, 8816551.807093961164355 ], [ 6874296.546823505312204, 8816562.329072633758187 ], [ 6874295.524709179066122, 8816566.475070420652628 ], [ 6874293.848577572032809, 8816573.210234887897968 ], [ 6874285.121737251989543, 8816591.71697486191988 ], [ 6874283.319272708147764, 8816600.435308890417218 ], [ 6874284.795638230629265, 8816604.737310258671641 ], [ 6874284.770075667649508, 8816604.877368949353695 ], [ 6874287.820995159447193, 8816602.80792199447751 ], [ 6874320.420517526566982, 8816590.589937724173069 ], [ 6874322.864106945693493, 8816593.881143374368548 ], [ 6874334.361655439250171, 8816608.734244855120778 ], [ 6874353.777823673561215, 8816635.255915988236666 ], [ 6874371.848111898638308, 8816653.481064520776272 ], [ 6874384.929093257524073, 8816667.568022150546312 ], [ 6874384.495014706626534, 8816668.076566588133574 ], [ 6874378.724502617493272, 8816674.139629604294896 ], [ 6874318.373741987161338, 8816727.213022947311401 ], [ 6874312.031455337069929, 8816732.624528776854277 ], [ 6874305.628585796803236, 8816734.999443612992764 ], [ 6874292.887274237349629, 8816739.722721865400672 ], [ 6874287.162630046717823, 8816739.969509962946177 ], [ 6874265.046774188056588, 8816745.838798977434635 ], [ 6874240.859000909142196, 8816756.33754469640553 ], [ 6874217.172009447589517, 8816771.363527748733759 ], [ 6874199.236497762612998, 8816781.217500185593963 ], [ 6874135.809268867596984, 8816816.018343575298786 ], [ 6874126.287113148719072, 8816821.252165339887142 ], [ 6874111.294196206144989, 8816829.481601849198341 ], [ 6874093.378779681399465, 8816834.491520334035158 ], [ 6874076.414593364112079, 8816839.231218814849854 ], [ 6874070.327300352044404, 8816840.93044258095324 ], [ 6874084.843437073752284, 8816860.21155109629035 ], [ 6874101.105287960730493, 8816876.591200107708573 ], [ 6874108.50996911060065, 8816882.438693208619952 ], [ 6874128.476964313536882, 8816891.651734571903944 ], [ 6874134.262867352925241, 8816896.3370670825243 ], [ 6874181.419560604728758, 8816952.278119102120399 ], [ 6874197.498608705587685, 8816970.401313588023186 ], [ 6874203.102104200050235, 8816975.373769506812096 ], [ 6874241.088989276438951, 8816991.187415609136224 ], [ 6874252.768931614235044, 8816994.253191770985723 ], [ 6874262.460173179395497, 8816995.378953520208597 ], [ 6874279.696014961227775, 8816995.398346493020654 ], [ 6874288.515709511004388, 8816994.339732512831688 ], [ 6874293.533437522128224, 8816992.327535452321172 ], [ 6874305.257233951240778, 8816984.098606554791331 ], [ 6874312.695796847343445, 8816981.807372184470296 ], [ 6874322.841482629068196, 8816981.348584979772568 ], [ 6874350.9747075708583, 8816983.52755369246006 ], [ 6874363.475337479263544, 8816985.925509452819824 ], [ 6874383.286974974907935, 8816992.384473966434598 ], [ 6874417.965985029004514, 8817007.669029537588358 ], [ 6874428.979002390056849, 8817009.313926367089152 ], [ 6874491.908343194052577, 8816980.907871793955564 ], [ 6874554.979181867092848, 8817002.044621612876654 ], [ 6874598.655340128578246, 8817003.130750745534897 ], [ 6874615.586970931850374, 8816974.975335901603103 ], [ 6874657.217703133821487, 8816908.218384834006429 ], [ 6874653.775411392562091, 8816861.428229063749313 ], [ 6874708.747171613387764, 8816814.350027866661549 ], [ 6874721.860057747922838, 8816768.412554087117314 ], [ 6874720.223641940392554, 8816731.373949613422155 ], [ 6874757.035574205219746, 8816697.825675286352634 ], [ 6874730.522557394579053, 8816655.441729189828038 ], [ 6874699.645248755812645, 8816593.028215702623129 ], [ 6874690.392970992252231, 8816574.345218865200877 ], [ 6874702.913450144231319, 8816564.998459214344621 ], [ 6874799.035106917843223, 8816635.613538224250078 ], [ 6874856.623510714620352, 8816628.375845048576593 ], [ 6874891.550965190865099, 8816604.913932671770453 ], [ 6874893.724816487170756, 8816625.430200496688485 ], [ 6874896.107127157971263, 8816640.930532455444336 ], [ 6874887.083984745666385, 8816654.206076925620437 ], [ 6874878.726361569948494, 8816664.903312344104052 ], [ 6874873.030955377966166, 8816679.712380396202207 ], [ 6874862.662259010598063, 8816682.818661138415337 ], [ 6874860.951387222856283, 8816682.828808274120092 ], [ 6874846.459745143540204, 8816682.837223811075091 ], [ 6874848.703733288682997, 8816694.657727768644691 ], [ 6874851.255759500898421, 8816697.087892878800631 ], [ 6874851.521793551743031, 8816697.767244411632419 ], [ 6874855.91808523889631, 8816708.791252268478274 ], [ 6874860.987710000947118, 8816712.786530861631036 ], [ 6874868.257155675441027, 8816727.760905720293522 ], [ 6874867.581882211379707, 8816730.362833674997091 ], [ 6874864.39873971324414, 8816731.376012749969959 ], [ 6874856.448365608230233, 8816734.3651208486408 ], [ 6874848.597847677767277, 8816739.048010628670454 ], [ 6874842.90047028940171, 8816751.730372857302427 ], [ 6874839.167282470501959, 8816760.031553605571389 ], [ 6874841.456595049239695, 8816772.716534368693829 ], [ 6874846.570974760688841, 8816777.564773289486766 ], [ 6874861.238832723349333, 8816794.711424583569169 ], [ 6874873.092419886961579, 8816788.960186464712024 ], [ 6874879.597520288079977, 8816786.024891089648008 ], [ 6874888.128546104766428, 8816782.184238417074084 ], [ 6874892.527969440445304, 8816773.408358782529831 ], [ 6874893.477486882358789, 8816760.562540307641029 ], [ 6874899.887330091558397, 8816759.366079084575176 ], [ 6874901.59597469959408, 8816760.985807422548532 ], [ 6874907.564686165191233, 8816766.643913883715868 ], [ 6874913.354351687245071, 8816768.890225071460009 ], [ 6874919.451467573642731, 8816761.734641510993242 ], [ 6874926.006537109613419, 8816763.096442462876439 ], [ 6874931.25521557033062, 8816770.503537205979228 ], [ 6874923.717416450381279, 8816781.145565558224916 ], [ 6874922.589457651600242, 8816790.591128416359425 ], [ 6874927.162245775572956, 8816800.588636007159948 ], [ 6874942.555856639519334, 8816800.624737575650215 ], [ 6874945.794102952815592, 8816800.45240093767643 ], [ 6874963.069527243264019, 8816790.14746224321425 ], [ 6874995.659954598173499, 8816778.17208169773221 ], [ 6875017.206364270299673, 8816771.90488787740469 ], [ 6875019.757793879136443, 8816774.323543265461922 ], [ 6875015.268872461281717, 8816781.393579315394163 ], [ 6875008.987068561837077, 8816800.499049073085189 ], [ 6875009.523008186370134, 8816810.711431507021189 ], [ 6875009.482599621638656, 8816814.331418830901384 ], [ 6875009.383666596375406, 8816823.525758065283298 ], [ 6875020.551034862175584, 8816820.376983296126127 ], [ 6875030.254839443601668, 8816819.860543532297015 ], [ 6875032.021403326652944, 8816815.894396560266614 ], [ 6875035.319187903776765, 8816808.494762474671006 ], [ 6875039.416791617870331, 8816793.759081296622753 ], [ 6875043.464213399216533, 8816790.191674757748842 ], [ 6875045.603424629196525, 8816788.309354804456234 ], [ 6875056.289909835904837, 8816775.788991035893559 ], [ 6875046.374249669723213, 8816758.054136659950018 ], [ 6875043.772309930995107, 8816753.418918050825596 ], [ 6875041.628153891302645, 8816743.292115896940231 ], [ 6875048.344527758657932, 8816736.230648895725608 ], [ 6875048.983199085108936, 8816729.169022303074598 ], [ 6875074.176073396578431, 8816700.827178986743093 ], [ 6875114.062207946553826, 8816647.476222163066268 ], [ 6875145.1800197660923, 8816644.652364052832127 ], [ 6875170.471742652356625, 8816590.401977630332112 ], [ 6875190.720023795031011, 8816499.224077973514795 ], [ 6875186.293454574421048, 8816430.997626701369882 ], [ 6875189.139477528631687, 8816404.758127700537443 ], [ 6875200.831893496215343, 8816335.765863571316004 ], [ 6875189.209935373626649, 8816312.492873491719365 ], [ 6875129.360683035105467, 8816281.466024152934551 ], [ 6875106.958804379217327, 8816263.910731324926019 ], [ 6875062.454510619863868, 8816218.62423175945878 ], [ 6875001.797186153009534, 8816117.67643965408206 ], [ 6874924.323076567612588, 8815968.281144592911005 ], [ 6874941.780469299294055, 8815759.0542270578444 ], [ 6874956.350061669945717, 8815652.771298825740814 ], [ 6874981.234104303643107, 8815525.664852185174823 ], [ 6874992.112036334350705, 8815376.707258824259043 ], [ 6874956.88468705303967, 8815346.185588892549276 ], [ 6874910.738028980791569, 8815308.698084622621536 ] ] ] } },
{ "type": "Feature", "properties": { "lv_id": "LOC_027830", "id": 131924.0, "CD_SETOR": "280160305000014", "SITUACAO": "Rural", "CD_SIT": "5", "CD_TIPO": "0", "AREA_KM2": 0.081396496373715002, "CD_REGIAO": "2", "NM_REGIAO": "Nordeste", "CD_UF": "28", "NM_UF": "Sergipe", "CD_MUN": "2801603", "NM_MUN": "Cedro de São João", "CD_DIST": "280160305", "NM_DIST": "Cedro de São João", "CD_SUBDIST": "28016030500", "NM_SUBDIST": null, "CD_BAIRRO": null, "NM_BAIRRO": null, "CD_NU": null, "NM_NU": null, "CD_FCU": null, "NM_FCU": null, "CD_AGLOM": "280160300001", "NM_AGLOM": "Poço dos Bois", "CD_RGINT": "2801", "NM_RGINT": "Aracaju", "CD_RGI": "280003", "NM_RGI": "Propriá", "CD_CONCURB": null, "NM_CONCURB": null, "mun_code_x": "2801603", "index_right": 79810, "dist_m": 27.935746863223159, "local_id": 294732, "ano": 2022, "cod_localidade_ibge": 2801603, "NR_ZONA": "3", "nr_cep": 49930000.0, "nm_localidade": "CEDRO DE SÃO JOÃO", "nm_locvot": "ESCOLA ESTADUAL DR. JOÃO LIMA", "ds_endereco": "POVOADO POÇO DOS BOIS", "ds_bairro": "POVOADO POÇO DOS BOIS", "pred_long": -36.91111, "pred_lat": -10.29028, "pred_dist": 0.028009646572930799, "tse_long": null, "tse_lat": null, "long": -36.91111, "lat": -10.29028, "ID_UNICO": "LOC_027830", "SG_UF": "SE", "CD_MUNICIPIO": "31313", "NR_LOCAL_VOTACAO": "1066", "QT_SECOES_AGREGADAS": 0, "QT_ELEITORES_TRANSFERIDOS": 4, "CIRO GOMES (PDT) (NÃO ELEITO) 1T": 5.0, "CONSTITUINTE EYMAEL (DC) (NÃO ELEITO) 1T": 0.0, "FELIPE D AVILA (NOVO) (NÃO ELEITO) 1T": 0.0, "JAIR BOLSONARO (PL) (2º TURNO) 1T": 129.0, "LULA (PT) (2º TURNO) 1T": 236.0, "LÉO PÉRICLES (UP) (NÃO ELEITO) 1T": 0.0, "PADRE KELMON (PTB) (NÃO ELEITO) 1T": 0.0, "SIMONE TEBET (MDB) (NÃO ELEITO) 1T": 7.0, "SOFIA MANZANO (PCB) (NÃO ELEITO) 1T": 0.0, "SORAYA THRONICKE (UNIÃO) (NÃO ELEITO) 1T": 2.0, "VERA (PSTU) (NÃO ELEITO) 1T": 0.0, "Total_Votos_Validos 1T": 379.0, "Votos_Brancos 1T": 6.0, "Votos_Nulos 1T": 12.0, "Abstenções 1T": 85.0, "Eleitores_Aptos 1T": 482.0, "JAIR BOLSONARO (PL) (NÃO ELEITO) 2T": 142.0, "LULA (PT) (ELEITO) 2T": 225.0, "Total_Votos_Validos 2T": 367.0, "Votos_Brancos 2T": 4.0, "Votos_Nulos 2T": 16.0, "Abstenções 2T": 95.0, "Eleitores_Aptos 2T": 482.0, "mun_code_y": "2801603", "mun_code": "2801603" }, "geometry": { "type": "Polygon", "coordinates": [ [ [ 6874713.623969670385122, 8811203.27075282484293 ], [ 6874616.692013374529779, 8811212.452905893325806 ], [ 6874545.867709134705365, 8811219.163960469886661 ], [ 6874471.970287795178592, 8811244.359362363815308 ], [ 6874336.371623370796442, 8811248.117902671918273 ], [ 6874306.064858092926443, 8811248.963639795780182 ], [ 6874303.765410542488098, 8811248.000073648989201 ], [ 6874225.464531822130084, 8811215.256824586540461 ], [ 6874208.794278401881456, 8811196.371625583618879 ], [ 6874180.272001254372299, 8811164.065093046054244 ], [ 6874022.861467343755066, 8811076.36120767891407 ], [ 6873873.169673002324998, 8810956.95734085328877 ], [ 6873793.963113544508815, 8810866.657578583806753 ], [ 6873703.368644163943827, 8810821.257783450186253 ], [ 6873052.153811976313591, 8809671.464418603107333 ], [ 6872715.054006296209991, 8809378.654661970213056 ], [ 6872618.86033634096384, 8809268.260023148730397 ], [ 6871930.748101994395256, 8808395.054422941058874 ], [ 6871760.652755882591009, 8808222.156591925770044 ], [ 6870570.445155711844563, 8808868.863549318164587 ], [ 6868624.655896633863449, 8810174.039464831352234 ], [ 6868617.970567671582103, 8810178.521473513916135 ], [ 6868584.639294599182904, 8810200.868593245744705 ], [ 6868233.446584123186767, 8810436.473630014806986 ], [ 6868654.454530769959092, 8813942.474643373861909 ], [ 6868692.773510228842497, 8813942.724525086581707 ], [ 6868751.075655996799469, 8813927.432611893862486 ], [ 6868805.551629362627864, 8813907.583232443779707 ], [ 6868835.747192290611565, 8813888.48215239867568 ], [ 6868862.517754532396793, 8813864.525022681802511 ], [ 6868940.436061346903443, 8813767.53178340755403 ], [ 6868962.510639855638146, 8813743.142386134713888 ], [ 6868984.373157498426735, 8813727.465501841157675 ], [ 6869010.133186323568225, 8813724.396268328651786 ], [ 6869049.52626633644104, 8813734.248727962374687 ], [ 6869111.156572060659528, 8813752.081568153575063 ], [ 6869126.206397760659456, 8813762.108379777520895 ], [ 6869135.076255421154201, 8813779.374253608286381 ], [ 6869143.939879419282079, 8813835.6174511089921 ], [ 6869150.41185381449759, 8813861.122957902029157 ], [ 6869173.652909982949495, 8813907.680396450683475 ], [ 6869212.48816647566855, 8813949.132719714194536 ], [ 6869234.360651887953281, 8813971.068774381652474 ], [ 6869256.939119138754904, 8813993.706862704828382 ], [ 6869288.259802050888538, 8814022.397289508953691 ], [ 6869295.173539089038968, 8814027.888199279084802 ], [ 6869315.760060173459351, 8814034.512188456952572 ], [ 6869344.233896385878325, 8814031.10224860906601 ], [ 6869466.795436621643603, 8813996.559013858437538 ], [ 6869510.032230762764812, 8813996.662161657586694 ], [ 6869602.150017235428095, 8814004.922862017527223 ], [ 6869714.323508528061211, 8814030.594099784269929 ], [ 6869769.443740647286177, 8814046.855458686128259 ], [ 6869867.175125831738114, 8814108.991507057100534 ], [ 6869885.508326674811542, 8814118.035003529861569 ], [ 6869903.405496899038553, 8814121.277497762814164 ], [ 6869923.657535088248551, 8814115.461908102035522 ], [ 6869957.242169572971761, 8814091.753057703375816 ], [ 6869974.545033127069473, 8814071.337310425937176 ], [ 6869989.00284009706229, 8814021.165941536426544 ], [ 6869998.85243752785027, 8814008.184368401765823 ], [ 6870021.309736166149378, 8813997.779050506651402 ], [ 6870058.022229344584048, 8813992.497058359906077 ], [ 6870091.656089535914361, 8813986.870400225743651 ], [ 6870165.226976841688156, 8813936.660923210904002 ], [ 6870193.299630889669061, 8813928.117468196898699 ], [ 6870230.030865108594298, 8813927.791759114712477 ], [ 6870298.441335812211037, 8813939.774283245205879 ], [ 6870342.333204725757241, 8813937.518803047016263 ], [ 6870363.740839583799243, 8813924.464783446863294 ], [ 6870426.554266449064016, 8813872.665652617812157 ], [ 6870476.332618878223002, 8813848.809831755235791 ], [ 6870519.334215126931667, 8813830.226072732359171 ], [ 6870553.493563286960125, 8813811.211583221331239 ], [ 6870569.714455535635352, 8813801.958043618127704 ], [ 6870587.760905391536653, 8813800.73139588162303 ], [ 6870623.474163861945271, 8813805.46323168464005 ], [ 6870772.845362011343241, 8813841.978953531011939 ], [ 6870834.911513268016279, 8813866.837226755917072 ], [ 6870903.180821510963142, 8813902.031904567033052 ], [ 6870984.121480486355722, 8813949.368186855688691 ], [ 6871016.523365152068436, 8813981.492054637521505 ], [ 6871026.662516838870943, 8814003.279477370902896 ], [ 6871042.534321001730859, 8814075.541287958621979 ], [ 6871051.327493529766798, 8814088.617428362369537 ], [ 6871068.610551191493869, 8814109.620085373520851 ], [ 6871106.017912142910063, 8814124.674426706507802 ], [ 6871177.178749334067106, 8814153.510011291131377 ], [ 6871248.321250464767218, 8814196.411120677366853 ], [ 6871290.312252406962216, 8814240.263521498069167 ], [ 6871299.349937328137457, 8814265.727147361263633 ], [ 6871312.815247618593276, 8814289.649155648425221 ], [ 6871328.982339655980468, 8814303.812154419720173 ], [ 6871351.846819611266255, 8814309.101288583129644 ], [ 6871391.482561345212162, 8814307.256860297173262 ], [ 6871505.760911414399743, 8814300.894990747794509 ], [ 6871601.783635595813394, 8814313.926456443965435 ], [ 6871650.580339029431343, 8814327.981653410941362 ], [ 6871703.528483194299042, 8814350.067441143095493 ], [ 6871733.211350863799453, 8814359.858915738761425 ], [ 6871759.249090640805662, 8814361.442591108381748 ], [ 6871800.146898964419961, 8814352.504000369459391 ], [ 6871875.691000521183014, 8814347.394851177930832 ], [ 6871928.516087437979877, 8814335.382367305457592 ], [ 6872013.643810619600117, 8814317.03816269338131 ], [ 6872103.061573158018291, 8814277.616089079529047 ], [ 6872161.467097086831927, 8814254.476730808615685 ], [ 6872202.594322048127651, 8814254.713125932961702 ], [ 6872230.161170405335724, 8814270.580572251230478 ], [ 6872255.128279067575932, 8814300.651641370728612 ], [ 6872343.985149836167693, 8814490.323247453197837 ], [ 6872371.731735849753022, 8814544.077692568302155 ], [ 6872400.5561902243644, 8814579.086726706475019 ], [ 6872495.331468060612679, 8814666.105010032653809 ], [ 6872547.358207952231169, 8814711.366723660379648 ], [ 6872612.957321710884571, 8814738.084334447979927 ], [ 6872679.407650816254318, 8814760.538213128224015 ], [ 6872775.515489128418267, 8814802.944276049733162 ], [ 6872848.784756853245199, 8814836.800657831132412 ], [ 6872886.711600716225803, 8814834.780847450718284 ], [ 6872909.608860464766622, 8814825.436473570764065 ], [ 6872963.06208332721144, 8814786.3104651235044 ], [ 6872991.518947625532746, 8814767.735839832574129 ], [ 6873060.086891829967499, 8814752.17937083914876 ], [ 6873146.605430414900184, 8814745.675458094105124 ], [ 6873203.312571774236858, 8814748.872843597084284 ], [ 6873265.509005084633827, 8814766.144016938284039 ], [ 6873398.655724658630788, 8814810.494941592216492 ], [ 6873427.257591177709401, 8814816.819052321836352 ], [ 6873496.311360533349216, 8814839.954642705619335 ], [ 6873581.218234328553081, 8814874.393076403066516 ], [ 6873643.842614393681288, 8814898.969272330403328 ], [ 6873702.986806179396808, 8814931.428514923900366 ], [ 6873746.795746919699013, 8814968.079726690426469 ], [ 6873866.321614757180214, 8815061.353976787999272 ], [ 6873949.182501387782395, 8815136.817690271884203 ], [ 6873975.873580191284418, 8815150.825907878577709 ], [ 6874011.290803307667375, 8815154.903206853196025 ], [ 6874036.319344944320619, 8815161.695275779813528 ], [ 6874083.904663507826626, 8815181.895212430506945 ], [ 6874114.992844787426293, 8815211.110954634845257 ], [ 6874177.923758251592517, 8815313.354213204234838 ], [ 6874200.470580597408116, 8815334.090666983276606 ], [ 6874367.171684551984072, 8815479.005200436338782 ], [ 6874496.604835012927651, 8815516.517926059663296 ], [ 6874510.633212934248149, 8815523.988676782697439 ], [ 6874520.284748019650578, 8815521.648348802700639 ], [ 6874577.110461244359612, 8815537.103251127526164 ], [ 6874707.450548592023551, 8815532.772304680198431 ], [ 6874748.311744961887598, 8815524.781631151214242 ], [ 6874810.010721011087298, 8815315.60267180763185 ], [ 6874888.855621796101332, 8815308.130337914451957 ], [ 6874891.239191881380975, 8815308.188263215124607 ], [ 6874896.578216298483312, 8815308.331432579085231 ], [ 6874898.126747652888298, 8815308.364502403885126 ], [ 6874899.994342552497983, 8815308.415246089920402 ], [ 6874910.738028980791569, 8815308.698084622621536 ], [ 6874956.88468705303967, 8815346.185588892549276 ], [ 6874992.112036334350705, 8815376.707258824259043 ], [ 6874981.234104303643107, 8815525.664852185174823 ], [ 6874956.350061669945717, 8815652.771298825740814 ], [ 6874941.780469299294055, 8815759.0542270578444 ], [ 6874924.323076567612588, 8815968.281144592911005 ], [ 6875001.797186153009534, 8816117.67643965408206 ], [ 6875062.454510619863868, 8816218.62423175945878 ], [ 6875106.958804379217327, 8816263.910731324926019 ], [ 6875129.360683035105467, 8816281.466024152934551 ], [ 6875189.209935373626649, 8816312.492873491719365 ], [ 6875200.831893496215343, 8816335.765863571316004 ], [ 6875189.139477528631687, 8816404.758127700537443 ], [ 6875186.293454574421048, 8816430.997626701369882 ], [ 6875190.720023795031011, 8816499.224077973514795 ], [ 6875170.471742652356625, 8816590.401977630332112 ], [ 6875145.1800197660923, 8816644.652364052832127 ], [ 6875114.062207946553826, 8816647.476222163066268 ], [ 6875074.176073396578431, 8816700.827178986743093 ], [ 6875048.983199085108936, 8816729.169022303074598 ], [ 6875048.344527758657932, 8816736.230648895725608 ], [ 6875041.628153891302645, 8816743.292115896940231 ], [ 6875043.772309930995107, 8816753.418918050825596 ], [ 6875046.374249669723213, 8816758.054136659950018 ], [ 6875056.289909835904837, 8816775.788991035893559 ], [ 6875045.603424629196525, 8816788.309354804456234 ], [ 6875043.464213399216533, 8816790.191674757748842 ], [ 6875039.416791617870331, 8816793.759081296622753 ], [ 6875035.319187903776765, 8816808.494762474671006 ], [ 6875032.021403326652944, 8816815.894396560266614 ], [ 6875030.254839443601668, 8816819.860543532297015 ], [ 6875020.551034862175584, 8816820.376983296126127 ], [ 6875009.383666596375406, 8816823.525758065283298 ], [ 6875009.482599621638656, 8816814.331418830901384 ], [ 6875009.523008186370134, 8816810.711431507021189 ], [ 6875008.987068561837077, 8816800.499049073085189 ], [ 6875015.268872461281717, 8816781.393579315394163 ], [ 6875019.757793879136443, 8816774.323543265461922 ], [ 6875017.206364270299673, 8816771.90488787740469 ], [ 6874995.659954598173499, 8816778.17208169773221 ], [ 6874963.069527243264019, 8816790.14746224321425 ], [ 6874945.794102952815592, 8816800.45240093767643 ], [ 6874942.555856639519334, 8816800.624737575650215 ], [ 6874927.162245775572956, 8816800.588636007159948 ], [ 6874922.589457651600242, 8816790.591128416359425 ], [ 6874923.717416450381279, 8816781.145565558224916 ], [ 6874931.25521557033062, 8816770.503537205979228 ], [ 6874926.006537109613419, 8816763.096442462876439 ], [ 6874919.451467573642731, 8816761.734641510993242 ], [ 6874913.354351687245071, 8816768.890225071460009 ], [ 6874907.564686165191233, 8816766.643913883715868 ], [ 6874901.59597469959408, 8816760.985807422548532 ], [ 6874899.887330091558397, 8816759.366079084575176 ], [ 6874893.477486882358789, 8816760.562540307641029 ], [ 6874892.527969440445304, 8816773.408358782529831 ], [ 6874888.128546104766428, 8816782.184238417074084 ], [ 6874879.597520288079977, 8816786.024891089648008 ], [ 6874873.092419886961579, 8816788.960186464712024 ], [ 6874861.238832723349333, 8816794.711424583569169 ], [ 6874846.570974760688841, 8816777.564773289486766 ], [ 6874841.456595049239695, 8816772.716534368693829 ], [ 6874839.167282470501959, 8816760.031553605571389 ], [ 6874842.90047028940171, 8816751.730372857302427 ], [ 6874848.597847677767277, 8816739.048010628670454 ], [ 6874856.448365608230233, 8816734.3651208486408 ], [ 6874864.39873971324414, 8816731.376012749969959 ], [ 6874867.581882211379707, 8816730.362833674997091 ], [ 6874868.257155675441027, 8816727.760905720293522 ], [ 6874860.987710000947118, 8816712.786530861631036 ], [ 6874855.91808523889631, 8816708.791252268478274 ], [ 6874851.521793551743031, 8816697.767244411632419 ], [ 6874851.255759500898421, 8816697.087892878800631 ], [ 6874848.703733288682997, 8816694.657727768644691 ], [ 6874846.459745143540204, 8816682.837223811075091 ], [ 6874860.951387222856283, 8816682.828808274120092 ], [ 6874862.662259010598063, 8816682.818661138415337 ], [ 6874873.030955377966166, 8816679.712380396202207 ], [ 6874878.726361569948494, 8816664.903312344104052 ], [ 6874887.083984745666385, 8816654.206076925620437 ], [ 6874896.107127157971263, 8816640.930532455444336 ], [ 6874893.724816487170756, 8816625.430200496688485 ], [ 6874891.550965190865099, 8816604.913932671770453 ], [ 6874856.623510714620352, 8816628.375845048576593 ], [ 6874799.035106917843223, 8816635.613538224250078 ], [ 6874702.913450144231319, 8816564.998459214344621 ], [ 6874690.392970992252231, 8816574.345218865200877 ], [ 6874699.645248755812645, 8816593.028215702623129 ], [ 6874730.522557394579053, 8816655.441729189828038 ], [ 6874757.035574205219746, 8816697.825675286352634 ], [ 6874720.223641940392554, 8816731.373949613422155 ], [ 6874721.860057747922838, 8816768.412554087117314 ], [ 6874708.747171613387764, 8816814.350027866661549 ], [ 6874653.775411392562091, 8816861.428229063749313 ], [ 6874657.217703133821487, 8816908.218384834006429 ], [ 6874615.586970931850374, 8816974.975335901603103 ], [ 6874598.655340128578246, 8817003.130750745534897 ], [ 6874554.979181867092848, 8817002.044621612876654 ], [ 6874491.908343194052577, 8816980.907871793955564 ], [ 6874428.979002390056849, 8817009.313926367089152 ], [ 6874417.965985029004514, 8817007.669029537588358 ], [ 6874383.286974974907935, 8816992.384473966434598 ], [ 6874363.475337479263544, 8816985.925509452819824 ], [ 6874350.9747075708583, 8816983.52755369246006 ], [ 6874322.841482629068196, 8816981.348584979772568 ], [ 6874312.695796847343445, 8816981.807372184470296 ], [ 6874305.257233951240778, 8816984.098606554791331 ], [ 6874293.533437522128224, 8816992.327535452321172 ], [ 6874288.515709511004388, 8816994.339732512831688 ], [ 6874279.696014961227775, 8816995.398346493020654 ], [ 6874262.460173179395497, 8816995.378953520208597 ], [ 6874252.768931614235044, 8816994.253191770985723 ], [ 6874241.088989276438951, 8816991.187415609136224 ], [ 6874203.102104200050235, 8816975.373769506812096 ], [ 6874197.498608705587685, 8816970.401313588023186 ], [ 6874181.419560604728758, 8816952.278119102120399 ], [ 6874134.262867352925241, 8816896.3370670825243 ], [ 6874128.476964313536882, 8816891.651734571903944 ], [ 6874108.50996911060065, 8816882.438693208619952 ], [ 6874101.105287960730493, 8816876.591200107708573 ], [ 6874084.843437073752284, 8816860.21155109629035 ], [ 6874070.327300352044404, 8816840.93044258095324 ], [ 6874070.089642532169819, 8816841.000875106081367 ], [ 6874052.201506284065545, 8816844.021316962316632 ], [ 6874010.51580426376313, 8816841.557706478983164 ], [ 6873993.07952587120235, 8816839.179588541388512 ], [ 6873979.82985373865813, 8816837.977294448763132 ], [ 6873951.882196573540568, 8816835.568830300122499 ], [ 6873900.856988814659417, 8816839.3115723002702 ], [ 6873889.239199534058571, 8816844.541160598397255 ], [ 6873861.577851457521319, 8816863.488104186952114 ], [ 6873643.655118953436613, 8817106.316301500424743 ], [ 6873486.069346068426967, 8817282.028274722397327 ], [ 6873469.495218909345567, 8817318.911730056628585 ], [ 6873468.430991637520492, 8817357.42093257419765 ], [ 6873481.726516307331622, 8817400.310056012123823 ], [ 6873534.867896238341928, 8817487.37022671662271 ], [ 6873561.727255439385772, 8817548.759219730272889 ], [ 6873565.251110601238906, 8817586.481490550562739 ], [ 6873558.950219522230327, 8817618.230431849136949 ], [ 6873543.832417356781662, 8817647.327314266934991 ], [ 6873505.950087395496666, 8817705.522761298343539 ], [ 6873483.205836292356253, 8817755.736217573285103 ], [ 6873479.501803912222385, 8817797.899192737415433 ], [ 6873468.983946193940938, 8818082.755068590864539 ], [ 6873461.637397617101669, 8818222.323362957686186 ], [ 6873451.391655094921589, 8818277.015430903062224 ], [ 6873439.636855909600854, 8818314.208319904282689 ], [ 6873366.227313984185457, 8818446.974949268624187 ], [ 6873339.15966733917594, 8818499.312147991731763 ], [ 6873332.645746855065227, 8818541.901192817837 ], [ 6873335.69272481277585, 8818575.580167243257165 ], [ 6873360.405936541967094, 8818689.070104904472828 ], [ 6873383.425198379904032, 8818750.929668812081218 ], [ 6873409.231113349087536, 8818790.78585646674037 ], [ 6873618.396269360557199, 8819014.223066950216889 ], [ 6873925.35265470854938, 8819335.222628936171532 ], [ 6873954.723307009786367, 8819368.984794983640313 ], [ 6873962.307977259159088, 8819368.004338858649135 ], [ 6876166.292968629859388, 8819084.471823005005717 ], [ 6877849.797296054661274, 8817836.263457983732224 ], [ 6878194.696250054985285, 8817580.46110924333334 ], [ 6878506.796113319694996, 8815063.562379149720073 ], [ 6878471.69089347217232, 8815038.963190825656056 ], [ 6878313.690975168719888, 8814977.354319427162409 ], [ 6878279.890788352116942, 8814918.362864086404443 ], [ 6878226.387911579571664, 8814756.854296423494816 ], [ 6878163.293440306559205, 8814646.955285180360079 ], [ 6878055.684431774541736, 8814548.555135680362582 ], [ 6877944.786095355637372, 8814467.058967407792807 ], [ 6877767.289625999517739, 8814154.564826315268874 ], [ 6877785.2854382423684, 8813960.5606031678617 ], [ 6877765.583096692338586, 8813879.963859405368567 ], [ 6877677.990282571874559, 8813716.952710852026939 ], [ 6877628.683100189082325, 8813668.063990503549576 ], [ 6877370.880145313218236, 8813590.156369496136904 ], [ 6877306.382947906851768, 8813534.658399971202016 ], [ 6877234.980975550599396, 8813400.159440087154508 ], [ 6877169.48206768091768, 8813239.255139848217368 ], [ 6877123.287065313197672, 8813171.359133765101433 ], [ 6876971.679921589791775, 8813138.759264077991247 ], [ 6876865.280038571916521, 8813131.163081957027316 ], [ 6876774.583151224069297, 8813092.857469789683819 ], [ 6876603.978386313654482, 8812876.458252601325512 ], [ 6876449.181088493205607, 8812756.85971705429256 ], [ 6876276.272563574835658, 8812647.859219871461391 ], [ 6876047.371036987751722, 8812439.055526224896312 ], [ 6875816.077613536268473, 8812274.353783547878265 ], [ 6875521.974406306631863, 8811966.258093113079667 ], [ 6875460.768038172274828, 8811852.055882832035422 ], [ 6875423.467861897312105, 8811751.464021554216743 ], [ 6875149.768711838871241, 8811281.56092369556427 ], [ 6875024.267113458365202, 8811184.959916181862354 ], [ 6874926.692819055169821, 8811184.040334733203053 ], [ 6874917.573392111808062, 8811183.961637003347278 ], [ 6874713.623969670385122, 8811203.27075282484293 ] ], [ [ 6876771.498786801472306, 8818148.248968916013837 ], [ 6876750.170416721142828, 8818072.952566215768456 ], [ 6876695.930299201980233, 8818059.158240942284465 ], [ 6876628.095741225406528, 8818107.236435178667307 ], [ 6876620.848052268847823, 8818060.471261586993933 ], [ 6876598.799721954390407, 8818021.429232187569141 ], [ 6876582.750151128508151, 8817996.771616449579597 ], [ 6876558.187897386960685, 8817953.309062942862511 ], [ 6876529.998605175875127, 8817948.405067753046751 ], [ 6876476.047632523812354, 8817982.150571681559086 ], [ 6876446.447687236592174, 8817977.1250478066504 ], [ 6876489.223428249359131, 8817907.70103513263166 ], [ 6876458.403416289016604, 8817871.056451857089996 ], [ 6876364.572685264050961, 8817864.639990907162428 ], [ 6876405.950560051947832, 8817831.309206683188677 ], [ 6876441.886117667891085, 8817776.848449043929577 ], [ 6876383.754635652527213, 8817679.896182620897889 ], [ 6876356.884327333420515, 8817672.94563515111804 ], [ 6876347.102302574552596, 8817671.766979373991489 ], [ 6876333.031855688430369, 8817619.597464341670275 ], [ 6876302.512290141545236, 8817593.907138269394636 ], [ 6876302.88052293471992, 8817569.983026897534728 ], [ 6876270.127265501767397, 8817532.45941511541605 ], [ 6876223.549430704675615, 8817509.33461775444448 ], [ 6876199.595779053866863, 8817454.269916631281376 ], [ 6876169.444988062605262, 8817404.667422732338309 ], [ 6876081.135445907711983, 8817358.148911088705063 ], [ 6876041.905985928140581, 8817351.706174794584513 ], [ 6875922.954127116128802, 8817431.436821009963751 ], [ 6875892.244964184239507, 8817463.806472964584827 ], [ 6875843.768133911304176, 8817497.109879564493895 ], [ 6875849.86466331128031, 8817551.41333687491715 ], [ 6875838.54072117805481, 8817582.739675661548972 ], [ 6875825.977661140263081, 8817590.239471472799778 ], [ 6875768.534997580572963, 8817545.499401919543743 ], [ 6875740.539314229041338, 8817506.012470405548811 ], [ 6875661.185472801327705, 8817537.548281759023666 ], [ 6875632.64203152153641, 8817549.308066789060831 ], [ 6875580.224202523007989, 8817538.445775782689452 ], [ 6875673.236202461645007, 8817458.387444509193301 ], [ 6875812.009082239121199, 8817447.58190955221653 ], [ 6875903.579484813846648, 8817401.743927273899317 ], [ 6876008.795293375849724, 8817307.37071230635047 ], [ 6876103.40246996935457, 8817319.408121015876532 ], [ 6876227.256584914401174, 8817394.758965315297246 ], [ 6876297.977871032431722, 8817445.623741248622537 ], [ 6876353.802325648255646, 8817459.725509241223335 ], [ 6876391.164136126637459, 8817459.008412983268499 ], [ 6876394.667505217716098, 8817425.84326758235693 ], [ 6876386.836057493463159, 8817345.194787483662367 ], [ 6876391.982838656753302, 8817311.364170327782631 ], [ 6876357.477447653189301, 8817277.251620907336473 ], [ 6876357.2365219052881, 8817231.489684442058206 ], [ 6876328.310063181445003, 8817209.818590268492699 ], [ 6876321.056372115388513, 8817175.087698208168149 ], [ 6876333.085030045360327, 8817145.502896625548601 ], [ 6876308.166474541649222, 8817122.855627823621035 ], [ 6876303.746299660764635, 8817076.692085850983858 ], [ 6876295.951197241432965, 8817067.593841496855021 ], [ 6876252.829366505146027, 8817033.189136274158955 ], [ 6876256.916336628608406, 8817018.464692009612918 ], [ 6876279.495664258487523, 8817016.407103672623634 ], [ 6876295.921859846450388, 8816989.928744971752167 ], [ 6876305.848568883724511, 8816962.941031157970428 ], [ 6876301.191094236448407, 8816935.874486574903131 ], [ 6876314.115903845056891, 8816919.812429988756776 ], [ 6876320.770992996171117, 8816892.155040714889765 ], [ 6876295.862376758828759, 8816865.31150783225894 ], [ 6876272.215796650387347, 8816862.293787995353341 ], [ 6876235.003099445253611, 8816878.793770326301455 ], [ 6876194.39371213875711, 8816861.317062119022012 ], [ 6876221.947975900024176, 8816846.198373205959797 ], [ 6876240.037234355695546, 8816820.475227821618319 ], [ 6876277.88654569350183, 8816785.180558418855071 ], [ 6876315.401072413660586, 8816774.640413843095303 ], [ 6876346.283788521774113, 8816791.77956317551434 ], [ 6876367.506907165050507, 8816810.276997305452824 ], [ 6876391.873446002602577, 8816811.545500079169869 ], [ 6876400.488584873266518, 8816805.965909276157618 ], [ 6876422.529968407005072, 8816762.958819068968296 ], [ 6876445.566514667123556, 8816738.694121042266488 ], [ 6876482.459916098974645, 8816700.871960658580065 ], [ 6876512.389411870390177, 8816746.232009213417768 ], [ 6876455.070745588280261, 8816765.502664858475327 ], [ 6876400.082327231764793, 8816844.399168603122234 ], [ 6876394.957514993846416, 8816870.275977293029428 ], [ 6876390.145594789646566, 8816902.112273821607232 ], [ 6876389.371686014346778, 8816964.469734212383628 ], [ 6876393.2992083420977, 8817054.735323242843151 ], [ 6876403.285791081376374, 8817118.739232609048486 ], [ 6876420.13733958080411, 8817168.275326667353511 ], [ 6876480.94511095341295, 8817180.966619424521923 ], [ 6876521.900300540961325, 8817153.82938863709569 ], [ 6876534.18008030205965, 8817103.747647721320391 ], [ 6876552.457852702587843, 8817003.46766266413033 ], [ 6876584.804060772061348, 8816964.905309338122606 ], [ 6876633.445307237096131, 8816945.842721033841372 ], [ 6876610.513425182551146, 8817008.039961291477084 ], [ 6876613.137334224767983, 8817060.726810345426202 ], [ 6876606.126487022265792, 8817086.41527446359396 ], [ 6876582.000710520893335, 8817106.033165365457535 ], [ 6876566.703267015516758, 8817186.399493250995874 ], [ 6876537.486279577948153, 8817220.633466709405184 ], [ 6876517.203921837732196, 8817274.389360163360834 ], [ 6876537.147442162036896, 8817325.148284884169698 ], [ 6876568.245552206411958, 8817331.341547252610326 ], [ 6876550.314140148460865, 8817349.843298926949501 ], [ 6876541.512450373731554, 8817413.738160746172071 ], [ 6876537.200052246451378, 8817488.548787780106068 ], [ 6876573.080157934688032, 8817560.977338934317231 ], [ 6876607.10278569534421, 8817598.4337153788656 ], [ 6876648.437284012325108, 8817605.053478009998798 ], [ 6876696.064055634662509, 8817559.11270259693265 ], [ 6876721.892479967325926, 8817484.554863454774022 ], [ 6876714.748518088832498, 8817419.728215094655752 ], [ 6876690.139673225581646, 8817379.158394319936633 ], [ 6876712.679543173871934, 8817359.417025372385979 ], [ 6876756.796561027877033, 8817351.542797552421689 ], [ 6876787.178340525366366, 8817327.372630160301924 ], [ 6876787.01627186499536, 8817285.836381994187832 ], [ 6876756.579745560884476, 8817242.721707982942462 ], [ 6876771.208802754990757, 8817224.430119507014751 ], [ 6876884.206051336601377, 8817273.92218130454421 ], [ 6876915.132166318595409, 8817263.675093924626708 ], [ 6876929.960553104057908, 8817197.573820926249027 ], [ 6876900.464580833911896, 8817157.333562875166535 ], [ 6876873.972185224294662, 8817120.181670814752579 ], [ 6876920.241185072809458, 8817125.50876459851861 ], [ 6876979.857754080556333, 8817173.172997377812862 ], [ 6877034.484110129997134, 8817176.991546709090471 ], [ 6877063.769827514886856, 8817142.822084728628397 ], [ 6877110.433007411658764, 8817079.197653578594327 ], [ 6877184.841850380413234, 8817073.870315611362457 ], [ 6877233.499447866342962, 8816903.90481517650187 ], [ 6877281.479015819728374, 8816935.322932248935103 ], [ 6877277.956076190806925, 8817020.509684899821877 ], [ 6877300.150464048609138, 8817065.427835941314697 ], [ 6877217.965661395341158, 8817098.161633424460888 ], [ 6877177.528078339993954, 8817129.295726720243692 ], [ 6877145.298934141173959, 8817181.366377267986536 ], [ 6877075.233842021785676, 8817223.036716546863317 ], [ 6877020.371147129684687, 8817302.887761326506734 ], [ 6876928.239878181368113, 8817353.06095926463604 ], [ 6876869.460847046226263, 8817411.618661362677813 ], [ 6876888.497824281454086, 8817432.984414288774133 ], [ 6876901.519288185983896, 8817447.596006616950035 ], [ 6876822.73767910618335, 8817479.775874821469188 ], [ 6876798.344151888042688, 8817545.299125814810395 ], [ 6876773.783315664157271, 8817691.042413908988237 ], [ 6876770.622062787413597, 8817729.056433539837599 ], [ 6876799.893614841625094, 8817734.515093581750989 ], [ 6876827.907707011327147, 8817727.302089095115662 ], [ 6876808.941150117665529, 8817761.834154533222318 ], [ 6876829.670202691107988, 8817807.084536241367459 ], [ 6876850.841618929989636, 8817823.135204071179032 ], [ 6876912.775479191914201, 8817830.092257292941213 ], [ 6876962.14512983802706, 8817844.526572281494737 ], [ 6877050.656235742382705, 8817802.258344607427716 ], [ 6877070.532098892144859, 8817656.092163320630789 ], [ 6876997.564923564903438, 8817593.393142614513636 ], [ 6877043.529169175773859, 8817604.609648426994681 ], [ 6877091.100830996409059, 8817585.003439053893089 ], [ 6877135.644748030230403, 8817507.517103498801589 ], [ 6877148.227861700579524, 8817438.552450925111771 ], [ 6877187.715434194542468, 8817450.113417357206345 ], [ 6877270.663866933435202, 8817425.212620221078396 ], [ 6877203.685663896612823, 8817507.304415481165051 ], [ 6877150.5217414945364, 8817605.745332824066281 ], [ 6877161.99185982067138, 8817700.733358349651098 ], [ 6877217.627739530056715, 8817772.886600101366639 ], [ 6877263.9382593780756, 8817790.905170273035765 ], [ 6877374.537265066057444, 8817737.21759070828557 ], [ 6877550.296469751745462, 8817690.301757100969553 ], [ 6877701.108217032626271, 8817661.78703597933054 ], [ 6877704.326478213071823, 8817723.08008911460638 ], [ 6877669.087289260700345, 8817916.158237440511584 ], [ 6877587.935815510340035, 8817975.110679993405938 ], [ 6877616.689104983583093, 8817843.831379763782024 ], [ 6877649.920424671843648, 8817736.219200918450952 ], [ 6877457.644470966421068, 8817777.182755811139941 ], [ 6877334.482398562133312, 8817838.371160259470344 ], [ 6877270.014873394742608, 8817906.676227606832981 ], [ 6877231.756613040342927, 8817980.417607130482793 ], [ 6877034.765160948969424, 8818178.687711805105209 ], [ 6876854.042332354933023, 8818140.678310040384531 ], [ 6876810.46887179557234, 8818182.356770833954215 ], [ 6876771.498786801472306, 8818148.248968916013837 ] ] ] } },
{ "type": "Feature", "properties": { "lv_id": "LOC_027831", "id": 131919.0, "CD_SETOR": "280160305000008", "SITUACAO": "Rural", "CD_SIT": "8", "CD_TIPO": "0", "AREA_KM2": 30.585913183549767, "CD_REGIAO": "2", "NM_REGIAO": "Nordeste", "CD_UF": "28", "NM_UF": "Sergipe", "CD_MUN": "2801603", "NM_MUN": "Cedro de São João", "CD_DIST": "280160305", "NM_DIST": "Cedro de São João", "CD_SUBDIST": "28016030500", "NM_SUBDIST": null, "CD_BAIRRO": null, "NM_BAIRRO": null, "CD_NU": null, "NM_NU": null, "CD_FCU": null, "NM_FCU": null, "CD_AGLOM": null, "NM_AGLOM": null, "CD_RGINT": "2801", "NM_RGINT": "Aracaju", "CD_RGI": "280003", "NM_RGI": "Propriá", "CD_CONCURB": null, "NM_CONCURB": null, "mun_code_x": "2801603", "index_right": 79809, "dist_m": 56.970255589668149, "local_id": 294731, "ano": 2022, "cod_localidade_ibge": 2801603, "NR_ZONA": "3", "nr_cep": 49930000.0, "nm_localidade": "CEDRO DE SÃO JOÃO", "nm_locvot": "ESCOLA MUNICIPAL PROF.ª MARINALVA ALVES", "ds_endereco": "POVOADO SÃO SEBASTIÃO", "ds_bairro": "POVOADO SÃO SEBASTIÃO", "pred_long": -36.888918, "pred_lat": -10.255843, "pred_dist": 0.020247878921316, "tse_long": null, "tse_lat": null, "long": -36.888918, "lat": -10.255843, "ID_UNICO": "LOC_027831", "SG_UF": "SE", "CD_MUNICIPIO": "31313", "NR_LOCAL_VOTACAO": "1074", "QT_SECOES_AGREGADAS": 0, "QT_ELEITORES_TRANSFERIDOS": 4, "CIRO GOMES (PDT) (NÃO ELEITO) 1T": 6.0, "CONSTITUINTE EYMAEL (DC) (NÃO ELEITO) 1T": 0.0, "FELIPE D AVILA (NOVO) (NÃO ELEITO) 1T": 0.0, "JAIR BOLSONARO (PL) (2º TURNO) 1T": 87.0, "LULA (PT) (2º TURNO) 1T": 254.0, "LÉO PÉRICLES (UP) (NÃO ELEITO) 1T": 0.0, "PADRE KELMON (PTB) (NÃO ELEITO) 1T": 0.0, "SIMONE TEBET (MDB) (NÃO ELEITO) 1T": 6.0, "SOFIA MANZANO (PCB) (NÃO ELEITO) 1T": 0.0, "SORAYA THRONICKE (UNIÃO) (NÃO ELEITO) 1T": 0.0, "VERA (PSTU) (NÃO ELEITO) 1T": 0.0, "Total_Votos_Validos 1T": 353.0, "Votos_Brancos 1T": 1.0, "Votos_Nulos 1T": 5.0, "Abstenções 1T": 58.0, "Eleitores_Aptos 1T": 417.0, "JAIR BOLSONARO (PL) (NÃO ELEITO) 2T": 97.0, "LULA (PT) (ELEITO) 2T": 260.0, "Total_Votos_Validos 2T": 357.0, "Votos_Brancos 2T": 0.0, "Votos_Nulos 2T": 8.0, "Abstenções 2T": 52.0, "Eleitores_Aptos 2T": 417.0, "mun_code_y": "2801603", "mun_code": "2801603" }, "geometry": { "type": "Polygon", "coordinates": [ [ [ 6874284.795638230629265, 8816604.737310258671641 ], [ 6874283.319272708147764, 8816600.435308890417218 ], [ 6874285.121737251989543, 8816591.71697486191988 ], [ 6874293.848577572032809, 8816573.210234887897968 ], [ 6874295.524709179066122, 8816566.475070420652628 ], [ 6874296.546823505312204, 8816562.329072633758187 ], [ 6874293.58119726087898, 8816551.807093961164355 ], [ 6874293.458545542322099, 8816551.351292170584202 ], [ 6874286.110154275782406, 8816545.009669072926044 ], [ 6874279.155138258822262, 8816542.819628288969398 ], [ 6874273.975886494852602, 8816544.678708825260401 ], [ 6874269.620297634974122, 8816543.627524193376303 ], [ 6874259.959711752831936, 8816541.829956248402596 ], [ 6874254.351243983022869, 8816539.481574246659875 ], [ 6874249.098833102732897, 8816535.137795219197869 ], [ 6874241.632022282108665, 8816527.271024227142334 ], [ 6874236.935466987080872, 8816523.903231970965862 ], [ 6874232.222866334021091, 8816521.484065366908908 ], [ 6874231.022481389343739, 8816519.305654756724834 ], [ 6874228.436193811707199, 8816517.894483966752887 ], [ 6874226.765535237267613, 8816512.816879352554679 ], [ 6874225.602577277459204, 8816509.261054635047913 ], [ 6874224.201466557569802, 8816505.348041566088796 ], [ 6874222.951059773564339, 8816503.888901207596064 ], [ 6874220.932937142439187, 8816502.85203405469656 ], [ 6874217.506748497486115, 8816501.323745215311646 ], [ 6874213.560211004689336, 8816497.823582477867603 ], [ 6874211.215829098597169, 8816491.614458279684186 ], [ 6874211.913492877036333, 8816489.439070718362927 ], [ 6874209.779280594550073, 8816483.681090403348207 ], [ 6874206.671913288533688, 8816478.402549535036087 ], [ 6874204.010548609308898, 8816466.361863410100341 ], [ 6874198.844438578933477, 8816454.882123546674848 ], [ 6874195.843481819145381, 8816442.223815932869911 ], [ 6874197.805714598856866, 8816424.007745945826173 ], [ 6874198.701869196258485, 8816415.580383595079184 ], [ 6874200.939235380850732, 8816407.624877853319049 ], [ 6874205.958459160290658, 8816399.163021022453904 ], [ 6874216.087239480577409, 8816392.740869704633951 ], [ 6874222.722404713742435, 8816387.059430882334709 ], [ 6874225.362202867865562, 8816385.936496807262301 ], [ 6874235.573820354416966, 8816383.601518929004669 ], [ 6874241.349371066316962, 8816383.698681093752384 ], [ 6874249.247623993083835, 8816382.226539220660925 ], [ 6874250.776703633368015, 8816380.006894731894135 ], [ 6874250.921757583506405, 8816378.381027333438396 ], [ 6874252.586935582570732, 8816378.754733577370644 ], [ 6874256.089824924245477, 8816377.354696787893772 ], [ 6874258.445098211988807, 8816374.154865968972445 ], [ 6874261.766086864285171, 8816366.153216414153576 ], [ 6874262.283007965423167, 8816362.415521873161197 ], [ 6874261.744550448842347, 8816359.889816489070654 ], [ 6874260.801110337488353, 8816358.21785569190979 ], [ 6874256.736537894234061, 8816355.186324490234256 ], [ 6874254.527044896036386, 8816353.847584310919046 ], [ 6874251.270694598555565, 8816353.674146829172969 ], [ 6874250.030755701474845, 8816354.086884327232838 ], [ 6874248.166690682061017, 8816354.313232973217964 ], [ 6874246.674338910728693, 8816353.051907535642385 ], [ 6874242.46416238322854, 8816351.426668537780643 ], [ 6874239.87630280572921, 8816351.448816370218992 ], [ 6874237.181671231985092, 8816350.690689641982317 ], [ 6874233.88524301443249, 8816350.380686165764928 ], [ 6874232.77855275478214, 8816350.196863757446408 ], [ 6874228.495099082589149, 8816352.401284419000149 ], [ 6874226.999550444073975, 8816354.214606931433082 ], [ 6874226.318650992587209, 8816355.036801632493734 ], [ 6874222.860922940075397, 8816358.133487077429891 ], [ 6874221.806200717575848, 8816359.148949248716235 ], [ 6874221.106705370359123, 8816358.989687740802765 ], [ 6874221.384351129643619, 8816356.963787598535419 ], [ 6874222.637719878926873, 8816353.880396690219641 ], [ 6874224.098236996680498, 8816351.190517129376531 ], [ 6874224.953223746269941, 8816349.295704357326031 ], [ 6874224.426001246087253, 8816348.029247157275677 ], [ 6874222.344504337757826, 8816347.666141400113702 ], [ 6874219.641301171854138, 8816347.162750799208879 ], [ 6874215.616792876273394, 8816346.775914145633578 ], [ 6874212.619578700512648, 8816345.687145698815584 ], [ 6874210.075393080711365, 8816343.614938054233789 ], [ 6874208.280770314857364, 8816340.774673128500581 ], [ 6874207.377669204026461, 8816338.199031407013535 ], [ 6874206.757224675267935, 8816337.873748801648617 ], [ 6874206.38376537989825, 8816336.610667370259762 ], [ 6874206.223106337711215, 8816335.012631565332413 ], [ 6874205.670478353276849, 8816333.262084294110537 ], [ 6874204.341015998274088, 8816331.968975620344281 ], [ 6874202.478938817046583, 8816329.097627559676766 ], [ 6874199.794572929851711, 8816323.72724562138319 ], [ 6874198.175157839432359, 8816317.745393857359886 ], [ 6874197.72931657359004, 8816314.2669966109097 ], [ 6874198.098520372994244, 8816310.641197400167584 ], [ 6874199.604657828807831, 8816307.775517867878079 ], [ 6874200.199208358302712, 8816304.680958725512028 ], [ 6874201.238882200792432, 8816298.153047565370798 ], [ 6874202.474763348698616, 8816292.01922894269228 ], [ 6874202.620377657935023, 8816288.104815937578678 ], [ 6874201.439655023626983, 8816282.538827313110232 ], [ 6874202.006272447295487, 8816279.33017192222178 ], [ 6874204.186994126066566, 8816276.567283352836967 ], [ 6874205.82162510510534, 8816275.104858744889498 ], [ 6874207.535110376775265, 8816271.800486654043198 ], [ 6874211.095784574747086, 8816262.722731983289123 ], [ 6874212.005716605111957, 8816259.784755937755108 ], [ 6874211.929494976997375, 8816258.332482099533081 ], [ 6874210.631086323410273, 8816256.795002920553088 ], [ 6874209.852097908966243, 8816253.657965278252959 ], [ 6874211.005882691591978, 8816250.140658993273973 ], [ 6874213.130587296560407, 8816247.773725377395749 ], [ 6874213.812289513647556, 8816246.13085413724184 ], [ 6874215.844436965882778, 8816242.000444075092673 ], [ 6874218.819478108547628, 8816236.814284440129995 ], [ 6874223.0003697341308, 8816231.402125254273415 ], [ 6874226.58385319262743, 8816225.894621595740318 ], [ 6874228.709863890893757, 8816223.134634964168072 ], [ 6874233.175537096336484, 8816218.759106883779168 ], [ 6874235.655905841849744, 8816215.853116581216455 ], [ 6874242.106220438145101, 8816202.680181397125125 ], [ 6874244.522407633252442, 8816198.7604821305722 ], [ 6874248.786264255642891, 8816194.511268392205238 ], [ 6874255.945584857836366, 8816184.814270677044988 ], [ 6874258.567252838052809, 8816180.629347676411271 ], [ 6874261.334866939112544, 8816176.089908447116613 ], [ 6874268.587392169982195, 8816167.959852145984769 ], [ 6874282.272164900787175, 8816158.435593940317631 ], [ 6874293.14581295568496, 8816152.412847319617867 ], [ 6874309.409818321466446, 8816148.345446601510048 ], [ 6874311.510755752213299, 8816146.1531254760921 ], [ 6874314.132222866639495, 8816145.308524869382381 ], [ 6874318.949283103458583, 8816148.045682964846492 ], [ 6874333.33362708799541, 8816148.50513431802392 ], [ 6874338.084874479100108, 8816146.853661360219121 ], [ 6874340.521363127976656, 8816144.366075117141008 ], [ 6874346.328015861101449, 8816125.829596020281315 ], [ 6874343.849126199260354, 8816119.985940840095282 ], [ 6874344.54194606281817, 8816117.510266780853271 ], [ 6874341.279527107253671, 8816112.205328993499279 ], [ 6874338.37878546398133, 8816101.460317930206656 ], [ 6874338.234247504733503, 8816082.824550265446305 ], [ 6874337.582294709980488, 8816076.883640982210636 ], [ 6874338.062465113587677, 8816063.670110799372196 ], [ 6874336.202604759484529, 8816053.736560873687267 ], [ 6874334.023137343116105, 8816040.849556619301438 ], [ 6874335.188600331544876, 8816031.286625141277909 ], [ 6874337.580282593145967, 8816022.7217689268291 ], [ 6874342.530367892235518, 8816015.245877418667078 ], [ 6874349.071011967025697, 8816012.782493652775884 ], [ 6874357.842634752392769, 8816008.096725152805448 ], [ 6874361.844725463539362, 8816008.057026322931051 ], [ 6874364.010798828676343, 8816007.94170356541872 ], [ 6874367.121433166787028, 8816004.713149789720774 ], [ 6874373.082775181159377, 8816002.708255002275109 ], [ 6874375.568263721652329, 8815998.438062263652682 ], [ 6874370.512033502571285, 8815991.772297721356153 ], [ 6874367.247075128369033, 8815986.837372334674001 ], [ 6874368.305633544921875, 8815984.850781481713057 ], [ 6874365.188325338065624, 8815982.728214362636209 ], [ 6874360.73822998162359, 8815980.503233414143324 ], [ 6874357.434992828406394, 8815967.525794912129641 ], [ 6874359.058522172272205, 8815961.25568094663322 ], [ 6874360.434027510695159, 8815952.559976484626532 ], [ 6874361.06101291347295, 8815945.487607415765524 ], [ 6874356.014143166132271, 8815935.030246552079916 ], [ 6874378.887822178192437, 8815909.967628354206681 ], [ 6874375.784713014028966, 8815904.145665764808655 ], [ 6874369.548464603722095, 8815899.033769758418202 ], [ 6874365.817413236945868, 8815896.504679065197706 ], [ 6874360.045755442231894, 8815890.212221356108785 ], [ 6874352.149836810305715, 8815876.473767155781388 ], [ 6874334.663453144952655, 8815849.526325989514589 ], [ 6874328.212223372422159, 8815838.230670031160116 ], [ 6874323.715327445417643, 8815822.369469199329615 ], [ 6874327.762287583202124, 8815792.472371503710747 ], [ 6874339.606259651482105, 8815761.686171626672149 ], [ 6874342.137489234097302, 8815756.407951863482594 ], [ 6874347.876007927581668, 8815744.729028958827257 ], [ 6874351.721898466348648, 8815738.999372471123934 ], [ 6874370.950250387191772, 8815695.498716842383146 ], [ 6874376.716898704878986, 8815685.609792958945036 ], [ 6874381.050605325959623, 8815677.889226377010345 ], [ 6874391.352457328699529, 8815664.325947027653456 ], [ 6874410.221947272308171, 8815635.511723576113582 ], [ 6874421.023919938132167, 8815613.299259170889854 ], [ 6874449.098157804459333, 8815555.676762344315648 ], [ 6874512.910522744059563, 8815535.599112793803215 ], [ 6874510.633212934248149, 8815523.988676782697439 ], [ 6874496.604835012927651, 8815516.517926059663296 ], [ 6874367.171684551984072, 8815479.005200436338782 ], [ 6874200.470580597408116, 8815334.090666983276606 ], [ 6874177.923758251592517, 8815313.354213204234838 ], [ 6874114.992844787426293, 8815211.110954634845257 ], [ 6874083.904663507826626, 8815181.895212430506945 ], [ 6874036.319344944320619, 8815161.695275779813528 ], [ 6874011.290803307667375, 8815154.903206853196025 ], [ 6873975.873580191284418, 8815150.825907878577709 ], [ 6873949.182501387782395, 8815136.817690271884203 ], [ 6873866.321614757180214, 8815061.353976787999272 ], [ 6873746.795746919699013, 8814968.079726690426469 ], [ 6873702.986806179396808, 8814931.428514923900366 ], [ 6873643.842614393681288, 8814898.969272330403328 ], [ 6873581.218234328553081, 8814874.393076403066516 ], [ 6873496.311360533349216, 8814839.954642705619335 ], [ 6873427.257591177709401, 8814816.819052321836352 ], [ 6873398.655724658630788, 8814810.494941592216492 ], [ 6873265.509005084633827, 8814766.144016938284039 ], [ 6873203.312571774236858, 8814748.872843597084284 ], [ 6873146.605430414900184, 8814745.675458094105124 ], [ 6873060.086891829967499, 8814752.17937083914876 ], [ 6872991.518947625532746, 8814767.735839832574129 ], [ 6872963.06208332721144, 8814786.3104651235044 ], [ 6872909.608860464766622, 8814825.436473570764065 ], [ 6872886.711600716225803, 8814834.780847450718284 ], [ 6872848.784756853245199, 8814836.800657831132412 ], [ 6872775.515489128418267, 8814802.944276049733162 ], [ 6872679.407650816254318, 8814760.538213128224015 ], [ 6872612.957321710884571, 8814738.084334447979927 ], [ 6872547.358207952231169, 8814711.366723660379648 ], [ 6872495.331468060612679, 8814666.105010032653809 ], [ 6872400.5561902243644, 8814579.086726706475019 ], [ 6872371.731735849753022, 8814544.077692568302155 ], [ 6872343.985149836167693, 8814490.323247453197837 ], [ 6872255.128279067575932, 8814300.651641370728612 ], [ 6872230.161170405335724, 8814270.580572251230478 ], [ 6872202.594322048127651, 8814254.713125932961702 ], [ 6872161.467097086831927, 8814254.476730808615685 ], [ 6872103.061573158018291, 8814277.616089079529047 ], [ 6872013.643810619600117, 8814317.03816269338131 ], [ 6871928.516087437979877, 8814335.382367305457592 ], [ 6871875.691000521183014, 8814347.394851177930832 ], [ 6871800.146898964419961, 8814352.504000369459391 ], [ 6871759.249090640805662, 8814361.442591108381748 ], [ 6871733.211350863799453, 8814359.858915738761425 ], [ 6871703.528483194299042, 8814350.067441143095493 ], [ 6871650.580339029431343, 8814327.981653410941362 ], [ 6871601.783635595813394, 8814313.926456443965435 ], [ 6871505.760911414399743, 8814300.894990747794509 ], [ 6871391.482561345212162, 8814307.256860297173262 ], [ 6871351.846819611266255, 8814309.101288583129644 ], [ 6871328.982339655980468, 8814303.812154419720173 ], [ 6871312.815247618593276, 8814289.649155648425221 ], [ 6871299.349937328137457, 8814265.727147361263633 ], [ 6871290.312252406962216, 8814240.263521498069167 ], [ 6871248.321250464767218, 8814196.411120677366853 ], [ 6871177.178749334067106, 8814153.510011291131377 ], [ 6871106.017912142910063, 8814124.674426706507802 ], [ 6871068.610551191493869, 8814109.620085373520851 ], [ 6871051.327493529766798, 8814088.617428362369537 ], [ 6871042.534321001730859, 8814075.541287958621979 ], [ 6871026.662516838870943, 8814003.279477370902896 ], [ 6871016.523365152068436, 8813981.492054637521505 ], [ 6870984.121480486355722, 8813949.368186855688691 ], [ 6870903.180821510963142, 8813902.031904567033052 ], [ 6870834.911513268016279, 8813866.837226755917072 ], [ 6870772.845362011343241, 8813841.978953531011939 ], [ 6870623.474163861945271, 8813805.46323168464005 ], [ 6870587.760905391536653, 8813800.73139588162303 ], [ 6870569.714455535635352, 8813801.958043618127704 ], [ 6870553.493563286960125, 8813811.211583221331239 ], [ 6870519.334215126931667, 8813830.226072732359171 ], [ 6870476.332618878223002, 8813848.809831755235791 ], [ 6870426.554266449064016, 8813872.665652617812157 ], [ 6870363.740839583799243, 8813924.464783446863294 ], [ 6870342.333204725757241, 8813937.518803047016263 ], [ 6870298.441335812211037, 8813939.774283245205879 ], [ 6870230.030865108594298, 8813927.791759114712477 ], [ 6870193.299630889669061, 8813928.117468196898699 ], [ 6870165.226976841688156, 8813936.660923210904002 ], [ 6870091.656089535914361, 8813986.870400225743651 ], [ 6870058.022229344584048, 8813992.497058359906077 ], [ 6870021.309736166149378, 8813997.779050506651402 ], [ 6869998.85243752785027, 8814008.184368401765823 ], [ 6869989.00284009706229, 8814021.165941536426544 ], [ 6869974.545033127069473, 8814071.337310425937176 ], [ 6869957.242169572971761, 8814091.753057703375816 ], [ 6869923.657535088248551, 8814115.461908102035522 ], [ 6869903.405496899038553, 8814121.277497762814164 ], [ 6869885.508326674811542, 8814118.035003529861569 ], [ 6869867.175125831738114, 8814108.991507057100534 ], [ 6869769.443740647286177, 8814046.855458686128259 ], [ 6869714.323508528061211, 8814030.594099784269929 ], [ 6869602.150017235428095, 8814004.922862017527223 ], [ 6869510.032230762764812, 8813996.662161657586694 ], [ 6869466.795436621643603, 8813996.559013858437538 ], [ 6869344.233896385878325, 8814031.10224860906601 ], [ 6869315.760060173459351, 8814034.512188456952572 ], [ 6869295.173539089038968, 8814027.888199279084802 ], [ 6869288.259802050888538, 8814022.397289508953691 ], [ 6869256.939119138754904, 8813993.706862704828382 ], [ 6869234.360651887953281, 8813971.068774381652474 ], [ 6869212.48816647566855, 8813949.132719714194536 ], [ 6869173.652909982949495, 8813907.680396450683475 ], [ 6869150.41185381449759, 8813861.122957902029157 ], [ 6869143.939879419282079, 8813835.6174511089921 ], [ 6869135.076255421154201, 8813779.374253608286381 ], [ 6869126.206397760659456, 8813762.108379777520895 ], [ 6869111.156572060659528, 8813752.081568153575063 ], [ 6869049.52626633644104, 8813734.248727962374687 ], [ 6869010.133186323568225, 8813724.396268328651786 ], [ 6868984.373157498426735, 8813727.465501841157675 ], [ 6868962.510639855638146, 8813743.142386134713888 ], [ 6868940.436061346903443, 8813767.53178340755403 ], [ 6868862.517754532396793, 8813864.525022681802511 ], [ 6868835.747192290611565, 8813888.48215239867568 ], [ 6868805.551629362627864, 8813907.583232443779707 ], [ 6868751.075655996799469, 8813927.432611893862486 ], [ 6868692.773510228842497, 8813942.724525086581707 ], [ 6868654.454530769959092, 8813942.474643373861909 ], [ 6866672.546366141177714, 8815159.983823206275702 ], [ 6869489.768627153709531, 8820059.189711572602391 ], [ 6872455.478102447465062, 8819561.8780986238271 ], [ 6872712.482536021620035, 8819528.78642107732594 ], [ 6873100.470230519771576, 8819478.874219125136733 ], [ 6873945.383794905617833, 8819370.185524510219693 ], [ 6873954.723307009786367, 8819368.984794983640313 ], [ 6873925.35265470854938, 8819335.222628936171532 ], [ 6873618.396269360557199, 8819014.223066950216889 ], [ 6873409.231113349087536, 8818790.78585646674037 ], [ 6873383.425198379904032, 8818750.929668812081218 ], [ 6873360.405936541967094, 8818689.070104904472828 ], [ 6873335.69272481277585, 8818575.580167243257165 ], [ 6873332.645746855065227, 8818541.901192817837 ], [ 6873339.15966733917594, 8818499.312147991731763 ], [ 6873366.227313984185457, 8818446.974949268624187 ], [ 6873439.636855909600854, 8818314.208319904282689 ], [ 6873451.391655094921589, 8818277.015430903062224 ], [ 6873461.637397617101669, 8818222.323362957686186 ], [ 6873468.983946193940938, 8818082.755068590864539 ], [ 6873479.501803912222385, 8817797.899192737415433 ], [ 6873483.205836292356253, 8817755.736217573285103 ], [ 6873505.950087395496666, 8817705.522761298343539 ], [ 6873543.832417356781662, 8817647.327314266934991 ], [ 6873558.950219522230327, 8817618.230431849136949 ], [ 6873565.251110601238906, 8817586.481490550562739 ], [ 6873561.727255439385772, 8817548.759219730272889 ], [ 6873534.867896238341928, 8817487.37022671662271 ], [ 6873481.726516307331622, 8817400.310056012123823 ], [ 6873468.430991637520492, 8817357.42093257419765 ], [ 6873469.495218909345567, 8817318.911730056628585 ], [ 6873486.069346068426967, 8817282.028274722397327 ], [ 6873643.655118953436613, 8817106.316301500424743 ], [ 6873861.577851457521319, 8816863.488104186952114 ], [ 6873889.239199534058571, 8816844.541160598397255 ], [ 6873900.856988814659417, 8816839.3115723002702 ], [ 6873951.882196573540568, 8816835.568830300122499 ], [ 6873979.82985373865813, 8816837.977294448763132 ], [ 6873993.07952587120235, 8816839.179588541388512 ], [ 6874010.51580426376313, 8816841.557706478983164 ], [ 6874052.201506284065545, 8816844.021316962316632 ], [ 6874070.089642532169819, 8816841.000875106081367 ], [ 6874070.327300352044404, 8816840.93044258095324 ], [ 6874076.414593364112079, 8816839.231218814849854 ], [ 6874093.378779681399465, 8816834.491520334035158 ], [ 6874111.294196206144989, 8816829.481601849198341 ], [ 6874126.287113148719072, 8816821.252165339887142 ], [ 6874135.809268867596984, 8816816.018343575298786 ], [ 6874199.236497762612998, 8816781.217500185593963 ], [ 6874217.172009447589517, 8816771.363527748733759 ], [ 6874240.859000909142196, 8816756.33754469640553 ], [ 6874265.046774188056588, 8816745.838798977434635 ], [ 6874287.162630046717823, 8816739.969509962946177 ], [ 6874292.887274237349629, 8816739.722721865400672 ], [ 6874305.628585796803236, 8816734.999443612992764 ], [ 6874312.031455337069929, 8816732.624528776854277 ], [ 6874318.373741987161338, 8816727.213022947311401 ], [ 6874378.724502617493272, 8816674.139629604294896 ], [ 6874384.495014706626534, 8816668.076566588133574 ], [ 6874384.929093257524073, 8816667.568022150546312 ], [ 6874371.848111898638308, 8816653.481064520776272 ], [ 6874353.777823673561215, 8816635.255915988236666 ], [ 6874334.361655439250171, 8816608.734244855120778 ], [ 6874322.864106945693493, 8816593.881143374368548 ], [ 6874320.420517526566982, 8816590.589937724173069 ], [ 6874287.820995159447193, 8816602.80792199447751 ], [ 6874284.770075667649508, 8816604.877368949353695 ], [ 6874284.795638230629265, 8816604.737310258671641 ] ] ] } }
]
}
