{
"type": "FeatureCollection",
"name": "2900900",
"crs": { "type": "name", "properties": { "name": "urn:ogc:def:crs:EPSG::5880" } },
"features": [
{ "type": "Feature", "properties": { "lv_id": "LOC_028690", "id": 136018.0, "CD_SETOR": "290090005000001", "SITUACAO": "Urbana", "CD_SIT": "1", "CD_TIPO": "0", "AREA_KM2": 0.098124616864153996, "CD_REGIAO": "2", "NM_REGIAO": "Nordeste", "CD_UF": "29", "NM_UF": "Bahia", "CD_MUN": "2900900", "NM_MUN": "Almadina", "CD_DIST": "290090005", "NM_DIST": "Almadina", "CD_SUBDIST": "29009000500", "NM_SUBDIST": null, "CD_BAIRRO": null, "NM_BAIRRO": null, "CD_NU": null, "NM_NU": null, "CD_FCU": null, "NM_FCU": null, "CD_AGLOM": null, "NM_AGLOM": null, "CD_RGINT": "2903", "NM_RGINT": "Ilhéus ¿ Itabuna", "CD_RGI": "290007", "NM_RGI": "Ilhéus ¿ Itabuna", "CD_CONCURB": null, "NM_CONCURB": null, "mun_code_x": "2900900", "index_right": 4024, "dist_m": 0.0, "local_id": 303533, "ano": 2022, "cod_localidade_ibge": 2900900, "NR_ZONA": "135", "nr_cep": 45640000.0, "nm_localidade": "ALMADINA", "nm_locvot": "ESCOLINHA SANTA ISABEL", "ds_endereco": "RUA FERNANDO BARROS, 13 - ZONA URBANA", "ds_bairro": "CENTRO", "pred_long": -39.63501, "pred_lat": -14.70498, "pred_dist": 0.0, "tse_long": -39.6350225, "tse_lat": -14.7049696, "long": -39.6350225, "lat": -14.7049696, "ID_UNICO": "LOC_028690", "SG_UF": "BA", "CD_MUNICIPIO": "33170", "NR_LOCAL_VOTACAO": "1023", "QT_SECOES_AGREGADAS": 1, "QT_ELEITORES_TRANSFERIDOS": 2, "CIRO GOMES (PDT) (NÃO ELEITO) 1T": 5.0, "CONSTITUINTE EYMAEL (DC) (NÃO ELEITO) 1T": 0.0, "FELIPE D AVILA (NOVO) (NÃO ELEITO) 1T": 0.0, "JAIR BOLSONARO (PL) (2º TURNO) 1T": 33.0, "LULA (PT) (2º TURNO) 1T": 202.0, "LÉO PÉRICLES (UP) (NÃO ELEITO) 1T": 0.0, "PADRE KELMON (PTB) (NÃO ELEITO) 1T": 1.0, "SIMONE TEBET (MDB) (NÃO ELEITO) 1T": 2.0, "SOFIA MANZANO (PCB) (NÃO ELEITO) 1T": 0.0, "SORAYA THRONICKE (UNIÃO) (NÃO ELEITO) 1T": 6.0, "VERA (PSTU) (NÃO ELEITO) 1T": 0.0, "Total_Votos_Validos 1T": 249.0, "Votos_Brancos 1T": 2.0, "Votos_Nulos 1T": 12.0, "Abstenções 1T": 137.0, "Eleitores_Aptos 1T": 400.0, "JAIR BOLSONARO (PL) (NÃO ELEITO) 2T": 46.0, "LULA (PT) (ELEITO) 2T": 209.0, "Total_Votos_Validos 2T": 255.0, "Votos_Brancos 2T": 2.0, "Votos_Nulos 2T": 16.0, "Abstenções 2T": 127.0, "Eleitores_Aptos 2T": 400.0, "mun_code_y": "2900900", "mun_code": "2900900" }, "geometry": { "type": "Polygon", "coordinates": [ [ [ 6545921.348066563718021, 8315209.268362909555435 ], [ 6545870.676851084455848, 8315270.231525707989931 ], [ 6545836.829035632312298, 8315343.700364550575614 ], [ 6545805.042589352466166, 8315424.159955561161041 ], [ 6545548.24396594800055, 8315597.845775329507887 ], [ 6544498.038678994402289, 8316308.063967013731599 ], [ 6543771.213598527945578, 8316799.504218116402626 ], [ 6543680.10557920858264, 8316861.099810404703021 ], [ 6543121.300178965553641, 8317238.876184948720038 ], [ 6543121.010123670101166, 8317239.065929332748055 ], [ 6543120.813891436904669, 8317239.204022417776287 ], [ 6543119.95518955681473, 8317239.783936889842153 ], [ 6542808.121998842805624, 8317450.593139722943306 ], [ 6541324.208920696750283, 8318453.597173526883125 ], [ 6539323.416064519435167, 8319805.485829848796129 ], [ 6538192.259714538231492, 8320569.551204916089773 ], [ 6537988.487674689851701, 8320707.176388999447227 ], [ 6537988.12515630479902, 8320707.416250765323639 ], [ 6537688.39136484824121, 8320909.835942149162292 ], [ 6536835.81057864613831, 8321485.558691315352917 ], [ 6533834.367647072300315, 8323511.568345917388797 ], [ 6533584.227739041671157, 8323680.364799353294075 ], [ 6533278.25228208117187, 8323886.824106009677052 ], [ 6533263.872868869453669, 8323896.530211283825338 ], [ 6533221.697222529910505, 8323913.630647109821439 ], [ 6533179.5107636526227, 8323930.731644351035357 ], [ 6533129.008862878195941, 8323952.716758946888149 ], [ 6533112.077409976162016, 8323960.09689240064472 ], [ 6533019.985558999702334, 8324090.531803998164833 ], [ 6533010.936017117463052, 8324103.334663391113281 ], [ 6532938.577487281523645, 8324158.304240008816123 ], [ 6532882.698914723470807, 8324197.308261985890567 ], [ 6532840.665872474201024, 8324230.827365271747112 ], [ 6532823.555161416530609, 8324244.481946047395468 ], [ 6532774.056915304623544, 8324302.671288751997054 ], [ 6532728.701107781380415, 8324365.846581224352121 ], [ 6532711.70361976698041, 8324415.260967684909701 ], [ 6532706.176263744011521, 8324447.099170621484518 ], [ 6532713.396068137139082, 8324498.816111197695136 ], [ 6532733.211376069113612, 8324568.162468696013093 ], [ 6532753.264940530061722, 8324641.315860798582435 ], [ 6532775.287214202806354, 8324726.096186933107674 ], [ 6532802.780955594033003, 8324840.536536415107548 ], [ 6532835.071069497615099, 8324965.409847444854677 ], [ 6532856.457429030910134, 8325048.142904016189277 ], [ 6532884.358400152996182, 8325200.82395401969552 ], [ 6532912.534078251570463, 8325356.180413013324142 ], [ 6532956.616373137570918, 8325503.458541261032224 ], [ 6532975.48878781311214, 8325624.149261422455311 ], [ 6532993.528648543171585, 8325710.848031543195248 ], [ 6533019.388033119961619, 8325789.899441761896014 ], [ 6533037.75845533516258, 8325838.254409744404256 ], [ 6533056.128140899352729, 8325886.598065122961998 ], [ 6533103.570042873732746, 8325979.802856589667499 ], [ 6533149.988662222400308, 8326037.681407990865409 ], [ 6533169.98009049706161, 8326058.997319233603776 ], [ 6533189.982283391058445, 8326080.312568016350269 ], [ 6533214.351160047575831, 8326095.704481244087219 ], [ 6533239.665728324092925, 8326102.582474820315838 ], [ 6533275.67585988342762, 8326105.864101720973849 ], [ 6533290.289398777298629, 8326099.521634849719703 ], [ 6533349.803435325622559, 8326094.712522972375154 ], [ 6533405.752692758105695, 8326112.262383319437504 ], [ 6533476.405741064809263, 8326165.780889234505594 ], [ 6533566.079523926600814, 8326233.717231642454863 ], [ 6533593.551529867574573, 8326284.898130686022341 ], [ 6533599.750780194997787, 8326317.228435860015452 ], [ 6533599.562014725059271, 8326350.772347011603415 ], [ 6533597.214610254392028, 8326433.980446919798851 ], [ 6533591.911384079605341, 8326475.297677419148386 ], [ 6533601.339225459843874, 8326560.614287622272968 ], [ 6533618.029713878408074, 8326640.58904473297298 ], [ 6533635.144373744726181, 8326675.253492258489132 ], [ 6533647.243982643820345, 8326702.202546899206936 ], [ 6533665.865724528208375, 8326730.770557734183967 ], [ 6533686.79145386070013, 8326751.662915614433587 ], [ 6533701.491817966103554, 8326766.365276100113988 ], [ 6533711.606735872104764, 8326776.941831801086664 ], [ 6533720.583970876410604, 8326791.412379421293736 ], [ 6533724.867360102944076, 8326797.782096880488098 ], [ 6533729.140000947751105, 8326804.152494525536895 ], [ 6533731.473321767523885, 8326818.335284000262618 ], [ 6533732.13547483459115, 8326828.402157139033079 ], [ 6533724.695838908664882, 8326841.787408219650388 ], [ 6533706.742262444458902, 8326865.990971795283258 ], [ 6533695.296067832969129, 8326883.987584974616766 ], [ 6533694.644703201949596, 8326895.483698260039091 ], [ 6533699.879410500638187, 8326911.023508460260928 ], [ 6533708.002771073020995, 8326927.715793472714722 ], [ 6533722.167756462469697, 8326952.663427049294114 ], [ 6533737.374706239439547, 8326993.23314274661243 ], [ 6533757.048862930387259, 8327037.936215824447572 ], [ 6533766.680558528751135, 8327077.534587675705552 ], [ 6533768.087855570018291, 8327098.998011988587677 ], [ 6533761.411082462407649, 8327123.892712339758873 ], [ 6533751.541121602058411, 8327144.664882643148303 ], [ 6533735.629516545683146, 8327157.181645007804036 ], [ 6533712.918635175563395, 8327173.139769821427763 ], [ 6533706.876077656634152, 8327186.436676364392042 ], [ 6533700.091640501283109, 8327211.338069850578904 ], [ 6533701.263419324532151, 8327229.210961400531232 ], [ 6533702.445935663767159, 8327247.08317556604743 ], [ 6533699.763311246410012, 8327270.276579051278532 ], [ 6533693.72067004442215, 8327283.573453841730952 ], [ 6533685.348143364302814, 8327305.688504490070045 ], [ 6533679.226258656941354, 8327339.116397216916084 ], [ 6533675.707033404149115, 8327371.022247432731092 ], [ 6533669.585029490292072, 8327404.450110053643584 ], [ 6533662.328927969560027, 8327422.159067526459694 ], [ 6533650.804669205099344, 8327437.364997542463243 ], [ 6533636.660407851450145, 8327455.542990373447537 ], [ 6533607.796624331735075, 8327484.599037377163768 ], [ 6533598.83794099278748, 8327511.49716560728848 ], [ 6533593.010850384831429, 8327532.732553402893245 ], [ 6533591.234145587310195, 8327546.775423316285014 ], [ 6533592.293679567053914, 8327556.817155898548663 ], [ 6533596.337829848751426, 8327569.545630373060703 ], [ 6533603.092016562819481, 8327583.848664679564536 ], [ 6533610.116133274510503, 8327594.529334609396756 ], [ 6533626.793938165530562, 8327616.523353684693575 ], [ 6533643.200058944523335, 8327626.577603198587894 ], [ 6533672.015523409470916, 8327648.695427482016385 ], [ 6533700.168537709861994, 8327672.817487266846001 ], [ 6533713.488403782248497, 8327690.813495076261461 ], [ 6533718.244881955906749, 8327702.162174506112933 ], [ 6533719.758999853394926, 8327725.170476485975087 ], [ 6533715.001135108061135, 8327802.346774103119969 ], [ 6533718.34663447830826, 8327825.65021676197648 ], [ 6533722.903579217381775, 8327840.194711275398731 ], [ 6533732.103038544766605, 8327858.051538869738579 ], [ 6533743.79306716658175, 8327871.21026997640729 ], [ 6533759.239256006665528, 8327894.217784585431218 ], [ 6533775.284195836633444, 8327923.177429163828492 ], [ 6533780.704889360815287, 8327938.591601143591106 ], [ 6533782.984067120589316, 8327945.875232867896557 ], [ 6533783.789205233566463, 8327950.468018980696797 ], [ 6533780.705255875363946, 8327964.490779062733054 ], [ 6533768.814469901844859, 8327983.33644799515605 ], [ 6533752.456287316046655, 8328007.541184431873262 ], [ 6533745.367667353712022, 8328023.277041803114116 ], [ 6533739.834977144375443, 8328041.287832873873413 ], [ 6533740.55732632894069, 8328058.367632586508989 ], [ 6533742.200961914844811, 8328077.237601617351174 ], [ 6533747.01924258004874, 8328089.403917749412358 ], [ 6533755.202751975506544, 8328104.130333019420505 ], [ 6533760.701112700626254, 8328112.328931833617389 ], [ 6533766.199474292807281, 8328120.52753282058984 ], [ 6533777.870846651494503, 8328127.172825407236814 ], [ 6533795.592670633457601, 8328137.555063145235181 ], [ 6533816.065487593412399, 8328154.654941422864795 ], [ 6533831.360239559784532, 8328175.413136449642479 ], [ 6533834.377267865464091, 8328183.106604838743806 ], [ 6533837.382835632190108, 8328190.789388411678374 ], [ 6533840.450175670906901, 8328209.991725731641054 ], [ 6533841.577007620595396, 8328222.493727353401482 ], [ 6533834.544454259797931, 8328238.95625246502459 ], [ 6533824.260244934819639, 8328253.46759067196399 ], [ 6533817.842552047222853, 8328268.544987833127379 ], [ 6533814.627427041530609, 8328291.349779301322997 ], [ 6533817.134524058550596, 8328329.561196231283247 ], [ 6533826.418870242312551, 8328385.383150327019393 ], [ 6533831.293830966576934, 8328396.039928138256073 ], [ 6533849.368615133687854, 8328435.550957416184247 ], [ 6533871.872946031391621, 8328468.404702882282436 ], [ 6533899.220906439237297, 8328500.01729860343039 ], [ 6534015.127946495078504, 8328590.322667259722948 ], [ 6534034.269190253689885, 8328620.821692269295454 ], [ 6534043.952630211599171, 8328644.524191397242248 ], [ 6534051.507449350319803, 8328672.502636014483869 ], [ 6534055.069575933739543, 8328702.387380108237267 ], [ 6534054.242110129445791, 8328726.273896949365735 ], [ 6534044.585086499340832, 8328741.156390979886055 ], [ 6534021.712519091553986, 8328765.269993459805846 ], [ 6533965.902867462486029, 8328808.393025184981525 ], [ 6533955.386474062688649, 8328820.751094681210816 ], [ 6533950.496479324996471, 8328845.430028984323144 ], [ 6533948.589021071791649, 8328878.979848536662757 ], [ 6533960.132027273997664, 8328979.943507861346006 ], [ 6533972.276719145476818, 8329041.141791532747447 ], [ 6533984.144385240972042, 8329083.052904270589352 ], [ 6533987.162437401711941, 8329093.701454604044557 ], [ 6534064.391777252778411, 8329303.566656929440796 ], [ 6534095.952803180553019, 8329389.314545911736786 ], [ 6534108.094218141399324, 8329422.30930255074054 ], [ 6534122.762980364263058, 8329471.57427713368088 ], [ 6534134.127065341919661, 8329533.244396070949733 ], [ 6534143.808538544923067, 8329563.14268203638494 ], [ 6534153.500038096681237, 8329593.028942723758519 ], [ 6534175.006895499303937, 8329635.142657487653196 ], [ 6534221.012277295812964, 8329689.859231255017221 ], [ 6534258.75307921692729, 8329707.468603004701436 ], [ 6534284.83771769143641, 8329707.797453414648771 ], [ 6534306.247516572475433, 8329701.01632639952004 ], [ 6534327.75270121358335, 8329681.941101616248488 ], [ 6534348.709051920101047, 8329658.918514279648662 ], [ 6534353.668626455590129, 8329653.482840009965003 ], [ 6534367.176814615726471, 8329642.533446032553911 ], [ 6534373.935922712087631, 8329637.052721044048667 ], [ 6534380.684986539185047, 8329631.584034435451031 ], [ 6534406.55857701972127, 8329616.443233458325267 ], [ 6534435.365176053717732, 8329607.826208126731217 ], [ 6534450.81818509940058, 8329608.14080367423594 ], [ 6534464.24058622866869, 8329613.95738613884896 ], [ 6534481.334475611336529, 8329627.061309565789998 ], [ 6534496.258680414408445, 8329642.059170526452363 ], [ 6534502.886229873634875, 8329654.511167181655765 ], [ 6534505.709972855634987, 8329671.550149103626609 ], [ 6534503.401365038007498, 8329686.767843998037279 ], [ 6534461.35564933065325, 8329777.672869900241494 ], [ 6534457.823070177808404, 8329804.742393967695534 ], [ 6534460.061144532635808, 8329838.841380525380373 ], [ 6534464.97375769726932, 8329857.18621994368732 ], [ 6534469.404720786958933, 8329865.920346491038799 ], [ 6534473.846434136852622, 8329874.653797157108784 ], [ 6534484.087137060239911, 8329888.623643277212977 ], [ 6534499.202907455153763, 8329895.976548489183187 ], [ 6534513.76980447024107, 8329899.553263639099896 ], [ 6534554.089004329405725, 8329899.86288592312485 ], [ 6534614.382049479521811, 8329906.682686658576131 ], [ 6534644.243686417117715, 8329915.638495011255145 ], [ 6534663.020751222968102, 8329928.214274107478559 ], [ 6534674.636858553625643, 8329937.248317756690085 ], [ 6534681.866636814549565, 8329948.110726220533252 ], [ 6534683.702063891105354, 8329957.795872885733843 ], [ 6534685.547528855502605, 8329967.468977771699429 ], [ 6534687.137892911210656, 8329991.716912976466119 ], [ 6534682.794115655124187, 8330012.539681150577962 ], [ 6534671.45628426130861, 8330038.3673947006464 ], [ 6534656.852407298050821, 8330057.178738575428724 ], [ 6534628.966926513239741, 8330104.222180210053921 ], [ 6534625.418516818434, 8330124.994708221405745 ], [ 6534627.727038526907563, 8330146.401938608847558 ], [ 6534657.909454954788089, 8330202.995894568040967 ], [ 6534663.238729703240097, 8330223.174389320425689 ], [ 6534665.380174963735044, 8330243.462630400434136 ], [ 6534662.659349554218352, 8330263.144701112061739 ], [ 6534648.369661473669112, 8330282.152862866409123 ], [ 6534600.670501049607992, 8330335.978960211388767 ], [ 6534565.594356237910688, 8330366.5776322837919 ], [ 6534544.656194807961583, 8330389.735713195055723 ], [ 6534515.944796580821276, 8330414.239523263648152 ], [ 6534487.22256921697408, 8330438.743928840383887 ], [ 6534455.535870414227247, 8330470.566098617389798 ], [ 6534448.576210301369429, 8330482.174784203059971 ], [ 6534443.786570277065039, 8330496.213812111876905 ], [ 6534443.427682948298752, 8330521.405886529013515 ], [ 6534449.86681355163455, 8330546.055334341712296 ], [ 6534464.155552845448256, 8330565.224003535695374 ], [ 6534492.390538066625595, 8330586.149160991422832 ], [ 6534549.63225641194731, 8330607.516306329518557 ], [ 6534639.819896582514048, 8330616.184125231578946 ], [ 6534693.176820205524564, 8330625.633377315476537 ], [ 6534712.64318472892046, 8330630.578763603232801 ], [ 6534732.121017210185528, 8330635.534830313175917 ], [ 6534799.139417115598917, 8330663.781573347747326 ], [ 6534877.528572597540915, 8330717.177254267968237 ], [ 6535064.833593001589179, 8330794.295549876056612 ], [ 6535128.358931160531938, 8330825.877391126006842 ], [ 6535161.566486637108028, 8330847.60731696523726 ], [ 6535191.483462013304234, 8330875.751706731505692 ], [ 6535260.619591683149338, 8330948.431967141106725 ], [ 6535275.575744924135506, 8330967.045500953681767 ], [ 6535301.169063060544431, 8330990.419461281970143 ], [ 6535425.227948904037476, 8331069.255557904951274 ], [ 6535435.172360171563923, 8331080.723080510273576 ], [ 6535471.436379658058286, 8331122.524616187438369 ], [ 6535482.307344913482666, 8331156.776528961025178 ], [ 6535483.007055195979774, 8331181.286696664057672 ], [ 6535481.653939796611667, 8331204.899398705922067 ], [ 6535471.23616511747241, 8331234.069784392602742 ], [ 6535455.838161334395409, 8331260.576131599023938 ], [ 6535441.129468528553843, 8331297.775750643573701 ], [ 6535431.198446317575872, 8331335.780875825323164 ], [ 6535428.935737760737538, 8331373.177024194039404 ], [ 6535435.235745866782963, 8331397.322667742148042 ], [ 6535446.699129419401288, 8331426.893433226272464 ], [ 6535462.275660935789347, 8331461.145437324419618 ], [ 6535464.44314731284976, 8331471.31199651863426 ], [ 6535466.622091867029667, 8331481.489244595170021 ], [ 6535467.715512476861477, 8331498.135915457271039 ], [ 6535463.301865490153432, 8331518.027874403633177 ], [ 6535456.123286431655288, 8331553.794220989570022 ], [ 6535449.731348526664078, 8331587.639723078347743 ], [ 6535447.336160654202104, 8331623.093096159398556 ], [ 6535449.319023662246764, 8331653.29576195217669 ], [ 6535452.407554499804974, 8331664.385527642443776 ], [ 6535455.485331833362579, 8331675.475973101332784 ], [ 6535474.676597896963358, 8331706.602138362824917 ], [ 6535495.488094521686435, 8331733.598490669392049 ], [ 6535553.501202933490276, 8331789.58184053376317 ], [ 6535592.44583716802299, 8331816.405177201144397 ], [ 6535616.568537736311555, 8331821.924659634940326 ], [ 6535629.012593715451658, 8331837.296877291053534 ], [ 6535665.517996165901423, 8331868.096370358020067 ], [ 6535716.219427950680256, 8331901.355644819326699 ], [ 6535742.240061746910214, 8331920.675780997611582 ], [ 6535761.218789065256715, 8331933.354144565761089 ], [ 6535793.277242143638432, 8331960.520395486615598 ], [ 6535813.936194275505841, 8331995.787561422213912 ], [ 6535838.721122896298766, 8332045.10297561250627 ], [ 6535852.968710439279675, 8332081.926767421886325 ], [ 6535875.716374911367893, 8332116.936892472207546 ], [ 6535885.900437695905566, 8332140.712661801837385 ], [ 6535897.245704806409776, 8332165.453576711937785 ], [ 6535912.592574264854193, 8332185.480925588868558 ], [ 6535943.638064187020063, 8332215.609483630396426 ], [ 6535965.893671259284019, 8332226.312902041710913 ], [ 6536011.512765939347446, 8332235.555116731673479 ], [ 6536054.495077232830226, 8332250.451798558235168 ], [ 6536087.134658862836659, 8332272.743833587504923 ], [ 6536104.458414478227496, 8332289.337712201289833 ], [ 6536122.842602591961622, 8332323.60766669921577 ], [ 6536140.553468286991119, 8332381.151334324851632 ], [ 6536160.55930966604501, 8332438.630282310768962 ], [ 6536185.642691150307655, 8332492.377606367692351 ], [ 6536208.754002351313829, 8332533.036216236650944 ], [ 6536249.60076323337853, 8332597.91929442808032 ], [ 6536292.073049681261182, 8332653.914133037440479 ], [ 6536324.033399985171854, 8332688.834961673244834 ], [ 6536347.11153450794518, 8332719.797153201885521 ], [ 6536346.37674555554986, 8332739.14971533883363 ], [ 6536339.946417653933167, 8332763.402529714629054 ], [ 6536327.904895187355578, 8332790.621914313174784 ], [ 6536306.036510467529297, 8332822.61389708891511 ], [ 6536281.208144476637244, 8332847.478343529626727 ], [ 6536267.539945872500539, 8332863.857645776122808 ], [ 6536256.871437228284776, 8332880.047897297888994 ], [ 6536249.815782380290329, 8332897.744829848408699 ], [ 6536251.346717768348753, 8332921.062223436310887 ], [ 6536257.013648304156959, 8332944.929127722047269 ], [ 6536311.054545087739825, 8333036.685626083984971 ], [ 6536318.883468720130622, 8333056.79930134024471 ], [ 6536322.848795114085078, 8333072.946032889187336 ], [ 6536319.25800247117877, 8333087.012969405390322 ], [ 6536302.597929132170975, 8333106.478896975517273 ], [ 6536271.455942614004016, 8333122.373002857901156 ], [ 6536258.423745787702501, 8333134.59295644890517 ], [ 6536252.020699700340629, 8333154.6220215074718 ], [ 6536253.889130719937384, 8333183.178277922794223 ], [ 6536273.42207673098892, 8333225.831512859091163 ], [ 6536291.578372951596975, 8333255.073174406774342 ], [ 6536307.199826909229159, 8333276.213520592078567 ], [ 6536319.552803609520197, 8333296.350310107693076 ], [ 6536330.6958839436993, 8333324.082714873366058 ], [ 6536338.636311545036733, 8333352.03972346149385 ], [ 6536346.451489076018333, 8333402.380214132368565 ], [ 6536346.465815112926066, 8333445.510203531011939 ], [ 6536324.417582979425788, 8333569.445510015822947 ], [ 6536336.219417089596391, 8333590.438685462810099 ], [ 6536342.945968374609947, 8333619.704528998583555 ], [ 6536345.765470748767257, 8333662.646380939520895 ], [ 6536344.289223480969667, 8333701.443030214868486 ], [ 6536340.741822868585587, 8333734.379725973121822 ], [ 6536330.494963413104415, 8333764.783100410364568 ], [ 6536315.003450972959399, 8333789.845858295448124 ], [ 6536243.989510850049555, 8333867.400814954191446 ], [ 6536232.238891566172242, 8333886.853575363755226 ], [ 6536226.035757703706622, 8333916.15770261734724 ], [ 6536228.880085850134492, 8333959.508565017953515 ], [ 6536240.007690230384469, 8333993.232478740625083 ], [ 6536252.443303247913718, 8334014.69933957606554 ], [ 6536261.554695269092917, 8334042.05783261731267 ], [ 6536263.959689240902662, 8334060.368141698651016 ], [ 6536262.268785042688251, 8334078.947773383930326 ], [ 6536257.878325903788209, 8334100.800965162925422 ], [ 6536264.111812334507704, 8334114.728296029381454 ], [ 6536275.344950888305902, 8334131.626968646422029 ], [ 6536287.588244328275323, 8334144.126155680045485 ], [ 6536302.366149789653718, 8334152.437938323244452 ], [ 6536320.769036293029785, 8334153.275960154831409 ], [ 6536341.430618241429329, 8334151.906488683074713 ], [ 6536371.411476099863648, 8334142.807342382147908 ], [ 6536391.587192210368812, 8334140.224696104414761 ], [ 6536416.038385629653931, 8334146.135903728194535 ], [ 6536434.327473999001086, 8334159.16721701901406 ], [ 6536450.578246499411762, 8334176.035242230631411 ], [ 6536463.886203141883016, 8334198.679644526913762 ], [ 6536467.080529442057014, 8334216.837690062820911 ], [ 6536462.323222869075835, 8334237.481843491084874 ], [ 6536402.681170364841819, 8334291.271479474380612 ], [ 6536392.331755028106272, 8334306.197383495047688 ], [ 6536390.009633291512728, 8334327.292858834378421 ], [ 6536392.537180255167186, 8334365.917243149131536 ], [ 6536395.065381770022213, 8334404.552999153733253 ], [ 6536430.084149377420545, 8334498.388587288558483 ], [ 6536434.506199519149959, 8334521.524096163921058 ], [ 6536435.820249672979116, 8334541.557705337181687 ], [ 6536432.190782675519586, 8334573.369872842915356 ], [ 6536437.617839775979519, 8334619.547950631007552 ], [ 6536456.779451532289386, 8334668.72951309941709 ], [ 6536468.651504076085985, 8334689.296575955115259 ], [ 6536477.088684920221567, 8334698.749452896416187 ], [ 6536494.439080022275448, 8334703.476468373090029 ], [ 6536510.890722436830401, 8334698.983471700921655 ], [ 6536567.727565718814731, 8334659.211755606345832 ], [ 6536586.980476965196431, 8334654.633594825863838 ], [ 6536607.460244053974748, 8334656.573361003771424 ], [ 6536634.272700561210513, 8334661.914068264886737 ], [ 6536661.125603569671512, 8334673.961520061828196 ], [ 6536682.629382180050015, 8334691.628764532506466 ], [ 6536696.438168305903673, 8334709.495236542075872 ], [ 6536703.118358784355223, 8334730.412103199400008 ], [ 6536704.628912061452866, 8334753.423062140122056 ], [ 6536691.540701601654291, 8334803.197658749297261 ], [ 6536689.139940116554499, 8334827.709985936060548 ], [ 6536693.722460337914526, 8334861.036510097794235 ], [ 6536881.834999004378915, 8334964.245241206139326 ], [ 6536900.961079677566886, 8334970.092794936150312 ], [ 6536927.924242570064962, 8334971.61301208846271 ], [ 6536951.886886096559465, 8334970.024480824358761 ], [ 6536974.256156385876238, 8334958.118445628322661 ], [ 6536987.769752211868763, 8334945.457729525864124 ], [ 6537000.592049636878073, 8334936.252266313880682 ], [ 6537039.333736666478217, 8334930.697885317727923 ], [ 6537076.463636173866689, 8334932.878585982136428 ], [ 6537101.31345038767904, 8334938.764995517209172 ], [ 6537132.839995753020048, 8334953.393680046312511 ], [ 6537164.572055936791003, 8334984.81723580416292 ], [ 6537185.143011536449194, 8335018.84917878638953 ], [ 6537197.422333379276097, 8335044.035133766010404 ], [ 6537207.989976718090475, 8335081.412722926586866 ], [ 6537211.437457296065986, 8335115.746996857225895 ], [ 6537206.18696503341198, 8335259.006884904578328 ], [ 6537212.566364454105496, 8335356.462629115208983 ], [ 6537215.096457901410758, 8335395.133644823916256 ], [ 6537302.241613928228617, 8335836.761888904497027 ], [ 6537370.806416892446578, 8336006.709979740902781 ], [ 6537406.273681845515966, 8336044.711861938238144 ], [ 6537447.742245538160205, 8336080.966830784454942 ], [ 6537484.927900679409504, 8336126.791115300729871 ], [ 6537505.861500097438693, 8336166.472348321229219 ], [ 6537514.281998707912862, 8336189.334376396611333 ], [ 6537518.891325538046658, 8336210.804528269916773 ], [ 6537519.144779263995588, 8336245.351624706760049 ], [ 6537512.62977169919759, 8336275.920118565671146 ], [ 6537478.28908059373498, 8336330.296447925269604 ], [ 6537466.925283194519579, 8336355.818348124623299 ], [ 6537460.185125078074634, 8336378.447650799527764 ], [ 6537456.768956398591399, 8336405.911305480636656 ], [ 6537459.314843236468732, 8336444.855506405234337 ], [ 6537467.803962012752891, 8336481.120809716172516 ], [ 6537480.350196242332458, 8336497.607182695530355 ], [ 6537556.860945279709995, 8336598.125400232151151 ], [ 6537578.790173409506679, 8336622.260024436749518 ], [ 6537660.781291509047151, 8336692.571931960992515 ], [ 6537682.043069119565189, 8336718.813990542665124 ], [ 6537703.18879315815866, 8336755.492825143970549 ], [ 6537706.578100708313286, 8336747.86257291212678 ], [ 6537709.956650404259562, 8336740.232994913123548 ], [ 6537716.735951712355018, 8336724.983844854868948 ], [ 6537756.227366181090474, 8336591.6285440903157 ], [ 6537772.155894301831722, 8336557.763077364303172 ], [ 6537786.929368235170841, 8336533.772138297557831 ], [ 6537806.141158641315997, 8336510.32343283854425 ], [ 6537856.191791886463761, 8336472.438993497751653 ], [ 6537923.297305680811405, 8336430.023403234779835 ], [ 6537963.855798233300447, 8336429.501801599748433 ], [ 6538005.112884546630085, 8336436.376089641824365 ], [ 6538067.288809261284769, 8336456.710811880417168 ], [ 6538122.106858183629811, 8336473.309395075775683 ], [ 6538180.741230666637421, 8336485.320125627331436 ], [ 6538194.217504410073161, 8336484.163737861439586 ], [ 6538234.067059307359159, 8336480.753814063034952 ], [ 6538303.665664181113243, 8336471.922244994901121 ], [ 6538343.305593805387616, 8336461.861259249038994 ], [ 6538380.133713591843843, 8336456.222130397334695 ], [ 6538396.877937548793852, 8336459.344444867223501 ], [ 6538427.872608507983387, 8336476.495323630049825 ], [ 6538535.473653389140964, 8336527.769457263872027 ], [ 6538620.746540926396847, 8336583.838512722402811 ], [ 6538677.915514347143471, 8336636.393708284012973 ], [ 6538712.22089659050107, 8336659.715103878639638 ], [ 6538742.387171631678939, 8336677.945244986563921 ], [ 6538766.533413344062865, 8336683.77381675131619 ], [ 6538817.391822304576635, 8336688.97034623939544 ], [ 6538857.444845008663833, 8336685.181793075054884 ], [ 6538891.683311151340604, 8336672.287902692332864 ], [ 6538959.414067844860256, 8336634.884482025168836 ], [ 6539050.922030395828187, 8336580.954515216872096 ], [ 6539224.189029595814645, 8336420.677437085658312 ], [ 6539290.424087911844254, 8336360.189467281103134 ], [ 6539324.557135122828186, 8336329.008344223722816 ], [ 6539358.869320559315383, 8336317.135537379421294 ], [ 6539446.623077435418963, 8336254.982752243988216 ], [ 6539507.364369306713343, 8336204.219755415804684 ], [ 6539557.31581549346447, 8336164.794739589095116 ], [ 6539581.710092384368181, 8336143.983318720012903 ], [ 6539598.697770141065121, 8336135.438215370289981 ], [ 6539605.814897534437478, 8336133.928442749194801 ], [ 6539612.932733590714633, 8336132.430034451186657 ], [ 6539654.339763564988971, 8336133.917487582191825 ], [ 6539658.603890126571059, 8336135.645816248841584 ], [ 6539710.560336735099554, 8336156.712748480029404 ], [ 6539745.022104005329311, 8336177.855120852589607 ], [ 6539770.378457763232291, 8336186.813016060739756 ], [ 6539779.897025275044143, 8336188.666677324101329 ], [ 6539802.759507963433862, 8336193.125738998875022 ], [ 6539831.282348409295082, 8336203.002411426976323 ], [ 6539856.836718393489718, 8336215.131685247644782 ], [ 6539876.876655046828091, 8336221.240723652765155 ], [ 6539944.178378865122795, 8336223.184297236613929 ], [ 6540026.868475869297981, 8336151.019328344613314 ], [ 6542430.076622755266726, 8334053.15892590675503 ], [ 6546656.897778095677495, 8330360.764818350784481 ], [ 6547970.546896863728762, 8329212.527423939667642 ], [ 6547973.736195255070925, 8329207.986577677540481 ], [ 6548126.626695366576314, 8328989.351607802323997 ], [ 6548189.368308746255934, 8328899.638123068958521 ], [ 6548785.783536076545715, 8328046.706412501633167 ], [ 6549778.268010025843978, 8326627.023333792574704 ], [ 6551030.671498730778694, 8324834.956400421448052 ], [ 6551316.813639922067523, 8324425.428851473145187 ], [ 6552738.920502604916692, 8322389.533545575104654 ], [ 6552913.577990267425776, 8322139.428109455853701 ], [ 6552922.262337706051767, 8322126.985196556895971 ], [ 6552921.780260353349149, 8322125.680163159035146 ], [ 6552912.823452384211123, 8322100.677437538281083 ], [ 6552904.943472311832011, 8322078.700040755793452 ], [ 6552893.143592661246657, 8322035.085214596241713 ], [ 6552891.30205930583179, 8322007.091658641584218 ], [ 6552891.265247588977218, 8322006.511690306477249 ], [ 6552883.748119719326496, 8321892.503302494063973 ], [ 6552886.470051576383412, 8321871.4677962847054 ], [ 6552892.725163616240025, 8321843.537583274766803 ], [ 6552892.832386070862412, 8321843.016891504637897 ], [ 6552893.219895675778389, 8321841.302159160375595 ], [ 6552893.582383840344846, 8321839.703212580643594 ], [ 6552893.992748722434044, 8321837.838578514754772 ], [ 6552897.842728774063289, 8321820.635768878273666 ], [ 6552898.313158553093672, 8321818.527501595206559 ], [ 6552899.970952379517257, 8321809.28667476773262 ], [ 6552901.888090556487441, 8321798.522019200958312 ], [ 6552906.737766288220882, 8321771.401200135238469 ], [ 6552906.523704163730145, 8321722.476487038657069 ], [ 6552907.772431431338191, 8321683.677290217019618 ], [ 6552911.921136038377881, 8321659.284648880362511 ], [ 6552916.081276179291308, 8321634.902681986801326 ], [ 6552923.428193788975477, 8321595.7924246173352 ], [ 6552919.790354249067605, 8321540.70437328889966 ], [ 6552916.76035098079592, 8321505.387969860807061 ], [ 6552892.833566764369607, 8321457.218524876050651 ], [ 6552868.183966518379748, 8321419.417541831731796 ], [ 6552834.458029337227345, 8321385.327125987969339 ], [ 6552814.520805200561881, 8321374.159586873836815 ], [ 6552794.583594583906233, 8321362.992049752734601 ], [ 6552760.769392296671867, 8321350.282160348258913 ], [ 6552717.00720798689872, 8321337.410788313485682 ], [ 6552670.775066751986742, 8321332.541989263147116 ], [ 6552625.185234986245632, 8321326.912612156011164 ], [ 6552620.090675403364003, 8321325.697779559530318 ], [ 6552594.375381473451853, 8321320.39274924620986 ], [ 6552555.162319905124605, 8321309.490391746163368 ], [ 6552523.794581648893654, 8321292.992623782716691 ], [ 6552497.791903977282345, 8321271.092733063735068 ], [ 6552485.035860070958734, 8321252.534077143296599 ], [ 6552459.570581022650003, 8321212.924670592881739 ], [ 6552449.556497003883123, 8321185.718098158016801 ], [ 6552441.484856841154397, 8321150.01760545372963 ], [ 6552432.573945530690253, 8321115.204450472258031 ], [ 6552427.492685595527291, 8321086.836744063533843 ], [ 6552421.561419961974025, 8321059.357056421227753 ], [ 6552402.924735592678189, 8321026.012427896261215 ], [ 6552384.128812568262219, 8321001.036016443744302 ], [ 6552359.095446242019534, 8320981.654715702868998 ], [ 6552333.939445836469531, 8320960.511505593545735 ], [ 6552300.996813074685633, 8320945.884801396168768 ], [ 6552261.835583413019776, 8320935.790074751712382 ], [ 6552246.631479519419372, 8320928.806519995443523 ], [ 6552231.438128876499832, 8320921.822275714948773 ], [ 6552206.724020917899907, 8320907.46728082280606 ], [ 6552170.71744058188051, 8320882.817967861890793 ], [ 6552132.61969848535955, 8320852.42252631764859 ], [ 6552096.74303328152746, 8320817.751459019258618 ], [ 6552064.122237801551819, 8320785.246622672304511 ], [ 6552043.803333966061473, 8320762.959966774098575 ], [ 6552019.684378430247307, 8320731.63424423057586 ], [ 6551996.282556704245508, 8320688.490795602090657 ], [ 6551986.312605812214315, 8320660.448386466130614 ], [ 6551980.276747651398182, 8320631.320268245413899 ], [ 6551979.059059286490083, 8320612.82153055537492 ], [ 6551981.488859659992158, 8320587.363836738280952 ], [ 6551988.755387715063989, 8320560.76252494007349 ], [ 6552012.890617085620761, 8320517.745450116693974 ], [ 6552064.945563990622759, 8320461.919765440747142 ], [ 6552102.876667542383075, 8320429.035984194837511 ], [ 6552153.408080188557506, 8320400.367894408293068 ], [ 6552211.156074510887265, 8320380.50815238058567 ], [ 6552263.695618513971567, 8320359.338049705140293 ], [ 6552320.597242248244584, 8320326.835366197861731 ], [ 6552354.653653714805841, 8320297.510427255183458 ], [ 6552399.738944956101477, 8320260.741298590786755 ], [ 6552415.980460590682924, 8320246.180544742383063 ], [ 6552432.211203237995505, 8320231.620452818460763 ], [ 6552477.67089669406414, 8320174.594117311760783 ], [ 6552499.791453279554844, 8320137.59632820636034 ], [ 6552519.325552250258625, 8320085.703919306397438 ], [ 6552530.776613023132086, 8320035.997040088288486 ], [ 6552536.677229867316782, 8319976.541195124387741 ], [ 6552536.887930420227349, 8319925.009177381172776 ], [ 6552538.455436032265425, 8319888.039527079090476 ], [ 6552538.740736884064972, 8319833.10010552033782 ], [ 6552536.677435114979744, 8319789.763745971024036 ], [ 6552525.613194925710559, 8319754.369650552049279 ], [ 6552502.892089499160647, 8319710.760383161716163 ], [ 6552481.675753845833242, 8319679.454656265676022 ], [ 6552458.320917259901762, 8319650.661152184009552 ], [ 6552434.858644269406796, 8319621.874573268927634 ], [ 6552414.014935865998268, 8319594.564191393554211 ], [ 6552398.953294515609741, 8319559.426802126690745 ], [ 6552389.448005927726626, 8319512.571911418810487 ], [ 6552386.23795669618994, 8319462.401445962488651 ], [ 6552391.625080533325672, 8319411.861932779662311 ], [ 6552392.765891874209046, 8319379.053133076056838 ], [ 6552357.802669711410999, 8319092.602949453517795 ], [ 6552348.810103109106421, 8319006.471452623605728 ], [ 6552349.017144285142422, 8318942.859575149603188 ], [ 6552343.498825121670961, 8318915.456520152278244 ], [ 6552339.430320493876934, 8318890.323939118534327 ], [ 6552335.169758427888155, 8318863.867780379951 ], [ 6552328.271503736265004, 8318833.767331285402179 ], [ 6552324.633385133929551, 8318825.757055963389575 ], [ 6552320.994543227367103, 8318817.735410647466779 ], [ 6552314.665026034228504, 8318806.084293304011226 ], [ 6552308.334786141291261, 8318794.421808267012239 ], [ 6552294.298144266009331, 8318768.6275570448488 ], [ 6552279.231452425941825, 8318745.468512065708637 ], [ 6552272.573980148881674, 8318720.513629508204758 ], [ 6552265.58032301068306, 8318689.083479918539524 ], [ 6552262.090199925936759, 8318618.070451684296131 ], [ 6552263.711902566254139, 8318474.236091949976981 ], [ 6552258.233687137253582, 8318371.460122960619628 ], [ 6552249.308398047462106, 8318316.107699268497527 ], [ 6552248.61164534650743, 8318311.767914889380336 ], [ 6552248.078129004687071, 8318308.468107842840254 ], [ 6552245.654262551106513, 8318293.426350369118154 ], [ 6552238.924713258631527, 8318155.209270365536213 ], [ 6552229.521721963770688, 8318031.11675110924989 ], [ 6552226.157217419706285, 8317927.166054779663682 ], [ 6552210.414959186688066, 8317839.116486979648471 ], [ 6552186.842394694685936, 8317763.147864127531648 ], [ 6552155.990458143875003, 8317687.567024090327322 ], [ 6552126.946717758662999, 8317641.088844552636147 ], [ 6552084.690152164548635, 8317599.410126776434481 ], [ 6552024.134839083068073, 8317561.44172961357981 ], [ 6551898.9568298952654, 8317499.913128811866045 ], [ 6551836.590110245160758, 8317470.944295776076615 ], [ 6551813.175050068646669, 8317453.414714412763715 ], [ 6551795.199626759625971, 8317437.785060726106167 ], [ 6551773.71507198177278, 8317423.636782134883106 ], [ 6551763.313552042469382, 8317410.386535483412445 ], [ 6551677.746192809194326, 8317297.377105817198753 ], [ 6551622.007853487506509, 8317210.973701605573297 ], [ 6551480.647221893072128, 8317035.109154755249619 ], [ 6551450.133260966278613, 8317008.753295702859759 ], [ 6551428.640992814674973, 8316983.964471780695021 ], [ 6551326.996308347210288, 8316831.045779853127897 ], [ 6551310.5330730387941, 8316774.740983167663217 ], [ 6551294.104634697549045, 8316715.762270711362362 ], [ 6551187.513974376022816, 8316491.20873040985316 ], [ 6551175.280615029856563, 8316432.040756873786449 ], [ 6551193.392316931858659, 8316139.065154813230038 ], [ 6551160.576689384877682, 8316008.055772834457457 ], [ 6551157.741369118914008, 8315996.729013939388096 ], [ 6551146.548140181228518, 8315952.223133366554976 ], [ 6551124.504616904072464, 8315902.500282509252429 ], [ 6551066.520239672623575, 8315810.981186496093869 ], [ 6551049.7382384641096, 8315757.483673259615898 ], [ 6551046.895650524646044, 8315714.51929572597146 ], [ 6551037.927671642042696, 8315624.474288418889046 ], [ 6551018.393505822867155, 8315539.778290343470871 ], [ 6551010.556529480032623, 8315513.77041345089674 ], [ 6551008.362225128337741, 8315492.857441168278456 ], [ 6551006.498069159686565, 8315478.317094512283802 ], [ 6551007.389222426339984, 8315464.524459238164127 ], [ 6551010.26194422505796, 8315453.390334332361817 ], [ 6551020.887059504166245, 8315438.127070724964142 ], [ 6551035.290634226053953, 8315413.418312623165548 ], [ 6551050.408520257100463, 8315385.866283342242241 ], [ 6551068.170886581763625, 8315357.322134474292397 ], [ 6551081.917850326746702, 8315336.366192093119025 ], [ 6551091.39356748573482, 8315317.454550581052899 ], [ 6551103.929239927791059, 8315290.182554021477699 ], [ 6551109.36897044070065, 8315263.286819637753069 ], [ 6551109.240176402032375, 8315247.710026047192514 ], [ 6551107.611862869933248, 8315236.876620527356863 ], [ 6551103.932722828350961, 8315220.603266436606646 ], [ 6551097.771635216660798, 8315206.350566888228059 ], [ 6551086.177306137979031, 8315191.647969206795096 ], [ 6551073.01107675768435, 8315180.551655350252986 ], [ 6551046.962739272043109, 8315161.126672104932368 ], [ 6551020.376758980564773, 8315147.319477256387472 ], [ 6551010.035243788734078, 8315137.89122013002634 ], [ 6550996.916905250400305, 8315113.992730979807675 ], [ 6550983.981910865753889, 8315091.110053206793964 ], [ 6550969.393040977418423, 8315055.637378174811602 ], [ 6550922.838740481995046, 8315048.765813134610653 ], [ 6550892.031791261397302, 8315044.227088282816112 ], [ 6550833.48187418654561, 8315035.831729255616665 ], [ 6550803.880644164979458, 8315031.592197239398956 ], [ 6549958.828895816579461, 8314910.53903622739017 ], [ 6549931.142431730404496, 8314924.854206745512784 ], [ 6549895.932024395093322, 8314938.750845801085234 ], [ 6549835.056286165490746, 8314950.243496911600232 ], [ 6549755.687502190470695, 8314977.789160255342722 ], [ 6549699.716370969079435, 8315005.840560100972652 ], [ 6549625.268335576169193, 8315061.223623747937381 ], [ 6549525.765184945426881, 8315128.719195798039436 ], [ 6549455.322594608180225, 8315163.818518010899425 ], [ 6549385.673006759025156, 8315178.487435462884605 ], [ 6549312.606218215078115, 8315189.973352797329426 ], [ 6549194.635489077307284, 8315221.205379363149405 ], [ 6549094.910291284322739, 8315248.091125013306737 ], [ 6548966.471938756294549, 8315297.084525288082659 ], [ 6548885.326508117839694, 8315332.856883556582034 ], [ 6548786.508376671001315, 8315393.532642582431436 ], [ 6548699.614521116018295, 8315439.856445868499577 ], [ 6548563.523971396498382, 8315483.218139212578535 ], [ 6548557.887444321997464, 8315482.963428932242095 ], [ 6548551.690721785649657, 8315478.81740852445364 ], [ 6548546.689505932852626, 8315475.998880940489471 ], [ 6548536.5844393260777, 8315475.026330046355724 ], [ 6548522.454651353880763, 8315481.675711000338197 ], [ 6548514.279497439973056, 8315487.474818446673453 ], [ 6548505.608031276613474, 8315488.35103621520102 ], [ 6548498.405385796912014, 8315491.290686463937163 ], [ 6548492.435554235242307, 8315489.356304076500237 ], [ 6548485.184261590242386, 8315483.554080253466964 ], [ 6548481.812016198411584, 8315482.26354724727571 ], [ 6548451.491680007427931, 8315422.241193243302405 ], [ 6548403.460660139098763, 8315314.230881934985518 ], [ 6548360.25292057916522, 8315243.745182196609676 ], [ 6548309.5941122174263, 8315173.646573939360678 ], [ 6548223.137562431395054, 8315085.47916235588491 ], [ 6548140.798286174423993, 8315062.24626046884805 ], [ 6548061.015275930985808, 8315018.47116388566792 ], [ 6547939.311401216313243, 8314981.462238727137446 ], [ 6547860.033420821651816, 8314945.794469479471445 ], [ 6547773.612212304025888, 8314918.747659705579281 ], [ 6547691.284580724313855, 8314895.513605396263301 ], [ 6547604.931822281330824, 8314878.873667735606432 ], [ 6547514.854087391868234, 8314845.713878221809864 ], [ 6547361.694666544906795, 8314798.496012147516012 ], [ 6547253.045811080373824, 8314785.089856537058949 ], [ 6547141.840469364076853, 8314792.224704969674349 ], [ 6547066.444693828001618, 8314820.178782441653311 ], [ 6547007.439332841895521, 8314919.011948633939028 ], [ 6546954.074823044240475, 8315048.750454584136605 ], [ 6546861.992544346489012, 8315247.77601942140609 ], [ 6546820.101115446537733, 8315315.657397802919149 ], [ 6546775.116959134116769, 8315334.843470294028521 ], [ 6546704.553014343604445, 8315314.915699100121856 ], [ 6546596.15045808814466, 8315305.576071050949395 ], [ 6546506.637359242886305, 8315229.819440674968064 ], [ 6546449.859416856430471, 8315184.566973426379263 ], [ 6546289.543788918294013, 8315083.064805732108653 ], [ 6546268.592545493505895, 8315084.72765535581857 ], [ 6546240.847114080563188, 8315086.928801125846803 ], [ 6546128.576994421891868, 8315087.334016198292375 ], [ 6546034.214786240831017, 8315117.149712799116969 ], [ 6546003.990424709394574, 8315141.815011586993933 ], [ 6545921.348066563718021, 8315209.268362909555435 ] ] ] } }
]
}
