{
"type": "FeatureCollection",
"name": "2922755",
"crs": { "type": "name", "properties": { "name": "urn:ogc:def:crs:EPSG::5880" } },
"features": [
{ "type": "Feature", "properties": { "lv_id": "LOC_036165", "id": 153358.0, "CD_SETOR": "292275505000001", "SITUACAO": "Urbana", "CD_SIT": "1", "CD_TIPO": "0", "AREA_KM2": 0.057584098943762999, "CD_REGIAO": "2", "NM_REGIAO": "Nordeste", "CD_UF": "29", "NM_UF": "Bahia", "CD_MUN": "2922755", "NM_MUN": "Nova Ibiá", "CD_DIST": "292275505", "NM_DIST": "Nova Ibiá", "CD_SUBDIST": "29227550500", "NM_SUBDIST": null, "CD_BAIRRO": null, "NM_BAIRRO": null, "CD_NU": null, "NM_NU": null, "CD_FCU": null, "NM_FCU": null, "CD_AGLOM": "292275500004", "NM_AGLOM": "Baixa da Areia", "CD_RGINT": "2904", "NM_RGINT": "Vitória da Conquista", "CD_RGI": "290014", "NM_RGI": "Ipiaú", "CD_CONCURB": null, "NM_CONCURB": null, "mun_code_x": "2922755", "index_right": 12671, "dist_m": 0.0, "local_id": 387698, "ano": 2022, "cod_localidade_ibge": 2922755, "NR_ZONA": "151", "nr_cep": 45452000.0, "nm_localidade": "NOVA IBIÁ", "nm_locvot": "ESCOLA MUNICIPAL ISAURA PIRES CAIRES", "ds_endereco": "PRAÇA RUY BARBOSA, Nº 23 - ZONA URBANA", "ds_bairro": "CENTRO", "pred_long": -39.626193, "pred_lat": -13.809133, "pred_dist": 0.0, "tse_long": -39.62629187, "tse_lat": -13.80916248, "long": -39.62629187, "lat": -13.80916248, "ID_UNICO": "LOC_036165", "SG_UF": "BA", "CD_MUNICIPIO": "39969", "NR_LOCAL_VOTACAO": "1058", "QT_SECOES_AGREGADAS": 0, "QT_ELEITORES_TRANSFERIDOS": 0, "CIRO GOMES (PDT) (NÃO ELEITO) 1T": 13.0, "CONSTITUINTE EYMAEL (DC) (NÃO ELEITO) 1T": 0.0, "FELIPE D AVILA (NOVO) (NÃO ELEITO) 1T": 1.0, "JAIR BOLSONARO (PL) (2º TURNO) 1T": 172.0, "LULA (PT) (2º TURNO) 1T": 418.0, "LÉO PÉRICLES (UP) (NÃO ELEITO) 1T": 0.0, "PADRE KELMON (PTB) (NÃO ELEITO) 1T": 1.0, "SIMONE TEBET (MDB) (NÃO ELEITO) 1T": 14.0, "SOFIA MANZANO (PCB) (NÃO ELEITO) 1T": 0.0, "SORAYA THRONICKE (UNIÃO) (NÃO ELEITO) 1T": 4.0, "VERA (PSTU) (NÃO ELEITO) 1T": 0.0, "Total_Votos_Validos 1T": 623.0, "Votos_Brancos 1T": 10.0, "Votos_Nulos 1T": 16.0, "Abstenções 1T": 229.0, "Eleitores_Aptos 1T": 878.0, "JAIR BOLSONARO (PL) (NÃO ELEITO) 2T": 186.0, "LULA (PT) (ELEITO) 2T": 416.0, "Total_Votos_Validos 2T": 602.0, "Votos_Brancos 2T": 13.0, "Votos_Nulos 2T": 27.0, "Abstenções 2T": 236.0, "Eleitores_Aptos 2T": 878.0, "mun_code_y": "2922755", "mun_code": "2922755" }, "geometry": { "type": "Polygon", "coordinates": [ [ [ 6555511.996310819871724, 8419777.591709906235337 ], [ 6555470.697764210402966, 8419776.554206807166338 ], [ 6555436.297822137363255, 8419787.315592104569077 ], [ 6555410.303344862535596, 8419800.835060799494386 ], [ 6555380.919591723009944, 8419826.511075738817453 ], [ 6555360.706917573697865, 8419850.538219844922423 ], [ 6555316.044387638568878, 8419879.315506052225828 ], [ 6555309.439197394996881, 8419885.672669781371951 ], [ 6555298.747376744635403, 8419895.952025150880218 ], [ 6555291.118158697150648, 8419903.295574761927128 ], [ 6555267.86093323957175, 8419935.462749607861042 ], [ 6555232.887772733345628, 8419953.86096908710897 ], [ 6555199.903364356607199, 8419970.563866827636957 ], [ 6555166.557226651348174, 8419988.464294750243425 ], [ 6555119.101539755240083, 8419998.756049178540707 ], [ 6555077.299378148280084, 8420007.428417658433318 ], [ 6555043.338552384637296, 8420026.644157219678164 ], [ 6555002.992217175662518, 8420057.534599235281348 ], [ 6554956.405488061718643, 8420105.981302913278341 ], [ 6554922.584454429335892, 8420145.873157130554318 ], [ 6554884.036047614179552, 8420188.572526393458247 ], [ 6554850.2754773683846, 8420228.757221646606922 ], [ 6554817.349191189743578, 8420267.681463083252311 ], [ 6554782.972681311890483, 8420282.663421474397182 ], [ 6554758.715088780969381, 8420290.643047325313091 ], [ 6554718.654532405547798, 8420266.983651533722878 ], [ 6554674.444304767996073, 8420244.92128280363977 ], [ 6554625.328293774276972, 8420205.791675193235278 ], [ 6554582.528772247955203, 8420159.089931055903435 ], [ 6554539.699027386493981, 8420118.052105236798525 ], [ 6554504.256315152160823, 8420094.103266151621938 ], [ 6554476.137949692085385, 8420089.279053557664156 ], [ 6554431.361663309857249, 8420104.373460261151195 ], [ 6554380.292691840790212, 8420114.550118610262871 ], [ 6554344.01530057284981, 8420133.789758859202266 ], [ 6554286.674608640372753, 8420152.471577892079949 ], [ 6554249.955360135063529, 8420154.683267533779144 ], [ 6554212.740564340725541, 8420157.301452998071909 ], [ 6554191.461199657991529, 8420163.468803418800235 ], [ 6554176.0598612613976, 8420190.480081997811794 ], [ 6554168.379251564852893, 8420243.087157702073455 ], [ 6554165.026418596506119, 8420290.547868859022856 ], [ 6554164.845728052780032, 8420339.449897915124893 ], [ 6554169.584997242316604, 8420392.952746843919158 ], [ 6554175.548139231279492, 8420438.288556251674891 ], [ 6554187.591318666003644, 8420478.441061202436686 ], [ 6554176.677821688354015, 8420505.901035152375698 ], [ 6554142.253013922832906, 8420517.905082819983363 ], [ 6554100.45480188075453, 8420529.930660847574472 ], [ 6554053.345775533467531, 8420548.782509384676814 ], [ 6554012.32070130482316, 8420565.966597359627485 ], [ 6553977.139517700299621, 8420579.454126453027129 ], [ 6553926.110590470954776, 8420587.959829036146402 ], [ 6553881.431334072723985, 8420588.355181397870183 ], [ 6553842.514501447789371, 8420591.497036546468735 ], [ 6553799.266390724107623, 8420594.100514821708202 ], [ 6553755.93190391920507, 8420585.99046334438026 ], [ 6553708.432367624714971, 8420588.849728116765618 ], [ 6553673.504732417874038, 8420602.778033208101988 ], [ 6553640.863061401993036, 8420633.074632320553064 ], [ 6553611.926188129000366, 8420655.762687293812633 ], [ 6553565.878642761148512, 8420682.984855709597468 ], [ 6553534.116400007158518, 8420712.052437026053667 ], [ 6553502.155869984999299, 8420741.428627599030733 ], [ 6553460.706372843123972, 8420755.862984765321016 ], [ 6553417.058730719611049, 8420758.489620987325907 ], [ 6553350.302121426910162, 8420740.773026708513498 ], [ 6553290.836618836037815, 8420715.837272986769676 ], [ 6553248.371189378201962, 8420690.689004929736257 ], [ 6553191.963601881638169, 8420647.282885214313865 ], [ 6553154.323806215077639, 8420608.61467413790524 ], [ 6553103.195437108166516, 8420550.577033357694745 ], [ 6553060.889909254387021, 8420511.025437634438276 ], [ 6552990.511656510643661, 8420454.14637459628284 ], [ 6552914.019390979781747, 8420381.346719779074192 ], [ 6552857.984982444904745, 8420284.224562911316752 ], [ 6552825.956475965678692, 8420222.321650952100754 ], [ 6552811.416322671808302, 8420172.94974766485393 ], [ 6552785.593393180519342, 8420112.511309545487165 ], [ 6552777.365237021818757, 8420055.488579243421555 ], [ 6552762.731582570821047, 8419961.308947168290615 ], [ 6552756.621757393702865, 8419898.771123629063368 ], [ 6552763.921917897649109, 8419844.112643156200647 ], [ 6552764.819167612120509, 8419791.403318269178271 ], [ 6552785.861483200453222, 8419756.920359311625361 ], [ 6552805.10264346562326, 8419721.107510834932327 ], [ 6552811.058839802630246, 8419687.327094355598092 ], [ 6552786.951789373531938, 8419676.028204049915075 ], [ 6552755.295613496564329, 8419675.23996713757515 ], [ 6552706.277260111644864, 8419678.749950086697936 ], [ 6552661.069879654794931, 8419682.247321421280503 ], [ 6552621.114802187308669, 8419681.935636300593615 ], [ 6552585.046722669154406, 8419661.631485741585493 ], [ 6552563.093626538291574, 8419639.050954507663846 ], [ 6552528.061365033499897, 8419609.781219981610775 ], [ 6552475.708042966201901, 8419573.689535921439528 ], [ 6552439.772511789575219, 8419556.151194576174021 ], [ 6552410.487814730033278, 8419551.544570809230208 ], [ 6552368.636108162812889, 8419541.02830496430397 ], [ 6552331.984870029613376, 8419531.283381056040525 ], [ 6552295.398058176971972, 8419522.61892481893301 ], [ 6552263.872111693955958, 8419512.565499939024448 ], [ 6552229.916382493451238, 8419513.524732185527682 ], [ 6552185.254574318416417, 8419524.898875202983618 ], [ 6552150.790292548015714, 8419534.586285477504134 ], [ 6552112.098541867919266, 8419547.472909480333328 ], [ 6552091.160924471914768, 8419554.462836349382997 ], [ 6552058.957757585681975, 8419570.839711895212531 ], [ 6552025.98945748154074, 8419583.826868135482073 ], [ 6551995.896741062402725, 8419596.914865793660283 ], [ 6551960.520070869475603, 8419612.01003635674715 ], [ 6551929.427142639644444, 8419625.03252306394279 ], [ 6551897.281033198349178, 8419638.917301900684834 ], [ 6551867.550402554683387, 8419656.99406080506742 ], [ 6551836.085857067257166, 8419679.774959985166788 ], [ 6551814.158251501619816, 8419699.413841158151627 ], [ 6551785.204735529609025, 8419723.630080185830593 ], [ 6551750.077338163740933, 8419748.731268007308245 ], [ 6551726.229392268694937, 8419775.037156172096729 ], [ 6551703.000947782769799, 8419795.747055372223258 ], [ 6551680.215166933834553, 8419820.071355575695634 ], [ 6551653.247395607642829, 8419851.815158421173692 ], [ 6551624.861305098980665, 8419868.657545920461416 ], [ 6551590.114368229173124, 8419890.88178288564086 ], [ 6551563.013069681823254, 8419903.298013612627983 ], [ 6551535.558430762030184, 8419905.782441137358546 ], [ 6551507.785987827926874, 8419907.658181777223945 ], [ 6551476.567324418574572, 8419909.307417798787355 ], [ 6551454.438078850507736, 8419910.661093447357416 ], [ 6551428.91949612274766, 8419925.652792001143098 ], [ 6551409.206380361691117, 8419923.573902579024434 ], [ 6551403.806344505399466, 8419902.17792971804738 ], [ 6551404.293290155939758, 8419873.807846562936902 ], [ 6551400.8599040703848, 8419845.251213138923049 ], [ 6551394.531248020008206, 8419821.537007132545114 ], [ 6551379.351303730159998, 8419800.843373101204634 ], [ 6551366.016826844774187, 8419796.771573765203357 ], [ 6551352.693143835291266, 8419792.699123440310359 ], [ 6551314.243740946985781, 8419786.393960820510983 ], [ 6551284.12451228313148, 8419788.13680456019938 ], [ 6551255.868739457800984, 8419787.713054018095136 ], [ 6551208.744927229359746, 8419779.760805439203978 ], [ 6551174.513600882142782, 8419772.277336521074176 ], [ 6551152.464631747454405, 8419770.612810865044594 ], [ 6551109.71281043253839, 8419762.06656039506197 ], [ 6551076.419664014130831, 8419765.426784787327051 ], [ 6551048.182000687345862, 8419767.124736433848739 ], [ 6551002.757727296091616, 8419761.706643441691995 ], [ 6550958.32398444134742, 8419750.191073758527637 ], [ 6550925.399928355589509, 8419765.20516861975193 ], [ 6550902.070757543668151, 8419773.501725038513541 ], [ 6550865.822581182233989, 8419780.337894598022103 ], [ 6550831.788643507286906, 8419779.804603017866611 ], [ 6550797.899044352583587, 8419759.870777819305658 ], [ 6550761.923526499420404, 8419748.006273254752159 ], [ 6550715.896250806748867, 8419736.095487043261528 ], [ 6550686.148654768243432, 8419723.708162240684032 ], [ 6550660.172548143193126, 8419698.459239138290286 ], [ 6550643.21090791746974, 8419656.015960484743118 ], [ 6550627.092780273407698, 8419610.280549742281437 ], [ 6550613.856103834696114, 8419561.107655582949519 ], [ 6550594.393289186991751, 8419511.213434666395187 ], [ 6550574.615092371590436, 8419473.299659395590425 ], [ 6550560.518590959720314, 8419443.695797402411699 ], [ 6550535.831376403570175, 8419410.448647290468216 ], [ 6550514.890031256712973, 8419367.73133591003716 ], [ 6550501.984314532019198, 8419326.665244679898024 ], [ 6550490.227908102795482, 8419267.622226385399699 ], [ 6550484.750980976969004, 8419210.381638905033469 ], [ 6550490.651820067316294, 8419170.91258299537003 ], [ 6550494.550237148068845, 8419115.27678032591939 ], [ 6550491.527118518017232, 8419081.788601443171501 ], [ 6550475.296806499361992, 8419055.086792187765241 ], [ 6550451.658508542925119, 8419041.271259766072035 ], [ 6550417.375936239026487, 8419022.183640766888857 ], [ 6550387.28688429389149, 8419004.05368128977716 ], [ 6550353.312727456912398, 8418993.416348436847329 ], [ 6550315.691451774910092, 8418984.813064977526665 ], [ 6550302.247676042839885, 8418983.989369157701731 ], [ 6550288.80390153080225, 8418983.16566794924438 ], [ 6550252.788107830099761, 8418984.247121687978506 ], [ 6550223.266424369066954, 8418990.370825935155153 ], [ 6550210.468158986419439, 8418992.749686641618609 ], [ 6550186.038901377469301, 8418997.288822405040264 ], [ 6550179.842963429167867, 8418997.980954099446535 ], [ 6550149.710920378565788, 8419001.310726948082447 ], [ 6550113.460176657885313, 8419006.811670806258917 ], [ 6550069.54971809964627, 8419022.428796464577317 ], [ 6550032.185002824291587, 8419031.226544896140695 ], [ 6549988.957812195643783, 8419028.312786865979433 ], [ 6549955.547862851992249, 8419010.416579656302929 ], [ 6549917.539642171934247, 8418987.854869486764073 ], [ 6549894.916715351864696, 8418968.899293821305037 ], [ 6549861.630457344464958, 8418937.801940515637398 ], [ 6549835.539408574812114, 8418913.702087 ], [ 6549818.741768345236778, 8418886.555449511855841 ], [ 6549796.990184138529003, 8418875.867827348411083 ], [ 6549778.5450947470963, 8418887.796485435217619 ], [ 6549763.16564376745373, 8418913.750287031754851 ], [ 6549749.814127730205655, 8418937.573409378528595 ], [ 6549712.766900111921132, 8418976.984724370762706 ], [ 6549676.403568740934134, 8419002.967094626277685 ], [ 6549643.880548065528274, 8419022.521156832575798 ], [ 6549603.880411929450929, 8419040.709861729294062 ], [ 6549565.514901045709848, 8419055.981161350384355 ], [ 6549535.531386641785502, 8419054.530539181083441 ], [ 6549491.186001807451248, 8419053.931651566177607 ], [ 6549442.145381620153785, 8419061.227406572550535 ], [ 6549392.46619500592351, 8419075.07828308083117 ], [ 6549351.90453446470201, 8419086.201212834566832 ], [ 6549313.398652185685933, 8419114.582542596384883 ], [ 6549265.657249385491014, 8419143.530108068138361 ], [ 6549227.630126335658133, 8419156.668865874409676 ], [ 6549176.757445549592376, 8419156.472953498363495 ], [ 6549126.754083413630724, 8419130.30594452470541 ], [ 6549106.352161716669798, 8419126.281844107434154 ], [ 6549071.235542856156826, 8419119.364176636561751 ], [ 6549035.12284579873085, 8419118.817664097994566 ], [ 6548966.609961736015975, 8419114.785201318562031 ], [ 6548921.19808130338788, 8419109.36473561450839 ], [ 6548880.278694373555481, 8419092.820724589750171 ], [ 6548850.742712466046214, 8419072.865164583548903 ], [ 6548811.344639800488949, 8419038.574165493249893 ], [ 6548768.97606865875423, 8418997.671071492135525 ], [ 6548732.628504244610667, 8418971.334216086193919 ], [ 6548681.67841013148427, 8418959.455821420997381 ], [ 6548629.686601565219462, 8418951.725718883797526 ], [ 6548578.978128578513861, 8418943.907049477100372 ], [ 6548521.680953019298613, 8418931.633727487176657 ], [ 6548487.586190833710134, 8418916.585652094334364 ], [ 6548451.874760968610644, 8418921.504095930606127 ], [ 6548393.826325085945427, 8418915.712476588785648 ], [ 6548338.643012585118413, 8418908.390576398000121 ], [ 6548281.022952375002205, 8418899.423190670087934 ], [ 6548227.845700236968696, 8418920.363643864169717 ], [ 6548207.918871507048607, 8418942.707872718572617 ], [ 6548187.991989728063345, 8418965.05205456353724 ], [ 6548149.889728080481291, 8418996.225393580272794 ], [ 6548125.161989703774452, 8419034.709693100303411 ], [ 6548089.016845441423357, 8419064.019129171967506 ], [ 6548044.313832147978246, 8419097.277458738535643 ], [ 6548001.651110500097275, 8419112.952073564752936 ], [ 6547967.243315102532506, 8419120.496018573641777 ], [ 6547946.659621421247721, 8419121.058589914813638 ], [ 6547926.086041441187263, 8419121.609126215800643 ], [ 6547899.516118693165481, 8419110.548080820590258 ], [ 6547869.997424316592515, 8419088.320182017982006 ], [ 6547835.113765838555992, 8419051.076210690662265 ], [ 6547786.780838718637824, 8419032.214803908020258 ], [ 6547737.836574507877231, 8419010.719610223546624 ], [ 6547691.624023515731096, 8419013.494132837280631 ], [ 6547648.474482670426369, 8419029.539754873141646 ], [ 6547632.266640607267618, 8419055.071989366784692 ], [ 6547590.471755450591445, 8419088.804960418492556 ], [ 6547540.94143224041909, 8419116.097702607512474 ], [ 6547478.217813884839416, 8419130.750022420659661 ], [ 6547408.522014383226633, 8419161.090092238038778 ], [ 6547350.941365486010909, 8419188.488748945295811 ], [ 6547284.807685974985361, 8419222.106525372713804 ], [ 6547221.667563644237816, 8419267.835133323445916 ], [ 6547169.795904862694442, 8419308.037071671336889 ], [ 6547112.843007950112224, 8419356.942887606099248 ], [ 6547062.081355222500861, 8419406.720806829631329 ], [ 6547012.671196499839425, 8419459.384461732581258 ], [ 6546989.832327179610729, 8419491.612616676837206 ], [ 6546972.63838185928762, 8419515.878863714635372 ], [ 6547009.316081758588552, 8419500.417786676436663 ], [ 6547053.879202604293823, 8419502.491652507334948 ], [ 6547103.951023708097637, 8419513.627042558044195 ], [ 6547149.514659198001027, 8419524.701921001076698 ], [ 6547190.34989324118942, 8419538.388523200526834 ], [ 6547220.549320415593684, 8419556.04557286016643 ], [ 6547252.219523117877543, 8419578.77264616265893 ], [ 6547285.005776034668088, 8419600.782288867980242 ], [ 6547315.279507328756154, 8419630.075265467166901 ], [ 6547348.920698750764132, 8419661.368771605193615 ], [ 6547367.010973263531923, 8419695.375648723915219 ], [ 6547384.662322136573493, 8419736.02793044783175 ], [ 6547433.140910992398858, 8419786.12873419560492 ], [ 6547467.146087173372507, 8419814.616035087034106 ], [ 6547507.823975717648864, 8419851.342045027762651 ], [ 6547590.565010561607778, 8419912.203333092853427 ], [ 6547654.261275356635451, 8419994.429923955351114 ], [ 6547695.487152184359729, 8420073.17751226387918 ], [ 6547718.530064867809415, 8420116.725130893290043 ], [ 6547755.660158606246114, 8420163.901271544396877 ], [ 6547784.98169813118875, 8420231.47182484343648 ], [ 6547818.471759112551808, 8420299.945059524849057 ], [ 6547893.322308911941946, 8420369.965743064880371 ], [ 6547967.756826480850577, 8420438.813292389735579 ], [ 6548038.569633069448173, 8420485.886619638651609 ], [ 6548086.912646195851266, 8420531.865783678367734 ], [ 6548102.944827319122851, 8420570.778994861990213 ], [ 6548111.782759454101324, 8420612.908454902470112 ], [ 6548127.902244862169027, 8420674.253337690606713 ], [ 6548163.6661133216694, 8420737.797970868647099 ], [ 6548214.966839120723307, 8420772.861043954268098 ], [ 6548249.193951005116105, 8420798.871138837188482 ], [ 6548303.68842497933656, 8420855.609071936458349 ], [ 6548348.86703391186893, 8420896.802891859784722 ], [ 6548392.346093641594052, 8420937.094430396333337 ], [ 6548447.708987074904144, 8420988.941668441519141 ], [ 6548503.571272027678788, 8421042.813328690826893 ], [ 6548557.029035783372819, 8421080.634854985401034 ], [ 6548583.311739933677018, 8421111.629839776083827 ], [ 6548629.534021124243736, 8421190.799828968942165 ], [ 6548656.532610293477774, 8421244.234919501468539 ], [ 6548673.23247342556715, 8421295.2977230027318 ], [ 6548691.197649776004255, 8421340.86366618797183 ], [ 6548710.393350122496486, 8421432.303251737728715 ], [ 6548768.061232214793563, 8421482.472575115039945 ], [ 6548817.017846319824457, 8421528.188555423170328 ], [ 6548877.627222856506705, 8421586.124919688329101 ], [ 6548926.169387383386493, 8421633.246901482343674 ], [ 6548973.593156062066555, 8421677.582861876115203 ], [ 6549001.507222453132272, 8421697.022255893796682 ], [ 6549123.508633876219392, 8421771.363331828266382 ], [ 6549177.915743792429566, 8421821.135490920394659 ], [ 6549235.349761931225657, 8421890.869946043938398 ], [ 6549268.833320256322622, 8421963.410655891522765 ], [ 6549255.776539455167949, 8422018.895771998912096 ], [ 6549202.533605081960559, 8422046.341335345059633 ], [ 6549173.45286831073463, 8422092.960703497752547 ], [ 6549130.277898916974664, 8422138.222433719784021 ], [ 6549101.511852353811264, 8422203.459738610312343 ], [ 6549074.524604694917798, 8422258.535520598292351 ], [ 6549080.006175992079079, 8422289.751838631927967 ], [ 6549097.979305981658399, 8422349.504472559317946 ], [ 6549112.507595274597406, 8422404.499130167067051 ], [ 6549118.34511536732316, 8422464.328918021172285 ], [ 6549140.792532225139439, 8422516.452200215309858 ], [ 6549141.641453544609249, 8422564.129729587584734 ], [ 6549160.91055565699935, 8422645.53494768217206 ], [ 6549172.458048627711833, 8422816.879698114469647 ], [ 6549207.463561102747917, 8422904.326560840010643 ], [ 6549245.231945724226534, 8422972.092022748664021 ], [ 6549297.107397367246449, 8423036.683870296925306 ], [ 6549340.378475550562143, 8423057.578041473403573 ], [ 6549393.090812887996435, 8423142.469187323004007 ], [ 6549431.837702072225511, 8423217.594968179240823 ], [ 6549470.138780232518911, 8423279.18905121088028 ], [ 6549514.131013549864292, 8423352.733932791277766 ], [ 6549540.217430088669062, 8423387.532234819605947 ], [ 6549563.580162239260972, 8423433.918209267780185 ], [ 6549606.113413956947625, 8423504.594924354925752 ], [ 6549667.637574221938848, 8423593.433121148496866 ], [ 6549703.412819853983819, 8423671.043450176715851 ], [ 6549711.332152069546282, 8423709.407440593466163 ], [ 6549719.251446254551411, 8423747.771450558677316 ], [ 6549736.925688121467829, 8423818.93409151956439 ], [ 6549760.690354947932065, 8423906.58894800208509 ], [ 6549770.359396081417799, 8423976.268357302993536 ], [ 6549771.3924282155931, 8424035.839669151231647 ], [ 6549763.998530469834805, 8424111.095202112570405 ], [ 6549743.598928198218346, 8424167.579284183681011 ], [ 6549716.602239033207297, 8424210.351955633610487 ], [ 6549686.476290443912148, 8424247.662518484517932 ], [ 6549651.07005128543824, 8424273.921910243108869 ], [ 6549618.707686291076243, 8424294.714653173461556 ], [ 6549605.030432466417551, 8424324.865228191018105 ], [ 6549616.074871688149869, 8424337.237312251701951 ], [ 6549650.740918722003698, 8424330.812551850453019 ], [ 6549688.751879656687379, 8424329.654202247038484 ], [ 6549723.012609910219908, 8424329.176964102312922 ], [ 6549785.052507932297885, 8424354.609556805342436 ], [ 6549858.64290564879775, 8424390.535040015354753 ], [ 6549901.146472057327628, 8424406.500933770090342 ], [ 6549952.776323404163122, 8424431.71256067045033 ], [ 6549973.085368718951941, 8424449.270529098808765 ], [ 6550004.894719955511391, 8424463.514553569257259 ], [ 6550055.238887361250818, 8424477.093326779082417 ], [ 6550099.023214248009026, 8424508.801145488396287 ], [ 6550148.288757037371397, 8424513.142752340063453 ], [ 6550188.353227845393121, 8424512.637081637978554 ], [ 6550234.126710477285087, 8424537.891403382644057 ], [ 6550258.580797643400729, 8424554.482080236077309 ], [ 6550286.14104238525033, 8424599.511141300201416 ], [ 6550294.906126120127738, 8424620.009256144985557 ], [ 6550327.11338019836694, 8424677.645602626726031 ], [ 6550347.773227200843394, 8424716.4456956833601 ], [ 6550370.389258479699492, 8424759.739614188671112 ], [ 6550397.246149786747992, 8424812.263988828286529 ], [ 6550407.957666048780084, 8424858.998952329158783 ], [ 6550406.577042313292623, 8424906.926250208169222 ], [ 6550415.69268543459475, 8424966.19735761731863 ], [ 6550421.991416748613119, 8425025.271998301148415 ], [ 6550430.941796044819057, 8425109.148745074868202 ], [ 6550411.880147134885192, 8425178.724614601582289 ], [ 6550404.718108304776251, 8425199.857287853956223 ], [ 6550388.188916115090251, 8425248.589026590809226 ], [ 6550350.724809052422643, 8425320.898746937513351 ], [ 6550328.481969922780991, 8425362.964659601449966 ], [ 6550304.532203543931246, 8425428.484184436500072 ], [ 6550298.751523216255009, 8425483.145934583619237 ], [ 6550302.328220958821476, 8425510.768668370321393 ], [ 6550303.710871042683721, 8425521.482807110995054 ], [ 6550305.89410197455436, 8425538.392054799944162 ], [ 6550317.122545569203794, 8425575.052480362355709 ], [ 6550351.71550746075809, 8425615.769568398594856 ], [ 6550391.688574617728591, 8425659.54292918369174 ], [ 6550439.998832004144788, 8425713.682654950767756 ], [ 6550477.39151880517602, 8425779.330210262909532 ], [ 6550494.567783921957016, 8425829.901444803923368 ], [ 6550512.295363296754658, 8425868.216056043282151 ], [ 6550532.119996190071106, 8425941.717998791486025 ], [ 6550543.711142586544156, 8425952.528712598606944 ], [ 6550555.313086541369557, 8425963.338784947991371 ], [ 6550566.753722655586898, 8425978.370042651891708 ], [ 6550578.194362540729344, 8425993.401308540254831 ], [ 6550616.379472532309592, 8426037.156787302345037 ], [ 6550651.616680769249797, 8426088.005326636135578 ], [ 6550680.58186854608357, 8426141.945814128965139 ], [ 6550701.852325201965868, 8426174.615910269320011 ], [ 6550735.152563474141061, 8426214.715074382722378 ], [ 6550764.210069615393877, 8426248.28871038928628 ], [ 6550782.118595860898495, 8426280.886263199150562 ], [ 6550801.372119867242873, 8426362.298491809517145 ], [ 6550808.907015340402722, 8426424.358847571536899 ], [ 6550806.693058722652495, 8426486.226633109152317 ], [ 6550803.425121553242207, 8426533.970586681738496 ], [ 6550805.339276662096381, 8426593.491187015548348 ], [ 6550804.811491123400629, 8426650.190440939739347 ], [ 6550832.556803217157722, 8426702.561123572289944 ], [ 6550866.098206559196115, 8426734.303308963775635 ], [ 6550894.942739996127784, 8426794.620604511350393 ], [ 6550925.696973316371441, 8426854.629683142527938 ], [ 6550969.826871245168149, 8426908.40559115819633 ], [ 6551024.399328959174454, 8426959.456600243225694 ], [ 6551072.039216896519065, 8426997.888337466865778 ], [ 6551130.207981459796429, 8427005.261488161981106 ], [ 6551171.169606499373913, 8427000.641473842784762 ], [ 6551238.853601617738605, 8427032.954392144456506 ], [ 6551268.287237919867039, 8427067.020152414217591 ], [ 6551325.603320583701134, 8427096.735011916607618 ], [ 6551369.473436748608947, 8427136.431223567575216 ], [ 6551406.661016984842718, 8427198.065060704946518 ], [ 6551432.59551714360714, 8427254.04930479824543 ], [ 6551454.292959818616509, 8427324.805422224104404 ], [ 6551464.827483801171184, 8427363.289722878485918 ], [ 6551487.163586167618632, 8427392.37055629119277 ], [ 6551545.027273261919618, 8427480.114830834791064 ], [ 6551581.098144733346999, 8427533.872171254828572 ], [ 6551631.915493292734027, 8427575.093709766864777 ], [ 6551658.007307664491236, 8427627.884716287255287 ], [ 6551688.758311750367284, 8427697.517676237970591 ], [ 6551739.417821488343179, 8427805.53114321641624 ], [ 6551759.08059212192893, 8427859.871371788904071 ], [ 6551798.934505756944418, 8427929.02855659276247 ], [ 6551824.925834502093494, 8427968.243613921105862 ], [ 6551897.039890691637993, 8428001.252043282613158 ], [ 6551958.518471035175025, 8427995.347707882523537 ], [ 6552020.414093607105315, 8427973.267553627490997 ], [ 6552083.50809474196285, 8427942.714773066341877 ], [ 6552145.713791102170944, 8427905.035468012094498 ], [ 6552193.307364910840988, 8427903.545332623645663 ], [ 6552181.663695241324604, 8427968.069288183003664 ], [ 6552169.12339545134455, 8428043.604256242513657 ], [ 6552171.689643954858184, 8428083.251273814588785 ], [ 6552174.359585836529732, 8428151.335753465071321 ], [ 6552162.736657331697643, 8428204.34154063090682 ], [ 6552169.582905602641404, 8428246.026662928983569 ], [ 6552168.91817291546613, 8428308.112848959863186 ], [ 6552154.790144577622414, 8428347.91405526176095 ], [ 6552128.634271909482777, 8428410.497993117198348 ], [ 6552099.017682649195194, 8428448.680332653224468 ], [ 6552068.019238147884607, 8428516.746984021738172 ], [ 6552037.444992687553167, 8428590.883077304810286 ], [ 6552000.076944606378675, 8428656.944772750139236 ], [ 6551978.466870730742812, 8428699.372949948534369 ], [ 6551953.742200287990272, 8428762.372480295598507 ], [ 6551912.914954440668225, 8428823.081888301298022 ], [ 6551859.407112976536155, 8428891.728608340024948 ], [ 6551828.187927655875683, 8428957.935064256191254 ], [ 6551817.532594656571746, 8429021.473640326410532 ], [ 6551817.90634891577065, 8429080.106799781322479 ], [ 6551824.861017495393753, 8429125.483147660270333 ], [ 6551832.444593792781234, 8429168.858738975599408 ], [ 6551875.545608491636813, 8429165.551378306001425 ], [ 6551907.687978730536997, 8429155.537229258567095 ], [ 6551951.355799736455083, 8429144.240379454568028 ], [ 6551984.939533698372543, 8429136.799338409677148 ], [ 6552017.946358891204, 8429136.994382470846176 ], [ 6552068.591713455505669, 8429147.126276563853025 ], [ 6552100.645609691739082, 8429158.118723139166832 ], [ 6552156.245951479300857, 8429191.740915190428495 ], [ 6552212.881957309320569, 8429225.28980216383934 ], [ 6552268.241611212491989, 8429252.283520355820656 ], [ 6552298.145065041258931, 8429254.94678171724081 ], [ 6552336.215707052499056, 8429271.138036545366049 ], [ 6552392.724037073552608, 8429302.52595123462379 ], [ 6552444.788879673928022, 8429346.130154399201274 ], [ 6552495.133663959801197, 8429395.258993918076158 ], [ 6552608.011127619072795, 8429438.479654844850302 ], [ 6552673.567841381765902, 8429466.073570009320974 ], [ 6552738.995827563107014, 8429508.8674744553864 ], [ 6552816.100610995665193, 8429574.875912483781576 ], [ 6552877.87639778945595, 8429625.501740602776408 ], [ 6552902.883451892994344, 8429647.359747145324945 ], [ 6552927.891201911494136, 8429669.229146808385849 ], [ 6552967.162485118955374, 8429704.216612128540874 ], [ 6553003.677345395088196, 8429737.83946325071156 ], [ 6553058.803365513682365, 8429790.678220497444272 ], [ 6553095.657301981002092, 8429821.062071060761809 ], [ 6553132.048457887023687, 8429851.679096780717373 ], [ 6553186.541175121441483, 8429874.250794734805822 ], [ 6553237.177143341861665, 8429895.169775694608688 ], [ 6553275.248908742330968, 8429911.361280981451273 ], [ 6553306.206403552554548, 8429929.062658064067364 ], [ 6553350.633881855756044, 8429948.12715095281601 ], [ 6553389.550026031211019, 8429961.015031106770039 ], [ 6553449.200702815316617, 8429993.300131496042013 ], [ 6553507.751150344498456, 8430041.939594455063343 ], [ 6553550.962012397125363, 8430075.208100311458111 ], [ 6553579.025230621919036, 8430096.34724953584373 ], [ 6553606.191004930064082, 8430119.708863701671362 ], [ 6553636.238770771771669, 8430145.089720297604799 ], [ 6553670.147865789942443, 8430175.855626676231623 ], [ 6553709.063388174399734, 8430192.932787729427218 ], [ 6553752.0303919846192, 8430199.951031723991036 ], [ 6553795.286945413798094, 8430188.26613774895668 ], [ 6553842.550248362123966, 8430176.558339139446616 ], [ 6553888.906040384434164, 8430156.298031412065029 ], [ 6553926.040912369266152, 8430121.190762693062425 ], [ 6553953.482003108598292, 8430089.03755091689527 ], [ 6553973.404299141839147, 8430062.173927079886198 ], [ 6553995.323847101069987, 8430040.498605437576771 ], [ 6554010.966141259297729, 8430065.360059250146151 ], [ 6554031.459658063948154, 8430135.167973861098289 ], [ 6554034.052514513023198, 8430183.320102574303746 ], [ 6554040.881237724795938, 8430253.968439040705562 ], [ 6554055.224707626737654, 8430326.393137350678444 ], [ 6554075.385488007217646, 8430392.054812051355839 ], [ 6554076.406472869217396, 8430451.167890943586826 ], [ 6554086.670233577489853, 8430543.972416292876005 ], [ 6554081.010707959532738, 8430622.536305367946625 ], [ 6554063.323157861828804, 8430713.120096072554588 ], [ 6554069.949149147607386, 8430787.501867976039648 ], [ 6554075.387704184278846, 8430859.945673098787665 ], [ 6554075.228190706111491, 8430919.448890065774322 ], [ 6554070.114302867092192, 8430999.931861601769924 ], [ 6554054.810962293297052, 8431068.787422314286232 ], [ 6554032.277250934392214, 8431120.736202588304877 ], [ 6554014.432923309504986, 8431204.502677908167243 ], [ 6554005.822894355282187, 8431268.038018239662051 ], [ 6553997.596470984630287, 8431338.056747667491436 ], [ 6553992.134872004389763, 8431417.635464901104569 ], [ 6553992.061867550946772, 8431418.781298171728849 ], [ 6554011.88014626968652, 8431502.122515035793185 ], [ 6554042.643563256599009, 8431576.556798439472914 ], [ 6554075.256626401096582, 8431674.554797783493996 ], [ 6554076.141628163866699, 8431759.244795517995954 ], [ 6554060.200769705697894, 8431838.422508649528027 ], [ 6554039.097501129843295, 8431902.498742798343301 ], [ 6554029.225321166217327, 8432011.927766755223274 ], [ 6554031.18190938886255, 8432044.993359424173832 ], [ 6554033.197011634707451, 8432079.048535453155637 ], [ 6554063.54160095565021, 8432158.873361598700285 ], [ 6554087.187268247827888, 8432227.466975519433618 ], [ 6554111.866564891301095, 8432278.009335381910205 ], [ 6554713.234284168109298, 8433604.266999779269099 ], [ 6554817.657973087392747, 8433742.476425526663661 ], [ 6554882.443480020388961, 8433838.980021595954895 ], [ 6554913.245823529548943, 8433878.565875163301826 ], [ 6554942.818727610632777, 8433947.013915423303843 ], [ 6554981.486797509714961, 8434000.342001689597964 ], [ 6555013.674795149825513, 8434034.777061127126217 ], [ 6555043.781734310090542, 8434066.44841143861413 ], [ 6555073.905911970883608, 8434099.876697618514299 ], [ 6555107.994306934997439, 8434168.466563878580928 ], [ 6555120.961237974464893, 8434206.366730272769928 ], [ 6555126.777487885206938, 8434221.178731016814709 ], [ 6555134.419257506728172, 8434262.102251837030053 ], [ 6555122.554301634430885, 8434430.681105457246304 ], [ 6555515.070707147940993, 8435097.139149827882648 ], [ 6555515.31234663259238, 8435096.827931202948093 ], [ 6555515.582342153415084, 8435096.4465286526829 ], [ 6555574.09003696218133, 8435017.077106282114983 ], [ 6555599.28996881749481, 8434990.105402024462819 ], [ 6555614.886299965903163, 8434976.446367653086782 ], [ 6555648.626027029938996, 8434953.177011847496033 ], [ 6555694.553678742609918, 8434929.157138347625732 ], [ 6555739.499809980392456, 8434920.058499366044998 ], [ 6555776.180039362981915, 8434913.542257932946086 ], [ 6555815.824513101950288, 8434920.878497831523418 ], [ 6555866.411878441460431, 8434935.175461148843169 ], [ 6556034.487305586226285, 8435032.788315955549479 ], [ 6556279.555211389437318, 8435277.357732133939862 ], [ 6556341.040986910462379, 8435351.3585244435817 ], [ 6556380.026681108400226, 8435414.796348623931408 ], [ 6556418.855573656968772, 8435510.036238960921764 ], [ 6556473.283761192113161, 8435710.430858721956611 ], [ 6556492.993775896728039, 8435763.604278616607189 ], [ 6556564.097052763216197, 8435853.84755452349782 ], [ 6556609.5481883790344, 8435887.356515251100063 ], [ 6556666.938722915947437, 8435907.835238659754395 ], [ 6556801.522250015288591, 8435951.834334820508957 ], [ 6556803.787421179935336, 8435952.578128119930625 ], [ 6556852.039686265401542, 8435964.54956348054111 ], [ 6556889.084966012276709, 8435962.349419666454196 ], [ 6556934.046683969907463, 8435955.315743641927838 ], [ 6556972.869821887463331, 8435950.931643193587661 ], [ 6557037.009800175204873, 8435949.214156989008188 ], [ 6557086.255903631448746, 8435941.707479560747743 ], [ 6557144.712662921287119, 8435925.78513003885746 ], [ 6557113.514969136565924, 8435961.279301684349775 ], [ 6557033.910306895151734, 8436045.418395072221756 ], [ 6556947.460330387577415, 8436161.872687175869942 ], [ 6556938.742761243134737, 8436173.318044599145651 ], [ 6556896.639067801646888, 8436228.526804849505424 ], [ 6556885.648402546532452, 8436250.644587513059378 ], [ 6556869.796932578086853, 8436282.550433810800314 ], [ 6559943.467914929613471, 8435522.11488720215857 ], [ 6561469.175079517997801, 8435144.452089868485928 ], [ 6561575.871810318902135, 8435118.033851781859994 ], [ 6561503.580787477083504, 8434959.486948797479272 ], [ 6560160.506858351640403, 8432013.692817609757185 ], [ 6560141.273344364017248, 8431971.494275005534291 ], [ 6560144.114217632450163, 8431967.521878991276026 ], [ 6560145.234780499711633, 8431965.958985453471541 ], [ 6562267.699230153113604, 8428997.305290043354034 ], [ 6562276.553392842411995, 8428979.18799234367907 ], [ 6562283.16838213801384, 8428965.670061880722642 ], [ 6562285.601717226207256, 8428960.693601883947849 ], [ 6562345.564714171923697, 8428838.046863574534655 ], [ 6562359.738284225575626, 8428809.035695504397154 ], [ 6562363.929261937737465, 8428800.470752786844969 ], [ 6562364.112650299444795, 8428800.094321684911847 ], [ 6563588.700894640758634, 8426294.527772458270192 ], [ 6563644.641405843198299, 8426180.02089979685843 ], [ 6563644.28107993490994, 8426179.791416238993406 ], [ 6563589.374351389706135, 8426144.244481455534697 ], [ 6563454.48497326951474, 8426076.582048488780856 ], [ 6563406.627195363864303, 8426054.587004536762834 ], [ 6563389.353559042327106, 8426041.218172950670123 ], [ 6563369.350814358331263, 8426020.785689199343324 ], [ 6563356.182152317836881, 8425997.440132640302181 ], [ 6563318.346453805454075, 8425915.655303537845612 ], [ 6563286.800246099941432, 8425785.039952119812369 ], [ 6563263.551000972278416, 8425608.567562125623226 ], [ 6563260.48583956528455, 8425521.92173932120204 ], [ 6563260.419069316238165, 8425506.121741481125355 ], [ 6563253.595367444679141, 8425470.414939045906067 ], [ 6563239.830136371776462, 8425431.10754556581378 ], [ 6563227.053239176981151, 8425396.376685857772827 ], [ 6563216.482972266152501, 8425377.727773563936353 ], [ 6563201.457206639461219, 8425361.734350295737386 ], [ 6563181.602086696773767, 8425343.771416168659925 ], [ 6563161.996331572532654, 8425328.16861055418849 ], [ 6563139.587651439011097, 8425307.893296355381608 ], [ 6563113.563834632746875, 8425285.666557308286428 ], [ 6563087.460478671826422, 8425260.658397726714611 ], [ 6563012.287789878435433, 8425179.769497334957123 ], [ 6562946.60941619426012, 8425112.935568779706955 ], [ 6562847.67183119058609, 8425036.735796358436346 ], [ 6562688.376452291384339, 8424958.435107389464974 ], [ 6562526.747314759530127, 8424897.620492789894342 ], [ 6562424.810049360617995, 8424874.88222605548799 ], [ 6562309.525454057380557, 8424829.243952121585608 ], [ 6562240.000071367248893, 8424786.09721365571022 ], [ 6562195.765709224157035, 8424766.157303432002664 ], [ 6562166.772729367949069, 8424751.14411154948175 ], [ 6562130.848256963305175, 8424739.038404366001487 ], [ 6562108.523241638205945, 8424734.653266813606024 ], [ 6562091.781801509670913, 8424731.267209503799677 ], [ 6562041.29926442168653, 8424730.202349549159408 ], [ 6562010.204077957198024, 8424720.06608897075057 ], [ 6561999.383708920329809, 8424713.719336789101362 ], [ 6561977.647959589958191, 8424702.698675842955709 ], [ 6561958.80785283818841, 8424691.377713989466429 ], [ 6561952.830001330934465, 8424682.146802632138133 ], [ 6561925.972984279505908, 8424648.31262549944222 ], [ 6561883.640191938728094, 8424586.226492261514068 ], [ 6561864.205080835148692, 8424552.435639565810561 ], [ 6561795.025937682949007, 8424482.435053382068872 ], [ 6561645.176078825257719, 8424361.100408619269729 ], [ 6561613.906101856380701, 8424333.527579000219703 ], [ 6561581.695427425205708, 8424300.542135547846556 ], [ 6561573.762450840324163, 8424287.410060266032815 ], [ 6561565.880916438996792, 8424270.24420204013586 ], [ 6561556.410951979458332, 8424220.871627498418093 ], [ 6561550.904662395827472, 8424138.500622360035777 ], [ 6561538.119392932392657, 8424106.878175307065248 ], [ 6561515.1799051836133, 8424078.060787191614509 ], [ 6561482.45232632663101, 8424041.498659837990999 ], [ 6561461.372816748917103, 8424024.958003321662545 ], [ 6561457.323977908119559, 8424022.633187498897314 ], [ 6561444.371303702704608, 8424012.498835572972894 ], [ 6561441.610699745826423, 8424009.982105167582631 ], [ 6561434.278837657533586, 8423998.572294531390071 ], [ 6561419.537708729505539, 8423964.487480262294412 ], [ 6561412.621115263551474, 8423933.744260855019093 ], [ 6561409.869092620909214, 8423926.477003015577793 ], [ 6561373.60952284745872, 8423844.397938108071685 ], [ 6561292.559780968353152, 8423707.496708484366536 ], [ 6561147.114434971474111, 8423510.117807660251856 ], [ 6561012.143423615954816, 8423345.734655460342765 ], [ 6560945.036529069766402, 8423260.723185252398252 ], [ 6560884.745726886205375, 8423145.145413042977452 ], [ 6560845.647541430778801, 8423059.426023427397013 ], [ 6560732.265895303338766, 8422850.525241589173675 ], [ 6560716.185642564669251, 8422829.915763800963759 ], [ 6560578.627084991894662, 8422653.567034587264061 ], [ 6560543.908799041993916, 8422578.614274308085442 ], [ 6560577.011627812869847, 8422546.095740035176277 ], [ 6560577.523309135809541, 8422545.596713891252875 ], [ 6560651.482606300152838, 8422472.943476809188724 ], [ 6560699.517691585235298, 8422442.742876457050443 ], [ 6560833.266203963197768, 8422358.622771847993135 ], [ 6561003.440942522138357, 8422271.696091463789344 ], [ 6561115.699127942323685, 8422101.909351581707597 ], [ 6561207.355448855087161, 8422072.599856728687882 ], [ 6561365.193897225894034, 8422100.311181008815765 ], [ 6561504.296397501602769, 8422136.164900112897158 ], [ 6561573.345051134005189, 8422138.80988522991538 ], [ 6561720.972287435084581, 8422084.900898428633809 ], [ 6561780.263037705793977, 8422010.808522675186396 ], [ 6561807.268099185079336, 8421869.927150722593069 ], [ 6561784.797236416488886, 8421714.873848401010036 ], [ 6561840.798178511671722, 8421569.030529329553246 ], [ 6561940.025317365303636, 8421450.957896444946527 ], [ 6562067.469966077245772, 8421338.611232740804553 ], [ 6562081.806192402727902, 8421277.076714614406228 ], [ 6562109.358629127964377, 8421158.825339514762163 ], [ 6562067.604098295792937, 8421107.008912237361073 ], [ 6561975.269987580366433, 8421017.498327910900116 ], [ 6561871.80404531955719, 8420901.599177788943052 ], [ 6561867.231033057905734, 8420827.049479696899652 ], [ 6561912.50274842325598, 8420722.422643957659602 ], [ 6561973.452191049233079, 8420664.394311096519232 ], [ 6562154.086134956218302, 8420507.431922227144241 ], [ 6562245.096529148519039, 8420413.611973095685244 ], [ 6562264.040349269285798, 8420294.566230045631528 ], [ 6562245.932753195986152, 8420158.841729797422886 ], [ 6562250.171190362423658, 8419989.243948439136147 ], [ 6562326.118710145354271, 8419776.994532153010368 ], [ 6562414.688586732372642, 8419642.564197972416878 ], [ 6562543.187476772814989, 8419529.500258415937424 ], [ 6562671.48263512738049, 8419445.565465252846479 ], [ 6562805.425587246194482, 8419337.010091532021761 ], [ 6562861.985331150703132, 8419291.504324499517679 ], [ 6562920.518302286043763, 8419244.417037779465318 ], [ 6562989.215956445783377, 8419218.569887027144432 ], [ 6563058.313445631414652, 8419257.148325998336077 ], [ 6563146.668783178552985, 8419387.661226727068424 ], [ 6563211.72411687579006, 8419659.598186388611794 ], [ 6563257.934316338971257, 8419743.756781626492739 ], [ 6563258.249665042385459, 8419744.320063110440969 ], [ 6563323.867744263261557, 8419830.854643497616053 ], [ 6563439.460991909727454, 8419947.318546775728464 ], [ 6563520.364596524275839, 8419990.242155715823174 ], [ 6563598.05992922000587, 8420013.798654101788998 ], [ 6563689.466710945591331, 8420025.641674313694239 ], [ 6563829.145957048982382, 8420017.17935324087739 ], [ 6563878.429125758819282, 8420022.027228981256485 ], [ 6563966.003077521920204, 8420030.630211602896452 ], [ 6564024.814715637825429, 8420048.809670493006706 ], [ 6564070.163168095052242, 8420083.015862256288528 ], [ 6564133.724496264010668, 8420111.767622789368033 ], [ 6564214.790007398463786, 8420120.364941462874413 ], [ 6564301.922234177589417, 8420096.150913204997778 ], [ 6564386.21863672323525, 8420059.512281633913517 ], [ 6564483.479503049515188, 8419997.100756676867604 ], [ 6564561.345836279913783, 8419920.641346277669072 ], [ 6564611.50679874792695, 8419863.253331955522299 ], [ 6564724.728877088055015, 8419689.006985455751419 ], [ 6564817.965189174748957, 8419559.435115983709693 ], [ 6564875.024192412383854, 8419479.894616026431322 ], [ 6564944.446198225952685, 8419434.377921175211668 ], [ 6565007.07695490680635, 8419413.186428967863321 ], [ 6565070.228359497152269, 8419400.665258198976517 ], [ 6565114.883515081368387, 8419400.04647920653224 ], [ 6565116.571529988199472, 8419400.024028262123466 ], [ 6565162.914703256450593, 8419399.382722640410066 ], [ 6565241.897801106795669, 8419406.502768494188786 ], [ 6565242.44891744479537, 8419406.663479957729578 ], [ 6565321.81207967735827, 8419462.296354344114661 ], [ 6565326.392773058265448, 8419508.98995553702116 ], [ 6565323.589149327017367, 8419552.100150588899851 ], [ 6565305.194967750459909, 8419637.645726347342134 ], [ 6565295.890760165639222, 8419666.64644655585289 ], [ 6565286.575024083256721, 8419695.636418713256717 ], [ 6565289.599553148262203, 8419745.998880693688989 ], [ 6565308.164508184418082, 8419788.612376173958182 ], [ 6565335.87832609936595, 8419821.454914776608348 ], [ 6565368.604617474600673, 8419845.074274882674217 ], [ 6565415.073203564621508, 8419878.606663957238197 ], [ 6565505.047679852694273, 8419935.104757821187377 ], [ 6565554.561232777312398, 8419961.451923169195652 ], [ 6565640.084729116410017, 8419995.402245786041021 ], [ 6565679.82991058845073, 8420012.006478132680058 ], [ 6565719.56434331741184, 8420028.611360350623727 ], [ 6566559.965899319387972, 8420538.874423710629344 ], [ 6566576.788023782894015, 8420545.243142070248723 ], [ 6566593.609471678733826, 8420551.60047946497798 ], [ 6566526.55861758440733, 8420483.386133272200823 ], [ 6566484.648701830767095, 8420447.166630234569311 ], [ 6566444.665989340282977, 8420403.726577879860997 ], [ 6566414.472135997377336, 8420362.970486734062433 ], [ 6566391.406762815080583, 8420314.324269553646445 ], [ 6566379.6203464102, 8420252.065595457330346 ], [ 6566375.719432315789163, 8420211.827308563515544 ], [ 6566371.074827499687672, 8420166.060849625617266 ], [ 6566371.026838954538107, 8420125.063449574634433 ], [ 6566372.094036221504211, 8420069.642555475234985 ], [ 6566367.865162951871753, 8420035.305846739560366 ], [ 6566363.987011015415192, 8420005.184943852946162 ], [ 6566360.220272667706013, 8419976.918860495090485 ], [ 6566353.964520736597478, 8419940.752226870507002 ], [ 6566351.946398293599486, 8419908.245753351598978 ], [ 6566330.159197785891593, 8419844.65265116840601 ], [ 6566265.145694560371339, 8419735.544743161648512 ], [ 6566196.137344206683338, 8419668.627663960680366 ], [ 6566116.342418134212494, 8419600.618027467280626 ], [ 6566043.937619822099805, 8419535.563440192490816 ], [ 6566014.246077185496688, 8419512.537007747218013 ], [ 6565987.031357091851532, 8419485.854180166497827 ], [ 6565972.693197409622371, 8419458.458467330783606 ], [ 6565953.261342914775014, 8419431.177751669660211 ], [ 6565935.130485581234097, 8419399.05574794486165 ], [ 6565923.353737588040531, 8419369.231975201517344 ], [ 6565907.761084333062172, 8419282.936932498589158 ], [ 6565883.753041394986212, 8419199.870815400034189 ], [ 6565863.996024245396256, 8419097.086249325424433 ], [ 6565949.214715348556638, 8419092.82717608101666 ], [ 6566120.975551370531321, 8419147.943511897698045 ], [ 6566247.87164072971791, 8419166.850153513252735 ], [ 6566318.675015855580568, 8419151.930401125922799 ], [ 6566324.703808307647705, 8419080.904413275420666 ], [ 6566301.218717387877405, 8418966.39869461581111 ], [ 6566285.938478586263955, 8418778.896250506862998 ], [ 6566321.730714126490057, 8418602.807845819741488 ], [ 6566491.595115043222904, 8418342.47766150161624 ], [ 6566525.378904671408236, 8418261.610058991238475 ], [ 6566559.162904092110693, 8418180.753587510436773 ], [ 6566577.756606761366129, 8418145.304134218022227 ], [ 6566639.435792269185185, 8418027.747096674516797 ], [ 6566677.264476462267339, 8417955.643626658245921 ], [ 6566771.31138620339334, 8417772.09211391210556 ], [ 6566885.672390238381922, 8417611.961816791445017 ], [ 6567048.58488891273737, 8417493.351094653829932 ], [ 6567118.078760399483144, 8417452.634892296046019 ], [ 6567144.543281956575811, 8417454.783148847520351 ], [ 6567218.222172399051487, 8417445.448618240654469 ], [ 6567323.756854522041976, 8417397.240216333419085 ], [ 6567406.380845543928444, 8417366.163060113787651 ], [ 6567458.675405750051141, 8417343.383340690284967 ], [ 6567500.864007949829102, 8417312.286694983020425 ], [ 6567535.691127251833677, 8417287.336935730651021 ], [ 6567568.394816445186734, 8417254.281447239220142 ], [ 6567575.796322752721608, 8417246.464413747191429 ], [ 6567616.79432743228972, 8417220.23669040389359 ], [ 6567558.330995252355933, 8417225.449438625946641 ], [ 6567494.223116721957922, 8417231.153891880065203 ], [ 6567388.685141238383949, 8417203.59547364525497 ], [ 6567368.211354489438236, 8417198.250800976529717 ], [ 6567263.447380559518933, 8417136.792648334056139 ], [ 6567156.594829166308045, 8417041.369475932791829 ], [ 6567135.601581025868654, 8417001.507409038022161 ], [ 6567135.601404064334929, 8417001.324681242927909 ], [ 6567136.165986081585288, 8416947.233980840072036 ], [ 6567120.3280388712883, 8416872.692133421078324 ], [ 6567105.240753219462931, 8416817.086644779890776 ], [ 6567084.816213760524988, 8416749.276904258877039 ], [ 6567082.082339189946651, 8416740.203516107052565 ], [ 6567080.088444375433028, 8416735.505094492807984 ], [ 6567049.117271699011326, 8416662.306734690442681 ], [ 6567033.801306173205376, 8416626.097023809328675 ], [ 6566988.217213055118918, 8416594.150119481608272 ], [ 6566944.647235568612814, 8416577.84182414226234 ], [ 6566896.076461144722998, 8416565.698073506355286 ], [ 6566875.459059912711382, 8416500.618849065154791 ], [ 6566896.895601476542652, 8416428.663927253335714 ], [ 6566918.320338066667318, 8416356.698147742077708 ], [ 6566881.972535785287619, 8416266.513279795646667 ], [ 6566794.209358754567802, 8416200.174952687695622 ], [ 6566672.1185557609424, 8416126.240531483665109 ], [ 6566600.959407929331064, 8416049.90401728823781 ], [ 6566565.727694161236286, 8415951.280792450532317 ], [ 6566511.033446341753006, 8415789.325325546786189 ], [ 6566494.756696471013129, 8415741.125946789979935 ], [ 6566423.777777188457549, 8415674.784267205744982 ], [ 6566311.143256497569382, 8415595.308313010260463 ], [ 6566221.177580851130188, 8415562.112123467028141 ], [ 6566171.382144282571971, 8415505.354480596259236 ], [ 6566161.026440809480846, 8415419.026889536529779 ], [ 6566194.917878383770585, 8415297.38869327493012 ], [ 6566151.150605343282223, 8415169.615727452561259 ], [ 6566042.508065505884588, 8414991.429193120449781 ], [ 6565984.702980853617191, 8414890.882117453962564 ], [ 6565950.152436203323305, 8414741.603825107216835 ], [ 6565927.250925221480429, 8414617.998448964208364 ], [ 6565867.91059640981257, 8414565.272804858162999 ], [ 6564174.84795359801501, 8414184.827305102720857 ], [ 6564173.903763245791197, 8414184.610664483159781 ], [ 6564172.729604544118047, 8414184.350913785398006 ], [ 6564220.147737205028534, 8414088.645061060786247 ], [ 6564242.632388828322291, 8413993.873350838199258 ], [ 6564243.751493826508522, 8413865.444958634674549 ], [ 6564205.205202761106193, 8413783.111511867493391 ], [ 6564147.338776910677552, 8413692.075665106996894 ], [ 6564081.112617198377848, 8413624.377173772081733 ], [ 6564047.365928929299116, 8413576.777052368968725 ], [ 6564036.991934299468994, 8413509.905443510040641 ], [ 6564058.277440257370472, 8413426.352665485814214 ], [ 6564032.301454982720315, 8413417.153145486488938 ], [ 6563992.691109064035118, 8413444.013635044917464 ], [ 6563951.963439765386283, 8413468.863565422594547 ], [ 6563913.870498319156468, 8413477.964975476264954 ], [ 6563873.210817310027778, 8413487.233912121504545 ], [ 6563826.051030594855547, 8413495.539321471005678 ], [ 6563762.458620491437614, 8413508.921314476057887 ], [ 6563695.248965577222407, 8413526.600019501522183 ], [ 6563650.574897112324834, 8413533.394834853708744 ], [ 6563596.425510154105723, 8413532.612360376864672 ], [ 6563553.013826766982675, 8413517.587163716554642 ], [ 6563513.208603702485561, 8413498.265742182731628 ], [ 6563485.191299325786531, 8413482.315433252602816 ], [ 6563417.78680863417685, 8413453.8015420101583 ], [ 6563367.081611915491521, 8413446.02607044018805 ], [ 6563308.755135422572494, 8413440.061656203120947 ], [ 6563274.269205481745303, 8413444.877276187762618 ], [ 6563218.531247834675014, 8413460.497991213575006 ], [ 6563165.523024485446513, 8413478.658914681524038 ], [ 6563124.944695835933089, 8413489.280501760542393 ], [ 6563062.543431506492198, 8413501.229255896061659 ], [ 6563006.642153287306428, 8413514.141421353444457 ], [ 6562948.021143086254597, 8413524.501006368547678 ], [ 6562945.959727739915252, 8413524.96895033493638 ], [ 6562940.939661371521652, 8413526.107853604480624 ], [ 6562890.835375974886119, 8413537.479533417150378 ], [ 6562841.433979544788599, 8413551.354850847274065 ], [ 6562800.223878772929311, 8413572.88533378392458 ], [ 6562772.18038222193718, 8413595.693411663174629 ], [ 6562745.972520769573748, 8413634.60518535412848 ], [ 6562724.413861587643623, 8413661.723550541326404 ], [ 6562703.681014033034444, 8413702.380568109452724 ], [ 6562682.611907430924475, 8413737.633796328678727 ], [ 6562658.595129338093102, 8413776.080825068056583 ], [ 6562642.398901496082544, 8413797.140453342348337 ], [ 6562613.210232803598046, 8413804.350416321307421 ], [ 6562575.259783873334527, 8413794.427445752546191 ], [ 6562540.6607372360304, 8413776.147428831085563 ], [ 6562506.317003261297941, 8413761.928544854745269 ], [ 6562470.275366825982928, 8413749.719869129359722 ], [ 6562434.818406448699534, 8413729.596435520797968 ], [ 6562398.059546191245317, 8413718.242106499150395 ], [ 6562347.028387438505888, 8413705.048975635319948 ], [ 6562284.453991377726197, 8413692.546022968366742 ], [ 6562235.194881267845631, 8413687.386881042271852 ], [ 6562168.188969600014389, 8413665.65250570140779 ], [ 6562112.898804802447557, 8413645.912330470979214 ], [ 6562058.078294426202774, 8413612.566431254148483 ], [ 6562026.201591772958636, 8413575.108390495181084 ], [ 6561993.347133049741387, 8413521.40357368811965 ], [ 6561971.647815061733127, 8413481.968232775107026 ], [ 6561942.796648724004626, 8413430.737958669662476 ], [ 6561906.335596124641597, 8413381.329157337546349 ], [ 6561872.461366130039096, 8413353.493380507454276 ], [ 6561840.116009267047048, 8413329.652671385556459 ], [ 6561794.677863600663841, 8413302.519818995147943 ], [ 6561730.504852304235101, 8413274.23050144687295 ], [ 6561427.408530493266881, 8413091.772840866819024 ], [ 6560580.941097481176257, 8413249.153858598321676 ], [ 6560639.199022484943271, 8413418.180705348029733 ], [ 6560634.243631042540073, 8413532.196849979460239 ], [ 6560571.584667293354869, 8413636.197572268545628 ], [ 6560469.805014358833432, 8413750.965240642428398 ], [ 6560399.072850117459893, 8413828.40467 ], [ 6560339.162651853635907, 8413858.04086172953248 ], [ 6560246.44215851649642, 8413909.21626440435648 ], [ 6560241.883208245038986, 8413972.429774105548859 ], [ 6560283.905119047500193, 8414035.33943048492074 ], [ 6560336.014850722625852, 8414149.361277099698782 ], [ 6560374.66318894084543, 8414304.586566582322121 ], [ 6560351.268627012148499, 8414384.449194516986609 ], [ 6560237.716331262141466, 8414461.252949245274067 ], [ 6560153.014440687373281, 8414524.48747119680047 ], [ 6560154.347665056586266, 8414644.901544580236077 ], [ 6560137.153280591592193, 8414750.32861564680934 ], [ 6560162.42120748758316, 8414887.993514351546764 ], [ 6560300.175523223355412, 8415039.925018003210425 ], [ 6560378.707343371585011, 8415133.677325962111354 ], [ 6560481.26347438711673, 8415296.982570620253682 ], [ 6560526.429040092974901, 8415431.181793848052621 ], [ 6560605.812634292058647, 8415517.656031731516123 ], [ 6560672.35807023756206, 8415607.969279021024704 ], [ 6560687.020739812403917, 8415662.995341492816806 ], [ 6560691.911650240421295, 8415681.333363315090537 ], [ 6559338.258158581331372, 8415786.019997349008918 ], [ 6558769.608953067101538, 8415829.968270651996136 ], [ 6557818.093178230337799, 8415903.486746245995164 ], [ 6557822.466164886020124, 8415924.959960723295808 ], [ 6557826.849246042780578, 8415946.421152554452419 ], [ 6557863.474732765927911, 8416007.225975370034575 ], [ 6557895.730719449929893, 8416063.956932066008449 ], [ 6557950.668225187808275, 8416129.499129045754671 ], [ 6557960.804669363424182, 8416169.632968831807375 ], [ 6557996.473433037288487, 8416248.980321932584047 ], [ 6558036.465527619235218, 8416314.46846573241055 ], [ 6558070.522413926199079, 8416366.741061996668577 ], [ 6558115.975155796855688, 8416437.344926577061415 ], [ 6558162.238534783013165, 8416521.47483829036355 ], [ 6558178.942841741256416, 8416542.202084286138415 ], [ 6558195.635686963796616, 8416562.918623378500342 ], [ 6558247.006901594810188, 8416603.27470862865448 ], [ 6558301.919467135332525, 8416659.720252651721239 ], [ 6558340.05674285069108, 8416717.923256348818541 ], [ 6558295.634883544407785, 8416736.618388781324029 ], [ 6558244.595602667890489, 8416771.732065550982952 ], [ 6558180.978778024204075, 8416850.295105408877134 ], [ 6558121.284036876633763, 8416909.93055234849453 ], [ 6558050.716755498200655, 8416956.899660408496857 ], [ 6557980.758728163316846, 8416993.076653182506561 ], [ 6557914.129818967543542, 8417042.535343375056982 ], [ 6557864.521959126926959, 8417101.570436934009194 ], [ 6557779.782435655593872, 8417165.40153475292027 ], [ 6557679.820971171371639, 8417211.017810679972172 ], [ 6557603.188396065495908, 8417218.392018338665366 ], [ 6557559.578780876472592, 8417194.439351003617048 ], [ 6557502.590205883607268, 8417182.495582293719053 ], [ 6557457.340659878216684, 8417179.797345587983727 ], [ 6557414.417251807637513, 8417194.608682129532099 ], [ 6557378.303631158545613, 8417223.690073948353529 ], [ 6557340.414123503491282, 8417253.495207738131285 ], [ 6557295.896165501326323, 8417280.561349520459771 ], [ 6557258.929229403845966, 8417308.597914615646005 ], [ 6557221.800794039852917, 8417333.938365230336785 ], [ 6557186.10675935074687, 8417361.897724758833647 ], [ 6557157.803364027291536, 8417383.987317312508821 ], [ 6557124.768760207109153, 8417413.144277445971966 ], [ 6557071.111276225186884, 8417442.200472982600331 ], [ 6557008.61595993489027, 8417452.770624551922083 ], [ 6556956.715887922793627, 8417468.134507423266768 ], [ 6556886.863474484533072, 8417506.308763293549418 ], [ 6556827.35228630527854, 8417545.216281447559595 ], [ 6556780.598961698822677, 8417581.994025548920035 ], [ 6556735.697024498134851, 8417628.180982554331422 ], [ 6556712.689717652276158, 8417652.655122062191367 ], [ 6556669.880538247525692, 8417712.289360685274005 ], [ 6556615.75870122294873, 8417776.682396437972784 ], [ 6556555.952151025645435, 8417825.698156256228685 ], [ 6556513.112051055766642, 8417869.807154783979058 ], [ 6556456.421261191368103, 8417934.354298198595643 ], [ 6556388.428322685882449, 8418003.659231700003147 ], [ 6556346.241985921747983, 8418030.649204244837165 ], [ 6556291.297833521850407, 8418059.779410600662231 ], [ 6556254.802401582710445, 8418074.198647707700729 ], [ 6556222.704041454941034, 8418076.136971641331911 ], [ 6556158.831010893918574, 8418041.966776393353939 ], [ 6556107.069300817325711, 8418016.574903169646859 ], [ 6556068.0653459392488, 8417989.042744843289256 ], [ 6556049.36184380017221, 8417977.945493327453732 ], [ 6556016.789429606869817, 8417971.772656451910734 ], [ 6556007.872830344364047, 8417993.602053310722113 ], [ 6556013.363877784460783, 8418022.233089765533805 ], [ 6556057.352044544182718, 8418068.472160780802369 ], [ 6556112.329133924096823, 8418104.538172641769052 ], [ 6556140.99113810993731, 8418153.061331678181887 ], [ 6556151.166379163041711, 8418175.279219787567854 ], [ 6556154.821470625698566, 8418203.267802894115448 ], [ 6556159.970496785826981, 8418247.731007667258382 ], [ 6556170.666878239251673, 8418309.816887717694044 ], [ 6556172.344525337219238, 8418345.665027579292655 ], [ 6556183.597494940273464, 8418383.012818802148104 ], [ 6556202.786724741570652, 8418402.232137337327003 ], [ 6556233.277281271293759, 8418416.682190937921405 ], [ 6556268.850005522370338, 8418424.672095308080316 ], [ 6556303.894639369100332, 8418456.610793670639396 ], [ 6556334.164531536400318, 8418488.015839416533709 ], [ 6556359.941373843699694, 8418511.82641376927495 ], [ 6556392.224348206073046, 8418558.065258866176009 ], [ 6556405.924260841682553, 8418593.233542613685131 ], [ 6556417.328307906165719, 8418622.421353986486793 ], [ 6556423.648081494495273, 8418652.601101478561759 ], [ 6556429.239529400132596, 8418681.466295663267374 ], [ 6556429.695086902007461, 8418710.641546536237001 ], [ 6556427.622793779708445, 8418740.642954120412469 ], [ 6556417.28085752017796, 8418772.513507505878806 ], [ 6556409.15312016941607, 8418798.131269704550505 ], [ 6556407.323435214348137, 8418832.193585373461246 ], [ 6556410.103995431214571, 8418857.15286461263895 ], [ 6556417.707498103380203, 8418887.255154244601727 ], [ 6556418.880391375161707, 8418906.877357508987188 ], [ 6556426.270351114682853, 8418944.458772031590343 ], [ 6556428.252410464920104, 8418966.749204371124506 ], [ 6556425.947460177354515, 8418982.174663070589304 ], [ 6556423.652607224881649, 8418997.588092360645533 ], [ 6556415.362756296992302, 8419020.498495062813163 ], [ 6556402.695226373150945, 8419045.716594964265823 ], [ 6556392.443750875070691, 8419078.92860659211874 ], [ 6556381.666696964763105, 8419103.347574697807431 ], [ 6556370.99981601536274, 8419129.791951231658459 ], [ 6556360.74905651435256, 8419152.147021021693945 ], [ 6556347.110309049487114, 8419171.989470236003399 ], [ 6556334.684734385460615, 8419190.388738187029958 ], [ 6556319.378517891280353, 8419225.275529123842716 ], [ 6556303.384035348892212, 8419259.518827501684427 ], [ 6556286.873847621493042, 8419295.825264140963554 ], [ 6556271.132618117146194, 8419334.128733221441507 ], [ 6556252.256085213273764, 8419373.968417603522539 ], [ 6556235.129893356002867, 8419407.400716692209244 ], [ 6556211.580907290801406, 8419448.606684800237417 ], [ 6556188.953252078965306, 8419481.491707243025303 ], [ 6556167.268716095015407, 8419507.869659617543221 ], [ 6556144.952101644128561, 8419526.568404909223318 ], [ 6556117.996505429968238, 8419545.741015238687396 ], [ 6556083.249156136065722, 8419572.975252199918032 ], [ 6556057.549779634922743, 8419590.519349437206984 ], [ 6556025.699231809936464, 8419606.607851423323154 ], [ 6555995.007538457401097, 8419624.875334260985255 ], [ 6555958.647221093066037, 8419642.514280064031482 ], [ 6555921.050777333788574, 8419652.693135771900415 ], [ 6555892.35945076495409, 8419657.677120925858617 ], [ 6555856.750776714645326, 8419682.645191548392177 ], [ 6555825.749649469740689, 8419698.636336699128151 ], [ 6555795.137039363384247, 8419721.133886208757758 ], [ 6555769.891524620354176, 8419745.921936457976699 ], [ 6555732.702392483130097, 8419762.925290247425437 ], [ 6555697.914712218567729, 8419767.192029250785708 ], [ 6555660.56001397036016, 8419762.926033992320299 ], [ 6555632.764953561127186, 8419763.517521711066365 ], [ 6555592.491744991391897, 8419767.863732663914561 ], [ 6555544.688945954665542, 8419775.597727961838245 ], [ 6555514.978529057465494, 8419777.663050966337323 ], [ 6555512.593161958269775, 8419777.612803047522902 ], [ 6555511.996310819871724, 8419777.591709906235337 ] ] ] } }
]
}
