{
"type": "FeatureCollection",
"name": "3117876",
"crs": { "type": "name", "properties": { "name": "urn:ogc:def:crs:EPSG::5880" } },
"features": [
{ "type": "Feature", "properties": { "lv_id": "LOC_038156", "id": 180673.0, "CD_SETOR": "311787605000022", "SITUACAO": "Urbana", "CD_SIT": "1", "CD_TIPO": "0", "AREA_KM2": 0.14867328290805301, "CD_REGIAO": "3", "NM_REGIAO": "Sudeste", "CD_UF": "31", "NM_UF": "Minas Gerais", "CD_MUN": "3117876", "NM_MUN": "Confins", "CD_DIST": "311787605", "NM_DIST": "Confins", "CD_SUBDIST": "31178760500", "NM_SUBDIST": null, "CD_BAIRRO": null, "NM_BAIRRO": null, "CD_NU": "3117876001", "NM_NU": "Condomínio Gran Royalle", "CD_FCU": null, "NM_FCU": null, "CD_AGLOM": null, "NM_AGLOM": null, "CD_RGINT": "3101", "NM_RGINT": "Belo Horizonte", "CD_RGI": "310001", "NM_RGI": "Belo Horizonte", "CD_CONCURB": "3106200", "NM_CONCURB": "Belo Horizonte/MG", "mun_code_x": "3117876", "index_right": 32069, "dist_m": 0.0, "local_id": 408656, "ano": 2022, "cod_localidade_ibge": 3117876, "NR_ZONA": "215", "nr_cep": 33500000.0, "nm_localidade": "CONFINS", "nm_locvot": "ESCOLA ESTADUAL SÃO JOSÉ DE CONFINS", "ds_endereco": "RUA JOSÉ GONÇALVES NEVES, 20", "ds_bairro": "CENTRO", "pred_long": -43.98959, "pred_lat": -19.6313665, "pred_dist": 0.037389612750162497, "tse_long": null, "tse_lat": null, "long": -43.98959, "lat": -19.6313665, "ID_UNICO": "LOC_038156", "SG_UF": "MG", "CD_MUNICIPIO": "41920", "NR_LOCAL_VOTACAO": "1023", "QT_SECOES_AGREGADAS": 0, "QT_ELEITORES_TRANSFERIDOS": 1, "CIRO GOMES (PDT) (NÃO ELEITO) 1T": 64.0, "CONSTITUINTE EYMAEL (DC) (NÃO ELEITO) 1T": 1.0, "FELIPE D AVILA (NOVO) (NÃO ELEITO) 1T": 15.0, "JAIR BOLSONARO (PL) (2º TURNO) 1T": 1085.0, "LULA (PT) (2º TURNO) 1T": 950.0, "LÉO PÉRICLES (UP) (NÃO ELEITO) 1T": 2.0, "PADRE KELMON (PTB) (NÃO ELEITO) 1T": 0.0, "SIMONE TEBET (MDB) (NÃO ELEITO) 1T": 94.0, "SOFIA MANZANO (PCB) (NÃO ELEITO) 1T": 3.0, "SORAYA THRONICKE (UNIÃO) (NÃO ELEITO) 1T": 12.0, "VERA (PSTU) (NÃO ELEITO) 1T": 1.0, "Total_Votos_Validos 1T": 2227.0, "Votos_Brancos 1T": 37.0, "Votos_Nulos 1T": 59.0, "Abstenções 1T": 457.0, "Eleitores_Aptos 1T": 2780.0, "JAIR BOLSONARO (PL) (NÃO ELEITO) 2T": 1232.0, "LULA (PT) (ELEITO) 2T": 1017.0, "Total_Votos_Validos 2T": 2249.0, "Votos_Brancos 2T": 35.0, "Votos_Nulos 2T": 41.0, "Abstenções 2T": 455.0, "Eleitores_Aptos 2T": 2780.0, "mun_code_y": "3117876", "mun_code": "3117876" }, "geometry": { "type": "Polygon", "coordinates": [ [ [ 6049559.349245483987033, 7796101.599818564020097 ], [ 6049548.94466654304415, 7796053.99147666990757 ], [ 6049551.626424890011549, 7795962.181342298164964 ], [ 6049552.246725972741842, 7795821.721296511590481 ], [ 6049550.753786776214838, 7795584.92223962303251 ], [ 6049543.336146535351872, 7795556.033008593134582 ], [ 6049531.619542954489589, 7795536.433823950588703 ], [ 6049514.131828730925918, 7795514.262981024570763 ], [ 6049477.104857631027699, 7795476.864792048931122 ], [ 6049452.700217300094664, 7795446.906829519197345 ], [ 6049446.027987837791443, 7795430.922467831522226 ], [ 6049444.257857070304453, 7795417.381058720871806 ], [ 6049446.519594340585172, 7795406.67100194003433 ], [ 6049427.308148962445557, 7795403.676146818324924 ], [ 6049396.229973012581468, 7795403.987132487818599 ], [ 6049382.239583488553762, 7795392.378610471263528 ], [ 6049368.66409023758024, 7795363.638192416168749 ], [ 6049353.636318631470203, 7795328.576349233277142 ], [ 6049350.007998041808605, 7795320.07870695181191 ], [ 6049334.061212428845465, 7795282.777963777072728 ], [ 6049276.535391270183027, 7795148.999149009585381 ], [ 6049236.637994651682675, 7795055.940390907227993 ], [ 6049234.799961580894887, 7795051.642407909035683 ], [ 6049233.859586179256439, 7795051.012086797505617 ], [ 6049232.633889091201127, 7795050.173749960958958 ], [ 6049224.196016858331859, 7795044.398197704926133 ], [ 6049220.967192843556404, 7795042.182776746340096 ], [ 6049212.592230712063611, 7795041.248002810403705 ], [ 6049208.30194531660527, 7795042.433336479589343 ], [ 6048992.936041299253702, 7795015.76231480576098 ], [ 6048835.553397953510284, 7794952.195201378315687 ], [ 6048805.262940446846187, 7794921.268379164859653 ], [ 6048747.20855793915689, 7794820.027485807426274 ], [ 6048675.229606181383133, 7794755.831958188675344 ], [ 6048633.382881718687713, 7794729.372651780955493 ], [ 6048582.725006517022848, 7794721.7974768076092 ], [ 6048445.436284005641937, 7794734.400139357894659 ], [ 6048372.875287297181785, 7794728.258426778949797 ], [ 6048281.179153934121132, 7794743.203325199894607 ], [ 6048143.926045840606093, 7794588.396515586413443 ], [ 6048080.372468920424581, 7794564.190515886992216 ], [ 6048062.461206922307611, 7794557.364347911439836 ], [ 6048057.089074401184916, 7794555.319794230163097 ], [ 6048038.598085200414062, 7794548.28041678480804 ], [ 6048033.762515068054199, 7794546.429113423451781 ], [ 6048024.84218362160027, 7794539.400370680727065 ], [ 6047934.598730340600014, 7794468.207426817156374 ], [ 6047900.93746517971158, 7794413.391818179748952 ], [ 6047864.853697987273335, 7794407.116696833632886 ], [ 6047826.499953147023916, 7794398.670805865898728 ], [ 6047792.552409391850233, 7794404.487523410469294 ], [ 6047758.251092250458896, 7794440.885550806298852 ], [ 6047728.711744760163128, 7794485.422077294439077 ], [ 6047712.91872350871563, 7794508.514725209213793 ], [ 6047706.647546679712832, 7794535.633558737114072 ], [ 6047702.869504649192095, 7794580.948935066349804 ], [ 6047694.108134770765901, 7794626.557122334837914 ], [ 6047682.072653245180845, 7794650.496616612188518 ], [ 6047677.470279111526906, 7794659.635103525593877 ], [ 6047670.97707041259855, 7794695.174131992273033 ], [ 6047683.439618564210832, 7794724.867480207234621 ], [ 6047696.074869634583592, 7794745.660157090052962 ], [ 6047683.620012667030096, 7794789.192405065521598 ], [ 6047682.164928898215294, 7794799.337348829954863 ], [ 6047676.504749200306833, 7794838.525230381637812 ], [ 6047669.044335235841572, 7794893.992647510953248 ], [ 6047659.345875828526914, 7794911.376887233927846 ], [ 6047636.626512150280178, 7794922.568779732100666 ], [ 6047608.091336925514042, 7794951.074061063118279 ], [ 6047588.560520097613335, 7794983.557357719168067 ], [ 6047570.095381575636566, 7795003.906700619496405 ], [ 6047568.21104802377522, 7795005.995556328445673 ], [ 6047635.461833376437426, 7795077.069123800843954 ], [ 6047641.026656108908355, 7795082.946468949317932 ], [ 6047641.722903880290687, 7795083.534984597936273 ], [ 6047646.302844642661512, 7795400.24464958999306 ], [ 6047581.225509622134268, 7795309.575961759313941 ], [ 6047480.870461749844253, 7795331.003090061247349 ], [ 6047490.109222151339054, 7795360.368889924138784 ], [ 6047545.563432400114834, 7795536.573841366916895 ], [ 6047532.084539507515728, 7795658.40396392159164 ], [ 6047531.760099885053933, 7795661.300336370244622 ], [ 6047439.042839189991355, 7795695.169382628053427 ], [ 6047467.699908124282956, 7795740.422916466370225 ], [ 6047486.022230060771108, 7795769.367827525362372 ], [ 6047497.306581741198897, 7795787.183011051267385 ], [ 6047500.745324776507914, 7795789.937091838568449 ], [ 6047508.108360586687922, 7795795.84384476300329 ], [ 6047536.170644373632967, 7795818.338592641055584 ], [ 6047580.368657663464546, 7795853.755448317155242 ], [ 6047621.496432678773999, 7795937.828773465007544 ], [ 6047633.769188577309251, 7795942.716660077683628 ], [ 6047637.898934343829751, 7795944.35116770491004 ], [ 6047737.171015745028853, 7795974.420878982171416 ], [ 6047862.079879760742188, 7796012.25728726759553 ], [ 6047904.289608296006918, 7796048.869721748866141 ], [ 6047993.512100261636078, 7796126.25213035941124 ], [ 6048026.934286260046065, 7796155.231908485293388 ], [ 6048067.716625493951142, 7796190.601864205673337 ], [ 6048096.778698412701488, 7796215.802679061889648 ], [ 6048177.086221136152744, 7796418.829234482720494 ], [ 6048267.222999572753906, 7796471.385731102898717 ], [ 6048266.931764933280647, 7796482.575145620852709 ], [ 6048267.06592120975256, 7796482.713382136076689 ], [ 6048284.803997473791242, 7796500.7453174572438 ], [ 6048299.286414990201592, 7796516.641860550269485 ], [ 6048304.264450173825026, 7796518.945835823193192 ], [ 6048344.099898954853415, 7796537.388197859749198 ], [ 6048368.96715989895165, 7796547.616809407249093 ], [ 6048389.038044843822718, 7796562.061082351952791 ], [ 6048400.719748714007437, 7796566.174246774986386 ], [ 6048417.785868912935257, 7796572.174101701937616 ], [ 6048441.802831053733826, 7796587.622920925728977 ], [ 6048460.74196052737534, 7796606.067586191929877 ], [ 6048485.112852317281067, 7796629.363468255847692 ], [ 6048514.037586694583297, 7796640.702410600148141 ], [ 6048542.628362089395523, 7796648.127006513997912 ], [ 6048570.917799435555935, 7796650.398949079215527 ], [ 6048592.323966381140053, 7796666.113478947430849 ], [ 6048594.898437416180968, 7796667.558283478952944 ], [ 6048614.788103421218693, 7796678.719845407642424 ], [ 6048617.525527338497341, 7796680.256233531050384 ], [ 6048639.22658107150346, 7796701.011360250413418 ], [ 6048652.231186909601092, 7796727.560166332870722 ], [ 6048653.823219790123403, 7796754.779497368261218 ], [ 6048650.12756150495261, 7796779.611920507624745 ], [ 6048640.176136897876859, 7796808.858211042359471 ], [ 6048626.094914267770946, 7796830.366801287978888 ], [ 6048606.935705031268299, 7796854.871240781620145 ], [ 6048602.197544108144939, 7796860.263719636946917 ], [ 6048590.092676475644112, 7796874.069242710247636 ], [ 6048575.939245148561895, 7796894.345594732090831 ], [ 6048565.601056792773306, 7796916.982962274923921 ], [ 6048554.569607535377145, 7796947.528909923508763 ], [ 6048538.027690215036273, 7796971.879416287876666 ], [ 6048517.60510946623981, 7796996.345426838845015 ], [ 6048500.683177074417472, 7797014.199082102626562 ], [ 6048486.686641163192689, 7797037.163587415590882 ], [ 6048471.62361962068826, 7797065.248608341440558 ], [ 6048462.87546962313354, 7797091.726330662146211 ], [ 6048455.534360009245574, 7797120.706548437476158 ], [ 6048449.377621307969093, 7797148.380815076641738 ], [ 6048445.172927295789123, 7797160.564404251053929 ], [ 6048440.661996969021857, 7797173.620197292417288 ], [ 6048427.882393994368613, 7797197.637055594474077 ], [ 6048425.44900318607688, 7797222.507466685026884 ], [ 6048424.196409665979445, 7797237.56364569440484 ], [ 6048424.036810581572354, 7797239.506259370595217 ], [ 6048423.166202059015632, 7797249.954176792874932 ], [ 6048422.061257965862751, 7797275.982939517125487 ], [ 6048421.206684591248631, 7797295.511648043058813 ], [ 6048420.982414896599948, 7797300.661393439397216 ], [ 6048418.548919155262411, 7797325.531790821813047 ], [ 6048415.009529996663332, 7797353.052269443869591 ], [ 6048414.601951936259866, 7797356.504332212731242 ], [ 6048411.5094561483711, 7797383.043179601430893 ], [ 6048413.179190882481635, 7797411.606534059159458 ], [ 6048413.932970328256488, 7797447.866712994873524 ], [ 6048406.545420993119478, 7797474.264350080862641 ], [ 6048395.028365428559482, 7797498.319297384470701 ], [ 6048380.952405584044755, 7797519.939323625527322 ], [ 6048378.1908861361444, 7797524.822161527350545 ], [ 6048376.744032585993409, 7797527.391097942367196 ], [ 6048368.100198302417994, 7797542.723841741681099 ], [ 6048362.337006810121238, 7797554.133367819711566 ], [ 6048352.00747097749263, 7797574.600465903058648 ], [ 6048345.124583880417049, 7797588.244983721524477 ], [ 6048335.191082060337067, 7797616.028345474973321 ], [ 6048322.266668668016791, 7797637.580630149692297 ], [ 6048312.261050563305616, 7797664.131807906553149 ], [ 6048297.353799764998257, 7797694.904618926346302 ], [ 6048292.71663682628423, 7797700.95406009349972 ], [ 6048280.659731794148684, 7797716.678114462643862 ], [ 6048263.010221496224403, 7797743.677925019524992 ], [ 6048250.229554830119014, 7797767.694357356056571 ], [ 6048230.066895859315991, 7797794.841605696827173 ], [ 6048217.220657827332616, 7797817.737850897014141 ], [ 6048175.422345021739602, 7797848.627640476450324 ], [ 6048159.833868895657361, 7797867.750855173915625 ], [ 6048151.005673786625266, 7797892.883875817060471 ], [ 6048151.189001431688666, 7797917.600380847230554 ], [ 6048154.258430954068899, 7797971.93261088989675 ], [ 6048153.159004447981715, 7797998.073156520724297 ], [ 6048147.098906845785677, 7798025.628796096891165 ], [ 6048138.198505332693458, 7798049.529626211151481 ], [ 6048126.785010816529393, 7798073.577920040115714 ], [ 6048117.963050175458193, 7798098.822866033762693 ], [ 6048106.59525659121573, 7798125.453550827689469 ], [ 6048100.613458609208465, 7798154.353269412182271 ], [ 6048102.020315539091825, 7798180.234286176040769 ], [ 6048102.353852622210979, 7798207.527042590081692 ], [ 6048107.785493738017976, 7798235.757004389539361 ], [ 6048114.390122771263123, 7798240.359848618507385 ], [ 6048131.882063065655529, 7798252.551245053298771 ], [ 6048155.723455320112407, 7798266.775330668315291 ], [ 6048178.157834519632161, 7798278.496849120594561 ], [ 6048200.51371418684721, 7798288.874201891943812 ], [ 6048220.664096243679523, 7798304.663616409525275 ], [ 6048244.427081413567066, 7798317.543499514460564 ], [ 6048270.807897049933672, 7798330.269741002470255 ], [ 6048316.357602656818926, 7798341.983391627669334 ], [ 6048325.487183568067849, 7798345.38149225153029 ], [ 6048347.947929897345603, 7798355.752601630985737 ], [ 6048372.51602837536484, 7798360.829743876121938 ], [ 6048398.445400609634817, 7798365.826966066844761 ], [ 6048445.480906119570136, 7798381.387102231383324 ], [ 6048471.711407596245408, 7798391.536862507462502 ], [ 6048495.173585211858153, 7798399.263945490121841 ], [ 6048518.819039695896208, 7798408.329024210572243 ], [ 6048520.760806462727487, 7798408.833235710859299 ], [ 6048543.465808002278209, 7798414.750161659903824 ], [ 6048569.624407511204481, 7798423.667683262377977 ], [ 6048590.371357265859842, 7798433.296239951625466 ], [ 6048591.980668548494577, 7798434.044757565483451 ], [ 6048604.963140659034252, 7798439.363409353420138 ], [ 6048644.697709871456027, 7798394.173521794378757 ], [ 6048667.387558126822114, 7798391.740015866234899 ], [ 6048752.341784939169884, 7798440.344112234190106 ], [ 6048771.823724828660488, 7798446.48376458324492 ], [ 6048815.677593998610973, 7798452.361444845795631 ], [ 6048819.014022524468601, 7798452.997306729666889 ], [ 6048844.309218293987215, 7798393.930282039567828 ], [ 6048867.522152067162097, 7798351.37314579449594 ], [ 6048886.492087272927165, 7798329.161993067711592 ], [ 6049035.845626689493656, 7798228.246406738646328 ], [ 6049044.517901509068906, 7798217.171531135216355 ], [ 6049046.431391937658191, 7798214.496442027390003 ], [ 6049047.692064873874187, 7798219.345497431233525 ], [ 6049047.793068681843579, 7798224.487460600212216 ], [ 6049057.706363520585001, 7798233.200677294284105 ], [ 6049078.169750927016139, 7798250.555989189073443 ], [ 6049116.058499773964286, 7798281.645929639227688 ], [ 6049134.587340837344527, 7798254.233647312968969 ], [ 6049154.79430777952075, 7798217.427284054458141 ], [ 6049264.155178399756551, 7798241.733611351810396 ], [ 6049340.711725564673543, 7798260.267176834866405 ], [ 6049364.577252157963812, 7798222.245081359520555 ], [ 6049382.820003509521484, 7798200.907521493732929 ], [ 6049468.527340387925506, 7798135.894923399202526 ], [ 6049464.927453042007983, 7798129.497270907275379 ], [ 6049463.454134337604046, 7798127.122259747236967 ], [ 6049478.65893601346761, 7798128.218367584049702 ], [ 6049487.477428614161909, 7798116.59500446356833 ], [ 6049487.920829767361283, 7798112.140355003997684 ], [ 6049500.690576231107116, 7798115.256614871323109 ], [ 6049511.122282908298075, 7798122.410564553923905 ], [ 6049530.306860221549869, 7798133.883440162986517 ], [ 6049545.225597510114312, 7798142.841904970817268 ], [ 6049586.136838575825095, 7798167.391704628244042 ], [ 6049598.978592888452113, 7798152.519494080916047 ], [ 6049614.234649889171124, 7798138.685602089390159 ], [ 6049633.769408614374697, 7798107.650115124881268 ], [ 6049643.339468693360686, 7798092.531730881892145 ], [ 6049653.858979114331305, 7798075.862595831975341 ], [ 6049675.753962685354054, 7798050.870365526527166 ], [ 6049689.887574451975524, 7798038.327477897517383 ], [ 6049705.351942652836442, 7798029.314449844881892 ], [ 6049721.689367034472525, 7798020.857057397253811 ], [ 6049741.694953639060259, 7798012.779776201583445 ], [ 6049772.536394698545337, 7797993.263749909587204 ], [ 6049799.753729747608304, 7797969.453341625630856 ], [ 6049841.972895442508161, 7797947.762154184281826 ], [ 6049868.317623617127538, 7797923.407124098390341 ], [ 6049886.717880909331143, 7797897.417123196646571 ], [ 6049903.274254329502583, 7797868.82657703384757 ], [ 6049955.01325418241322, 7797798.860417659394443 ], [ 6049977.636916887015104, 7797773.228853404521942 ], [ 6050027.306279027834535, 7797730.383022028952837 ], [ 6050054.966173713095486, 7797704.455134178511798 ], [ 6050073.18797813821584, 7797680.27362173050642 ], [ 6050098.401507280766964, 7797660.480528730899096 ], [ 6050153.096772953867912, 7797617.349731117486954 ], [ 6050184.339138768613338, 7797585.50068954564631 ], [ 6050193.298416613601148, 7797566.067534263245761 ], [ 6050193.893455457873642, 7797557.029029089026153 ], [ 6050194.462974518537521, 7797542.888911248184741 ], [ 6050195.863562857732177, 7797528.407665334641933 ], [ 6050206.628543620929122, 7797515.769848290830851 ], [ 6050216.548140557482839, 7797504.305773193016648 ], [ 6050217.57021838799119, 7797503.278989332728088 ], [ 6050218.514617080800235, 7797508.821136185899377 ], [ 6050224.544713863171637, 7797540.928594972938299 ], [ 6050224.512106898240745, 7797567.289125287905335 ], [ 6050247.107454624958336, 7797577.076893380843103 ], [ 6050262.57137168571353, 7797585.654236489906907 ], [ 6050351.464898228645325, 7797542.152158113196492 ], [ 6050427.287931334227324, 7797508.882768389768898 ], [ 6050503.587888350710273, 7797476.585267586633563 ], [ 6050543.566849573515356, 7797460.272537896409631 ], [ 6050578.06437898054719, 7797527.427901925519109 ], [ 6050619.952160267159343, 7797553.03086743503809 ], [ 6050683.204741893336177, 7797593.057221151888371 ], [ 6050691.3818383757025, 7797597.409505152143538 ], [ 6050698.602381521835923, 7797603.189411118626595 ], [ 6050737.176422293297946, 7797557.149159769527614 ], [ 6050811.266705951653421, 7797451.80436151381582 ], [ 6050887.694319671951234, 7797340.464891066774726 ], [ 6050948.328857290558517, 7797261.93254320230335 ], [ 6051047.426790783181787, 7797138.926857968792319 ], [ 6051211.063537819311023, 7796935.424541123211384 ], [ 6051390.435472822748125, 7796698.258892391808331 ], [ 6051481.20227971766144, 7796570.556330712512136 ], [ 6051515.551886839792132, 7796524.592442274093628 ], [ 6051614.477359004318714, 7796395.058668619953096 ], [ 6051695.341275677084923, 7796289.170897661708295 ], [ 6051785.561010402627289, 7796171.040304765105247 ], [ 6051893.301105706952512, 7796029.956011787056923 ], [ 6051982.551193492487073, 7795913.082996528595686 ], [ 6052114.871510721743107, 7795739.791009560227394 ], [ 6052228.019331159070134, 7795591.6159353479743 ], [ 6052327.360108967870474, 7795461.508720591664314 ], [ 6052401.900890075601637, 7795363.87759686075151 ], [ 6052480.480125982314348, 7795260.971416557207704 ], [ 6052207.356416293419898, 7795263.157039687037468 ], [ 6052153.542298407293856, 7795259.328233268111944 ], [ 6052108.937913121655583, 7795248.278892455622554 ], [ 6052016.942551943473518, 7795224.343434758484364 ], [ 6051917.195078746415675, 7795194.873403209261596 ], [ 6051847.14570886362344, 7795180.052209995687008 ], [ 6051692.579971352592111, 7795153.251902570948005 ], [ 6051633.444458897225559, 7795146.633132485672832 ], [ 6051595.882643327116966, 7795151.568068043328822 ], [ 6051583.852681210264564, 7795161.393674090504646 ], [ 6051537.326426575891674, 7795309.660639582201838 ], [ 6051501.204343977384269, 7795453.356994481757283 ], [ 6051503.007206712849438, 7795473.517929263412952 ], [ 6051521.228757590986788, 7795516.923817211762071 ], [ 6051545.461624535731971, 7795581.490352304652333 ], [ 6051546.187751868739724, 7795605.502935318276286 ], [ 6051538.490039397031069, 7795613.611665890552104 ], [ 6051518.372562856413424, 7795619.181348085403442 ], [ 6051471.39915537647903, 7795625.951679948717356 ], [ 6051336.107212028466165, 7795660.543181989341974 ], [ 6051251.960909008979797, 7795684.093901364132762 ], [ 6051186.325423719361424, 7795706.744566069915891 ], [ 6051149.110690837725997, 7795726.573897550813854 ], [ 6051124.150698246434331, 7795743.264367709867656 ], [ 6051106.88423746638, 7795755.353707051835954 ], [ 6051093.994886236265302, 7795765.049417465925217 ], [ 6051029.182020802982152, 7795804.601728180423379 ], [ 6050998.798072636127472, 7795834.324606474488974 ], [ 6050910.333521414548159, 7795971.129446061328053 ], [ 6050867.420997039414942, 7796050.047971365973353 ], [ 6050855.177025285549462, 7796071.833929388783872 ], [ 6050855.709466362372041, 7796133.243662476539612 ], [ 6050846.092195292934775, 7796149.479404764249921 ], [ 6050839.359428707510233, 7796159.542795514687896 ], [ 6050828.165669768117368, 7796201.039014033973217 ], [ 6050832.965980439446867, 7796155.501744562759995 ], [ 6050847.574110656045377, 7796076.193403801880777 ], [ 6050827.291224083863199, 7795989.531447159126401 ], [ 6050774.496129684150219, 7795959.37976293079555 ], [ 6050677.952527259476483, 7795982.780114941298962 ], [ 6050588.923545097000897, 7795980.064061120152473 ], [ 6050582.960460295900702, 7796010.787023002281785 ], [ 6050630.709298089146614, 7796106.30766096431762 ], [ 6050625.043670888058841, 7796210.042770782485604 ], [ 6050626.934336628764868, 7796265.24603820219636 ], [ 6050606.686857105232775, 7796311.995852939784527 ], [ 6050564.07436223141849, 7796358.971847584471107 ], [ 6050518.9653205787763, 7796396.337848035618663 ], [ 6050433.765226017683744, 7796434.613360138610005 ], [ 6050412.681591252796352, 7796442.36251144297421 ], [ 6050394.643712089397013, 7796470.536085976287723 ], [ 6050357.32683964073658, 7796491.177870997227728 ], [ 6050311.962710804305971, 7796522.769174071028829 ], [ 6050275.758651630021632, 7796550.9324682475999 ], [ 6050240.002728729508817, 7796575.090167549438775 ], [ 6050224.394758028909564, 7796590.947051420807838 ], [ 6050192.516722784377635, 7796586.786727976053953 ], [ 6050157.917470818385482, 7796589.260916390456259 ], [ 6050141.184202065691352, 7796590.391599498689175 ], [ 6050129.880356890149415, 7796591.124132654629648 ], [ 6050126.165711674839258, 7796589.049661757424474 ], [ 6050116.026861011981964, 7796582.407420482486486 ], [ 6050094.007086277939379, 7796568.438606172800064 ], [ 6050081.831605553627014, 7796560.567346107214689 ], [ 6050058.063254985958338, 7796541.676971320062876 ], [ 6050029.526611309498549, 7796519.76247644238174 ], [ 6050005.945030554197729, 7796432.845995187759399 ], [ 6049996.852711615152657, 7796413.755364555865526 ], [ 6049971.046036097221076, 7796359.701644340530038 ], [ 6049954.336345785297453, 7796303.831339840777218 ], [ 6049935.660018119029701, 7796233.756643613800406 ], [ 6049918.643359545618296, 7796169.058360281400383 ], [ 6049862.295268475078046, 7795960.921642183326185 ], [ 6049566.55775997415185, 7796120.104268170893192 ], [ 6049559.349245483987033, 7796101.599818564020097 ] ] ] } },
{ "type": "Feature", "properties": { "lv_id": "LOC_038157", "id": 180666.0, "CD_SETOR": "311787605000008", "SITUACAO": "Rural", "CD_SIT": "8", "CD_TIPO": "0", "AREA_KM2": 4.6233609606537547, "CD_REGIAO": "3", "NM_REGIAO": "Sudeste", "CD_UF": "31", "NM_UF": "Minas Gerais", "CD_MUN": "3117876", "NM_MUN": "Confins", "CD_DIST": "311787605", "NM_DIST": "Confins", "CD_SUBDIST": "31178760500", "NM_SUBDIST": null, "CD_BAIRRO": null, "NM_BAIRRO": null, "CD_NU": null, "NM_NU": null, "CD_FCU": null, "NM_FCU": null, "CD_AGLOM": null, "NM_AGLOM": null, "CD_RGINT": "3101", "NM_RGINT": "Belo Horizonte", "CD_RGI": "310001", "NM_RGI": "Belo Horizonte", "CD_CONCURB": "3106200", "NM_CONCURB": "Belo Horizonte/MG", "mun_code_x": "3117876", "index_right": 32068, "dist_m": 456.42122474638597, "local_id": 408655, "ano": 2022, "cod_localidade_ibge": 3117876, "NR_ZONA": "215", "nr_cep": 33500000.0, "nm_localidade": "CONFINS", "nm_locvot": "ESCOLA MUNICIPAL DE TAVARES", "ds_endereco": "RUA ANTONIO JOSÉ GONÇALVES, 05", "ds_bairro": "TAVARES", "pred_long": -43.97883, "pred_lat": -19.66297, "pred_dist": 0.027359979024810199, "tse_long": null, "tse_lat": null, "long": -43.97883, "lat": -19.66297, "ID_UNICO": "LOC_038157", "SG_UF": "MG", "CD_MUNICIPIO": "41920", "NR_LOCAL_VOTACAO": "1031", "QT_SECOES_AGREGADAS": 0, "QT_ELEITORES_TRANSFERIDOS": 2, "CIRO GOMES (PDT) (NÃO ELEITO) 1T": 43.0, "CONSTITUINTE EYMAEL (DC) (NÃO ELEITO) 1T": 0.0, "FELIPE D AVILA (NOVO) (NÃO ELEITO) 1T": 8.0, "JAIR BOLSONARO (PL) (2º TURNO) 1T": 777.0, "LULA (PT) (2º TURNO) 1T": 688.0, "LÉO PÉRICLES (UP) (NÃO ELEITO) 1T": 0.0, "PADRE KELMON (PTB) (NÃO ELEITO) 1T": 1.0, "SIMONE TEBET (MDB) (NÃO ELEITO) 1T": 59.0, "SOFIA MANZANO (PCB) (NÃO ELEITO) 1T": 0.0, "SORAYA THRONICKE (UNIÃO) (NÃO ELEITO) 1T": 6.0, "VERA (PSTU) (NÃO ELEITO) 1T": 2.0, "Total_Votos_Validos 1T": 1584.0, "Votos_Brancos 1T": 18.0, "Votos_Nulos 1T": 55.0, "Abstenções 1T": 267.0, "Eleitores_Aptos 1T": 1924.0, "JAIR BOLSONARO (PL) (NÃO ELEITO) 2T": 860.0, "LULA (PT) (ELEITO) 2T": 723.0, "Total_Votos_Validos 2T": 1583.0, "Votos_Brancos 2T": 13.0, "Votos_Nulos 2T": 41.0, "Abstenções 2T": 287.0, "Eleitores_Aptos 2T": 1924.0, "mun_code_y": "3117876", "mun_code": "3117876" }, "geometry": { "type": "Polygon", "coordinates": [ [ [ 6053394.557440822012722, 7794101.123698444105685 ], [ 6053721.247820058837533, 7794373.120435516349971 ], [ 6053899.918252072297037, 7794540.549319840967655 ], [ 6054045.301739173009992, 7794644.991257708519697 ], [ 6054057.455766403116286, 7794653.72711259033531 ], [ 6054077.07461011223495, 7794665.956322100013494 ], [ 6054083.029320688918233, 7794669.673837639391422 ], [ 6054108.286127919331193, 7794685.414439924061298 ], [ 6054245.926565090194345, 7794771.24771679751575 ], [ 6054259.714123409241438, 7794743.115240450948477 ], [ 6054272.482668481767178, 7794719.089999176561832 ], [ 6054280.836995096877217, 7794686.107459746301174 ], [ 6054289.573656493797898, 7794659.62251010350883 ], [ 6054297.126514883711934, 7794634.444122252054513 ], [ 6054305.863084305077791, 7794607.959141327999532 ], [ 6054317.039631422609091, 7794580.093286287039518 ], [ 6054326.521155751310289, 7794550.202929355204105 ], [ 6054327.938375569880009, 7794545.723604556173086 ], [ 6054342.830049430951476, 7794514.940003735013306 ], [ 6054345.101225535385311, 7794487.488202867098153 ], [ 6054306.621536894701421, 7794306.893600104376674 ], [ 6054317.292323086410761, 7794281.508237533271313 ], [ 6054340.378226701170206, 7794226.643458170816302 ], [ 6054425.271992939524353, 7794173.845328172668815 ], [ 6054486.67831482924521, 7794135.543742522597313 ], [ 6054622.580309698358178, 7794117.646020147018135 ], [ 6054729.851092259399593, 7794062.926245145499706 ], [ 6054852.175634359009564, 7794000.547136215493083 ], [ 6054916.37883791513741, 7793903.642063388600945 ], [ 6054916.292747577652335, 7793902.893945350311697 ], [ 6054911.228899714536965, 7793857.056529248133302 ], [ 6054909.498877600766718, 7793846.591448310762644 ], [ 6054907.778662542812526, 7793836.114545625634491 ], [ 6054734.968288220465183, 7793720.498158669099212 ], [ 6054724.874333111569285, 7793713.743215898983181 ], [ 6054525.674572137184441, 7793748.439929265528917 ], [ 6054460.514214131049812, 7793745.617014687508345 ], [ 6054377.50295742508024, 7793742.028630757704377 ], [ 6054243.212070814333856, 7793736.211725525557995 ], [ 6054237.535266285762191, 7793735.962904427200556 ], [ 6054230.983836814761162, 7793724.962478157132864 ], [ 6054211.014433067291975, 7793710.517500397749245 ], [ 6054200.744348760694265, 7793687.74206137098372 ], [ 6054188.955081365071237, 7793662.358459014445543 ], [ 6054168.761502185836434, 7793644.104553823359311 ], [ 6054150.969092075712979, 7793625.596218809485435 ], [ 6054140.737018890678883, 7793612.565143100917339 ], [ 6054117.809332790784538, 7793583.377352537587285 ], [ 6054101.074496946297586, 7793559.635285422205925 ], [ 6054095.52409078925848, 7793549.756061930209398 ], [ 6054086.877630088478327, 7793534.394118821248412 ], [ 6054074.968936895951629, 7793505.195450065657496 ], [ 6054056.789755281060934, 7793456.919478581286967 ], [ 6054044.079987628385425, 7793435.524993790313601 ], [ 6054027.793259099125862, 7793425.28024235367775 ], [ 6054021.38917398173362, 7793421.241000920534134 ], [ 6054005.942820290103555, 7793396.186193380504847 ], [ 6053987.77474351413548, 7793371.292359832674265 ], [ 6053964.87873191665858, 7793351.736905401572585 ], [ 6053944.758102889172733, 7793334.715315645560622 ], [ 6053924.150300526991487, 7793311.202363723888993 ], [ 6053909.934735300950706, 7793287.423801266588271 ], [ 6053901.468723388388753, 7793265.845838107168674 ], [ 6053897.947120639495552, 7793256.880903248675168 ], [ 6053891.471444216556847, 7793232.532206859439611 ], [ 6053887.2047398108989, 7793202.881710536777973 ], [ 6053883.248003976419568, 7793178.496468719094992 ], [ 6053879.132969380356371, 7793151.422592690214515 ], [ 6053872.584723403677344, 7793125.841624898836017 ], [ 6053861.434190945699811, 7793066.695454224944115 ], [ 6053858.339968141168356, 7793012.35640106163919 ], [ 6053855.481027087196708, 7792985.208254985511303 ], [ 6053852.878456550650299, 7792960.630529878661036 ], [ 6053850.098638219758868, 7792934.826707289554179 ], [ 6053844.806491306051612, 7792909.171482842415571 ], [ 6053843.808179330080748, 7792901.136534418910742 ], [ 6053790.419555896893144, 7792849.131480894051492 ], [ 6053783.180084021762013, 7792853.201953660696745 ], [ 6053771.192565131932497, 7792859.947710925713181 ], [ 6053757.148192661814392, 7792860.126332985237241 ], [ 6053743.114288505166769, 7792860.30432534404099 ], [ 6053735.208073973655701, 7792858.759666554629803 ], [ 6053724.666896575130522, 7792856.707585722208023 ], [ 6053712.202663289383054, 7792854.285842323675752 ], [ 6053684.110650487244129, 7792833.711307459510863 ], [ 6053652.59621453192085, 7792817.273722447454929 ], [ 6053602.964344000443816, 7792812.834348056465387 ], [ 6053599.775333305820823, 7792812.550787626765668 ], [ 6053598.183308917097747, 7792813.521777244284749 ], [ 6053573.831370536237955, 7792828.462969344109297 ], [ 6053538.67913909163326, 7792854.081469169817865 ], [ 6053495.089118681848049, 7792881.974929979071021 ], [ 6053475.207879038527608, 7792894.706769283860922 ], [ 6053435.881290419958532, 7792912.050668694078922 ], [ 6053391.650942147709429, 7792935.316361606121063 ], [ 6053353.962230802513659, 7792950.685837831348181 ], [ 6053341.449733533896506, 7792952.976882677525282 ], [ 6053331.401010108180344, 7792954.829987125471234 ], [ 6053325.704276191070676, 7792954.773309983313084 ], [ 6053304.199712753295898, 7792954.56070775911212 ], [ 6053265.036216508597136, 7792959.686217283830047 ], [ 6053253.898604841902852, 7792964.099248107522726 ], [ 6053232.767755998298526, 7792977.556565886363387 ], [ 6053223.269563756883144, 7792995.013922684825957 ], [ 6053221.687554512172937, 7793012.936383478343487 ], [ 6053213.992189506068826, 7793031.220195455476642 ], [ 6053197.896670089103281, 7793055.632472259923816 ], [ 6053184.459560721181333, 7793059.349471238441765 ], [ 6053172.00438919570297, 7793062.794832514598966 ], [ 6053149.992744204588234, 7793061.285471355542541 ], [ 6053096.048431884497404, 7793027.118518608622253 ], [ 6053058.004939488135278, 7793008.075725836679339 ], [ 6053047.279166619293392, 7793002.70671861153096 ], [ 6053011.769383128732443, 7792993.518975203856826 ], [ 6052985.139434937387705, 7792990.641167115420103 ], [ 6052958.51499610953033, 7793000.713058565743268 ], [ 6052934.596907469443977, 7793005.364010363817215 ], [ 6052926.071717300452292, 7793008.295931482687593 ], [ 6052897.043782191351056, 7793016.081604165956378 ], [ 6052841.651551293209195, 7793038.363839324563742 ], [ 6052822.292889016680419, 7793047.489037606865168 ], [ 6052774.940403017215431, 7793059.302414711564779 ], [ 6052738.519754610955715, 7793071.953624105080962 ], [ 6052716.157174066640437, 7793080.907662140205503 ], [ 6052676.416885664686561, 7793092.484565833583474 ], [ 6052647.476627733558416, 7793100.871575514785945 ], [ 6052634.033607380464673, 7793104.847004415467381 ], [ 6052584.207124216482043, 7793111.927209072746336 ], [ 6052572.749237818643451, 7793112.862594325095415 ], [ 6052542.49539503455162, 7793115.346660502254963 ], [ 6052518.301546358503401, 7793118.169677533209324 ], [ 6052487.577712185680866, 7793121.771806440316141 ], [ 6052445.428598769009113, 7793127.75736796297133 ], [ 6052371.851459035649896, 7793140.376478912308812 ], [ 6052342.16765923332423, 7793146.839615515433252 ], [ 6052315.78240888286382, 7793152.590801758691669 ], [ 6052274.648812154307961, 7793155.660692177712917 ], [ 6052265.792996357195079, 7793161.905400298535824 ], [ 6052251.488917760550976, 7793176.430557492189109 ], [ 6052226.168687164783478, 7793190.650704398751259 ], [ 6052211.090217676013708, 7793192.181828236207366 ], [ 6052201.922900322824717, 7793187.9456742182374 ], [ 6052193.534093979746103, 7793181.763799356296659 ], [ 6052180.811298316344619, 7793177.085601612925529 ], [ 6052150.805698954500258, 7793175.395090185105801 ], [ 6052104.53820464015007, 7793172.079258678480983 ], [ 6052071.97286178637296, 7793167.943078834563494 ], [ 6052039.397068553604186, 7793163.807467607781291 ], [ 6052014.927064822055399, 7793173.907793452963233 ], [ 6051996.311948645859957, 7793187.113417200744152 ], [ 6051971.537727631628513, 7793192.038255209103227 ], [ 6051952.614036930724978, 7793186.230949277058244 ], [ 6051951.858355560339987, 7793186.24183807335794 ], [ 6051936.452871751971543, 7793186.319462764076889 ], [ 6051902.569139214232564, 7793187.454180442728102 ], [ 6051874.783932185731828, 7793196.018855437636375 ], [ 6051842.867086367681623, 7793203.096247717738152 ], [ 6051814.574976443313062, 7793203.035164093598723 ], [ 6051785.826712975278497, 7793195.210961515083909 ], [ 6051732.447841214947402, 7793167.224145060405135 ], [ 6051679.683567149564624, 7793135.750015327706933 ], [ 6051672.774899223819375, 7793114.530190953984857 ], [ 6051650.604191953316331, 7793067.401517502963543 ], [ 6051636.16335919033736, 7793045.457218359224498 ], [ 6051617.938212945125997, 7793017.744864534586668 ], [ 6051606.191378279589117, 7792996.77690802142024 ], [ 6051583.349290369078517, 7792965.75121558085084 ], [ 6051557.402101242914796, 7792925.32029782794416 ], [ 6051542.548742223531008, 7792890.810561642050743 ], [ 6051537.517995441332459, 7792866.152657281607389 ], [ 6051523.408150751143694, 7792839.827406914904714 ], [ 6051514.946981675922871, 7792822.217699004337192 ], [ 6051512.987540647387505, 7792788.869169207289815 ], [ 6051507.812739635817707, 7792773.201272746548057 ], [ 6051502.687709733843803, 7792757.665332090109587 ], [ 6051488.440360864624381, 7792742.049572344869375 ], [ 6051469.793705123476684, 7792716.81272479891777 ], [ 6051446.952591685578227, 7792685.798333909362555 ], [ 6051425.989522688090801, 7792677.986698977649212 ], [ 6051382.878533195704222, 7792677.237540758214891 ], [ 6051335.01809854246676, 7792687.188852597028017 ], [ 6051316.978437737561762, 7792685.510707375593483 ], [ 6051296.959940178319812, 7792667.492735140025616 ], [ 6051273.003700002096593, 7792648.065981494262815 ], [ 6051246.534267347306013, 7792616.433866553939879 ], [ 6051235.732374298386276, 7792585.259789159521461 ], [ 6051212.063072634860873, 7792553.192674297839403 ], [ 6051192.689240075647831, 7792520.04026204161346 ], [ 6051132.250834612175822, 7792472.86588289309293 ], [ 6051111.628975216299295, 7792453.512151998467743 ], [ 6051098.278554832562804, 7792426.87245249375701 ], [ 6051088.42874847445637, 7792403.319736877456307 ], [ 6051069.288517723791301, 7792352.325729671865702 ], [ 6051053.897993629798293, 7792334.585496921092272 ], [ 6051040.542599197477102, 7792312.330031547695398 ], [ 6051022.505207809619606, 7792275.816552774980664 ], [ 6051005.634055430069566, 7792246.102374211885035 ], [ 6050984.400749430060387, 7792207.574332797899842 ], [ 6050960.368924120441079, 7792173.617826188914478 ], [ 6050952.863024246878922, 7792137.573293285444379 ], [ 6050944.092628014273942, 7792119.161431132815778 ], [ 6050932.341627147048712, 7792106.691961927339435 ], [ 6050904.5981753943488, 7792096.807358007878065 ], [ 6050888.684517286717892, 7792079.098046246916056 ], [ 6050884.371733086183667, 7792071.124329401180148 ], [ 6050875.360557720996439, 7792048.612588860094547 ], [ 6050855.535665031522512, 7792033.876820402219892 ], [ 6050836.626026837155223, 7792030.608768988400698 ], [ 6050811.741444738581777, 7792025.759863570332527 ], [ 6050781.294941505417228, 7792017.956832645460963 ], [ 6050772.880025036633015, 7792023.118241625837982 ], [ 6050761.296092318370938, 7792026.544471302069724 ], [ 6050757.059221402741969, 7792024.33275262452662 ], [ 6050739.648100692778826, 7791998.472358055412769 ], [ 6050722.82044281065464, 7791978.074235878884792 ], [ 6050697.167417662218213, 7791977.665674136951566 ], [ 6050678.637444246560335, 7791980.681119833141565 ], [ 6050655.9268131935969, 7791993.171777723357081 ], [ 6050654.054755294695497, 7791994.20396096073091 ], [ 6050624.507994617335498, 7792010.481317196041346 ], [ 6050604.958426371216774, 7792026.719604606740177 ], [ 6050582.416761176660657, 7792040.121879336424172 ], [ 6050554.488819492980838, 7792057.674907460808754 ], [ 6050530.579518401995301, 7792082.668143497779965 ], [ 6050512.981868550181389, 7792119.091636629775167 ], [ 6050493.294921146705747, 7792154.817747793160379 ], [ 6050458.661271463148296, 7792176.059517635963857 ], [ 6050415.402388880029321, 7792181.353704730980098 ], [ 6050397.181893629021943, 7792181.057000987231731 ], [ 6050366.916839122772217, 7792171.871212927624583 ], [ 6050331.061554305255413, 7792141.894103217869997 ], [ 6050306.003071427345276, 7792090.42903320863843 ], [ 6050301.164860745891929, 7792047.382107915356755 ], [ 6050301.880224172025919, 7792037.740497920662165 ], [ 6050296.097219048067927, 7792017.781161443330348 ], [ 6050258.243760518729687, 7791988.472758397459984 ], [ 6050230.778315687552094, 7791965.959192084148526 ], [ 6050228.130597837269306, 7791929.628628490492702 ], [ 6050246.117434756830335, 7791900.904870906844735 ], [ 6050254.865624653175473, 7791873.332956934347749 ], [ 6050266.785857973620296, 7791845.045624350197613 ], [ 6050268.326060685329139, 7791841.402771452441812 ], [ 6050281.009929858148098, 7791815.925460456870496 ], [ 6050290.701989049091935, 7791784.217484043911099 ], [ 6050295.520972859114408, 7791755.382253248244524 ], [ 6050301.563671985641122, 7791727.711287315934896 ], [ 6050306.461507968604565, 7791700.220247076824307 ], [ 6050312.431763685308397, 7791671.317067880183458 ], [ 6050314.857434168457985, 7791646.444760639220476 ], [ 6050312.002843335270882, 7791619.298609716817737 ], [ 6050305.537928578443825, 7791595.063172512687743 ], [ 6050296.825137857347727, 7791591.035968990065157 ], [ 6050280.490960072726011, 7791583.501681735739112 ], [ 6050254.944441208615899, 7791584.896259185858071 ], [ 6050234.191690098494291, 7791601.744767520576715 ], [ 6050210.434005542658269, 7791612.138572916388512 ], [ 6050184.894023208878934, 7791613.645051176659763 ], [ 6050162.12903936766088, 7791598.014651481062174 ], [ 6050140.882680124603212, 7791584.992391248233616 ], [ 6050129.361418331973255, 7791562.291712198406458 ], [ 6050107.884906378574669, 7791545.348851444199681 ], [ 6050088.946288764476776, 7791526.90743944235146 ], [ 6050072.421720096841455, 7791508.436048917472363 ], [ 6050059.637906522490084, 7791485.697455728426576 ], [ 6050043.218053545802832, 7791467.219896486960351 ], [ 6050025.509847989305854, 7791450.054778441786766 ], [ 6050002.928731359541416, 7791435.762369411066175 ], [ 6049978.335945472121239, 7791431.929812440648675 ], [ 6049971.037067233584821, 7791459.674576722085476 ], [ 6049972.754138163290918, 7791490.709350327029824 ], [ 6049982.677237462252378, 7791529.128482408821583 ], [ 6049995.835815254598856, 7791558.252047001384199 ], [ 6050006.100843138992786, 7791581.026806264184415 ], [ 6049990.746993871405721, 7791603.963584281504154 ], [ 6049966.693255797028542, 7791609.316268985159695 ], [ 6049940.113710641860962, 7791591.325358329340816 ], [ 6049921.149493813514709, 7791574.234205406159163 ], [ 6049897.233397177420557, 7791558.671512084081769 ], [ 6049871.312096416018903, 7791553.680639080703259 ], [ 6049844.285991283133626, 7791551.340178621932864 ], [ 6049819.923252153210342, 7791551.427925657480955 ], [ 6049790.812969676218927, 7791558.315003328025341 ], [ 6049762.760944282636046, 7791559.969053061679006 ], [ 6049737.944526121020317, 7791552.327583097852767 ], [ 6049726.265980051830411, 7791526.938516122289002 ], [ 6049732.388157866895199, 7791500.612287258729339 ], [ 6049740.058763248845935, 7791494.045241832733154 ], [ 6049756.790446141734719, 7791479.727586636319757 ], [ 6049777.654648836702108, 7791462.985588090494275 ], [ 6049786.465785231441259, 7791437.737169066444039 ], [ 6049781.178648254834116, 7791412.083642825484276 ], [ 6049761.109870390966535, 7791397.642919296398759 ], [ 6049732.295346831902862, 7791386.303182749077678 ], [ 6049726.771095359697938, 7791385.77465788833797 ], [ 6049698.812267867848277, 7791383.106955057010055 ], [ 6049674.219635551795363, 7791379.274063224904239 ], [ 6049647.042594727128744, 7791374.357088442891836 ], [ 6049620.063342363573611, 7791374.598975578323007 ], [ 6049592.011610547080636, 7791376.25289536640048 ], [ 6049563.650875384919345, 7791372.642038919962943 ], [ 6049531.917340781539679, 7791356.303636681288481 ], [ 6049511.546396563760936, 7791336.710056804120541 ], [ 6049500.900655591860414, 7791307.438481098040938 ], [ 6049483.712264776229858, 7791275.854972017928958 ], [ 6049458.358091619797051, 7791252.958304915577173 ], [ 6049451.436839454807341, 7791246.700856909155846 ], [ 6049441.144291987642646, 7791237.404960555955768 ], [ 6049431.02908546384424, 7791228.267213061451912 ], [ 6049407.390354253351688, 7791219.207348976284266 ], [ 6049380.44370889198035, 7791218.210661234334111 ], [ 6049359.68424947373569, 7791234.946012768894434 ], [ 6049349.695639033801854, 7791284.87955205515027 ], [ 6049348.67622144985944, 7791312.253456372767687 ], [ 6049347.80796174891293, 7791342.20370430033654 ], [ 6049336.858924076892436, 7791373.984589571133256 ], [ 6049322.760639948770404, 7791396.846478380262852 ], [ 6049300.337764285504818, 7791408.509161813184619 ], [ 6049267.078236750327051, 7791409.120685899630189 ], [ 6049242.189940135926008, 7791400.246590998023748 ], [ 6049220.865585436113179, 7791385.879526538774371 ], [ 6049198.357506521046162, 7791372.81864289008081 ], [ 6049172.134376475587487, 7791362.674347091466188 ], [ 6049147.652835911139846, 7791382.213878021575511 ], [ 6049132.074821681715548, 7791401.341041358187795 ], [ 6049115.313000025227666, 7791421.77435627579689 ], [ 6049102.398142475634813, 7791443.329753738828003 ], [ 6049092.474581534974277, 7791471.115744600072503 ], [ 6049079.743153402581811, 7791494.009101109579206 ], [ 6049064.467170195654035, 7791518.288788169622421 ], [ 6049055.648376500234008, 7791543.42436945810914 ], [ 6049053.293365956284106, 7791569.527880186215043 ], [ 6049042.015385476872325, 7791597.50596765615046 ], [ 6049036.424309768714011, 7791632.904646447859704 ], [ 6049036.883555154316127, 7791664.012775704264641 ], [ 6049051.250174253247678, 7791690.479836216196418 ], [ 6049043.838326456025243, 7791718.117682905867696 ], [ 6049028.489664716646075, 7791741.165069961920381 ], [ 6049008.386450588703156, 7791770.899413853883743 ], [ 6048990.137900757603347, 7791787.485894542187452 ], [ 6048974.559133377857506, 7791806.612683191895485 ], [ 6048960.380926650948822, 7791828.129756269976497 ], [ 6048940.803906531073153, 7791843.557983529753983 ], [ 6048917.130582939833403, 7791855.405845550820231 ], [ 6048892.918587102554739, 7791858.068521101027727 ], [ 6048868.622235735878348, 7791836.007955282926559 ], [ 6048856.997961459681392, 7791813.313331324607134 ], [ 6048834.568643305450678, 7791801.596057846210897 ], [ 6048810.054569606669247, 7791799.106023935601115 ], [ 6048782.002160968258977, 7791800.758397120982409 ], [ 6048760.038095200434327, 7791820.260991463437676 ], [ 6048755.091417070478201, 7791845.168048133142292 ], [ 6048747.534433842636645, 7791870.341238118708134 ], [ 6048737.844907119870186, 7791925.426107765175402 ], [ 6048762.1101114731282, 7791949.107216634787619 ], [ 6048786.402990370988846, 7791967.706193510442972 ], [ 6048803.085965507663786, 7791980.481423959136009 ], [ 6048811.512455145828426, 7791995.215393982827663 ], [ 6048810.41660631634295, 7792029.550868457183242 ], [ 6048800.11066612880677, 7792058.718828229233623 ], [ 6048776.559952173382044, 7792150.059909757226706 ], [ 6048763.716471084393561, 7792181.276780402287841 ], [ 6048756.763699008151889, 7792206.908864315599203 ], [ 6048747.54706821963191, 7792231.730085266754031 ], [ 6048736.689456421881914, 7792259.01956407353282 ], [ 6048723.039373734034598, 7792276.481074994429946 ], [ 6048706.58638347312808, 7792284.115235297009349 ], [ 6048693.315180882811546, 7792292.989501418545842 ], [ 6048688.558666042052209, 7792310.3993517216295 ], [ 6048688.614426438696682, 7792326.581679155118763 ], [ 6048679.586373553611338, 7792347.097993532195687 ], [ 6048667.867066184058785, 7792359.691192590631545 ], [ 6048666.181324288249016, 7792376.448126893490553 ], [ 6048669.396225545555353, 7792385.779114892706275 ], [ 6048668.044002348557115, 7792408.226329580880702 ], [ 6048665.139791245572269, 7792426.954559766687453 ], [ 6048669.961805046536028, 7792440.945446986705065 ], [ 6048665.307181279174984, 7792480.525764418765903 ], [ 6048657.693484866060317, 7792495.068979114294052 ], [ 6048647.997528695501387, 7792526.774598134681582 ], [ 6048644.588732845149934, 7792558.222449550405145 ], [ 6048642.710432296618819, 7792564.88594182766974 ], [ 6048664.591220676898956, 7792592.147329276427627 ], [ 6048664.32269231043756, 7792633.08794463891536 ], [ 6048659.96215701662004, 7792649.552719984203577 ], [ 6048657.407935502007604, 7792659.200878789648414 ], [ 6048647.628868265077472, 7792682.144143540412188 ], [ 6048626.969434523954988, 7792724.296333488076925 ], [ 6048607.305489894933999, 7792745.438546392135322 ], [ 6048609.534140161238611, 7792790.997827161103487 ], [ 6048602.057038224302232, 7792830.463116680271924 ], [ 6048609.765291469171643, 7792870.945342557504773 ], [ 6048617.174855204299092, 7792913.142394987866282 ], [ 6048618.451369238086045, 7792920.406956199556589 ], [ 6048621.799562849104404, 7792939.722461424767971 ], [ 6048628.810154900886118, 7792954.854689790867269 ], [ 6048634.029978603124619, 7792966.135856924578547 ], [ 6048633.561259646899998, 7792996.140445156022906 ], [ 6048636.02543162368238, 7793007.898532886058092 ], [ 6048650.25455366820097, 7793023.426411776803434 ], [ 6048657.19886652380228, 7793044.418583868071437 ], [ 6048631.267418152652681, 7793077.281903877854347 ], [ 6048622.903604801744223, 7793100.186658280901611 ], [ 6048619.572455178946257, 7793109.30724557582289 ], [ 6048595.510714860633016, 7793149.703553544357419 ], [ 6048570.823409534990788, 7793179.424919510260224 ], [ 6048560.460439743474126, 7793197.614052319899201 ], [ 6048557.564334772527218, 7793240.518731454387307 ], [ 6048556.289386025629938, 7793260.533407658338547 ], [ 6048545.613954478874803, 7793273.390676279552281 ], [ 6048527.240050634369254, 7793276.764857059344649 ], [ 6048494.253459649160504, 7793267.207511175423861 ], [ 6048460.546306315809488, 7793260.05290549620986 ], [ 6048451.337411133572459, 7793263.517152421176434 ], [ 6048433.997773643583059, 7793270.022511193528771 ], [ 6048413.269313200376928, 7793294.171552591025829 ], [ 6048405.800034029409289, 7793325.18352613504976 ], [ 6048408.162622633390129, 7793353.324070193804801 ], [ 6048400.634557248093188, 7793377.415710724890232 ], [ 6048389.883753686212003, 7793394.908058451488614 ], [ 6048369.418779642321169, 7793399.169343904592097 ], [ 6048351.624656048603356, 7793412.445200135931373 ], [ 6048343.173685881309211, 7793426.699978994205594 ], [ 6048312.071054833009839, 7793432.452468542382121 ], [ 6048293.989285730756819, 7793447.81328396499157 ], [ 6048270.52967865485698, 7793491.342741693370044 ], [ 6048267.933420684188604, 7793495.080975325778127 ], [ 6048259.98763979319483, 7793506.484743688255548 ], [ 6048231.736792113631964, 7793511.968102072365582 ], [ 6048206.998765711672604, 7793504.251553832553327 ], [ 6048195.298794442787766, 7793511.818526390939951 ], [ 6048195.170761031098664, 7793513.219794109463692 ], [ 6048193.077613673172891, 7793534.878392362035811 ], [ 6048201.799974066205323, 7793549.65148725733161 ], [ 6048212.447769578546286, 7793586.184012047946453 ], [ 6048218.047566736117005, 7793607.547480234876275 ], [ 6048245.948880661278963, 7793644.886037452146411 ], [ 6048266.908364963717759, 7793673.461226131767035 ], [ 6048270.117888146080077, 7793716.073717312887311 ], [ 6048267.055963316932321, 7793758.14465715456754 ], [ 6048261.362404040060937, 7793786.129508590325713 ], [ 6048263.769011861644685, 7793815.031669531017542 ], [ 6048277.676558341830969, 7793833.681065807119012 ], [ 6048286.154003483243287, 7793855.75203624740243 ], [ 6048281.663263418711722, 7793876.652488800697029 ], [ 6048266.539158840663731, 7793898.942630212754011 ], [ 6048253.263608800247312, 7793937.376798769459128 ], [ 6048249.908706199377775, 7793968.708397421985865 ], [ 6048250.536301964893937, 7794003.829631647095084 ], [ 6048254.160855922847986, 7794016.755817900411785 ], [ 6048266.560652194544673, 7794057.917395805008709 ], [ 6048269.989458349533379, 7794079.880675273016095 ], [ 6048260.159609030000865, 7794107.198271790519357 ], [ 6048242.321407698094845, 7794131.940793193876743 ], [ 6048225.860736774280667, 7794143.609054753556848 ], [ 6048212.057865300215781, 7794145.409818193875253 ], [ 6048183.292621090076864, 7794148.405103851109743 ], [ 6048165.45121852401644, 7794148.689894730225205 ], [ 6048149.342643922194839, 7794129.765155255794525 ], [ 6048138.39704829081893, 7794125.822929022833705 ], [ 6048125.895457716658711, 7794131.908148189075291 ], [ 6048114.240970710292459, 7794152.465325244702399 ], [ 6048113.799558089114726, 7794181.534834911115468 ], [ 6048116.520612017251551, 7794240.226257918402553 ], [ 6048129.870839504525065, 7794260.841840444132686 ], [ 6048146.73443366587162, 7794268.257678924128413 ], [ 6048161.642206538468599, 7794291.074603786692023 ], [ 6048163.293241463601589, 7794331.485687736421824 ], [ 6048158.757344730198383, 7794351.624299554154277 ], [ 6048131.395220035687089, 7794360.111757904291153 ], [ 6048077.870391807518899, 7794360.965641284361482 ], [ 6048054.418575204908848, 7794359.624336543492973 ], [ 6048011.931555347517133, 7794357.199036648496985 ], [ 6047974.069440904073417, 7794369.360679116100073 ], [ 6047940.212409164756536, 7794388.929792053997517 ], [ 6047922.026537760160863, 7794407.566422201693058 ], [ 6047900.93746517971158, 7794413.391818179748952 ], [ 6047934.598730340600014, 7794468.207426817156374 ], [ 6048024.84218362160027, 7794539.400370680727065 ], [ 6048033.762515068054199, 7794546.429113423451781 ], [ 6048038.598085200414062, 7794548.28041678480804 ], [ 6048057.089074401184916, 7794555.319794230163097 ], [ 6048062.461206922307611, 7794557.364347911439836 ], [ 6048080.372468920424581, 7794564.190515886992216 ], [ 6048143.926045840606093, 7794588.396515586413443 ], [ 6048281.179153934121132, 7794743.203325199894607 ], [ 6048372.875287297181785, 7794728.258426778949797 ], [ 6048445.436284005641937, 7794734.400139357894659 ], [ 6048582.725006517022848, 7794721.7974768076092 ], [ 6048633.382881718687713, 7794729.372651780955493 ], [ 6048675.229606181383133, 7794755.831958188675344 ], [ 6048747.20855793915689, 7794820.027485807426274 ], [ 6048805.262940446846187, 7794921.268379164859653 ], [ 6048835.553397953510284, 7794952.195201378315687 ], [ 6048992.936041299253702, 7795015.76231480576098 ], [ 6049208.30194531660527, 7795042.433336479589343 ], [ 6049212.592230712063611, 7795041.248002810403705 ], [ 6049220.967192843556404, 7795042.182776746340096 ], [ 6049224.196016858331859, 7795044.398197704926133 ], [ 6049232.633889091201127, 7795050.173749960958958 ], [ 6049233.859586179256439, 7795051.012086797505617 ], [ 6049234.799961580894887, 7795051.642407909035683 ], [ 6049236.637994651682675, 7795055.940390907227993 ], [ 6049276.535391270183027, 7795148.999149009585381 ], [ 6049334.061212428845465, 7795282.777963777072728 ], [ 6049350.007998041808605, 7795320.07870695181191 ], [ 6049353.636318631470203, 7795328.576349233277142 ], [ 6049368.66409023758024, 7795363.638192416168749 ], [ 6049382.239583488553762, 7795392.378610471263528 ], [ 6049396.229973012581468, 7795403.987132487818599 ], [ 6049427.308148962445557, 7795403.676146818324924 ], [ 6049446.519594340585172, 7795406.67100194003433 ], [ 6049444.257857070304453, 7795417.381058720871806 ], [ 6049446.027987837791443, 7795430.922467831522226 ], [ 6049452.700217300094664, 7795446.906829519197345 ], [ 6049477.104857631027699, 7795476.864792048931122 ], [ 6049514.131828730925918, 7795514.262981024570763 ], [ 6049531.619542954489589, 7795536.433823950588703 ], [ 6049543.336146535351872, 7795556.033008593134582 ], [ 6049550.753786776214838, 7795584.92223962303251 ], [ 6049552.246725972741842, 7795821.721296511590481 ], [ 6049551.626424890011549, 7795962.181342298164964 ], [ 6049548.94466654304415, 7796053.99147666990757 ], [ 6049559.349245483987033, 7796101.599818564020097 ], [ 6049566.55775997415185, 7796120.104268170893192 ], [ 6049862.295268475078046, 7795960.921642183326185 ], [ 6049918.643359545618296, 7796169.058360281400383 ], [ 6049935.660018119029701, 7796233.756643613800406 ], [ 6049954.336345785297453, 7796303.831339840777218 ], [ 6049971.046036097221076, 7796359.701644340530038 ], [ 6049996.852711615152657, 7796413.755364555865526 ], [ 6050005.945030554197729, 7796432.845995187759399 ], [ 6050029.526611309498549, 7796519.76247644238174 ], [ 6050058.063254985958338, 7796541.676971320062876 ], [ 6050081.831605553627014, 7796560.567346107214689 ], [ 6050094.007086277939379, 7796568.438606172800064 ], [ 6050116.026861011981964, 7796582.407420482486486 ], [ 6050126.165711674839258, 7796589.049661757424474 ], [ 6050129.880356890149415, 7796591.124132654629648 ], [ 6050141.184202065691352, 7796590.391599498689175 ], [ 6050157.917470818385482, 7796589.260916390456259 ], [ 6050192.516722784377635, 7796586.786727976053953 ], [ 6050224.394758028909564, 7796590.947051420807838 ], [ 6050240.002728729508817, 7796575.090167549438775 ], [ 6050275.758651630021632, 7796550.9324682475999 ], [ 6050311.962710804305971, 7796522.769174071028829 ], [ 6050357.32683964073658, 7796491.177870997227728 ], [ 6050394.643712089397013, 7796470.536085976287723 ], [ 6050412.681591252796352, 7796442.36251144297421 ], [ 6050433.765226017683744, 7796434.613360138610005 ], [ 6050518.9653205787763, 7796396.337848035618663 ], [ 6050564.07436223141849, 7796358.971847584471107 ], [ 6050606.686857105232775, 7796311.995852939784527 ], [ 6050626.934336628764868, 7796265.24603820219636 ], [ 6050625.043670888058841, 7796210.042770782485604 ], [ 6050630.709298089146614, 7796106.30766096431762 ], [ 6050582.960460295900702, 7796010.787023002281785 ], [ 6050588.923545097000897, 7795980.064061120152473 ], [ 6050677.952527259476483, 7795982.780114941298962 ], [ 6050774.496129684150219, 7795959.37976293079555 ], [ 6050827.291224083863199, 7795989.531447159126401 ], [ 6050847.574110656045377, 7796076.193403801880777 ], [ 6050832.965980439446867, 7796155.501744562759995 ], [ 6050828.165669768117368, 7796201.039014033973217 ], [ 6050839.359428707510233, 7796159.542795514687896 ], [ 6050846.092195292934775, 7796149.479404764249921 ], [ 6050855.709466362372041, 7796133.243662476539612 ], [ 6050855.177025285549462, 7796071.833929388783872 ], [ 6050867.420997039414942, 7796050.047971365973353 ], [ 6050910.333521414548159, 7795971.129446061328053 ], [ 6050998.798072636127472, 7795834.324606474488974 ], [ 6051029.182020802982152, 7795804.601728180423379 ], [ 6051093.994886236265302, 7795765.049417465925217 ], [ 6051106.88423746638, 7795755.353707051835954 ], [ 6051124.150698246434331, 7795743.264367709867656 ], [ 6051149.110690837725997, 7795726.573897550813854 ], [ 6051186.325423719361424, 7795706.744566069915891 ], [ 6051251.960909008979797, 7795684.093901364132762 ], [ 6051336.107212028466165, 7795660.543181989341974 ], [ 6051471.39915537647903, 7795625.951679948717356 ], [ 6051518.372562856413424, 7795619.181348085403442 ], [ 6051538.490039397031069, 7795613.611665890552104 ], [ 6051546.187751868739724, 7795605.502935318276286 ], [ 6051545.461624535731971, 7795581.490352304652333 ], [ 6051521.228757590986788, 7795516.923817211762071 ], [ 6051503.007206712849438, 7795473.517929263412952 ], [ 6051501.204343977384269, 7795453.356994481757283 ], [ 6051537.326426575891674, 7795309.660639582201838 ], [ 6051583.852681210264564, 7795161.393674090504646 ], [ 6051595.882643327116966, 7795151.568068043328822 ], [ 6051633.444458897225559, 7795146.633132485672832 ], [ 6051692.579971352592111, 7795153.251902570948005 ], [ 6051847.14570886362344, 7795180.052209995687008 ], [ 6051917.195078746415675, 7795194.873403209261596 ], [ 6052016.942551943473518, 7795224.343434758484364 ], [ 6052108.937913121655583, 7795248.278892455622554 ], [ 6052153.542298407293856, 7795259.328233268111944 ], [ 6052207.356416293419898, 7795263.157039687037468 ], [ 6052480.480125982314348, 7795260.971416557207704 ], [ 6053361.728211057372391, 7794142.723360889591277 ], [ 6053394.557440822012722, 7794101.123698444105685 ] ] ] } },
{ "type": "Feature", "properties": { "lv_id": "LOC_038158", "id": 180667.0, "CD_SETOR": "311787605000010", "SITUACAO": "Urbana", "CD_SIT": "1", "CD_TIPO": "0", "AREA_KM2": 0.066129363442526998, "CD_REGIAO": "3", "NM_REGIAO": "Sudeste", "CD_UF": "31", "NM_UF": "Minas Gerais", "CD_MUN": "3117876", "NM_MUN": "Confins", "CD_DIST": "311787605", "NM_DIST": "Confins", "CD_SUBDIST": "31178760500", "NM_SUBDIST": null, "CD_BAIRRO": null, "NM_BAIRRO": null, "CD_NU": null, "NM_NU": null, "CD_FCU": null, "NM_FCU": null, "CD_AGLOM": null, "NM_AGLOM": null, "CD_RGINT": "3101", "NM_RGINT": "Belo Horizonte", "CD_RGI": "310001", "NM_RGI": "Belo Horizonte", "CD_CONCURB": "3106200", "NM_CONCURB": "Belo Horizonte/MG", "mun_code_x": "3117876", "index_right": 32070, "dist_m": 603.90698545396788, "local_id": 408657, "ano": 2022, "cod_localidade_ibge": 3117876, "NR_ZONA": "215", "nr_cep": 33500000.0, "nm_localidade": "CONFINS", "nm_locvot": "ESCOLA MUNICIPAL AFONSO JOSÉ DA SILVA", "ds_endereco": "RUA MARIA RODRIGUES 731 - CENTRO", "ds_bairro": "CENTRO", "pred_long": -43.987826, "pred_lat": -19.624925, "pred_dist": 0.023872983767539002, "tse_long": null, "tse_lat": null, "long": -43.987826, "lat": -19.624925, "ID_UNICO": "LOC_038158", "SG_UF": "MG", "CD_MUNICIPIO": "41920", "NR_LOCAL_VOTACAO": "1058", "QT_SECOES_AGREGADAS": 0, "QT_ELEITORES_TRANSFERIDOS": 4, "CIRO GOMES (PDT) (NÃO ELEITO) 1T": 50.0, "CONSTITUINTE EYMAEL (DC) (NÃO ELEITO) 1T": 0.0, "FELIPE D AVILA (NOVO) (NÃO ELEITO) 1T": 10.0, "JAIR BOLSONARO (PL) (2º TURNO) 1T": 787.0, "LULA (PT) (2º TURNO) 1T": 615.0, "LÉO PÉRICLES (UP) (NÃO ELEITO) 1T": 0.0, "PADRE KELMON (PTB) (NÃO ELEITO) 1T": 2.0, "SIMONE TEBET (MDB) (NÃO ELEITO) 1T": 65.0, "SOFIA MANZANO (PCB) (NÃO ELEITO) 1T": 0.0, "SORAYA THRONICKE (UNIÃO) (NÃO ELEITO) 1T": 8.0, "VERA (PSTU) (NÃO ELEITO) 1T": 0.0, "Total_Votos_Validos 1T": 1537.0, "Votos_Brancos 1T": 12.0, "Votos_Nulos 1T": 34.0, "Abstenções 1T": 300.0, "Eleitores_Aptos 1T": 1883.0, "JAIR BOLSONARO (PL) (NÃO ELEITO) 2T": 883.0, "LULA (PT) (ELEITO) 2T": 663.0, "Total_Votos_Validos 2T": 1546.0, "Votos_Brancos 2T": 18.0, "Votos_Nulos 2T": 17.0, "Abstenções 2T": 302.0, "Eleitores_Aptos 2T": 1883.0, "mun_code_y": "3117876", "mun_code": "3117876" }, "geometry": { "type": "Polygon", "coordinates": [ [ [ 6052484.307260483503342, 7797225.029793610796332 ], [ 6052516.125302730128169, 7797176.391205839812756 ], [ 6052531.174459635280073, 7797142.792428854852915 ], [ 6052538.18437282089144, 7797122.594826707616448 ], [ 6052552.121312065050006, 7797066.466912677511573 ], [ 6052559.304712779819965, 7797034.905513407662511 ], [ 6052565.446917091496289, 7797005.833564836531878 ], [ 6052567.363162752240896, 7796996.772653572261333 ], [ 6052569.79729772079736, 7796972.011080712080002 ], [ 6052572.15250529628247, 7796945.905220958404243 ], [ 6052575.685225633904338, 7796918.380992888472974 ], [ 6052574.271047417074442, 7796892.497370701283216 ], [ 6052571.495708388276398, 7796866.694006063975394 ], [ 6052561.221681475639343, 7796843.80583425052464 ], [ 6052550.88191020861268, 7796819.797433277592063 ], [ 6052535.477458754554391, 7796797.211777994409204 ], [ 6052526.39414622914046, 7796773.129307605326176 ], [ 6052519.691690262407064, 7796744.859660555608571 ], [ 6052515.508663745597005, 7796716.553876373916864 ], [ 6052512.26640035957098, 7796659.527783768251538 ], [ 6052511.503572192043066, 7796623.263963412493467 ], [ 6052515.114946743473411, 7796597.08403414208442 ], [ 6052522.67258333787322, 7796571.907916160300374 ], [ 6052530.204390994273126, 7796548.08224043995142 ], [ 6052541.412301443517208, 7796518.868849013000727 ], [ 6052555.409708653576672, 7796496.010783934034407 ], [ 6052573.30678285099566, 7796471.573773685842752 ], [ 6052590.072868415154517, 7796451.137821523472667 ], [ 6052604.247162480838597, 7796429.5057512819767 ], [ 6052620.789526049979031, 7796405.260932117700577 ], [ 6052633.148777554742992, 7796375.979447299614549 ], [ 6052649.756788952276111, 7796352.854798460379243 ], [ 6052662.371896604076028, 7796326.143626112490892 ], [ 6052676.624857977032661, 7796305.855699519626796 ], [ 6052690.470488576218486, 7796280.420826651155949 ], [ 6052708.0644128061831, 7796250.830402636900544 ], [ 6052724.599764324724674, 7796226.473324904218316 ], [ 6052738.701210538856685, 7796203.608730234205723 ], [ 6052757.597914355807006, 7796176.526798758655787 ], [ 6052785.347342921420932, 7796146.337073568254709 ], [ 6052804.960434315726161, 7796129.667098880745471 ], [ 6052824.238506019115448, 7796109.08241849578917 ], [ 6052844.726275275461376, 7796085.840837405994534 ], [ 6052857.538659797981381, 7796064.288601377978921 ], [ 6052875.855314631946385, 7796025.549695601686835 ], [ 6052891.212653512135148, 7796002.610690613277256 ], [ 6052911.700142691843212, 7795979.36893904954195 ], [ 6052927.12975063174963, 7795957.662133203819394 ], [ 6052950.853194642812014, 7795925.123899731785059 ], [ 6052969.853762980550528, 7795898.035289304330945 ], [ 6052992.471992550417781, 7795868.147637367248535 ], [ 6053010.414071182720363, 7795846.292383481748402 ], [ 6053032.157489488832653, 7795822.97619866207242 ], [ 6053058.958589008077979, 7795798.124909924343228 ], [ 6053078.412918726913631, 7795778.765759886242449 ], [ 6053106.589319007471204, 7795757.655213577672839 ], [ 6053133.541572283022106, 7795735.380298288539052 ], [ 6053155.587429451756179, 7795717.216982105746865 ], [ 6053176.607276622205973, 7795703.048656496219337 ], [ 6053200.060801706276834, 7795687.387663912028074 ], [ 6053225.152462711557746, 7795678.149914653971791 ], [ 6053251.730871573090553, 7795672.758834045380354 ], [ 6053280.920087676495314, 7795667.10116274189204 ], [ 6053308.906248119659722, 7795664.212399044074118 ], [ 6053333.426200842484832, 7795666.699279703199863 ], [ 6053366.845340549945831, 7795668.6607217900455 ], [ 6053403.914383201859891, 7795666.584522256627679 ], [ 6053435.695278622210026, 7795662.122535237111151 ], [ 6053441.038076781667769, 7795660.075889152474701 ], [ 6053459.530443747527897, 7795652.958582997322083 ], [ 6053485.878289706073701, 7795643.646219990216196 ], [ 6053509.107571344822645, 7795624.175803636200726 ], [ 6053526.022785285487771, 7795606.314747273921967 ], [ 6053544.949483590200543, 7795577.992710860446095 ], [ 6053561.252125003375113, 7795549.713170253671706 ], [ 6053578.094734192825854, 7795530.619723823852837 ], [ 6053587.828466346487403, 7795504.976345144212246 ], [ 6053600.027361277490854, 7795474.803169860504568 ], [ 6053612.668159576132894, 7795453.934315683320165 ], [ 6053626.995137651450932, 7795427.794752257876098 ], [ 6053659.253263682126999, 7795406.441666694357991 ], [ 6053698.993115442804992, 7795374.75401100050658 ], [ 6053732.937205635011196, 7795348.130003636702895 ], [ 6053758.288038685917854, 7795334.37921847589314 ], [ 6053788.232907788828015, 7795321.930812692269683 ], [ 6053818.190194883383811, 7795307.907782917842269 ], [ 6053843.725368713960052, 7795297.293572962284088 ], [ 6053871.927680043503642, 7795280.226446120999753 ], [ 6053893.349738395772874, 7795260.412184645421803 ], [ 6053910.1125064548105, 7795239.973827879875898 ], [ 6053925.315806054510176, 7795214.456431441009045 ], [ 6053941.926915492862463, 7795191.441390335559845 ], [ 6053956.07219145912677, 7795171.157584863714874 ], [ 6053976.326202321797609, 7795143.992645940743387 ], [ 6053993.009621119126678, 7795122.209795733913779 ], [ 6054014.598875652998686, 7795096.314851148985326 ], [ 6054034.621997637674212, 7795065.22881880402565 ], [ 6054055.185435520485044, 7795043.328960563056171 ], [ 6054071.868601651862264, 7795021.545951722189784 ], [ 6054092.693012548610568, 7794982.655644081532955 ], [ 6054109.534221790730953, 7794963.561209363862872 ], [ 6054132.404898487962782, 7794936.241195091977715 ], [ 6054156.736891329288483, 7794914.11834254488349 ], [ 6054175.885415064170957, 7794889.603797422721982 ], [ 6054192.495684995315969, 7794866.588243364356458 ], [ 6054209.026792820543051, 7794842.228324106894433 ], [ 6054223.275976059027016, 7794821.937858522869647 ], [ 6054235.933400442823768, 7794797.806852715089917 ], [ 6054245.926565090194345, 7794771.24771679751575 ], [ 6054108.286127919331193, 7794685.414439924061298 ], [ 6054083.029320688918233, 7794669.673837639391422 ], [ 6054077.07461011223495, 7794665.956322100013494 ], [ 6054057.455766403116286, 7794653.72711259033531 ], [ 6054045.301739173009992, 7794644.991257708519697 ], [ 6053899.918252072297037, 7794540.549319840967655 ], [ 6053721.247820058837533, 7794373.120435516349971 ], [ 6053394.557440822012722, 7794101.123698444105685 ], [ 6053361.728211057372391, 7794142.723360889591277 ], [ 6052480.480125982314348, 7795260.971416557207704 ], [ 6052401.900890075601637, 7795363.87759686075151 ], [ 6052327.360108967870474, 7795461.508720591664314 ], [ 6052228.019331159070134, 7795591.6159353479743 ], [ 6052114.871510721743107, 7795739.791009560227394 ], [ 6051982.551193492487073, 7795913.082996528595686 ], [ 6051893.301105706952512, 7796029.956011787056923 ], [ 6051785.561010402627289, 7796171.040304765105247 ], [ 6051695.341275677084923, 7796289.170897661708295 ], [ 6051614.477359004318714, 7796395.058668619953096 ], [ 6051515.551886839792132, 7796524.592442274093628 ], [ 6051481.20227971766144, 7796570.556330712512136 ], [ 6051390.435472822748125, 7796698.258892391808331 ], [ 6051211.063537819311023, 7796935.424541123211384 ], [ 6051047.426790783181787, 7797138.926857968792319 ], [ 6050948.328857290558517, 7797261.93254320230335 ], [ 6050887.694319671951234, 7797340.464891066774726 ], [ 6050811.266705951653421, 7797451.80436151381582 ], [ 6050737.176422293297946, 7797557.149159769527614 ], [ 6050698.602381521835923, 7797603.189411118626595 ], [ 6050691.3818383757025, 7797597.409505152143538 ], [ 6050683.204741893336177, 7797593.057221151888371 ], [ 6050619.952160267159343, 7797553.03086743503809 ], [ 6050578.06437898054719, 7797527.427901925519109 ], [ 6050543.566849573515356, 7797460.272537896409631 ], [ 6050503.587888350710273, 7797476.585267586633563 ], [ 6050427.287931334227324, 7797508.882768389768898 ], [ 6050351.464898228645325, 7797542.152158113196492 ], [ 6050262.57137168571353, 7797585.654236489906907 ], [ 6050247.107454624958336, 7797577.076893380843103 ], [ 6050224.512106898240745, 7797567.289125287905335 ], [ 6050224.544713863171637, 7797540.928594972938299 ], [ 6050218.514617080800235, 7797508.821136185899377 ], [ 6050217.57021838799119, 7797503.278989332728088 ], [ 6050216.548140557482839, 7797504.305773193016648 ], [ 6050206.628543620929122, 7797515.769848290830851 ], [ 6050195.863562857732177, 7797528.407665334641933 ], [ 6050194.462974518537521, 7797542.888911248184741 ], [ 6050193.893455457873642, 7797557.029029089026153 ], [ 6050193.298416613601148, 7797566.067534263245761 ], [ 6050184.339138768613338, 7797585.50068954564631 ], [ 6050153.096772953867912, 7797617.349731117486954 ], [ 6050098.401507280766964, 7797660.480528730899096 ], [ 6050073.18797813821584, 7797680.27362173050642 ], [ 6050054.966173713095486, 7797704.455134178511798 ], [ 6050027.306279027834535, 7797730.383022028952837 ], [ 6049977.636916887015104, 7797773.228853404521942 ], [ 6049955.01325418241322, 7797798.860417659394443 ], [ 6049903.274254329502583, 7797868.82657703384757 ], [ 6049886.717880909331143, 7797897.417123196646571 ], [ 6049868.317623617127538, 7797923.407124098390341 ], [ 6049841.972895442508161, 7797947.762154184281826 ], [ 6049799.753729747608304, 7797969.453341625630856 ], [ 6049772.536394698545337, 7797993.263749909587204 ], [ 6049741.694953639060259, 7798012.779776201583445 ], [ 6049721.689367034472525, 7798020.857057397253811 ], [ 6049705.351942652836442, 7798029.314449844881892 ], [ 6049689.887574451975524, 7798038.327477897517383 ], [ 6049675.753962685354054, 7798050.870365526527166 ], [ 6049653.858979114331305, 7798075.862595831975341 ], [ 6049643.339468693360686, 7798092.531730881892145 ], [ 6049633.769408614374697, 7798107.650115124881268 ], [ 6049614.234649889171124, 7798138.685602089390159 ], [ 6049598.978592888452113, 7798152.519494080916047 ], [ 6049586.136838575825095, 7798167.391704628244042 ], [ 6049545.225597510114312, 7798142.841904970817268 ], [ 6049530.306860221549869, 7798133.883440162986517 ], [ 6049511.122282908298075, 7798122.410564553923905 ], [ 6049500.690576231107116, 7798115.256614871323109 ], [ 6049487.920829767361283, 7798112.140355003997684 ], [ 6049487.477428614161909, 7798116.59500446356833 ], [ 6049478.65893601346761, 7798128.218367584049702 ], [ 6049463.454134337604046, 7798127.122259747236967 ], [ 6049464.927453042007983, 7798129.497270907275379 ], [ 6049468.527340387925506, 7798135.894923399202526 ], [ 6049382.820003509521484, 7798200.907521493732929 ], [ 6049364.577252157963812, 7798222.245081359520555 ], [ 6049340.711725564673543, 7798260.267176834866405 ], [ 6049264.155178399756551, 7798241.733611351810396 ], [ 6049154.79430777952075, 7798217.427284054458141 ], [ 6049134.587340837344527, 7798254.233647312968969 ], [ 6049116.058499773964286, 7798281.645929639227688 ], [ 6049078.169750927016139, 7798250.555989189073443 ], [ 6049057.706363520585001, 7798233.200677294284105 ], [ 6049047.793068681843579, 7798224.487460600212216 ], [ 6049047.692064873874187, 7798219.345497431233525 ], [ 6049046.431391937658191, 7798214.496442027390003 ], [ 6049044.517901509068906, 7798217.171531135216355 ], [ 6049035.845626689493656, 7798228.246406738646328 ], [ 6048886.492087272927165, 7798329.161993067711592 ], [ 6048867.522152067162097, 7798351.37314579449594 ], [ 6048844.309218293987215, 7798393.930282039567828 ], [ 6048819.014022524468601, 7798452.997306729666889 ], [ 6048815.677593998610973, 7798452.361444845795631 ], [ 6048771.823724828660488, 7798446.48376458324492 ], [ 6048752.341784939169884, 7798440.344112234190106 ], [ 6048667.387558126822114, 7798391.740015866234899 ], [ 6048644.697709871456027, 7798394.173521794378757 ], [ 6048604.963140659034252, 7798439.363409353420138 ], [ 6048612.476315148174763, 7798442.429196173325181 ], [ 6048616.954770535230637, 7798444.268148209899664 ], [ 6048629.027567240409553, 7798449.842506390064955 ], [ 6048651.660513108596206, 7798553.774715550243855 ], [ 6048666.228232559747994, 7798633.149359658360481 ], [ 6048668.129610503092408, 7798653.280650550499558 ], [ 6048669.114657944999635, 7798663.664614168927073 ], [ 6048670.523239696398377, 7798687.770005600526929 ], [ 6048667.533806756138802, 7798712.133544855751097 ], [ 6048663.109145229682326, 7798744.842576577328146 ], [ 6048720.888642272911966, 7798671.831630537286401 ], [ 6048768.838410899043083, 7798614.739696177653968 ], [ 6048851.010002136230469, 7798652.391126353293657 ], [ 6048951.425901588983834, 7798586.912903688848019 ], [ 6048962.475614095106721, 7798579.295370007865131 ], [ 6049025.057728038169444, 7798536.168529484421015 ], [ 6049048.295884343795478, 7798586.249137667007744 ], [ 6049061.014876917004585, 7798613.658312730491161 ], [ 6049166.625163131393492, 7798868.190064705908298 ], [ 6049185.77083021774888, 7798882.58824123069644 ], [ 6049248.735136696137488, 7798929.920450307428837 ], [ 6049354.73887930996716, 7798964.676549419760704 ], [ 6049369.25580289773643, 7798983.111903878860176 ], [ 6049385.985067816451192, 7799006.857512975111604 ], [ 6049402.563736033625901, 7799028.026764394715428 ], [ 6049416.747182966209948, 7799053.158299050293863 ], [ 6049430.884742271155119, 7799075.707326631061733 ], [ 6049439.838260114192963, 7799100.347972702234983 ], [ 6049441.52764012478292, 7799104.98081991635263 ], [ 6049445.240351628512144, 7799118.880282795988023 ], [ 6049448.175436863675714, 7799129.90300227701664 ], [ 6049449.735927471891046, 7799135.74610535427928 ], [ 6049453.951126718893647, 7799145.299883760511875 ], [ 6049461.484817261807621, 7799162.369454901665449 ], [ 6049469.431221743114293, 7799190.452524773776531 ], [ 6049477.639511366374791, 7799221.217835819348693 ], [ 6049478.813913029618561, 7799228.72466542199254 ], [ 6049479.617139690555632, 7799233.836680840700865 ], [ 6049481.665466596372426, 7799246.945937312208116 ], [ 6049483.479422073811293, 7799277.97436617128551 ], [ 6049482.452760498970747, 7799305.347988069988787 ], [ 6049481.19212266523391, 7799323.147580966353416 ], [ 6049480.320067835971713, 7799335.371767353266478 ], [ 6049473.128179171122611, 7799366.92902865819633 ], [ 6049464.338263710960746, 7799385.710255411453545 ], [ 6049459.397809796966612, 7799396.28499917127192 ], [ 6049445.693513921461999, 7799424.290598664432764 ], [ 6049431.661812484264374, 7799448.493776924908161 ], [ 6049403.251195745542645, 7799489.164809567853808 ], [ 6049387.805578799918294, 7799510.753306722268462 ], [ 6049365.828008722513914, 7799530.252464639022946 ], [ 6049346.389800811186433, 7799548.253687826916575 ], [ 6049328.175471449270844, 7799567.419418815523386 ], [ 6049303.455345580354333, 7799583.14544331561774 ], [ 6049281.399004142731428, 7799601.300233222544193 ], [ 6049256.600226256996393, 7799615.681970531120896 ], [ 6049234.275389011949301, 7799627.445640658959746 ], [ 6049208.344270736910403, 7799645.82772858068347 ], [ 6049187.649088538251817, 7799663.902419370599091 ], [ 6049165.212869411334395, 7799675.560090725310147 ], [ 6049141.749056525528431, 7799691.21200992166996 ], [ 6049126.230838603340089, 7799711.567899506539106 ], [ 6049123.789517901837826, 7799736.326622793450952 ], [ 6049114.966764280572534, 7799761.5722691770643 ], [ 6049112.708638109266758, 7799787.669014984741807 ], [ 6049110.574820479378104, 7799817.692431254312396 ], [ 6049110.87573887500912, 7799846.224162491038442 ], [ 6049111.740252116695046, 7799861.02135740313679 ], [ 6049112.839046272449195, 7799879.828693585470319 ], [ 6049111.73928321711719, 7799905.969841185957193 ], [ 6049115.338538164272904, 7799969.376541128382087 ], [ 6049114.153627200983465, 7799994.061489610001445 ], [ 6049113.204272462055087, 7800022.778980318456888 ], [ 6049118.164395534433424, 7800109.484835492447019 ], [ 6049118.41928659658879, 7800135.434074394404888 ], [ 6049118.49745614733547, 7800160.157291544601321 ], [ 6049120.008982852101326, 7800186.032790353521705 ], [ 6049118.830436611548066, 7800210.829746404662728 ], [ 6049116.467162600718439, 7800236.932604815810919 ], [ 6049115.465265504084527, 7800262.955577705055475 ], [ 6049111.740529068745673, 7800289.138309683650732 ], [ 6049108.27097003813833, 7800317.891238825395703 ], [ 6049106.011778488755226, 7800367.366959862411022 ], [ 6049106.224543990567327, 7800393.678322247229517 ], [ 6049106.422903205268085, 7800419.383573787286878 ], [ 6049109.870727179571986, 7800480.213938993401825 ], [ 6049117.999205959960818, 7800509.635180475190282 ], [ 6049128.261633547022939, 7800532.412090924568474 ], [ 6049135.028688200749457, 7800561.913220596499741 ], [ 6049143.006696997210383, 7800588.758134700357914 ], [ 6049150.801474742591381, 7800614.265016669407487 ], [ 6049157.522776304744184, 7800641.183672079816461 ], [ 6049163.982338578440249, 7800665.420110555365682 ], [ 6049171.888384575024247, 7800691.032882634550333 ], [ 6049178.498411779291928, 7800717.845685106702149 ], [ 6049183.707796076312661, 7800742.267882057465613 ], [ 6049189.172366028651595, 7800769.260293263010681 ], [ 6049194.931369595229626, 7800799.495012238621712 ], [ 6049198.707269259728491, 7800824.563313152641058 ], [ 6049201.075078538618982, 7800834.517853165976703 ], [ 6049205.39577149040997, 7800852.720329275354743 ], [ 6049213.753182217478752, 7800886.062210351228714 ], [ 6049220.592132952064276, 7800916.795596630312502 ], [ 6049227.234891236759722, 7800942.370134880766273 ], [ 6049234.957694664597511, 7800966.644929649308324 ], [ 6049245.449150936678052, 7800993.342499489895999 ], [ 6049255.790160406380892, 7801017.463719463907182 ], [ 6049262.432923204265535, 7801043.038283343426883 ], [ 6049276.570393414236605, 7801065.588020135648549 ], [ 6049295.433934146538377, 7801082.690151901915669 ], [ 6049320.764438033103943, 7801100.76170726120472 ], [ 6049348.333774548023939, 7801112.182741453871131 ], [ 6049373.461618416942656, 7801124.983379680663347 ], [ 6049397.005592802539468, 7801134.055331566371024 ], [ 6049421.184230770915747, 7801152.194415275007486 ], [ 6049443.922926371917129, 7801169.069172086194158 ], [ 6049466.511183953844011, 7801183.367550652474165 ], [ 6049495.559910234063864, 7801198.523289186879992 ], [ 6049517.041963066905737, 7801215.471748593263328 ], [ 6049539.708830626681447, 7801231.114288151264191 ], [ 6049563.704452432692051, 7801247.915262433700264 ], [ 6049587.654356734827161, 7801262.133704470470548 ], [ 6049610.092323842458427, 7801273.855637668631971 ], [ 6049636.150092005729675, 7801282.779958921484649 ], [ 6049665.657611960545182, 7801282.397396724671125 ], [ 6049691.133099680766463, 7801279.553763880394399 ], [ 6049716.46462353784591, 7801274.245724845677614 ], [ 6049740.689885368570685, 7801271.587778536602855 ], [ 6049764.502850875258446, 7801263.671151475980878 ], [ 6049793.630793816410005, 7801256.791391497477889 ], [ 6049820.068495368584991, 7801248.833042342215776 ], [ 6049847.710587991401553, 7801238.106334218755364 ], [ 6049871.405674666166306, 7801226.374801589176059 ], [ 6049894.773474765010178, 7801210.840787534601986 ], [ 6049921.309246756136417, 7801202.764080990105867 ], [ 6049949.003559999167919, 7801194.731726635247469 ], [ 6049971.435223956592381, 7801182.961758492514491 ], [ 6049995.437790655530989, 7801176.494818875566125 ], [ 6050019.099965176545084, 7801166.001358740963042 ], [ 6050046.820356421172619, 7801156.618456490337849 ], [ 6050070.816316118463874, 7801150.039374790154397 ], [ 6050101.174538282677531, 7801144.435588181018829 ], [ 6050126.577777821570635, 7801140.359051358886063 ], [ 6050158.297443292103708, 7801134.675231231376529 ], [ 6050184.878841057419777, 7801129.180608478374779 ], [ 6050210.288592686876655, 7801125.215958464890718 ], [ 6050237.020550343208015, 7801122.297663545235991 ], [ 6050266.37726344820112, 7801119.337620098143816 ], [ 6050294.300474554300308, 7801115.225265922024846 ], [ 6050353.053189245983958, 7801111.775484371930361 ], [ 6050377.428786377422512, 7801111.693000941537321 ], [ 6050403.061127655208111, 7801111.536688418127596 ], [ 6050431.12837385199964, 7801109.888519793748856 ], [ 6050456.839300119318068, 7801111.076356058008969 ], [ 6050485.135753507725894, 7801113.348757901228964 ], [ 6050517.759052069857717, 7801123.122847625985742 ], [ 6050542.593113655224442, 7801130.881474556401372 ], [ 6050566.288396213203669, 7801142.52867853268981 ], [ 6050592.523334350436926, 7801152.677870688959956 ], [ 6050615.184606875292957, 7801168.207495924085379 ], [ 6050637.773867355659604, 7801182.504902299493551 ], [ 6050666.378299821168184, 7801190.041993855498731 ], [ 6050693.038277103565633, 7801185.890853394754231 ], [ 6050718.369446494616568, 7801180.581274891272187 ], [ 6050778.483855862170458, 7801177.05026344768703 ], [ 6050810.478661808185279, 7801177.868566395714879 ], [ 6050844.011737697757781, 7801179.832901938818395 ], [ 6050860.409090963192284, 7801180.432080421596766 ], [ 6050872.236316080205142, 7801180.872580390423536 ], [ 6050908.630206868052483, 7801190.42466613650322 ], [ 6050944.880007521249354, 7801197.512263498269022 ], [ 6050977.274421855807304, 7801203.365047744475305 ], [ 6051002.108805188909173, 7801211.123212658800185 ], [ 6051025.57517864741385, 7801218.849324548617005 ], [ 6051057.020852048881352, 7801230.040783746168017 ], [ 6051083.334827082231641, 7801241.533722319640219 ], [ 6051106.80127271078527, 7801249.259767509996891 ], [ 6051135.019442923367023, 7801250.187090389430523 ], [ 6051160.960003745742142, 7801255.294795710593462 ], [ 6051256.793935307301581, 7801249.775894175283611 ], [ 6051291.328532475978136, 7801249.095346776768565 ], [ 6051317.033224117010832, 7801250.170109948143363 ], [ 6051348.236031712964177, 7801248.403829296119511 ], [ 6051370.661206639371812, 7801247.130877054296434 ], [ 6051396.372460866346955, 7801248.317554223351181 ], [ 6051422.227911124005914, 7801251.968660546466708 ], [ 6051444.817928406409919, 7801266.265445182099938 ], [ 6051453.524412281811237, 7801276.769552003592253 ], [ 6051460.33601104374975, 7801245.907087162137032 ], [ 6051471.598903765901923, 7801219.279230337589979 ], [ 6051486.815371552482247, 7801193.767842492088675 ], [ 6051497.090015394613147, 7801178.090206922963262 ], [ 6051500.997895505279303, 7801172.13901428040117 ], [ 6051517.693862048909068, 7801150.362414420582354 ], [ 6051543.671913374215364, 7801134.559738255105913 ], [ 6051567.215093109756708, 7801120.249015842564404 ], [ 6051593.271715366281569, 7801105.790488560684025 ], [ 6051619.780644424259663, 7801099.061390143819153 ], [ 6051631.483568926341832, 7801100.250592134892941 ], [ 6051644.307106799446046, 7801101.553759016096592 ], [ 6051647.82273924164474, 7801101.650576520711184 ], [ 6051689.25563383102417, 7801102.845466308295727 ], [ 6051714.966737788170576, 7801104.031625123694539 ], [ 6051742.157511939294636, 7801108.952603121288121 ], [ 6051775.513814985752106, 7801109.689190664328635 ], [ 6051797.400674912147224, 7801107.480574805289507 ], [ 6051804.765675909817219, 7801106.732790006324649 ], [ 6051829.866991485469043, 7801097.500747920013964 ], [ 6051848.951622257009149, 7801082.248930741101503 ], [ 6051854.463178529404104, 7801077.844446936622262 ], [ 6051874.246821239590645, 7801044.195292821153998 ], [ 6051885.613557169213891, 7801017.560686497017741 ], [ 6051899.618503732606769, 7800994.705185775645077 ], [ 6051914.609037963673472, 7800976.658957202918828 ], [ 6051920.03782029915601, 7800970.123545160517097 ], [ 6051920.457326394505799, 7800969.570557603612542 ], [ 6051941.490812170319259, 7800941.659189665690064 ], [ 6051956.85703376494348, 7800918.723517121747136 ], [ 6051975.914678013883531, 7800894.221809001639485 ], [ 6051988.270601601339877, 7800883.052394224330783 ], [ 6051994.279374692589045, 7800877.629382547922432 ], [ 6052019.071952616795897, 7800863.131837714463472 ], [ 6052050.259391621686518, 7800848.370512125082314 ], [ 6052081.525490626692772, 7800834.953383189626038 ], [ 6052119.475067645311356, 7800826.2014239737764 ], [ 6052146.146231822669506, 7800823.508439663797617 ], [ 6052148.726424650289118, 7800823.244252193719149 ], [ 6052207.484732537530363, 7800819.900127001106739 ], [ 6052233.195525919087231, 7800821.085410861298442 ], [ 6052256.917730681598186, 7800831.380376357585192 ], [ 6052291.832129988819361, 7800837.194959379732609 ], [ 6052320.049844807013869, 7800838.120244445279241 ], [ 6052349.603022029623389, 7800840.31582928262651 ], [ 6052376.800233657471836, 7800845.347815383225679 ], [ 6052409.424351167865098, 7800855.118892140686512 ], [ 6052438.859204922802746, 7800853.499392107129097 ], [ 6052470.722200063988566, 7800850.275642022490501 ], [ 6052495.901549616828561, 7800842.386676114052534 ], [ 6052519.364798596128821, 7800826.729954645037651 ], [ 6052543.710662592202425, 7800804.613873812370002 ], [ 6052568.279584929347038, 7800786.306545482948422 ], [ 6052588.999540615826845, 7800766.876749534159899 ], [ 6052612.311631552875042, 7800748.643277211114764 ], [ 6052630.570837873034179, 7800732.056055344641209 ], [ 6052677.647648107260466, 7800703.318542050197721 ], [ 6052712.683176869526505, 7800689.678135419264436 ], [ 6052737.862179665826261, 7800681.788693800568581 ], [ 6052768.317146067507565, 7800676.061687270179391 ], [ 6052793.647089237347245, 7800670.748713489621878 ], [ 6052818.898243552073836, 7800664.09140485431999 ], [ 6052845.406090339645743, 7800657.360074670985341 ], [ 6052870.433999417349696, 7800646.893841949291527 ], [ 6052893.896606573835015, 7800631.236385563388467 ], [ 6052916.97837521135807, 7800609.081445889547467 ], [ 6052938.88215577788651, 7800588.344736916944385 ], [ 6052953.793578952550888, 7800557.677808994427323 ], [ 6052965.125562160275877, 7800532.280104862526059 ], [ 6052981.017429252155125, 7800495.03550922870636 ], [ 6052986.994519998319447, 7800466.131051525473595 ], [ 6052999.687746271491051, 7800440.653114361688495 ], [ 6053013.795208462513983, 7800417.789752426557243 ], [ 6053027.719093691557646, 7800393.588229632936418 ], [ 6053039.240835475735366, 7800369.640540739521384 ], [ 6053053.085809037089348, 7800344.09466453269124 ], [ 6053064.679688831791282, 7800321.379205076023936 ], [ 6053078.452310416847467, 7800294.600999103859067 ], [ 6053097.539857492782176, 7800268.858695510774851 ], [ 6053124.495445168577135, 7800246.474969048053026 ], [ 6053131.807494516484439, 7800218.840606052428484 ], [ 6053140.474329431541264, 7800191.014021748676896 ], [ 6053146.778832832351327, 7800165.912033777683973 ], [ 6053155.301068513654172, 7800135.620862242765725 ], [ 6053164.046576905064285, 7800109.138534009456635 ], [ 6053170.127619974315166, 7800080.227646574378014 ], [ 6053180.129700956866145, 7800053.671266308054328 ], [ 6053194.954371275380254, 7800021.547411040402949 ], [ 6053208.679954831488431, 7799992.186154870316386 ], [ 6053221.274011824280024, 7799966.825954771600664 ], [ 6053238.618338831700385, 7799934.665964990854263 ], [ 6053259.712041910737753, 7799898.350601591169834 ], [ 6053272.305889055132866, 7799872.99030214548111 ], [ 6053279.66642830427736, 7799860.528511453419924 ], [ 6053288.695518096908927, 7799846.057393778115511 ], [ 6053307.781942522153258, 7799820.314510610885918 ], [ 6053323.065901646390557, 7799796.032154688611627 ], [ 6053339.074221316725016, 7799762.601640262641013 ], [ 6053363.035868190228939, 7799733.985860457643867 ], [ 6053379.425123315304518, 7799707.052749417722225 ], [ 6053393.603307071141899, 7799685.420887652784586 ], [ 6053407.630298994481564, 7799661.212403304874897 ], [ 6053426.309199897572398, 7799630.32220458984375 ], [ 6053440.566079575568438, 7799610.034564267843962 ], [ 6053454.44173857755959, 7799583.249388953670859 ], [ 6053465.699351456947625, 7799556.61846973374486 ], [ 6053480.529189588502049, 7799524.605979902669787 ], [ 6053496.109039303846657, 7799482.094791404902935 ], [ 6053509.070793598890305, 7799439.737854613922536 ], [ 6053518.960932374000549, 7799389.805378146469593 ], [ 6053524.817025782540441, 7799357.085094857960939 ], [ 6053531.04774287622422, 7799330.750291946344078 ], [ 6053535.838207104243338, 7799303.151406239718199 ], [ 6053540.582158563658595, 7799272.969736469909549 ], [ 6053546.477957218885422, 7799242.720157412812114 ], [ 6053548.912853079847991, 7799217.958021452650428 ], [ 6053549.552058575674891, 7799184.083805631846189 ], [ 6053550.427888929843903, 7799154.242531895637512 ], [ 6053548.751509776338935, 7799125.675845053978264 ], [ 6053542.858270440250635, 7799089.713610297068954 ], [ 6053537.490950897336006, 7799062.713478354737163 ], [ 6053528.123741091229022, 7799032.014671213924885 ], [ 6053518.50718233268708, 7798998.857471701689065 ], [ 6053509.186468930914998, 7798970.741457585245371 ], [ 6053501.003533998504281, 7798938.736312171444297 ], [ 6053487.966137072071433, 7798913.537352428771555 ], [ 6053475.105789983645082, 7798889.56451290845871 ], [ 6053454.194112899713218, 7798860.895305886864662 ], [ 6053437.38703394588083, 7798835.918604313395917 ], [ 6053422.085910341702402, 7798813.326226711273193 ], [ 6053409.278714665211737, 7798792.04820729419589 ], [ 6053394.629372738301754, 7798759.075388077646494 ], [ 6053384.282289027236402, 7798734.954434336163104 ], [ 6053379.474063045345247, 7798718.375890464521945 ], [ 6053374.66583707369864, 7798701.797349240630865 ], [ 6053369.377440871670842, 7798676.141639719717205 ], [ 6053362.602364744991064, 7798646.639114605262876 ], [ 6053358.340412549674511, 7798616.988436562940478 ], [ 6053352.789490415714681, 7798588.650299963541329 ], [ 6053350.118900573812425, 7798562.840275876224041 ], [ 6053346.804740965366364, 7798504.580755396746099 ], [ 6053344.108288302086294, 7798480.121219906024635 ], [ 6053338.438469780609012, 7798447.968060565181077 ], [ 6053335.275382000952959, 7798392.285149225965142 ], [ 6053337.551968598738313, 7798364.834489678964019 ], [ 6053338.394938540644944, 7798336.23180596716702 ], [ 6053340.58611371088773, 7798284.055237698368728 ], [ 6053340.50731950160116, 7798259.441361289471388 ], [ 6053340.165978413075209, 7798232.145043820142746 ], [ 6053324.536765482276678, 7798205.750174162909389 ], [ 6053303.157531701028347, 7798188.799832820892334 ], [ 6053278.904604960232973, 7798169.433426448144019 ], [ 6053249.928060617297888, 7798155.516532190144062 ], [ 6053218.359592398628592, 7798140.403482215479016 ], [ 6053196.724566609598696, 7798120.882694663479924 ], [ 6053168.853451067581773, 7798104.315076401457191 ], [ 6053140.90348088555038, 7798086.403139147907495 ], [ 6053111.697032133117318, 7798068.565266899764538 ], [ 6053079.977584118954837, 7798050.875534769147635 ], [ 6053045.64043415337801, 7798033.340106263756752 ], [ 6053019.256182729266584, 7798020.619182127527893 ], [ 6053010.839537646621466, 7798019.002017034217715 ], [ 6052894.676171902567148, 7797933.851835709996521 ], [ 6052830.853083619847894, 7797860.038645554333925 ], [ 6052788.650423776358366, 7797811.232893479056656 ], [ 6052653.679811574518681, 7797655.146692853420973 ], [ 6052560.676881160587072, 7797525.049483418464661 ], [ 6052532.767423979006708, 7797453.90842368081212 ], [ 6052482.68195316195488, 7797326.250412861816585 ], [ 6052473.929038660600781, 7797295.9770198892802 ], [ 6052472.674027631990612, 7797291.599527340382338 ], [ 6052468.364056028425694, 7797276.700599045492709 ], [ 6052461.664591057226062, 7797253.489229436963797 ], [ 6052467.612151362001896, 7797246.69750833325088 ], [ 6052484.307260483503342, 7797225.029793610796332 ] ] ] } }
]
}
