{
"type": "FeatureCollection",
"name": "3140100",
"crs": { "type": "name", "properties": { "name": "urn:ogc:def:crs:EPSG::5880" } },
"features": [
{ "type": "Feature", "properties": { "lv_id": "LOC_041474", "id": 195943.0, "CD_SETOR": "314010005000002", "SITUACAO": "Urbana", "CD_SIT": "1", "CD_TIPO": "0", "AREA_KM2": 0.13720329299749301, "CD_REGIAO": "3", "NM_REGIAO": "Sudeste", "CD_UF": "31", "NM_UF": "Minas Gerais", "CD_MUN": "3140100", "NM_MUN": "Marilac", "CD_DIST": "314010005", "NM_DIST": "Marilac", "CD_SUBDIST": "31401000500", "NM_SUBDIST": null, "CD_BAIRRO": null, "NM_BAIRRO": null, "CD_NU": null, "NM_NU": null, "CD_FCU": null, "NM_FCU": null, "CD_AGLOM": "314010000001", "NM_AGLOM": "São Sebastião da Barra", "CD_RGINT": "3104", "NM_RGINT": "Governador Valadares", "CD_RGI": "310020", "NM_RGI": "Governador Valadares", "CD_CONCURB": null, "NM_CONCURB": null, "mun_code_x": "3140100", "index_right": 35849, "dist_m": 0.0, "local_id": 443964, "ano": 2022, "cod_localidade_ibge": 3140100, "NR_ZONA": "318", "nr_cep": 35115000.0, "nm_localidade": "MARILAC", "nm_locvot": "ESCOLA MUNICIPAL LUZIA DE OLIVEIRA SANTOS", "ds_endereco": "RUA CURITIBA , 254                         ", "ds_bairro": "CENTRO", "pred_long": -42.079199, "pred_lat": -18.506174, "pred_dist": 0.021407395443095702, "tse_long": null, "tse_lat": null, "long": -42.079199, "lat": -18.506174, "ID_UNICO": "LOC_041474", "SG_UF": "MG", "CD_MUNICIPIO": "48011", "NR_LOCAL_VOTACAO": "1015", "QT_SECOES_AGREGADAS": 0, "QT_ELEITORES_TRANSFERIDOS": 0, "CIRO GOMES (PDT) (NÃO ELEITO) 1T": 42.0, "CONSTITUINTE EYMAEL (DC) (NÃO ELEITO) 1T": 0.0, "FELIPE D AVILA (NOVO) (NÃO ELEITO) 1T": 26.0, "JAIR BOLSONARO (PL) (2º TURNO) 1T": 875.0, "LULA (PT) (2º TURNO) 1T": 1862.0, "LÉO PÉRICLES (UP) (NÃO ELEITO) 1T": 0.0, "PADRE KELMON (PTB) (NÃO ELEITO) 1T": 1.0, "SIMONE TEBET (MDB) (NÃO ELEITO) 1T": 61.0, "SOFIA MANZANO (PCB) (NÃO ELEITO) 1T": 1.0, "SORAYA THRONICKE (UNIÃO) (NÃO ELEITO) 1T": 3.0, "VERA (PSTU) (NÃO ELEITO) 1T": 5.0, "Total_Votos_Validos 1T": 2876.0, "Votos_Brancos 1T": 37.0, "Votos_Nulos 1T": 109.0, "Abstenções 1T": 1300.0, "Eleitores_Aptos 1T": 4322.0, "JAIR BOLSONARO (PL) (NÃO ELEITO) 2T": 1001.0, "LULA (PT) (ELEITO) 2T": 1906.0, "Total_Votos_Validos 2T": 2907.0, "Votos_Brancos 2T": 27.0, "Votos_Nulos 2T": 79.0, "Abstenções 2T": 1309.0, "Eleitores_Aptos 2T": 4322.0, "mun_code_y": "3140100", "mun_code": "3140100" }, "geometry": { "type": "Polygon", "coordinates": [ [ [ 6260137.937284963205457, 7904828.715372745878994 ], [ 6260128.79586867056787, 7904780.006958385929465 ], [ 6260124.360691202804446, 7904725.669528795406222 ], [ 6260127.843929181806743, 7904675.89566842187196 ], [ 6260141.187017841264606, 7904620.037005556747317 ], [ 6260162.448398786596954, 7904568.741809868253767 ], [ 6260194.977813096717, 7904529.478836442343891 ], [ 6260238.335199635475874, 7904497.187305326573551 ], [ 6260282.311095061711967, 7904472.659115058369935 ], [ 6260329.709923100657761, 7904458.30937113147229 ], [ 6260376.832219024188817, 7904441.376299692317843 ], [ 6260418.108751411549747, 7904414.425558833405375 ], [ 6260459.116111746057868, 7904385.004101954400539 ], [ 6260507.073283322155476, 7904347.089317822828889 ], [ 6260539.885285966098309, 7904310.520962825976312 ], [ 6260575.388724083080888, 7904276.261918406002223 ], [ 6260602.591636454686522, 7904234.863218598999083 ], [ 6260590.74920161627233, 7904183.732419622130692 ], [ 6260566.624723385088146, 7904138.848021834157407 ], [ 6260515.184288626536727, 7904072.818934818729758 ], [ 6260493.30382664129138, 7904025.07068319991231 ], [ 6260476.307864878326654, 7903974.395984370261431 ], [ 6260459.588412869721651, 7903926.304500599391758 ], [ 6260452.965345676057041, 7903877.315200200304389 ], [ 6260461.599531070329249, 7903827.084722310304642 ], [ 6260495.24475802667439, 7903769.534698612987995 ], [ 6260516.331466604955494, 7903715.647811438888311 ], [ 6260562.04214796051383, 7903680.59581508859992 ], [ 6260606.186330552212894, 7903658.655773813836277 ], [ 6260652.067898395471275, 7903626.193597747012973 ], [ 6260681.901848877780139, 7903584.618925359100103 ], [ 6260719.475295554846525, 7903544.904456233605742 ], [ 6260759.583749457262456, 7903505.134220881387591 ], [ 6260794.741784933954477, 7903465.69326086435467 ], [ 6260829.623018125072122, 7903423.668955555185676 ], [ 6260848.530036873184144, 7903375.242222936823964 ], [ 6260867.811369895935059, 7903329.278988192789257 ], [ 6260886.815908882766962, 7903280.732477588579059 ], [ 6260900.674379576928914, 7903232.754663344472647 ], [ 6260906.158942871727049, 7903174.927754554897547 ], [ 6260904.694381867535412, 7903125.594503759406507 ], [ 6260895.093321358785033, 7903071.599675084464252 ], [ 6260870.967635427601635, 7903026.716000940650702 ], [ 6260841.517398895695806, 7902979.698332230560482 ], [ 6260812.238549068570137, 7902935.27091053314507 ], [ 6260785.585317854769528, 7902890.555622385814786 ], [ 6260765.888425134122372, 7902837.459333324804902 ], [ 6260753.938425365835428, 7902786.33583899307996 ], [ 6260752.473566168919206, 7902737.002810038626194 ], [ 6260758.300037126988173, 7902684.356502199545503 ], [ 6260761.71149293333292, 7902631.984068240970373 ], [ 6260767.537701845169067, 7902579.337720300070941 ], [ 6260767.973249247297645, 7902521.960163747891784 ], [ 6260753.771884156391025, 7902473.588261194527149 ], [ 6260708.403626705519855, 7902451.384777773171663 ], [ 6260652.644845915026963, 7902456.002209672704339 ], [ 6260595.947191005572677, 7902481.607866218313575 ], [ 6260547.315778218209743, 7902480.434125249274075 ], [ 6260506.749765654094517, 7902511.639093193225563 ], [ 6260515.147888109087944, 7902678.599688235670328 ], [ 6260517.515542261302471, 7902738.391711559146643 ], [ 6260521.955387698486447, 7902792.729516375809908 ], [ 6260518.648268403485417, 7902845.094494485296309 ], [ 6260504.863256650976837, 7902895.781479957513511 ], [ 6260483.331170809455216, 7902944.495538800023496 ], [ 6260448.727431458421052, 7902989.102507475763559 ], [ 6260402.399983175098896, 7903016.391587607562542 ], [ 6260355.005473952740431, 7903030.743630497716367 ], [ 6260304.300327450968325, 7903035.022663665935397 ], [ 6260240.410971203818917, 7903035.088823728263378 ], [ 6260188.533685209229589, 7903026.437761908397079 ], [ 6260137.380771561525762, 7903025.543058085255325 ], [ 6260090.037868936546147, 7903008.672346498817205 ], [ 6260037.98207988217473, 7902997.318218582309783 ], [ 6259980.438112230040133, 7902981.352263012900949 ], [ 6259931.357889435254037, 7902975.003062169998884 ], [ 6259883.738771988078952, 7902955.548919025808573 ], [ 6259838.46879680082202, 7902933.223820673301816 ], [ 6259788.04566303268075, 7902911.354593351483345 ], [ 6259739.697327076457441, 7902912.874068260192871 ], [ 6259681.304096337407827, 7902917.663080126978457 ], [ 6259630.770400161854923, 7902924.530658470466733 ], [ 6259581.474269680678844, 7902946.924797959625721 ], [ 6259532.841948419809341, 7902945.747998738661408 ], [ 6259488.757280468940735, 7902907.734609358012676 ], [ 6259476.63962437491864, 7902854.022227444685996 ], [ 6259452.069606022909284, 7902803.965764805674553 ], [ 6259396.875773653388023, 7902785.127965333871543 ], [ 6259338.937973305583, 7902795.201991894282401 ], [ 6259297.941607678309083, 7902824.73484003636986 ], [ 6259256.66120789013803, 7902851.571826052851975 ], [ 6259210.161633851006627, 7902876.267326490022242 ], [ 6259185.658679291605949, 7902920.085615590214729 ], [ 6259182.518815589137375, 7902975.038318537175655 ], [ 6259191.936679749749601, 7903026.328399304300547 ], [ 6259216.505873853340745, 7903076.38493515457958 ], [ 6259230.873795207589865, 7903127.345969709567726 ], [ 6259227.391420378349721, 7903177.118536725640297 ], [ 6259219.9927450530231, 7903242.873365234583616 ], [ 6259208.836445976980031, 7903293.38224757835269 ], [ 6259195.599715203978121, 7903349.232308259233832 ], [ 6259179.111198661848903, 7903397.494065813720226 ], [ 6259165.150274211540818, 7903445.587737072259188 ], [ 6259120.161955703049898, 7903488.391727605834603 ], [ 6259071.929277936927974, 7903523.719861947931349 ], [ 6259068.340370500460267, 7903573.499104700982571 ], [ 6259095.265657533891499, 7903620.7979023354128 ], [ 6259129.759491020813584, 7903667.367512797936797 ], [ 6259151.807775253430009, 7903717.705098318867385 ], [ 6259140.642702427692711, 7903768.101047311909497 ], [ 6259100.537675520405173, 7903807.978439098224044 ], [ 6259056.733590248972178, 7903835.094202311709523 ], [ 6259012.587357502430677, 7903857.029634343460202 ], [ 6258971.303387993946671, 7903883.86449440009892 ], [ 6258939.391953372396529, 7903930.887956742197275 ], [ 6258936.078188331797719, 7903983.249995542690158 ], [ 6258917.514239764772356, 7904036.964535277336836 ], [ 6258898.771682312712073, 7904087.976308303885162 ], [ 6258882.735178492963314, 7904141.522757004015148 ], [ 6258863.715952368453145, 7904189.951304649934173 ], [ 6258834.77088707126677, 7904241.8667519595474 ], [ 6258808.182507703080773, 7904291.02408386580646 ], [ 6258768.864036427810788, 7904341.253039077855647 ], [ 6258736.325068451464176, 7904380.399626703001559 ], [ 6258682.592879457399249, 7904411.000370394438505 ], [ 6258636.705550415441394, 7904443.45507924631238 ], [ 6258592.557035226374865, 7904465.388499374501407 ], [ 6258546.222278554923832, 7904492.669731746427715 ], [ 6258510.714854762889445, 7904526.92290854640305 ], [ 6258477.906047505326569, 7904563.598147323355079 ], [ 6258447.893750039860606, 7904602.575858543626964 ], [ 6258396.835061611607671, 7904664.101139090955257 ], [ 6258367.000580451451242, 7904705.781190919689834 ], [ 6258345.287196103483438, 7904751.898542583920062 ], [ 6258315.891898350790143, 7904798.638841959647834 ], [ 6258291.374033585190773, 7904842.340763580985367 ], [ 6258255.865111447870731, 7904876.592846998013556 ], [ 6258217.828066831454635, 7904911.012582771480083 ], [ 6258171.498760989867151, 7904938.404630318284035 ], [ 6258133.461378924548626, 7904972.82404824718833 ], [ 6258094.131188374012709, 7905022.937228257767856 ], [ 6258072.587053549475968, 7905071.643708004616201 ], [ 6258074.324531273916364, 7905123.668559484183788 ], [ 6258083.736385134980083, 7905174.957954213954508 ], [ 6258100.626861609518528, 7905225.751115493476391 ], [ 6258122.49307269603014, 7905273.386584342457354 ], [ 6258151.489072365686297, 7905315.233174433931708 ], [ 6258165.680808147415519, 7905363.604171063750982 ], [ 6258144.411939075216651, 7905414.893633687868714 ], [ 6258117.095242066308856, 7905456.291950565762818 ], [ 6258074.007447408512235, 7905491.158659076318145 ], [ 6258030.025885671377182, 7905515.679086794145405 ], [ 6257983.345435549505055, 7905537.777048986405134 ], [ 6257933.762864196673036, 7905557.579116633161902 ], [ 6257876.262059319764376, 7905572.816679256036878 ], [ 6257825.095643440261483, 7905571.799700262956321 ], [ 6257765.190499630756676, 7905558.581814589910209 ], [ 6257714.700050005689263, 7905534.107901148498058 ], [ 6257668.713765144348145, 7905504.132581456564367 ], [ 6257609.924167252145708, 7905472.518201237544417 ], [ 6257557.872151542454958, 7905461.267362298443913 ], [ 6257501.381455663591623, 7905458.114695206284523 ], [ 6257449.946853301487863, 7905454.626587910577655 ], [ 6257399.852165561169386, 7905466.657250894233584 ], [ 6257352.895287479273975, 7905486.170441165566444 ], [ 6257311.887581256218255, 7905515.694118511863053 ], [ 6257271.326304288581014, 7905550.390585895627737 ], [ 6257226.943089619278908, 7905600.947911492548883 ], [ 6257192.940313508734107, 7905653.304974961094558 ], [ 6257171.392158468253911, 7905702.008737661875784 ], [ 6257144.519157129339874, 7905748.577217902988195 ], [ 6257136.765087985433638, 7905809.146510101854801 ], [ 6257131.538923319429159, 7905869.548192963935435 ], [ 6257120.534014927223325, 7905922.529088707640767 ], [ 6257119.568711430765688, 7905972.130136271938682 ], [ 6257099.253470154479146, 7906036.359257413074374 ], [ 6257070.127034144476056, 7906085.67777912132442 ], [ 6257035.058691773563623, 7906125.098022820428014 ], [ 6256987.489923399873078, 7906136.958958001807332 ], [ 6256931.443942995741963, 7906138.976522728800774 ], [ 6256883.547014660201967, 7906116.929694450460374 ], [ 6256833.056887414306402, 7906092.453422195278108 ], [ 6256770.347313709557056, 7906076.816659016534686 ], [ 6256713.075253333896399, 7906063.420719268731773 ], [ 6256653.445659288205206, 7906052.782089957967401 ], [ 6256584.668875718489289, 7906055.868514283560216 ], [ 6256533.849878382869065, 7906060.140040528029203 ], [ 6256484.028768473304808, 7906074.750138747505844 ], [ 6256433.655980858951807, 7906084.194211550988257 ], [ 6256393.254394771531224, 7906121.364602363668382 ], [ 6256382.083833608776331, 7906171.866518809460104 ], [ 6256378.928935725241899, 7906226.813662244006991 ], [ 6256376.049686240963638, 7906284.343720054253936 ], [ 6256372.731500659137964, 7906336.813537314534187 ], [ 6256364.081109100021422, 7906387.035288579761982 ], [ 6256350.552079961635172, 7906440.294379337690771 ], [ 6256344.86832978297025, 7906495.408855370245874 ], [ 6256334.313300970941782, 7906553.673262013122439 ], [ 6256333.515213311649859, 7906605.862947933375835 ], [ 6256345.172778083011508, 7906654.400451297871768 ], [ 6256354.748252069577575, 7906708.278225805610418 ], [ 6256358.998923876322806, 7906760.020515989512205 ], [ 6256358.47622686997056, 7906814.793159175664186 ], [ 6256355.149463854730129, 7906867.150267420336604 ], [ 6256357.495527520775795, 7906926.935313923284411 ], [ 6256348.175415446981788, 7906968.605886996723711 ], [ 6256328.538189271464944, 7907033.578462215140462 ], [ 6256301.132400290109217, 7907080.178382717072964 ], [ 6256263.085051557049155, 7907114.58984568156302 ], [ 6256221.794956382364035, 7907141.525379509665072 ], [ 6256183.747280296869576, 7907175.936540078371763 ], [ 6256142.732567667961121, 7907205.454689693637192 ], [ 6256060.249318487942219, 7907259.205117930658162 ], [ 6256016.535586153157055, 7907286.300245442427695 ], [ 6255972.37577614095062, 7907308.22241990827024 ], [ 6255925.14370740391314, 7907325.258541980758309 ], [ 6255875.488610134460032, 7907342.454836623743176 ], [ 6255826.166562281548977, 7907364.718094838783145 ], [ 6255774.882118077017367, 7907392.539449306204915 ], [ 6255728.533955464139581, 7907419.807801179587841 ], [ 6255682.022800392471254, 7907444.598714257590473 ], [ 6255625.130109664984047, 7907467.588206637650728 ], [ 6255573.562064677476883, 7907492.713241503573954 ], [ 6255521.548091727308929, 7907512.665339317172766 ], [ 6255471.786765442229807, 7907529.867130772210658 ], [ 6255414.723347291350365, 7907550.265904383733869 ], [ 6255308.125690747983754, 7907559.125556180253625 ], [ 6255241.701674189418554, 7907559.447166080586612 ], [ 6255192.790927287191153, 7907555.783162338659167 ], [ 6255119.235059253871441, 7907561.891244372352958 ], [ 6255070.316952279768884, 7907558.114358408376575 ], [ 6254981.50800296664238, 7907565.569762751460075 ], [ 6254926.802226955071092, 7907583.209841316565871 ], [ 6254872.429200334474444, 7907605.91672127135098 ], [ 6254822.667116347700357, 7907623.116459497250617 ], [ 6254775.368510823696852, 7907637.552127710543573 ], [ 6254717.583117431029677, 7907650.192898113280535 ], [ 6254668.096219824627042, 7907669.974938468076289 ], [ 6254613.998054154217243, 7907695.263632860034704 ], [ 6254554.136937161907554, 7907713.356087829917669 ], [ 6254496.626594397239387, 7907728.578832159750164 ], [ 6254436.312421686016023, 7907741.385637225583196 ], [ 6254336.892029248178005, 7907775.774999113753438 ], [ 6254290.816166665405035, 7907805.621171226724982 ], [ 6254243.516714787110686, 7907820.055118098855019 ], [ 6254194.198874538764358, 7907842.425230441614985 ], [ 6254139.208836022764444, 7907857.366937619633973 ], [ 6254068.795387085527182, 7907871.065631177276373 ], [ 6254017.971266297623515, 7907875.327798915095627 ], [ 6253963.433707496151328, 7907895.554017772898078 ], [ 6253916.741665443405509, 7907917.636592073366046 ], [ 6253851.147156491875648, 7907959.626527314074337 ], [ 6253807.598367110826075, 7907989.303922993130982 ], [ 6253762.418879980221391, 7908029.605712664313614 ], [ 6253721.3907330930233, 7908059.003180018626153 ], [ 6253680.815017408691347, 7908093.685572984628379 ], [ 6253636.99028532858938, 7908120.779512859880924 ], [ 6253579.522554069757462, 7908167.319878075271845 ], [ 6253514.639149894937873, 7908216.950424090027809 ], [ 6253454.536938916891813, 7908263.663978634402156 ], [ 6253406.827315268106759, 7908304.131087175570428 ], [ 6253361.095448365435004, 7908339.265575115568936 ], [ 6253320.518200803548098, 7908373.946525507606566 ], [ 6253274.883904902264476, 7908408.961081832647324 ], [ 6253224.539576021954417, 7908449.60116783156991 ], [ 6253178.637059267610312, 7908482.145163568668067 ], [ 6253134.915796615183353, 7908509.230143187567592 ], [ 6253074.026794916950166, 7908545.589739746414125 ], [ 6253018.356850985437632, 7908584.09242323692888 ], [ 6252977.778219617903233, 7908618.772028928622603 ], [ 6252917.163592859171331, 7908657.713499585166574 ], [ 6252879.275401078164577, 7908694.702965651638806 ], [ 6252844.360358288511634, 7908736.697848157025874 ], [ 6252803.166338028386235, 7908763.61470160074532 ], [ 6252742.445387663319707, 7908802.562130272388458 ], [ 6252687.048832644708455, 7908843.645791855640709 ], [ 6252640.359889278188348, 7908865.835846622474492 ], [ 6252596.976132143288851, 7908898.09801731351763 ], [ 6252545.674672431312501, 7908925.793575130403042 ], [ 6252507.792316390201449, 7908962.894217703491449 ], [ 6252468.43299207650125, 7909012.983146440237761 ], [ 6252462.845089178532362, 7909068.19515040051192 ], [ 6252456.706993227824569, 7909118.24174948874861 ], [ 6252443.160206110216677, 7909171.490720841102302 ], [ 6252421.865332067012787, 7909222.762737517245114 ], [ 6252386.777949318289757, 7909262.166051923297346 ], [ 6252344.112086393870413, 7909302.181909716688097 ], [ 6252302.810335439629853, 7909329.103580587543547 ], [ 6252261.783428892493248, 7909358.607780627906322 ], [ 6252212.394238730892539, 7909378.372899726964533 ], [ 6252149.544599139131606, 7909391.335746655240655 ], [ 6252102.408822497352958, 7909408.351150750182569 ], [ 6252049.940874301828444, 7909423.117033650167286 ], [ 6252000.445938305929303, 7909442.888362903147936 ], [ 6251907.394502080976963, 7909492.329155381768942 ], [ 6251890.879561016336083, 7909540.683665974065661 ], [ 6251872.103396769613028, 7909591.674793933518231 ], [ 6251846.095066898502409, 7909648.570046695880592 ], [ 6251816.604833602905273, 7909692.690740490332246 ], [ 6251786.571998296305537, 7909731.758599348366261 ], [ 6251749.56705067679286, 7909779.087931744754314 ], [ 6251719.970840045250952, 7909823.215178017504513 ], [ 6251701.200806649401784, 7909874.318305461667478 ], [ 6251697.855157662183046, 7909926.666831815615296 ], [ 6251736.943643532693386, 7909967.739410759881139 ], [ 6251791.530040424317122, 7909978.843516744673252 ], [ 6251840.44531580619514, 7909982.518824494443834 ], [ 6251894.756947491317987, 7909991.040054509416223 ], [ 6251955.557151978835464, 7910014.625258051790297 ], [ 6252011.371728476136923, 7910041.252709990367293 ], [ 6252060.052267803810537, 7910073.664786683395505 ], [ 6252101.154320923611522, 7910106.689252022653818 ], [ 6252144.235345431603491, 7910134.381753643043339 ], [ 6252185.33760642260313, 7910167.406209195032716 ], [ 6252234.463078876025975, 7910204.990537999197841 ], [ 6252278.87780050560832, 7910248.19994705170393 ], [ 6252322.509095157496631, 7910281.057787476107478 ], [ 6252366.310056284070015, 7910316.505257175303996 ], [ 6252415.161156612448394, 7910351.506881416775286 ], [ 6252453.735405152663589, 7910384.697961235418916 ], [ 6252490.127536993473768, 7910423.347559413872659 ], [ 6252528.87891109008342, 7910459.240897335112095 ], [ 6252562.912080641835928, 7910500.646815251559019 ], [ 6252596.613578939810395, 7910536.986049418337643 ], [ 6252635.082934859208763, 7910570.184127303771675 ], [ 6252669.398669152520597, 7910614.285422512330115 ], [ 6252719.713499892503023, 7910636.073424289003015 ], [ 6252769.082555433735251, 7910645.032581327483058 ], [ 6252816.876203259453177, 7910667.099699784070253 ], [ 6252869.550471531227231, 7910686.131187141872942 ], [ 6252920.148017589002848, 7910710.614266351796687 ], [ 6252956.266313172876835, 7910746.681202448904514 ], [ 6252995.011444075033069, 7910782.461946433410048 ], [ 6253041.003753988072276, 7910812.563320001587272 ], [ 6253091.149809597991407, 7910831.76126966625452 ], [ 6253139.524989660829306, 7910830.381996255367994 ], [ 6253189.05697760079056, 7910841.817649520933628 ], [ 6253242.346254335716367, 7910868.610827267169952 ], [ 6253273.859708401374519, 7910910.296160613186657 ], [ 6253295.717483073472977, 7910958.045951064676046 ], [ 6253304.833365930244327, 7911006.74877583887428 ], [ 6253310.402390838600695, 7911074.004687387496233 ], [ 6253322.491543091833591, 7911127.713338105939329 ], [ 6253321.401416270062327, 7911177.315087411552668 ], [ 6253335.68006806448102, 7911225.677693149074912 ], [ 6253345.240261510014534, 7911279.553094399161637 ], [ 6253341.896039130166173, 7911331.904301859438419 ], [ 6253322.681301241740584, 7911377.838039441034198 ], [ 6253287.144089424982667, 7911412.069148344919086 ], [ 6253238.257786508649588, 7911439.603341026231647 ], [ 6253186.22842316608876, 7911459.541827147826552 ], [ 6253142.222601693123579, 7911484.040070926770568 ], [ 6253106.790137488394976, 7911518.263621058315039 ], [ 6253076.923846941441298, 7911559.922867640852928 ], [ 6253081.157548556104302, 7911611.661127770319581 ], [ 6253080.171265850774944, 7911661.255525731481612 ], [ 6253079.798835875466466, 7911718.612048174254596 ], [ 6253091.442047575488687, 7911767.148229006677866 ], [ 6253096.564253334887326, 7911829.231412163004279 ], [ 6253108.207374764606357, 7911877.767643390223384 ], [ 6253127.535197040066123, 7911925.684574907645583 ], [ 6253136.818876022472978, 7911976.977154568769038 ], [ 6253161.366678476333618, 7912027.038070887327194 ], [ 6253211.385078713297844, 7912074.968821990303695 ], [ 6253254.300648832693696, 7912100.072759493254125 ], [ 6253301.927774062380195, 7912119.551454721018672 ], [ 6253340.844011171720922, 7912157.923211522400379 ], [ 6253390.151034597307444, 7912198.211320422589779 ], [ 6253423.258067261427641, 7912241.602198020555079 ], [ 6253446.036417432129383, 7912287.256726745516062 ], [ 6253460.217265852726996, 7912356.772601945325732 ], [ 6253488.390675136819482, 7912425.027472357265651 ], [ 6253528.27634116820991, 7912453.949789626523852 ], [ 6253570.521559928543866, 7912480.115761129185557 ], [ 6253615.062177661806345, 7912500.928694569505751 ], [ 6253673.808191187679768, 7912502.71243560127914 ], [ 6253722.841528269462287, 7912512.938688954338431 ], [ 6253773.661542256362736, 7912510.042570011690259 ], [ 6253822.518036972731352, 7912517.566284561529756 ], [ 6253869.941464466974139, 7912519.68847840745002 ], [ 6253885.060909214429557, 7912522.220395697280765 ], [ 6253922.71070165373385, 7912530.075280780903995 ], [ 6253965.868641568347812, 7912571.786329619586468 ], [ 6253973.726931557059288, 7912620.686161742545664 ], [ 6253977.035837888717651, 7912677.688579416833818 ], [ 6253969.776706641539931, 7912730.072410101071 ], [ 6253955.028362504206598, 7912782.836583465337753 ], [ 6253937.483256001025438, 7912833.29711414501071 ], [ 6253899.924597872421145, 7912890.051809870637953 ], [ 6253861.0506457593292, 7912923.48467614594847 ], [ 6253817.853256789967418, 7912970.09367763902992 ], [ 6253789.611033814959228, 7913010.741649093106389 ], [ 6253766.829884307458997, 7913058.832498383708298 ], [ 6253757.145623770542443, 7913111.375467661768198 ], [ 6253735.445130253210664, 7913177.601290295831859 ], [ 6253758.58924788236618, 7913225.607189001515508 ], [ 6253803.131217949092388, 7913246.42083103954792 ], [ 6253852.399837229400873, 7913261.834358679130673 ], [ 6253913.677245453000069, 7913263.452197015285492 ], [ 6253972.199314066208899, 7913260.162601007148623 ], [ 6254020.315378036350012, 7913254.731247855350375 ], [ 6254072.754722735844553, 7913236.12336468975991 ], [ 6254120.708549687638879, 7913228.21455495338887 ], [ 6254183.780060773715377, 7913216.821705052629113 ], [ 6254234.6019905526191, 7913213.925495729781687 ], [ 6254296.218477717600763, 7913220.721689023077488 ], [ 6254362.561432652175426, 7913222.117442906834185 ], [ 6254439.706427559256554, 7913233.318096393719316 ], [ 6254477.461301875300705, 7913270.070761553011835 ], [ 6254480.600850091315806, 7913324.48421432543546 ], [ 6254477.46094941906631, 7913402.60708493180573 ], [ 6254463.017416354268789, 7913463.267975801602006 ], [ 6254454.076393292285502, 7913528.7681570565328 ], [ 6254450.427131807431579, 7913599.121550510637462 ], [ 6254443.506206602789462, 7913656.685648408718407 ], [ 6254467.571043560281396, 7913720.350413978099823 ], [ 6254495.775011931546032, 7913768.023660458624363 ], [ 6254536.002682627178729, 7913802.126109328120947 ], [ 6254585.068904587998986, 7913856.454024886712432 ], [ 6254620.875402026809752, 7913903.852687834762037 ], [ 6254637.579313412308693, 7913973.091615841723979 ], [ 6254633.526262266561389, 7914035.668997072614729 ], [ 6254616.480603763833642, 7914093.78725067153573 ], [ 6254586.110605323687196, 7914142.379274499602616 ], [ 6254547.798970948904753, 7914186.066172414459288 ], [ 6254501.567811437882483, 7914225.185685956850648 ], [ 6254448.072972600348294, 7914269.759134071879089 ], [ 6254406.327251475304365, 7914298.178922318853438 ], [ 6254356.986312687397003, 7914326.985663372091949 ], [ 6254320.807150376029313, 7914362.841349793598056 ], [ 6254279.738775379955769, 7914401.619785148650408 ], [ 6254246.427382168360054, 7914442.488184371963143 ], [ 6254224.384902278892696, 7914503.535005134530365 ], [ 6254220.336565721780062, 7914566.224029974080622 ], [ 6254223.868518579751253, 7914628.300850704312325 ], [ 6254234.430637622252107, 7914679.737239494919777 ], [ 6254248.361729890108109, 7914743.843443215824664 ], [ 6254256.733286997303367, 7914800.62597775273025 ], [ 6254267.521326804533601, 7914857.136357354931533 ], [ 6254273.864289009943604, 7914921.742210386320949 ], [ 6254284.659557883627713, 7914978.36524454317987 ], [ 6254286.572501704096794, 7915056.154361825436354 ], [ 6254282.861747467890382, 7915124.022996807470918 ], [ 6254276.275315465405583, 7915186.76593378931284 ], [ 6254264.453236410394311, 7915247.139429798349738 ], [ 6254249.431469175964594, 7915297.432814809493721 ], [ 6254215.909464615397155, 7915424.144508145749569 ], [ 6254200.81579075474292, 7915471.728379845619202 ], [ 6254166.51796087063849, 7915541.270272857509553 ], [ 6254146.195731580257416, 7915586.597092639654875 ], [ 6254120.709118939936161, 7915632.26364818867296 ], [ 6254087.224144509062171, 7915670.54053820669651 ], [ 6254043.685215857811272, 7915712.079695288091898 ], [ 6253995.185221904888749, 7915753.83194437995553 ], [ 6253943.372993431054056, 7915785.39823439065367 ], [ 6253896.322395120747387, 7915808.848352708853781 ], [ 6253796.725382577627897, 7915851.020848244428635 ], [ 6253749.674417970702052, 7915874.470432968810201 ], [ 6253689.694096392951906, 7915896.056250812485814 ], [ 6253619.595838125795126, 7915918.307229313068092 ], [ 6253571.867573328316212, 7915931.397231333889067 ], [ 6253519.249555579386652, 7915947.409496650099754 ], [ 6253459.043083652853966, 7915963.920564418658614 ], [ 6253349.796025592833757, 7915970.19933882728219 ], [ 6253281.486083781346679, 7915979.32694788556546 ], [ 6253223.463101901113987, 7915990.378822525963187 ], [ 6253167.913106842897832, 7915998.780163148418069 ], [ 6253117.824073885567486, 7916014.624812509864569 ], [ 6253065.205494193360209, 7916030.635565527714789 ], [ 6253011.846518534235656, 7916033.690706223249435 ], [ 6252938.879319275729358, 7916050.925495401024818 ], [ 6252891.150323834270239, 7916064.013459167443216 ], [ 6252840.891794800758362, 7916077.267515875399113 ], [ 6252774.877981538884342, 7916081.040551748126745 ], [ 6252700.261162397451699, 7916069.773962893523276 ], [ 6252650.657347047701478, 7916049.287300803698599 ], [ 6252597.036720687523484, 7916002.943643402308226 ], [ 6252551.582947129383683, 7915966.579545116052032 ], [ 6252508.764145701192319, 7915930.042310593649745 ], [ 6252463.479701593518257, 7915896.267874432727695 ], [ 6252416.398574814200401, 7915875.502252321690321 ], [ 6252352.076939267106354, 7915866.272420968860388 ], [ 6252298.887509597465396, 7915871.915566519834101 ], [ 6252246.036163941025734, 7915882.737847503274679 ], [ 6252204.451476878486574, 7915913.738846240565181 ], [ 6252166.46659121196717, 7915962.595327934250236 ], [ 6252133.047974308952689, 7916003.575586350634694 ], [ 6252089.094934492371976, 7916037.219286853447556 ], [ 6252040.251776956021786, 7916073.784714382141829 ], [ 6251991.077744774520397, 7916105.28325308766216 ], [ 6251939.197709361091256, 7916134.245484631508589 ], [ 6251892.376464359462261, 7916162.875267591327429 ], [ 6251870.033429040573537, 7916173.275439294055104 ], [ 6251847.690367714501917, 7916183.675572643056512 ], [ 6251793.273018766194582, 7916212.690698156133294 ], [ 6251757.090848074294627, 7916248.64957242179662 ], [ 6251737.33169636502862, 7916304.335611326619983 ], [ 6251743.219991767778993, 7916363.76519142370671 ], [ 6251764.165553709492087, 7916417.117856243625283 ], [ 6251772.752181117422879, 7916478.971032353118062 ], [ 6251767.951785879209638, 7916528.699592558667064 ], [ 6251767.520128956064582, 7916565.081259045749903 ], [ 6251767.088421607390046, 7916601.46292361151427 ], [ 6251754.612244478426874, 7916695.794198416173458 ], [ 6251744.74488571844995, 7916745.742196470499039 ], [ 6251729.874410914257169, 7916798.506186002865434 ], [ 6251716.087980939075351, 7916869.516904504969716 ], [ 6251711.279287750832736, 7916919.132703541778028 ], [ 6251698.881704455241561, 7916969.246567606925964 ], [ 6251674.863448491320014, 7917040.815520678646863 ], [ 6251643.899187515489757, 7917078.918121579103172 ], [ 6251587.63129642419517, 7917118.568041712976992 ], [ 6251541.038501045666635, 7917152.381421446800232 ], [ 6251447.331711146049201, 7917207.151452369987965 ], [ 6251408.608825165778399, 7917243.161605298519135 ], [ 6251367.01849047280848, 7917274.158384803682566 ], [ 6251322.489998569712043, 7917297.432694246992469 ], [ 6251246.585602289065719, 7917307.04810587503016 ], [ 6251183.32934042531997, 7917315.833525407128036 ], [ 6251117.944323873147368, 7917332.560269065201283 ], [ 6251056.270209980197251, 7917367.24778962880373 ], [ 6251036.006750924512744, 7917415.275154284201562 ], [ 6251056.949392292648554, 7917468.628020577132702 ], [ 6251095.037414709106088, 7917510.566983623430133 ], [ 6251130.096926927566528, 7917545.015754517167807 ], [ 6251175.211858515627682, 7917576.204398651607335 ], [ 6251230.895893227308989, 7917612.014194873161614 ], [ 6251289.067743413150311, 7917650.261449107900262 ], [ 6251349.642719808965921, 7917683.149742228910327 ], [ 6251399.648796425200999, 7917711.416845108382404 ], [ 6251458.095353917218745, 7917752.24667383916676 ], [ 6251498.320480968803167, 7917786.356666911393404 ], [ 6251545.628454741090536, 7917812.200031437911093 ], [ 6251593.21807590406388, 7917840.738644157536328 ], [ 6251650.990062871016562, 7917871.209949104115367 ], [ 6251711.798342696391046, 7917909.284084886312485 ], [ 6251758.874596456065774, 7917929.941150580532849 ], [ 6251803.99106761161238, 7917961.129532165825367 ], [ 6251853.942223021760583, 7917986.912391498684883 ], [ 6251913.128925617784262, 7918040.697036458179355 ], [ 6251946.159632137045264, 7918082.968097202479839 ], [ 6251977.061730355024338, 7918133.180979236029088 ], [ 6251985.477054466493428, 7918192.445201164111495 ], [ 6251991.636755025014281, 7918254.458133325912058 ], [ 6252005.224204109981656, 7918313.496154045686126 ], [ 6252026.801964648999274, 7918379.812159705907106 ], [ 6252056.588245390914381, 7918453.504949862137437 ], [ 6252083.056795201264322, 7918516.899534181691706 ], [ 6252111.766933402046561, 7918572.458056889474392 ], [ 6252140.878113920800388, 7918635.792489865794778 ], [ 6252177.009025369770825, 7918688.263612749986351 ], [ 6252208.249169920571148, 7918743.656349837779999 ], [ 6252234.253565997816622, 7918796.678804773837328 ], [ 6252262.11999568156898, 7918839.289323098957539 ], [ 6252293.697915678843856, 7918899.86152851395309 ], [ 6252319.604379832744598, 7918953.003639079630375 ], [ 6252322.558609537780285, 7919004.824513269588351 ], [ 6252322.912167552858591, 7919054.102171260863543 ], [ 6252315.971519269049168, 7919111.660466103814542 ], [ 6252298.341465838253498, 7919159.516919529996812 ], [ 6252273.747232704423368, 7919220.720615947619081 ], [ 6252246.383365881629288, 7919276.791288427077234 ], [ 6252213.797995215281844, 7919330.716591600328684 ], [ 6252178.907152681611478, 7919389.881260838359594 ], [ 6252153.341456783935428, 7919432.943033406510949 ], [ 6252128.337730728089809, 7919486.257620209828019 ], [ 6252113.404889500699937, 7919536.537193533033133 ], [ 6252101.634551681578159, 7919599.612891278229654 ], [ 6252089.62466418556869, 7919657.389736418612301 ], [ 6252077.389937891624868, 7919710.092920332215726 ], [ 6252075.113561576232314, 7919759.655563834123313 ], [ 6252068.170445373281837, 7919817.213165400549769 ], [ 6252058.865863192826509, 7919877.526233163662255 ], [ 6252054.389141207560897, 7919932.32137149758637 ], [ 6252052.280945893377066, 7919984.473599772900343 ], [ 6252049.996639839373529, 7920033.923580793663859 ], [ 6252058.746170876547694, 7920098.367599415592849 ], [ 6252069.23184872418642, 7920147.206709335558116 ], [ 6252085.346753276884556, 7920206.079689179547131 ], [ 6252108.482539149932563, 7920254.089724818244576 ], [ 6252149.111419438384473, 7920295.977980231866241 ], [ 6252191.933143248781562, 7920332.521114435046911 ], [ 6252234.459835733287036, 7920361.281456718221307 ], [ 6252279.579928731545806, 7920392.47251929435879 ], [ 6252329.928921922110021, 7920425.921550494618714 ], [ 6252355.265256280079484, 7920468.699231719598174 ], [ 6252365.743879673071206, 7920517.42614059150219 ], [ 6252353.402255753055215, 7920570.136487159878016 ], [ 6252325.134780115447938, 7920610.773912772536278 ], [ 6252271.607462020590901, 7920655.328206237405539 ], [ 6252237.94211726821959, 7920691.117642488330603 ], [ 6252196.341726211830974, 7920722.112447824329138 ], [ 6252137.584829776547849, 7920764.40797932446003 ], [ 6252093.390762544237077, 7920792.971619747579098 ], [ 6252043.854970787651837, 7920819.171306273899972 ], [ 6251996.280210688710213, 7920834.839544835500419 ], [ 6251941.283606209792197, 7920853.594549627974629 ], [ 6251897.088988455012441, 7920882.15747931599617 ], [ 6251855.648719879798591, 7920915.628075157292187 ], [ 6251832.783950174227357, 7920961.224284470081329 ], [ 6251815.540722823701799, 7921016.741780907846987 ], [ 6251798.866031143814325, 7921082.624631281942129 ], [ 6251794.056133240461349, 7921132.35240161139518 ], [ 6251789.575855668634176, 7921187.14682300761342 ], [ 6251796.210747130215168, 7921303.742358901537955 ], [ 6251810.354394665919244, 7921373.034125974401832 ], [ 6251823.368024514988065, 7921421.707653544843197 ], [ 6251846.415238929912448, 7921513.935530694201589 ], [ 6251854.361049994826317, 7921562.827935320325196 ], [ 6251875.141063570976257, 7921613.706721685826778 ], [ 6251896.145346079953015, 7921669.659139393828809 ], [ 6251928.839454689063132, 7921706.754443407058716 ], [ 6251974.466081599704921, 7921745.716629614122212 ], [ 6252027.353870183229446, 7921779.115020893514156 ], [ 6252071.801168082281947, 7921799.949636904522777 ], [ 6252121.582991577684879, 7921823.035548800602555 ], [ 6252163.837266543880105, 7921849.215110434219241 ], [ 6252213.963679476641119, 7921877.592858107760549 ], [ 6252281.970557561144233, 7921907.400190051645041 ], [ 6252351.440852524712682, 7921919.019673530012369 ], [ 6252408.484273648820817, 7921936.541322316974401 ], [ 6252457.937001715414226, 7921954.560098256915808 ], [ 6252509.68839443102479, 7921967.226790269836783 ], [ 6252563.464429305866361, 7921971.958577506244183 ], [ 6252619.876194773241878, 7921976.517574168741703 ], [ 6252673.483720591291785, 7921978.659410668537021 ], [ 6252777.69771880377084, 7921972.623246118426323 ], [ 6252828.037435351870954, 7921961.975025640800595 ], [ 6252880.506964646279812, 7921943.384817812591791 ], [ 6252932.407342598773539, 7921914.428655570372939 ], [ 6252979.415662599727511, 7921888.393613587133586 ], [ 6253026.479717687703669, 7921864.842422544024885 ], [ 6253078.379615063779056, 7921835.885640740394592 ], [ 6253176.106417570263147, 7921762.764723530039191 ], [ 6253217.540121425874531, 7921729.178630145266652 ], [ 6253256.612099063582718, 7921698.347966555505991 ], [ 6253297.708081546239555, 7921659.582070950418711 ], [ 6253338.410515503957868, 7921613.152458915486932 ], [ 6253379.821886789985001, 7921535.353416278958321 ], [ 6253427.713532402180135, 7921480.649517500773072 ], [ 6253455.981388938613236, 7921440.009997418150306 ], [ 6253494.482591850683093, 7921398.812393190339208 ], [ 6253527.649035509675741, 7921355.363626365549862 ], [ 6253575.287713479250669, 7921342.288565328344703 ], [ 6253628.429639562033117, 7921334.054088350385427 ], [ 6253680.39013463165611, 7921307.691099600866437 ], [ 6253736.230887530371547, 7921301.880084585398436 ], [ 6253901.307540031149983, 7921292.408994417637587 ], [ 6253955.356667976826429, 7921299.719133676029742 ], [ 6254006.601427665911615, 7921304.612272807396948 ], [ 6254054.971060967072845, 7921304.379113748669624 ], [ 6254113.919172835536301, 7921308.879708874039352 ], [ 6254168.770617897622287, 7921331.741991512477398 ], [ 6254231.444989587180316, 7921359.292690934613347 ], [ 6254278.698786433786154, 7921382.540277760475874 ], [ 6254332.980623641051352, 7921395.036200533621013 ], [ 6254383.824629131704569, 7921392.15224897954613 ], [ 6254428.531626844778657, 7921371.464597593992949 ], [ 6254474.853546814061701, 7921334.952308886684477 ], [ 6254503.126253004185855, 7921294.422538344748318 ], [ 6254543.648389844223857, 7921245.285967596806586 ], [ 6254574.281962987966835, 7921202.0000443411991 ], [ 6254605.182321138679981, 7921161.184301493689418 ], [ 6254643.743786759674549, 7921122.579539121128619 ], [ 6254690.64203511737287, 7921096.545033305883408 ], [ 6254745.637377226725221, 7921077.781562823802233 ], [ 6254793.548997499980032, 7921067.285730543546379 ], [ 6254849.11452778428793, 7921058.88818219024688 ], [ 6254912.552173597738147, 7921052.687619524076581 ], [ 6254963.451466610655189, 7921052.28583715762943 ], [ 6255012.165908331982791, 7921057.342380435205996 ], [ 6255126.502846516668797, 7921050.739096346311271 ], [ 6255175.153785245493054, 7921053.198486816138029 ], [ 6255229.097605348564684, 7921060.512113445438445 ], [ 6255333.636933481320739, 7921106.570694904774427 ], [ 6255381.06083257496357, 7921132.406067837029696 ], [ 6255425.680242784321308, 7921155.824623765423894 ], [ 6255478.341040592640638, 7921184.030053407885134 ], [ 6255526.308944135904312, 7921176.016660738736391 ], [ 6255583.841429576277733, 7921157.197031106799841 ], [ 6255617.509826166555285, 7921121.511607768014073 ], [ 6255658.93755420204252, 7921087.917314399965107 ], [ 6255712.452346266247332, 7921043.237786993384361 ], [ 6255755.846284876577556, 7920999.222913830541074 ], [ 6255793.665105185471475, 7920947.657977296039462 ], [ 6255819.058426205068827, 7920901.998254798352718 ], [ 6255856.305739539675415, 7920840.06639717053622 ], [ 6255887.273493263870478, 7920801.956250514835119 ], [ 6255928.128683729097247, 7920757.99412059225142 ], [ 6255984.348048567771912, 7920715.849228996783495 ], [ 6256022.672623887658119, 7920672.052961536683142 ], [ 6256055.767644322477281, 7920625.999192941002548 ], [ 6256078.291035624220967, 7920575.324972465634346 ], [ 6256105.979782333597541, 7920524.311096427030861 ], [ 6256144.874675255268812, 7920490.880882907658815 ], [ 6256292.309081014245749, 7920409.149884402751923 ], [ 6256290.565341031178832, 7920363.010729406028986 ], [ 6256302.959817556664348, 7920312.888525095768273 ], [ 6256350.932491747662425, 7920304.984351187944412 ], [ 6256400.146103775128722, 7920317.693988097831607 ], [ 6256440.277105435729027, 7920351.809479080140591 ], [ 6256489.254088536836207, 7920406.265063595026731 ], [ 6256527.694022909738123, 7920453.38415833376348 ], [ 6256565.231496636755764, 7920485.069176219403744 ], [ 6256619.746187487617135, 7920502.74536635633558 ], [ 6256671.730902897194028, 7920520.58785910718143 ], [ 6256722.565255654044449, 7920517.583995373919606 ], [ 6256780.496779395267367, 7920506.536068229004741 ], [ 6256936.261473898775876, 7920466.43439594656229 ], [ 6256985.557183581404388, 7920435.031640665605664 ], [ 6257012.396730477921665, 7920371.065039714798331 ], [ 6257047.044281701557338, 7920306.697679866105318 ], [ 6257084.116073183715343, 7920242.170597731135786 ], [ 6257128.382349450141191, 7920169.479547078721225 ], [ 6257156.646413729526103, 7920128.941846638917923 ], [ 6257191.928390465676785, 7920077.537608401849866 ], [ 6257225.350127250887454, 7920036.547124328091741 ], [ 6257253.444251358509064, 7919993.419041889719665 ], [ 6257289.29753889888525, 7919952.381330939009786 ], [ 6257327.213936200365424, 7919900.803005877882242 ], [ 6257368.868244837038219, 7919872.388952951878309 ], [ 6257483.205488393083215, 7919865.880656656809151 ], [ 6257531.854286417365074, 7919868.332930948585272 ], [ 6257576.305401022545993, 7919889.156652146019042 ], [ 6257614.013696681708097, 7919923.430183736607432 ], [ 6257639.524188754148781, 7919968.685313815250993 ], [ 6257657.614123268984258, 7920017.0301797632128 ], [ 6257668.516832805238664, 7920073.651795208454132 ], [ 6257671.377840257249773, 7920125.487322403118014 ], [ 6257679.340251451358199, 7920174.385851081460714 ], [ 6257687.705383606255054, 7920231.061467287130654 ], [ 6257690.904945162124932, 7920288.077117100358009 ], [ 6257668.789188665337861, 7920346.532851250842214 ], [ 6257632.999284879304469, 7920390.168230227194726 ], [ 6257576.043180141597986, 7920419.363163552246988 ], [ 6257531.349275091663003, 7920440.173512547276914 ], [ 6257501.296289065852761, 7920493.835498200729489 ], [ 6257529.682429481297731, 7920544.217217210680246 ], [ 6257602.085556020960212, 7920563.428618202917278 ], [ 6257650.566691206768155, 7920563.291611835360527 ], [ 6257714.54142164811492, 7920523.229980023577809 ], [ 6257748.20426993817091, 7920487.538112321868539 ], [ 6257791.019671650603414, 7920433.148350229486823 ], [ 6257826.873372633010149, 7920392.109529141336679 ], [ 6257861.010207523591816, 7920319.969065986573696 ], [ 6257886.163613084703684, 7920269.116375169716775 ], [ 6257911.719654805958271, 7920226.04069129563868 ], [ 6257943.389451381750405, 7920156.663300403393805 ], [ 6257960.37973000202328, 7920095.942814596928656 ], [ 6257974.324040765874088, 7920027.506040767766535 ], [ 6257991.547324118204415, 7919971.972469080239534 ], [ 6258010.961455482058227, 7919911.092087931931019 ], [ 6258025.30799828376621, 7919850.432226480916142 ], [ 6258044.657567130401731, 7919786.954664508812129 ], [ 6258072.112597746774554, 7919730.859943573363125 ], [ 6258105.659647908061743, 7919695.060604577884078 ], [ 6258169.664862697944045, 7919699.214050602167845 ], [ 6258216.992852513678372, 7919725.162703271023929 ], [ 6258255.0979911275208, 7919767.100127924233675 ], [ 6258280.553350118920207, 7919809.870819446630776 ], [ 6258308.602831471711397, 7919855.071926642209291 ], [ 6258329.055032762698829, 7919900.660400142893195 ], [ 6258347.380364284850657, 7919954.192764301784337 ], [ 6258353.451396264135838, 7920016.222979684360325 ], [ 6258354.059223370626569, 7920070.809273719787598 ], [ 6258351.790569167584181, 7920120.269407762214541 ], [ 6258354.928210240788758, 7920174.689068412408233 ], [ 6258355.366241666488349, 7920226.68527121283114 ], [ 6258368.284892112016678, 7920275.258273988962173 ], [ 6258398.630968629382551, 7920315.106012516655028 ], [ 6258436.405147518962622, 7920351.976421343162656 ], [ 6258483.493551158346236, 7920372.625847621820867 ], [ 6258532.37741962634027, 7920380.26374432630837 ], [ 6258582.540794522501528, 7920367.007108017802238 ], [ 6258635.509082768112421, 7920356.166825887747109 ], [ 6258686.011367911472917, 7920348.090089130215347 ], [ 6258730.372265449725091, 7920322.208767506293952 ], [ 6258766.329166616313159, 7920281.160075994208455 ], [ 6258791.713848957791924, 7920235.492039069533348 ], [ 6258806.567629819735885, 7920182.600716009736061 ], [ 6258823.958619492128491, 7920129.655254747718573 ], [ 6258861.532737479545176, 7920072.891667224466801 ], [ 6258928.78278436884284, 7920045.72734453715384 ], [ 6258984.917041463777423, 7920047.683385904878378 ], [ 6259035.015001725405455, 7920031.827873824164271 ], [ 6259082.582875940948725, 7920016.138925617560744 ], [ 6259140.270682021975517, 7919999.782856359146535 ], [ 6259187.499161073938012, 7919978.913272294215858 ], [ 6259254.67682964168489, 7919949.037709354422987 ], [ 6259316.285376880317926, 7919911.724875891581178 ], [ 6259370.764083324931562, 7919885.173989440314472 ], [ 6259418.840271716937423, 7919877.254387822002172 ], [ 6259468.832005329430103, 7919861.40430324152112 ], [ 6259521.628726895898581, 7919847.970468399114907 ], [ 6259575.338039899244905, 7919850.084457864053547 ], [ 6259622.668332669883966, 7919876.031221207231283 ], [ 6259650.89069729950279, 7919923.822592751123011 ], [ 6259656.626576947048306, 7919980.674521865323186 ], [ 6259644.403636827133596, 7920033.281553914770484 ], [ 6259609.127945948392153, 7920084.693862294778228 ], [ 6259566.495801581069827, 7920141.793657978996634 ], [ 6259528.51246758364141, 7920190.66957819648087 ], [ 6259486.584912572987378, 7920216.506215652450919 ], [ 6259442.394863347522914, 7920244.9800665974617 ], [ 6259391.824837171472609, 7920297.286324292421341 ], [ 6259366.335894502699375, 7920342.962830200791359 ], [ 6259387.129521215334535, 7920393.732343142852187 ], [ 6259431.753278158605099, 7920417.144126195460558 ], [ 6259482.425165990367532, 7920411.655515520833433 ], [ 6259524.021453348919749, 7920380.751411967910826 ], [ 6259570.104558285325766, 7920339.145951034501195 ], [ 6259625.968287635594606, 7920291.692786656320095 ], [ 6259669.690466597676277, 7920252.843815477564931 ], [ 6259703.349167117848992, 7920217.146357856690884 ], [ 6259757.255293443799019, 7920180.226944454945624 ], [ 6259824.029497835785151, 7920142.571897146292031 ], [ 6259873.044775309041142, 7920108.575761567801237 ], [ 6259903.833273205906153, 7920067.864035412669182 ], [ 6259939.108166138641536, 7920016.450744090601802 ], [ 6259967.301948235370219, 7919973.308442393317819 ], [ 6259979.282467000186443, 7919915.400698844343424 ], [ 6259993.792774440720677, 7919857.326041935011744 ], [ 6259990.827104019001126, 7919805.606752270832658 ], [ 6259969.789945743978024, 7919749.537286619655788 ], [ 6259966.412950216792524, 7919689.927858975715935 ], [ 6259971.206666711717844, 7919640.298193854279816 ], [ 6260021.132963727228343, 7919621.848984464071691 ], [ 6260071.463045510463417, 7919611.177181034348905 ], [ 6260125.00211741682142, 7919610.699177966453135 ], [ 6260179.284677753224969, 7919623.179075801745057 ], [ 6260228.40199002251029, 7919635.999645386822522 ], [ 6260280.558692030608654, 7919656.423896284773946 ], [ 6260328.052161066792905, 7919684.846938253380358 ], [ 6260363.130100464448333, 7919719.291973265819252 ], [ 6260406.073243342339993, 7919755.819534807465971 ], [ 6260439.187784442678094, 7919800.686799068003893 ], [ 6260472.642001477070153, 7919850.734577296301723 ], [ 6260495.976343169808388, 7919901.450094102881849 ], [ 6260529.260899448767304, 7919948.907723199576139 ], [ 6260559.675941460765898, 7919991.351825807243586 ], [ 6260590.026670913212001, 7920031.198758187703788 ], [ 6260620.951240431517363, 7920081.413674443028867 ], [ 6260653.832125389948487, 7920121.093746927566826 ], [ 6260690.05845107883215, 7920176.274981130845845 ], [ 6260725.809132033027709, 7920220.968708882108331 ], [ 6260760.88808860629797, 7920255.414048193022609 ], [ 6260799.168995140120387, 7920299.940903968177736 ], [ 6260829.98862474784255, 7920350.163027508184314 ], [ 6260879.083927223458886, 7920404.608546435832977 ], [ 6260918.003340597264469, 7920462.100787002593279 ], [ 6260948.354864984750748, 7920501.948052149266005 ], [ 6260973.710688713937998, 7920544.726445771753788 ], [ 6261006.76222275942564, 7920586.997115888632834 ], [ 6261044.775973949581385, 7920629.053522462956607 ], [ 6261075.467390675097704, 7920674.081474425271153 ], [ 6261091.333844292908907, 7920730.380467101000249 ], [ 6261089.070773348212242, 7920779.844959388487041 ], [ 6261024.18767047021538, 7920804.371990015730262 ], [ 6260969.198102304711938, 7920823.156189878471196 ], [ 6260916.900930803269148, 7920844.250930391252041 ], [ 6260868.765489735640585, 7920849.688345812261105 ], [ 6260806.242234905250371, 7920871.457229321822524 ], [ 6260760.264904379844666, 7920913.05929284542799 ], [ 6260729.370067765936255, 7920953.779490623623133 ], [ 6260745.106532580219209, 7921004.883848190307617 ], [ 6260777.818133898079395, 7921041.974509435705841 ], [ 6260822.282310912385583, 7921062.907511975616217 ], [ 6260889.970204501412809, 7921087.62477052025497 ], [ 6260956.511088964529335, 7921091.605783212929964 ], [ 6261042.896727690473199, 7921086.586226770654321 ], [ 6261094.653284355066717, 7921099.233404414728284 ], [ 6261142.157410237006843, 7921127.769967396743596 ], [ 6261194.318054081872106, 7921148.194837710820138 ], [ 6261251.029763477854431, 7921160.514905570074916 ], [ 6261302.043112536892295, 7921160.203294032253325 ], [ 6261310.634076157584786, 7921160.428264188580215 ], [ 6261363.354288952425122, 7921161.926744809374213 ], [ 6261436.97666559368372, 7921157.634678159840405 ], [ 6261492.548281614668667, 7921149.330374556593597 ], [ 6261541.024098404683173, 7921149.07248505577445 ], [ 6261611.549738498404622, 7921134.691073386929929 ], [ 6261678.729510815814137, 7921104.807829106226563 ], [ 6261733.217333558946848, 7921078.363441336899996 ], [ 6261769.405174182727933, 7921042.494254712946713 ], [ 6261816.464218958280981, 7920972.200297823175788 ], [ 6261828.272235941141844, 7920911.698285023681819 ], [ 6261842.787440302781761, 7920853.732161768712103 ], [ 6261884.679651737213135, 7920783.778622087091208 ], [ 6261927.647977870889008, 7920731.851565536111593 ], [ 6261958.604274487122893, 7920693.725182390771806 ], [ 6262001.813874756917357, 7920647.098018085584044 ], [ 6262032.592455363832414, 7920606.268379334360361 ], [ 6262080.634615451097488, 7920554.231643449515104 ], [ 6262127.110451065935194, 7920520.282908193767071 ], [ 6262168.363377067260444, 7920484.190415435470641 ], [ 6262209.374187001958489, 7920442.797433750703931 ], [ 6262231.079952044412494, 7920376.663390927016735 ], [ 6262237.64754100702703, 7920313.791369727812707 ], [ 6262223.974647115916014, 7920252.256251140497625 ], [ 6262198.275916151702404, 7920204.297248423099518 ], [ 6262179.600118212401867, 7920145.581155193038285 ], [ 6262161.094305398873985, 7920089.455468961969018 ], [ 6262145.118489740416408, 7920033.162705367431045 ], [ 6262131.275436914525926, 7919969.03744756616652 ], [ 6262120.699556800536811, 7919917.591221819631755 ], [ 6262111.511728489771485, 7919845.353747031651437 ], [ 6262122.910988725721836, 7919777.072534720413387 ], [ 6262137.081998339854181, 7919713.92442050203681 ], [ 6262161.648045415058732, 7919652.691019352525473 ], [ 6262179.028682146221399, 7919599.737019588239491 ], [ 6262195.834324588999152, 7919536.414541740901768 ], [ 6262233.801523307338357, 7919487.41634339094162 ], [ 6262299.895317318849266, 7919439.500186917372048 ], [ 6262349.819177350029349, 7919421.0437399642542 ], [ 6262400.317892570979893, 7919412.955578874796629 ], [ 6262464.728963310830295, 7919424.873837600462139 ], [ 6262490.081145690754056, 7919467.538928398862481 ], [ 6262513.591220294125378, 7919520.845417454838753 ], [ 6262524.3313864544034, 7919574.769704387523234 ], [ 6262550.266010618768632, 7919627.916045158170164 ], [ 6262576.873639713972807, 7919691.311359910294414 ], [ 6262597.408220537006855, 7919739.611434722319245 ], [ 6262643.460784900933504, 7919786.338209873996675 ], [ 6262707.408242348581553, 7919834.710204706527293 ], [ 6262757.776042435318232, 7919868.143627463839948 ], [ 6262817.7037303596735, 7919890.764824155718088 ], [ 6262872.394060965627432, 7919911.017342909239233 ], [ 6262920.769002713263035, 7919910.87397363781929 ], [ 6262982.776154070161283, 7919881.324200201779604 ], [ 6263029.190811267122626, 7919844.886770844459534 ], [ 6263069.687173349782825, 7919795.718907129019499 ], [ 6263096.617890513502061, 7919731.837655881419778 ], [ 6263108.523899808526039, 7919671.32507630623877 ], [ 6263125.561754865571856, 7919613.187907832674682 ], [ 6263119.644925566390157, 7919553.740544433705509 ], [ 6263109.378207495436072, 7919374.903642343357205 ], [ 6263111.633465062826872, 7919325.435730567201972 ], [ 6263114.522170602343976, 7919242.104077119380236 ], [ 6263116.704962226562202, 7919189.926120590418577 ], [ 6263118.384409041143954, 7919130.08950986340642 ], [ 6263130.353440033271909, 7919072.17402886133641 ], [ 6263140.027442822232842, 7919019.61364636849612 ], [ 6263156.593128599226475, 7918951.100380181334913 ], [ 6263182.944851966574788, 7918876.849428432993591 ], [ 6263189.918146046809852, 7918821.865792634896934 ], [ 6263201.821272890083492, 7918761.352616216056049 ], [ 6263219.431737221777439, 7918713.583385845646262 ], [ 6263234.099413019604981, 7918658.090561199001968 ], [ 6263254.174474256113172, 7918607.556417865678668 ], [ 6263273.908774167299271, 7918551.841324890963733 ], [ 6263285.883159074932337, 7918494.037870618514717 ], [ 6263303.590713300742209, 7918446.148690612055361 ], [ 6263315.56472038384527, 7918388.345123653300107 ], [ 6263334.892652879469097, 7918324.851441144943237 ], [ 6263361.639296687208116, 7918258.264982784166932 ], [ 6263392.520639134570956, 7918217.534961608238518 ], [ 6263420.02036183513701, 7918164.020033498294652 ], [ 6263447.106797249056399, 7918102.614040408283472 ], [ 6263456.136645659804344, 7918037.086502147838473 ], [ 6263464.151525788009167, 7917956.128880521282554 ], [ 6263475.710611568763852, 7917890.433795982971787 ], [ 6263472.148763938806951, 7917828.228228347375989 ], [ 6263451.617943871766329, 7917780.041491767391562 ], [ 6263413.494383870624006, 7917737.996614438481629 ], [ 6263365.828231249004602, 7917706.99032474681735 ], [ 6263312.519360273145139, 7917665.837585830129683 ], [ 6263269.336795423179865, 7917624.127664973959327 ], [ 6263248.465605532750487, 7917570.760290775448084 ], [ 6263234.842691328376532, 7917511.709741802886128 ], [ 6263215.584328430704772, 7917442.625469186343253 ], [ 6263196.837050255388021, 7917381.312527686357498 ], [ 6263188.621456993743777, 7917327.220652557909489 ], [ 6263177.698375921696424, 7917270.593217707239091 ], [ 6263182.413991089910269, 7917218.360103571787477 ], [ 6263204.844229394569993, 7917165.067252192646265 ], [ 6263240.611330354586244, 7917121.411197199486196 ], [ 6263288.403202969580889, 7917110.894144512712955 ], [ 6263355.805432349443436, 7917086.296058245934546 ], [ 6263450.280343811959028, 7917088.636938026174903 ], [ 6263504.218951494432986, 7917095.924329733476043 ], [ 6263551.775158368051052, 7917080.21866930089891 ], [ 6263629.185689802281559, 7917008.238300315104425 ], [ 6263670.181018456816673, 7916966.836117064580321 ], [ 6263703.246388296596706, 7916920.755516584962606 ], [ 6263721.389524800702929, 7916890.821293847635388 ], [ 6263735.905453484505415, 7916866.896405558101833 ], [ 6263763.805790353566408, 7916821.157640271820128 ], [ 6263760.24074533674866, 7916758.951643105596304 ], [ 6263759.716663244180381, 7916704.349454287439585 ], [ 6263758.347316523082554, 7916636.907588089816272 ], [ 6263770.24247089214623, 7916576.392143290489912 ], [ 6263755.645723819732666, 7916322.499943193048239 ], [ 6263747.524867384694517, 7916268.287978204898536 ], [ 6263709.696111653931439, 7916187.312198439612985 ], [ 6263668.4662956148386, 7916135.068094907328486 ], [ 6263632.814604728482664, 7916090.372783713974059 ], [ 6263607.110335075296462, 7916042.416592296212912 ], [ 6263570.540921395644546, 7915982.171699341386557 ], [ 6263536.323090940713882, 7915919.056185298599303 ], [ 6263505.389545809477568, 7915868.844939665868878 ], [ 6263494.982348089106381, 7915820.101498390547931 ], [ 6263491.822298374027014, 7915765.674332694150507 ], [ 6263486.473851191811264, 7915716.595680112950504 ], [ 6263485.436748847365379, 7915654.222601938061416 ], [ 6263481.81233926396817, 7915589.532366327941418 ], [ 6263488.711727758869529, 7915531.949874136596918 ], [ 6263496.017305205576122, 7915482.145653986372054 ], [ 6263497.273241974413395, 7915414.417041053064167 ], [ 6263499.349190844222903, 7915362.357648994773626 ], [ 6263488.592751071788371, 7915308.320854395627975 ], [ 6263457.829751043580472, 7915260.700601328164339 ], [ 6263424.537463106215, 7915213.248048952780664 ], [ 6263371.060825355350971, 7915169.508949240669608 ], [ 6263331.15665259025991, 7915140.593757935799658 ], [ 6263293.716716857627034, 7915108.91350166965276 ], [ 6263245.542378222569823, 7915070.139563248492777 ], [ 6263200.920997833833098, 7915046.740478806197643 ], [ 6263128.244047358632088, 7915024.861458504572511 ], [ 6263074.310783594846725, 7915017.576573193073273 ], [ 6262995.305171132087708, 7915016.930314401164651 ], [ 6262918.723526165820658, 7915016.123131283558905 ], [ 6262845.012307725846767, 7915020.328850137069821 ], [ 6262774.171456562355161, 7915029.547468880191445 ], [ 6262700.971734616905451, 7915041.523765102028847 ], [ 6262640.596526882611215, 7915055.364900099113584 ], [ 6262592.882748009636998, 7915068.593243974260986 ], [ 6262540.265893377363682, 7915084.521670944988728 ], [ 6262477.767158716917038, 7915106.307811452075839 ], [ 6262410.615605252794921, 7915136.206813026219606 ], [ 6262355.639524674043059, 7915154.892461005598307 ], [ 6262294.930249558761716, 7915163.664149487391114 ], [ 6262224.665072885341942, 7915183.248784529045224 ], [ 6262156.530628486536443, 7915195.000215316191316 ], [ 6262089.135403141379356, 7915219.597417208366096 ], [ 6262041.178022934123874, 7915227.523752477020025 ], [ 6261950.158894643187523, 7915240.56337858736515 ], [ 6261886.571684424765408, 7915244.207796517759562 ], [ 6261832.808950613252819, 7915239.509904799982905 ], [ 6261784.275344864465296, 7915237.067310713231564 ], [ 6261714.882990583777428, 7915228.08754906244576 ], [ 6261647.614382609724998, 7915211.162264738231897 ], [ 6261587.528285313397646, 7915185.956672268919647 ], [ 6261535.313522628508508, 7915162.944678584113717 ], [ 6261482.652794755063951, 7915134.75901204906404 ], [ 6261442.581359272822738, 7915103.251590284518898 ], [ 6261401.365485632792115, 7915051.120527281425893 ], [ 6261380.660081928595901, 7915000.233519377186894 ], [ 6261361.980382922105491, 7914941.520902045071125 ], [ 6261351.407054549083114, 7914890.189550380222499 ], [ 6261375.61776050645858, 7914823.774150129407644 ], [ 6261409.652394903823733, 7914749.016679493710399 ], [ 6261444.335094417445362, 7914687.337020985782146 ], [ 6261508.329174463637173, 7914603.017009672708809 ], [ 6261553.809662907384336, 7914551.028145761229098 ], [ 6261574.112455746158957, 7914505.683137275278568 ], [ 6261604.304051326587796, 7914454.593157047405839 ], [ 6261623.0479183960706, 7914380.733704859390855 ], [ 6261646.679470472037792, 7914303.948840877972543 ], [ 6261667.086766826920211, 7914258.596471796743572 ], [ 6261705.270919086411595, 7914214.781326849013567 ], [ 6261733.272896205075085, 7914169.038813752122223 ], [ 6261755.867900040000677, 7914118.337999648414552 ], [ 6261768.168001379817724, 7914065.60430066101253 ], [ 6261770.416256720200181, 7914016.138008158653975 ], [ 6261766.275020402856171, 7913943.56741183809936 ], [ 6261744.487092670053244, 7913874.654339878819883 ], [ 6261728.504555929452181, 7913818.364751979708672 ], [ 6261717.587726140394807, 7913761.852721315808594 ], [ 6261704.069158459082246, 7913702.798366848379374 ], [ 6261696.427245702594519, 7913570.622988671064377 ], [ 6261704.709968660026789, 7913492.252371986396611 ], [ 6261714.649992358870804, 7913442.276410079561174 ], [ 6261729.372182495892048, 7913389.381922150962055 ], [ 6261767.600727628916502, 7913343.073885213583708 ], [ 6261834.52025980874896, 7913266.359649073332548 ], [ 6261883.684508853591979, 7913235.049150636419654 ], [ 6261936.223105559125543, 7913216.409795912913978 ], [ 6262000.732098291628063, 7913186.68341057933867 ], [ 6262053.270441516302526, 7913168.043612916022539 ], [ 6262102.426599100232124, 7913136.619611093774438 ], [ 6262151.183532729744911, 7913097.530028689652681 ], [ 6262184.638203734531999, 7913059.115336725488305 ], [ 6262200.097932466305792, 7912972.462172605097294 ], [ 6262174.744500351138413, 7912929.801935218274593 ], [ 6262134.844410318881273, 7912900.888172773644328 ], [ 6262101.377277540042996, 7912850.734771373681724 ], [ 6262070.682551512494683, 7912805.714010712690651 ], [ 6262065.097209265455604, 7912751.449858237057924 ], [ 6262081.775851466692984, 7912688.130856085568666 ], [ 6262087.347028862684965, 7912607.223627005703747 ], [ 6262096.772038857452571, 7912549.475607656873763 ], [ 6262071.248064739629626, 7912504.22536486107856 ], [ 6262030.023440726101398, 7912451.985107534565032 ], [ 6261991.26263870857656, 7912396.979895556345582 ], [ 6261950.851410353556275, 7912360.295622515492141 ], [ 6261910.204367493279278, 7912318.423741635866463 ], [ 6261877.493027546443045, 7912281.342068892903626 ], [ 6261839.309874044731259, 7912236.705249609425664 ], [ 6261785.677127972245216, 7912190.491246333345771 ], [ 6261735.891090763732791, 7912167.323648624122143 ], [ 6261673.28240682464093, 7912142.291446435265243 ], [ 6261602.40456292591989, 7912107.400974595919251 ], [ 6261554.911975918337703, 7912078.877962025813758 ], [ 6261512.65539688244462, 7912052.722512448206544 ], [ 6261463.276429577730596, 7912037.33249020203948 ], [ 6261421.020035699009895, 7912011.176978781819344 ], [ 6261378.593129094690084, 7911982.431170926429331 ], [ 6261355.334292551502585, 7911928.005024701356888 ], [ 6261352.694080860354006, 7911921.823135289363563 ], [ 6261336.977791615761817, 7911845.496165347285569 ], [ 6261357.923594334162772, 7911726.470606318674982 ], [ 6261361.247282459400594, 7911674.105384439229965 ], [ 6261366.58039081748575, 7911613.689031088724732 ], [ 6261398.06557981017977, 7911561.492492819204926 ], [ 6261437.583746350370347, 7911513.96630354039371 ], [ 6261481.580524351447821, 7911489.444192658178508 ], [ 6261535.060340945608914, 7911456.261982066556811 ], [ 6261592.303623984567821, 7911438.439570046961308 ], [ 6261644.772597991861403, 7911423.64831302780658 ], [ 6261709.870854688808322, 7911407.792966177687049 ], [ 6261764.697791186161339, 7911390.243263237178326 ], [ 6261832.600771296769381, 7911376.802978014573455 ], [ 6261884.785888587124646, 7911359.314958591014147 ], [ 6261937.254438756033778, 7911344.522697333246469 ], [ 6261989.446797978132963, 7911327.14692772552371 ], [ 6262050.21724178083241, 7911319.495309682562947 ], [ 6262103.027092143893242, 7911309.883140015415847 ], [ 6262170.141142852604389, 7911286.087103359401226 ], [ 6262213.413315343670547, 7911253.805553700774908 ], [ 6262273.51077935192734, 7911207.059532932937145 ], [ 6262313.919540057890117, 7911169.877330217510462 ], [ 6262355.679320076480508, 7911119.483758043497801 ], [ 6262387.607230380177498, 7911072.457335553131998 ], [ 6262431.553567174822092, 7911016.714820615015924 ], [ 6262463.757161200046539, 7910972.271423799917102 ], [ 6262494.968478532508016, 7910917.600086389109492 ], [ 6262532.570859206840396, 7910878.00135313719511 ], [ 6262563.87958550080657, 7910823.210083430632949 ], [ 6262603.384852538816631, 7910775.566426347009838 ], [ 6262635.489344464614987, 7910731.241903210058808 ], [ 6262681.840182349085808, 7910703.956995383836329 ], [ 6262727.736274612136185, 7910671.385541505180299 ], [ 6262773.192428619600832, 7910633.752773020416498 ], [ 6262812.078372129239142, 7910578.344051262363791 ], [ 6262853.492707236669958, 7910522.767173810862005 ], [ 6262880.716767986305058, 7910481.480581134557724 ], [ 6262909.843730075284839, 7910432.149153361096978 ], [ 6262953.388194376602769, 7910402.447556584142148 ], [ 6263004.616531397216022, 7910372.12222630251199 ], [ 6263051.129236368462443, 7910347.31342884991318 ], [ 6263108.480253196321428, 7910329.589653070084751 ], [ 6263155.782022695988417, 7910315.135069249197841 ], [ 6263204.709577079862356, 7910318.897762818261981 ], [ 6263268.79445144534111, 7910321.427001306787133 ], [ 6263334.953228128142655, 7910318.501579821109772 ], [ 6263386.125732116401196, 7910319.399802692234516 ], [ 6263443.250467150472105, 7910330.309489452280104 ], [ 6263505.425229519605637, 7910340.77033744379878 ], [ 6263553.898092702031136, 7910339.245803385041654 ], [ 6263605.249182513915002, 7910342.846577377058566 ], [ 6263666.80557675473392, 7910345.542714471928775 ], [ 6263739.01476747635752, 7910352.507994604296982 ], [ 6263792.716147728264332, 7910353.23719668854028 ], [ 6263859.322598322294652, 7910355.484001048840582 ], [ 6263906.511504355818033, 7910369.768059108406305 ], [ 6263961.457676636986434, 7910386.138203145936131 ], [ 6264037.262108821421862, 7910405.872783455997705 ], [ 6264088.606100333854556, 7910409.35988178756088 ], [ 6264136.467931493185461, 7910400.182283706963062 ], [ 6264192.243192755617201, 7910395.455842571333051 ], [ 6264244.878428277559578, 7910383.245582535862923 ], [ 6264285.280874215066433, 7910346.056234577670693 ], [ 6264311.704149003140628, 7910294.298251274973154 ], [ 6264324.945626636967063, 7910238.43925760127604 ], [ 6264330.721132094971836, 7910183.302952985279262 ], [ 6264318.59997807815671, 7910129.583071071654558 ], [ 6264309.447689916007221, 7910080.75637031532824 ], [ 6264292.276587303727865, 7910027.485516839660704 ], [ 6264257.598436099477112, 7909978.320266621187329 ], [ 6264205.688696993514895, 7909906.997504182159901 ], [ 6264185.817893547937274, 7909851.304520306177437 ], [ 6264141.098765843547881, 7909805.522211481817067 ], [ 6264098.170510441996157, 7909780.435597830452025 ], [ 6264050.534869340248406, 7909760.97882878407836 ], [ 6264002.557012137956917, 7909736.341095606796443 ], [ 6263946.724362481385469, 7909709.73696107044816 ], [ 6263866.537291411310434, 7909666.878858633339405 ], [ 6263818.006851447746158, 7909637.074100111611187 ], [ 6263788.998443610966206, 7909595.224569637328386 ], [ 6263764.249928671866655, 7909542.57141893170774 ], [ 6263739.672584930434823, 7909492.508751907385886 ], [ 6263727.828624209389091, 7909441.373151551000774 ], [ 6263723.107799838297069, 7909384.334020930342376 ], [ 6263733.827303607948124, 7909328.756787545979023 ], [ 6263732.187827808782458, 7909276.716357628814876 ], [ 6263735.052313691005111, 7909219.172752182930708 ], [ 6263740.998243177309632, 7909166.627822080627084 ], [ 6263761.816360330209136, 7909110.152519906871021 ], [ 6263778.130270678550005, 7909059.180343029089272 ], [ 6263801.134076835587621, 7908997.355802218429744 ], [ 6263814.649962900206447, 7908944.080862917937338 ], [ 6263851.400193001143634, 7908862.90258133225143 ], [ 6263867.891858447343111, 7908814.6331319026649 ], [ 6263894.205822363495827, 7908762.882059331983328 ], [ 6263920.005853668786585, 7908703.359530299901962 ], [ 6263957.426767863333225, 7908661.163415065966547 ], [ 6264000.79264429025352, 7908628.86580591276288 ], [ 6264063.357549265958369, 7908613.27716148737818 ], [ 6264134.388629784807563, 7908607.306047897785902 ], [ 6264188.533256271854043, 7908613.20528070256114 ], [ 6264252.441760843619704, 7908613.137725887820125 ], [ 6264308.76489227078855, 7908613.574821629561484 ], [ 6264358.650684179738164, 7908630.277739152312279 ], [ 6264435.411982103250921, 7908662.952449754811823 ], [ 6264482.211689222604036, 7908703.390749834477901 ], [ 6264528.73487345315516, 7908741.245581554248929 ], [ 6264584.671975549310446, 7908767.839963640086353 ], [ 6264635.796974096447229, 7908800.071542708203197 ], [ 6264683.879650540649891, 7908824.699907377362251 ], [ 6264739.711796094663441, 7908851.30114886071533 ], [ 6264807.828999493271112, 7908871.654422895982862 ], [ 6264865.847243727184832, 7908892.906149728223681 ], [ 6264926.109960136935115, 7908911.293315090239048 ], [ 6264973.468456173315644, 7908928.163846932351589 ], [ 6265022.116678382270038, 7908929.336850337684155 ], [ 6265072.502600574865937, 7908919.986287988722324 ], [ 6265127.825229158625007, 7908910.08059692196548 ], [ 6265178.382445259951055, 7908903.320251668803394 ], [ 6265235.271176814101636, 7908880.300153157673776 ], [ 6265279.08403835259378, 7908853.172955306246877 ], [ 6265343.379094258882105, 7908826.944046686403453 ], [ 6265407.397190738469362, 7908798.131298927590251 ], [ 6265454.529130171984434, 7908781.190265864133835 ], [ 6265494.752473197877407, 7908741.404587751254439 ], [ 6265508.711378812789917, 7908693.299759517423809 ], [ 6265532.156832488253713, 7908636.643839744850993 ], [ 6265551.336307914927602, 7908590.679924497380853 ], [ 6265590.833682337775826, 7908543.136045263148844 ], [ 6265631.391422864980996, 7908508.41813475266099 ], [ 6265680.871827486902475, 7908488.604380242526531 ], [ 6265729.519136719405651, 7908489.775083724409342 ], [ 6265791.347480084747076, 7908495.045119298622012 ], [ 6265845.492632105946541, 7908500.940108778886497 ], [ 6265903.797960991971195, 7908496.149683430790901 ], [ 6265959.501198048703372, 7908488.817334108054638 ], [ 6266013.198005481623113, 7908489.537735417485237 ], [ 6266063.78750036098063, 7908464.10540232155472 ], [ 6266089.639716448262334, 7908392.693131485022604 ], [ 6266108.204701432026923, 7908339.075618138536811 ], [ 6266118.22852092795074, 7908273.130300346761942 ], [ 6266157.55181601177901, 7908222.993510356172919 ], [ 6266204.722042185254395, 7908174.709159035235643 ], [ 6266247.02167652361095, 7908129.577575044706464 ], [ 6266286.964256446808577, 7908087.204974291846156 ], [ 6266319.500515814870596, 7908048.041193468496203 ], [ 6266368.986296242102981, 7908028.337299143895507 ], [ 6266419.540797120891511, 7908021.572280349209905 ], [ 6266496.742444419302046, 7907996.965158497914672 ], [ 6266551.277199454605579, 7907976.810779892839491 ], [ 6266662.141063525341451, 7907957.198383435606956 ], [ 6266715.844045314006507, 7907958.028730339370668 ], [ 6266764.661970216780901, 7907961.786880865693092 ], [ 6266821.334613936021924, 7907967.509950620122254 ], [ 6266885.413271960802376, 7907970.023608890362084 ], [ 6266938.937175843864679, 7907968.150105318054557 ], [ 6266994.719864131882787, 7907963.636784192174673 ], [ 6267056.547259462997317, 7907968.902230652049184 ], [ 6267122.038757845759392, 7907989.535814952105284 ], [ 6267153.58314669970423, 7908031.214851618744433 ], [ 6267190.079038000665605, 7908072.563562532886863 ], [ 6267232.448105946183205, 7908121.100583878345788 ], [ 6267267.933925168588758, 7908180.731733987107873 ], [ 6267299.82210092432797, 7908227.592281201854348 ], [ 6267325.822398509830236, 7908295.775995756499469 ], [ 6267345.255227107554674, 7908346.296074184589088 ], [ 6267374.727961596101522, 7908393.431071024388075 ], [ 6267410.596484846435487, 7908426.902376738376915 ], [ 6267455.884495282545686, 7908449.22348334826529 ], [ 6267521.206013522110879, 7908467.266307128593326 ], [ 6267575.531148378737271, 7908475.860359543003142 ], [ 6267620.62704923003912, 7908433.026781933382154 ], [ 6267651.920622484758496, 7908378.329449377954006 ], [ 6267672.658803645521402, 7908319.2451546266675 ], [ 6267689.139809930697083, 7908270.966703349724412 ], [ 6267718.360579390078783, 7908221.724775930866599 ], [ 6267753.289218859747052, 7908148.455813869833946 ], [ 6267779.703882101923227, 7908096.798665197566152 ], [ 6267807.016236327588558, 7908055.490211103111506 ], [ 6267879.099702030420303, 7907999.992173446342349 ], [ 6267929.414233448915184, 7907959.29735451284796 ], [ 6267978.449348249472678, 7907934.41405360866338 ], [ 6268027.933369835838675, 7907914.704996569082141 ], [ 6268075.509837847203016, 7907902.929761365056038 ], [ 6268133.918529318645597, 7907898.124589720740914 ], [ 6268192.670947652310133, 7907898.500728311017156 ], [ 6268249.793227949179709, 7907909.394475341774523 ], [ 6268306.466459052637219, 7907915.113627858459949 ], [ 6268372.62470328528434, 7907912.279337032698095 ], [ 6268464.419324767775834, 7907909.882274922914803 ], [ 6268520.928222537972033, 7907913.122747558169067 ], [ 6268570.755566116422415, 7907898.593573391437531 ], [ 6268626.358578542247415, 7907891.372067149728537 ], [ 6268673.934718041680753, 7907879.595199101604521 ], [ 6268731.550175994634628, 7907864.432098540477455 ], [ 6268788.782894933596253, 7907846.692070438526571 ], [ 6268851.034002521075308, 7907794.560564769431949 ], [ 6268883.564496466889977, 7907755.389353157952428 ], [ 6268914.058908727020025, 7907690.331155389547348 ], [ 6268944.283097436651587, 7907622.801671605557203 ], [ 6268973.213838214054704, 7907570.859058448113501 ], [ 6268986.275051802396774, 7907518.958562085404992 ], [ 6268859.904162342660129, 7907528.082300197333097 ], [ 6268811.535821937024593, 7907529.504063010215759 ], [ 6268752.679022919386625, 7907529.137386964634061 ], [ 6268697.734209982678294, 7907512.782396139577031 ], [ 6268644.868518710136414, 7907491.083873452618718 ], [ 6268606.536587178707123, 7907460.381192607805133 ], [ 6268574.817005569115281, 7907416.112287323921919 ], [ 6268562.441580316051841, 7907357.200259249657393 ], [ 6268545.255606376565993, 7907303.927339991554618 ], [ 6268518.690591869875789, 7907259.201038259081542 ], [ 6268482.438054543919861, 7907223.155093804001808 ], [ 6268433.000011617317796, 7907211.636676088906825 ], [ 6268384.625036148354411, 7907212.945245962589979 ], [ 6268320.548262948170304, 7907210.437624252401292 ], [ 6268269.719102954491973, 7907214.62525393627584 ], [ 6268219.616424508392811, 7907226.570909313857555 ], [ 6268161.943809066899121, 7907239.248336176387966 ], [ 6268107.965185216628015, 7907235.839205639436841 ], [ 6268053.650239436887205, 7907227.361116650514305 ], [ 6267983.230819071643054, 7907240.889348979108036 ], [ 6267927.973508490249515, 7907253.291540436446667 ], [ 6267874.728755068965256, 7907257.752532662823796 ], [ 6267819.336337082087994, 7907236.221693456172943 ], [ 6267788.06772446539253, 7907197.127251630648971 ], [ 6267770.883730963803828, 7907143.855030046775937 ], [ 6267723.346209388226271, 7907124.288703843951225 ], [ 6267657.37011410202831, 7907129.825798340141773 ], [ 6267616.789113320410252, 7907101.875118271447718 ], [ 6267622.712412800639868, 7907049.209717794321477 ], [ 6267649.123800010420382, 7906997.552012314088643 ], [ 6267652.07690095808357, 7906939.993632071651518 ], [ 6267647.901770379394293, 7906888.228785209357738 ], [ 6267633.515805811621249, 7906837.25900949165225 ], [ 6267611.732014821842313, 7906789.611789036542177 ], [ 6267562.916548051871359, 7906785.857300782576203 ], [ 6267451.260452661663294, 7906795.010722209699452 ], [ 6267408.054040044546127, 7906767.348717862740159 ], [ 6267366.231933102011681, 7906723.868168920278549 ], [ 6267332.615484042093158, 7906687.646197900176048 ], [ 6267287.330248346552253, 7906665.327322583645582 ], [ 6267239.577670713886619, 7906674.398955377750099 ], [ 6267188.989903069101274, 7906712.509609682485461 ], [ 6267172.788994991220534, 7906763.371398793533444 ], [ 6267151.148955741897225, 7906811.99409191031009 ], [ 6267100.216840418986976, 7906844.922877717763186 ], [ 6267048.596050913445652, 7906838.752293832600117 ], [ 6266996.758308246731758, 7906861.219473902136087 ], [ 6266934.822463263757527, 7906884.58673950470984 ], [ 6266882.199434969574213, 7906896.810548946261406 ], [ 6266831.199308400973678, 7906898.404285806231201 ], [ 6266786.191529424861073, 7906878.667973513714969 ], [ 6266733.269777094945312, 7906825.745584083721042 ], [ 6266701.382857370190322, 7906778.886296454817057 ], [ 6266676.901392744854093, 7906728.817584998905659 ], [ 6266630.375647714361548, 7906690.967930817976594 ], [ 6266584.470679813995957, 7906660.883132096379995 ], [ 6266527.801664407365024, 7906655.161715794354677 ], [ 6266460.922033575363457, 7906650.234672204591334 ], [ 6266411.486735491082072, 7906638.712977131828666 ], [ 6266364.29514348693192, 7906624.326280131936073 ], [ 6266313.61887714266777, 7906597.274832125753164 ], [ 6266260.883671787567437, 7906609.391679847612977 ], [ 6266211.897398052737117, 7906603.043810572475195 ], [ 6266170.877901669591665, 7906570.030629835091531 ], [ 6266146.561968619003892, 7906522.44021209795028 ], [ 6266136.787126615643501, 7906465.960353027097881 ], [ 6266132.615219876170158, 7906414.197646206244826 ], [ 6266099.832166664302349, 7906356.990365195088089 ], [ 6266085.000897950492799, 7906300.847986709326506 ], [ 6266068.374804180115461, 7906252.744684358127415 ], [ 6266034.4840172752738, 7906213.938948191702366 ], [ 6265978.228191345930099, 7906168.140604105778039 ], [ 6265969.332928239367902, 7906142.487451085820794 ], [ 6265965.964898752979934, 7906107.641192372888327 ], [ 6265967.998953198082745, 7906072.887005871161819 ], [ 6265969.383590003475547, 7906042.701434907503426 ], [ 6265947.995742299593985, 7905992.992830570787191 ], [ 6265930.987285504117608, 7905942.313244440592825 ], [ 6265931.863745611160994, 7905890.100833605974913 ], [ 6265935.439937479794025, 7905840.31029131449759 ], [ 6265903.621321956627071, 7905796.04944830480963 ], [ 6265835.040982477366924, 7905707.970880454406142 ], [ 6265794.022954898886383, 7905674.958432766608894 ], [ 6265739.257013929076493, 7905661.190693005919456 ], [ 6265681.483316970989108, 7905673.87001442629844 ], [ 6265643.904607210308313, 7905713.484443919733167 ], [ 6265605.599868910387158, 7905745.341102004982531 ], [ 6265553.541183402761817, 7905734.107341775670648 ], [ 6265500.300724955275655, 7905738.564349261112511 ], [ 6265451.383168580010533, 7905734.813690745271742 ], [ 6265400.386284766718745, 7905736.405627551488578 ], [ 6265347.145813113078475, 7905740.862213865853846 ], [ 6265281.517898757010698, 7905751.57515306212008 ], [ 6265223.228692700155079, 7905756.481265051290393 ], [ 6265171.162808268330991, 7905745.13401916436851 ], [ 6265113.778783705085516, 7905731.765663319267333 ], [ 6265061.934356406331062, 7905728.548736573196948 ], [ 6265059.918041347526014, 7905728.456951163709164 ], [ 6265010.161712584085763, 7905745.576936857774854 ], [ 6264959.230460029095411, 7905778.499951524659991 ], [ 6264911.104041178710759, 7905813.837642326951027 ], [ 6264870.269801415503025, 7905845.860669801011682 ], [ 6264820.348823867738247, 7905860.502047341316938 ], [ 6264771.259629710577428, 7905854.159170551225543 ], [ 6264719.926774334162474, 7905850.680845338851213 ], [ 6264669.101233575493097, 7905854.861240815371275 ], [ 6264611.366773654706776, 7905836.197897468693554 ], [ 6264573.050534557551146, 7905805.606036040000618 ], [ 6264526.081627714447677, 7905762.581416551955044 ], [ 6264489.666160958819091, 7905723.943995914421976 ], [ 6264460.200017269700766, 7905676.811352178454399 ], [ 6264413.019453158602118, 7905662.535046924836934 ], [ 6264364.598923261277378, 7905632.729915525764227 ], [ 6264345.343152813613415, 7905584.803616654127836 ], [ 6264333.664066891185939, 7905536.259154817089438 ], [ 6264299.777141029015183, 7905497.453344063833356 ], [ 6264244.116042372770607, 7905473.334761152043939 ], [ 6264193.127432512119412, 7905475.036681601777673 ], [ 6264140.679177855141461, 7905489.845185143873096 ], [ 6264083.182222604751587, 7905505.103124899789691 ], [ 6264030.733807142823935, 7905519.911249574273825 ], [ 6263983.610798612236977, 7905536.853026491589844 ], [ 6263935.762500856071711, 7905546.03737673163414 ], [ 6263884.77372425980866, 7905547.738402833230793 ], [ 6263833.157662063837051, 7905541.562401852570474 ], [ 6263785.806421583518386, 7905524.694699577987194 ], [ 6263733.578122845850885, 7905510.866885202005506 ], [ 6263682.802399912849069, 7905483.819857538677752 ], [ 6263632.369756894186139, 7905461.953616854734719 ], [ 6263580.754027220420539, 7905455.777164774015546 ], [ 6263459.023358657956123, 7905466.036587992683053 ], [ 6263406.574710085988045, 7905480.842900550924242 ], [ 6263359.622819900512695, 7905500.37337532825768 ], [ 6263304.369196020998061, 7905512.764352883212268 ], [ 6263253.209142162464559, 7905511.873444059863687 ], [ 6263192.287221532315016, 7905516.949324687942863 ], [ 6263142.408645750954747, 7905500.248886393383145 ], [ 6263094.504710759967566, 7905478.213286284357309 ], [ 6263008.662225469015539, 7905428.048476815223694 ], [ 6262970.170201447792351, 7905394.752604811452329 ], [ 6262931.849666433408856, 7905364.047102779150009 ], [ 6262885.683351051993668, 7905331.488567323423922 ], [ 6262830.928257293999195, 7905317.827501365914941 ], [ 6262785.822298442013562, 7905298.094020491465926 ], [ 6262719.177911548875272, 7905264.636646194383502 ], [ 6262667.115042618475854, 7905253.284706505946815 ], [ 6262605.574537444859743, 7905250.595231526531279 ], [ 6262554.863358767703176, 7905254.876673585735261 ], [ 6262503.248664301820099, 7905248.698044577613473 ], [ 6262454.169464255683124, 7905242.463622573763132 ], [ 6262405.530855497345328, 7905241.290120275691152 ], [ 6262351.567041167989373, 7905237.982405049726367 ], [ 6262296.364662067964673, 7905219.146668190136552 ], [ 6262237.290492081083357, 7905184.958274402655661 ], [ 6262176.315220871940255, 7905158.814652482047677 ], [ 6262130.419717180542648, 7905128.726129377260804 ], [ 6262089.580298, 7905098.301047241315246 ], [ 6262053.341552577912807, 7905062.253210056573153 ], [ 6262012.771513029932976, 7905034.29879339504987 ], [ 6261961.722613088786602, 7905004.666382782161236 ], [ 6261899.123457706533372, 7904989.150511273182929 ], [ 6261850.485597029328346, 7904987.976091030053794 ], [ 6261792.756363428197801, 7904969.307956774719059 ], [ 6261747.659614553675056, 7904949.685918746516109 ], [ 6261700.027541071176529, 7904930.119448466226459 ], [ 6261655.036293677985668, 7904910.490306285209954 ], [ 6261611.564607185311615, 7904880.240223817527294 ], [ 6261575.155659839510918, 7904841.602038473822176 ], [ 6261534.586602687835693, 7904813.647354532033205 ], [ 6261490.772722984664142, 7904778.216733643785119 ], [ 6261445.228799651376903, 7904753.420968325808644 ], [ 6261395.801318645477295, 7904741.891833131201565 ], [ 6261348.402258615009487, 7904756.244091390632093 ], [ 6261307.125812126323581, 7904783.197029951959848 ], [ 6261274.419053267687559, 7904819.759973449632525 ], [ 6261255.582385099492967, 7904870.89671497233212 ], [ 6261236.672203554771841, 7904919.323508930392563 ], [ 6261208.073123715817928, 7904976.425869252532721 ], [ 6261181.040452683344483, 7905020.415737794712186 ], [ 6261140.487185564823449, 7905055.124561799690127 ], [ 6261091.454429184086621, 7905079.990728593431413 ], [ 6261043.890469242818654, 7905091.864047318696976 ], [ 6260999.636963099241257, 7905113.810374978929758 ], [ 6260946.398105766624212, 7905118.255978179164231 ], [ 6260897.483670579269528, 7905114.495929979719222 ], [ 6260846.772794088348746, 7905118.773144084960222 ], [ 6260795.778000427410007, 7905120.354393511079252 ], [ 6260748.213793076574802, 7905132.226861580274999 ], [ 6260694.869538760744035, 7905136.67875278647989 ], [ 6260634.567389762960374, 7905149.510951780714095 ], [ 6260590.58973921276629, 7905174.039240023121238 ], [ 6260536.455660309642553, 7905168.136857287026942 ], [ 6260502.569405884481966, 7905129.217040743678808 ], [ 6260478.445547190494835, 7905084.331994825042784 ], [ 6260451.972280122339725, 7905042.317855234257877 ], [ 6260434.62783382833004, 7904986.349705757573247 ], [ 6260403.098718222230673, 7904944.671774921938777 ], [ 6260355.475664080120623, 7904925.215613445267081 ], [ 6260307.016834637150168, 7904926.740482153370976 ], [ 6260257.760933563113213, 7904917.798922197893262 ], [ 6260209.690620094537735, 7904893.169209690764546 ], [ 6260164.588395549915731, 7904873.43213177099824 ], [ 6260153.309564153663814, 7904854.511981365270913 ], [ 6260137.937284963205457, 7904828.715372745878994 ] ] ] } }
]
}
