{
"type": "FeatureCollection",
"name": "3149002",
"crs": { "type": "name", "properties": { "name": "urn:ogc:def:crs:EPSG::5880" } },
"features": [
{ "type": "Feature", "properties": { "lv_id": "LOC_042486", "id": 202251.0, "CD_SETOR": "314900205000001", "SITUACAO": "Urbana", "CD_SIT": "1", "CD_TIPO": "0", "AREA_KM2": 0.088324049890339998, "CD_REGIAO": "3", "NM_REGIAO": "Sudeste", "CD_UF": "31", "NM_UF": "Minas Gerais", "CD_MUN": "3149002", "NM_MUN": "Pedra Dourada", "CD_DIST": "314900205", "NM_DIST": "Pedra Dourada", "CD_SUBDIST": "31490020500", "NM_SUBDIST": null, "CD_BAIRRO": null, "NM_BAIRRO": null, "CD_NU": null, "NM_NU": null, "CD_FCU": null, "NM_FCU": null, "CD_AGLOM": null, "NM_AGLOM": null, "CD_RGINT": "3106", "NM_RGINT": "Juíz de Fora", "CD_RGI": "310034", "NM_RGI": "Carangola", "CD_CONCURB": null, "NM_CONCURB": null, "mun_code_x": "3149002", "index_right": 37055, "dist_m": 215.91378463804119, "local_id": 455048, "ano": 2022, "cod_localidade_ibge": 3149002, "NR_ZONA": "111", "nr_cep": 36847000.0, "nm_localidade": "PEDRA DOURADA", "nm_locvot": "ESCOLA MUNICIPAL MANOEL QUINTÃO", "ds_endereco": "RUA GLICÉRIO DIAS SOARES S/N", "ds_bairro": "CENTRO", "pred_long": -42.156551, "pred_lat": -20.830122, "pred_dist": 0.021858758488664799, "tse_long": null, "tse_lat": null, "long": -42.156551, "lat": -20.830122, "ID_UNICO": "LOC_042486", "SG_UF": "MG", "CD_MUNICIPIO": "49794", "NR_LOCAL_VOTACAO": "1015", "QT_SECOES_AGREGADAS": 0, "QT_ELEITORES_TRANSFERIDOS": 12, "CIRO GOMES (PDT) (NÃO ELEITO) 1T": 46.0, "CONSTITUINTE EYMAEL (DC) (NÃO ELEITO) 1T": 2.0, "FELIPE D AVILA (NOVO) (NÃO ELEITO) 1T": 18.0, "JAIR BOLSONARO (PL) (2º TURNO) 1T": 740.0, "LULA (PT) (2º TURNO) 1T": 1262.0, "LÉO PÉRICLES (UP) (NÃO ELEITO) 1T": 0.0, "PADRE KELMON (PTB) (NÃO ELEITO) 1T": 2.0, "SIMONE TEBET (MDB) (NÃO ELEITO) 1T": 85.0, "SOFIA MANZANO (PCB) (NÃO ELEITO) 1T": 0.0, "SORAYA THRONICKE (UNIÃO) (NÃO ELEITO) 1T": 9.0, "VERA (PSTU) (NÃO ELEITO) 1T": 0.0, "Total_Votos_Validos 1T": 2164.0, "Votos_Brancos 1T": 17.0, "Votos_Nulos 1T": 82.0, "Abstenções 1T": 475.0, "Eleitores_Aptos 1T": 2738.0, "JAIR BOLSONARO (PL) (NÃO ELEITO) 2T": 824.0, "LULA (PT) (ELEITO) 2T": 1327.0, "Total_Votos_Validos 2T": 2151.0, "Votos_Brancos 2T": 26.0, "Votos_Nulos 2T": 71.0, "Abstenções 2T": 490.0, "Eleitores_Aptos 2T": 2738.0, "mun_code_y": "3149002", "mun_code": "3149002" }, "geometry": { "type": "Polygon", "coordinates": [ [ [ 6230462.04396088141948, 7647689.912007311359048 ], [ 6230439.877404567785561, 7647700.70548796094954 ], [ 6230408.699331907555461, 7647709.561553359031677 ], [ 6230382.692510360851884, 7647720.637800881639123 ], [ 6230355.445157490670681, 7647730.448238633573055 ], [ 6230328.571567675098777, 7647746.790520107373595 ], [ 6230302.668421060778201, 7647757.858952121809125 ], [ 6230265.433969532139599, 7647772.363026712089777 ], [ 6230240.965586146339774, 7647785.926800140179694 ], [ 6230210.445912038907409, 7647803.781337013468146 ], [ 6230188.572177492082119, 7647817.153903940692544 ], [ 6230157.569882945157588, 7647829.841550506651402 ], [ 6230133.778748305514455, 7647835.551797200925648 ], [ 6230102.789613161236048, 7647846.994316838681698 ], [ 6230072.576688129454851, 7647851.933322187513113 ], [ 6230046.091961996629834, 7647856.484652342274785 ], [ 6229991.610363176092505, 7647860.609357804059982 ], [ 6229963.131073853932321, 7647855.016015926375985 ], [ 6229926.69649454113096, 7647844.806134019047022 ], [ 6229903.105423359200358, 7647836.138608478009701 ], [ 6229879.045211651362479, 7647821.05936829186976 ], [ 6229851.523430334404111, 7647811.43719988130033 ], [ 6229823.911142207682133, 7647800.577662131749094 ], [ 6229800.418945971876383, 7647793.259887291118503 ], [ 6229781.354027486406267, 7647776.568829133175313 ], [ 6229774.61955791991204, 7647687.383042966946959 ], [ 6229774.657701327465475, 7647653.678949967026711 ], [ 6229776.212889170274138, 7647623.595180343836546 ], [ 6229775.181556238792837, 7647593.814934986643493 ], [ 6229777.128551286645234, 7647567.660513401962817 ], [ 6229781.372096359729767, 7647540.092983731068671 ], [ 6229785.908711696974933, 7647515.104971701279283 ], [ 6229791.591964101418853, 7647488.675419108942151 ], [ 6229794.400600876659155, 7647458.612400649115443 ], [ 6229798.937098163180053, 7647433.624363157898188 ], [ 6229799.24152032006532, 7647404.98973326664418 ], [ 6229790.827793491072953, 7647376.997070167213678 ], [ 6229784.913182779215276, 7647348.933482319116592 ], [ 6229780.235770159401, 7647320.665705665946007 ], [ 6229775.755917463451624, 7647295.097587244585156 ], [ 6229769.931827886030078, 7647268.271360138431191 ], [ 6229758.734069395810366, 7647237.882641114294529 ], [ 6229749.25922928750515, 7647213.926376227289438 ], [ 6229734.8882293747738, 7647192.931775582954288 ], [ 6229718.893128744326532, 7647166.854568174108863 ], [ 6229700.785886255092919, 7647146.135116571560502 ], [ 6229675.670355841517448, 7647133.735053461045027 ], [ 6229650.82975051086396, 7647126.516931556165218 ], [ 6229625.623729015700519, 7647112.879496270790696 ], [ 6229598.292325232177973, 7647105.844742856919765 ], [ 6229574.033017184585333, 7647105.143033077940345 ], [ 6229548.240185661241412, 7647100.596025159582496 ], [ 6229523.589008446782827, 7647095.964928423985839 ], [ 6229499.230950212106109, 7647093.9133106674999 ], [ 6229473.718018465675414, 7647093.190690776333213 ], [ 6229415.398899832740426, 7647097.597555823624134 ], [ 6229391.13963003270328, 7647096.895609578117728 ], [ 6229367.648426730185747, 7647089.577853202819824 ], [ 6229341.274554105475545, 7647078.514145784080029 ], [ 6229302.057865213602781, 7647065.907909942790866 ], [ 6229266.401465735398233, 7647049.194471108727157 ], [ 6229239.070335892029107, 7647042.159299495629966 ], [ 6229215.480517183430493, 7647033.491609818302095 ], [ 6229188.338712218217552, 7647029.043510902673006 ], [ 6229163.890296991914511, 7647025.754188171587884 ], [ 6229138.775331433862448, 7647013.353663742542267 ], [ 6229105.511275820434093, 7646995.106887485831976 ], [ 6229084.711504408158362, 7646973.228473074734211 ], [ 6229062.773332470096648, 7646952.904018353670835 ], [ 6229040.050601173192263, 7646938.970301063731313 ], [ 6229026.939198515377939, 7646916.639064440503716 ], [ 6229007.483717218972743, 7646896.018785471096635 ], [ 6228991.404273298569024, 7646867.346880428493023 ], [ 6228970.514189352281392, 7646844.231171432882547 ], [ 6228950.589770905673504, 7646817.199373422190547 ], [ 6228934.974408471956849, 7646796.296467896550894 ], [ 6228920.609507317654788, 7646773.944464289583266 ], [ 6228901.063696925528347, 7646752.08690438605845 ], [ 6228889.000374866649508, 7646726.964471800252795 ], [ 6228875.699899319559336, 7646702.046200255863369 ], [ 6228852.796508274972439, 7646685.637871325016022 ], [ 6228824.988829877227545, 7646672.078458434902132 ], [ 6228795.546148125082254, 7646670.400541258975863 ], [ 6228763.50891044922173, 7646668.913541294634342 ], [ 6228734.263715727254748, 7646669.935106918215752 ], [ 6228648.028568922542036, 7646676.39480141736567 ], [ 6228623.860492593608797, 7646676.929444543085992 ], [ 6228598.356529343873262, 7646676.318402151577175 ], [ 6228574.578264323063195, 7646665.063208709470928 ], [ 6228547.815644816495478, 7646665.788690602406859 ], [ 6228520.375257545150816, 7646674.367018583230674 ], [ 6228495.06051654368639, 7646676.342912681400776 ], [ 6228465.708388760685921, 7646675.901766774244606 ], [ 6228440.972740474157035, 7646668.674935884773731 ], [ 6228419.126027507707477, 7646649.587576948106289 ], [ 6228396.12444603163749, 7646631.829148488119245 ], [ 6228375.901575209572911, 7646617.824290111660957 ], [ 6228339.397884665057063, 7646573.80548981577158 ], [ 6228326.279173602350056, 7646551.361863915808499 ], [ 6228310.384972429834306, 7646526.634565754793584 ], [ 6228287.852448206394911, 7646515.287559835240245 ], [ 6228275.609032552689314, 7646487.69067251868546 ], [ 6228257.901971496641636, 7646455.293841129168868 ], [ 6228242.586977265775204, 7646421.363987544551492 ], [ 6228226.405005943961442, 7646392.699905259534717 ], [ 6228213.190876636654139, 7646370.376457113772631 ], [ 6228200.93930971249938, 7646342.667149353772402 ], [ 6228189.842636412940919, 7646313.62893077544868 ], [ 6228178.935158587992191, 7646287.177780637517571 ], [ 6228161.507917167618871, 7646258.605391023680568 ], [ 6228139.192906042560935, 7646233.106717888265848 ], [ 6228123.231255838647485, 7646210.306978425942361 ], [ 6228116.002730224281549, 7646212.761306898668408 ], [ 6228092.402902603149414, 7646221.05671317782253 ], [ 6228063.220963777974248, 7646240.053567454218864 ], [ 6228037.594084847718477, 7646256.300899967551231 ], [ 6228016.966988625004888, 7646269.579363722354174 ], [ 6227988.183107832446694, 7646276.898931810632348 ], [ 6227960.932413201779127, 7646288.06362637784332 ], [ 6227940.78220225404948, 7646307.865794744342566 ], [ 6227922.925291169434786, 7646324.78516861051321 ], [ 6227897.401896844618022, 7646341.024533832445741 ], [ 6227876.662556217052042, 7646354.197883173823357 ], [ 6227851.139061390422285, 7646370.437137830071151 ], [ 6227826.573077920824289, 7646382.647936071269214 ], [ 6227801.916606301441789, 7646393.621406633406878 ], [ 6227776.967201783321798, 7646402.015430160798132 ], [ 6227750.407507980242372, 7646404.082039969041944 ], [ 6227722.301326154731214, 7646403.548330938443542 ], [ 6227692.090840167365968, 7646408.484297508373857 ], [ 6227668.490520731545985, 7646416.778905210085213 ], [ 6227640.951620198786259, 7646424.006123524159193 ], [ 6227617.071727865375578, 7646428.476350205019116 ], [ 6227590.692856961861253, 7646433.017232604324818 ], [ 6227566.61050920933485, 7646436.145263756625354 ], [ 6227537.546659567393363, 7646439.63958793412894 ], [ 6227509.342878485098481, 7646453.474278943613172 ], [ 6227483.33695006929338, 7646464.546368144452572 ], [ 6227460.303648879751563, 7646480.601640302687883 ], [ 6227441.291052489541471, 7646498.84904046356678 ], [ 6227418.167231875471771, 7646513.666950637474656 ], [ 6227394.258278640918434, 7646534.875175372697413 ], [ 6227371.035721552558243, 7646548.343238035216928 ], [ 6227347.435043815523386, 7646556.637246903032064 ], [ 6227317.413236483000219, 7646564.159392178058624 ], [ 6227290.166765531525016, 7646573.965245647355914 ], [ 6227263.872840594500303, 7646581.100117405876517 ], [ 6227239.125301114283502, 7646590.835228298790753 ], [ 6227215.425884219817817, 7646597.779265753924847 ], [ 6227191.447039161808789, 7646600.899012609384954 ], [ 6227166.523141872137785, 7646591.083769460208714 ], [ 6227142.55186758376658, 7646578.597597711719573 ], [ 6227127.037465474568307, 7646559.044088327325881 ], [ 6227111.528255127370358, 7646538.133222075179219 ], [ 6227089.395600574091077, 7646515.108370989561081 ], [ 6227066.872230124659836, 7646503.872734377160668 ], [ 6227042.893515839241445, 7646506.992336753755808 ], [ 6227017.467028560116887, 7646508.861344635486603 ], [ 6226991.663116551935673, 7646521.274618159979582 ], [ 6226973.993970258161426, 7646540.779435435310006 ], [ 6226959.954602295532823, 7646574.26564840786159 ], [ 6226942.852253974415362, 7646601.531315133906901 ], [ 6226915.871904779225588, 7646632.123786172829568 ], [ 6226890.6211665449664, 7646653.54257380310446 ], [ 6226887.529212508350611, 7646679.778408072888851 ], [ 6226895.845118599012494, 7646705.062772423960268 ], [ 6226900.238899204879999, 7646729.504578413441777 ], [ 6226900.874847849830985, 7646755.35336238052696 ], [ 6226886.276256825774908, 7646781.190909544937313 ], [ 6226873.013364601880312, 7646808.174148641526699 ], [ 6226859.268736129626632, 7646829.991040367633104 ], [ 6226841.409964633174241, 7646846.908514559268951 ], [ 6226830.552549429237843, 7646871.114031264558434 ], [ 6226814.407308169640601, 7646894.351109238341451 ], [ 6226802.389513729140162, 7646921.242679500952363 ], [ 6226789.993811586871743, 7646942.960287980735302 ], [ 6226776.262295143678784, 7646963.532135026529431 ], [ 6226764.05540984030813, 7646987.836657865904272 ], [ 6226745.328688041307032, 7647010.019337026402354 ], [ 6226727.469509951770306, 7647026.93654327839613 ], [ 6226717.766735666431487, 7647049.813104538246989 ], [ 6226709.295895246788859, 7647073.843015493825078 ], [ 6226691.52691749855876, 7647091.997375495731831 ], [ 6226676.927407152950764, 7647117.834440004080534 ], [ 6226653.703273146413267, 7647131.300882801413536 ], [ 6226629.044791054911911, 7647142.271810744889081 ], [ 6226599.202234854921699, 7647152.266551245003939 ], [ 6226573.388585203327239, 7647164.566096063703299 ], [ 6226551.220858078449965, 7647175.353895273059607 ], [ 6226527.618809542618692, 7647183.646184450946748 ], [ 6226497.685797694139183, 7647192.403453572653234 ], [ 6226474.083700034767389, 7647200.695647363550961 ], [ 6226447.788400346413255, 7647207.828661943785846 ], [ 6226422.751982643269002, 7647213.625296904705465 ], [ 6226397.526711252517998, 7647216.834946433082223 ], [ 6226373.645388098433614, 7647221.302794232964516 ], [ 6226348.505144733935595, 7647227.106925595551729 ], [ 6226322.313545891083777, 7647234.232087354175746 ], [ 6226298.333668315783143, 7647237.350107590667903 ], [ 6226270.513694328255951, 7647240.750098150223494 ], [ 6226246.53380289580673, 7647243.868039967492223 ], [ 6226215.076016882434487, 7647248.892014661803842 ], [ 6226187.157510176301003, 7647250.942157005891204 ], [ 6226159.526302807964385, 7647256.928879695013165 ], [ 6226132.272665960714221, 7647268.089399272575974 ], [ 6226119.875615743920207, 7647289.805981231853366 ], [ 6226106.233076970092952, 7647311.613985440693796 ], [ 6226083.489541096612811, 7647330.245551356114447 ], [ 6226075.115934629924595, 7647355.624333963729441 ], [ 6226065.592413536272943, 7647380.974446262232959 ], [ 6226051.949660923331976, 7647402.782335843890905 ], [ 6226039.650791412219405, 7647425.848455918952823 ], [ 6226033.863464188762009, 7647450.924191946163774 ], [ 6226031.916241090744734, 7647475.717990921810269 ], [ 6226031.312925631180406, 7647501.770048480480909 ], [ 6226024.567267153412104, 7647530.873809391632676 ], [ 6226017.444051750004292, 7647554.80371939111501 ], [ 6226009.067128262482584, 7647578.712571596726775 ], [ 6225999.537859881296754, 7647605.419846974313259 ], [ 6225996.820915752090514, 7647636.828562345355749 ], [ 6225986.617598397657275, 7647670.030664285644889 ], [ 6225970.10055842064321, 7647688.204650676809251 ], [ 6225965.746992019936442, 7647715.775755893439054 ], [ 6225961.694103702902794, 7647746.038623593747616 ], [ 6225959.746464636176825, 7647770.832339268177748 ], [ 6225959.421715274453163, 7647800.708463055081666 ], [ 6225958.719493987038732, 7647825.410755278542638 ], [ 6225959.270933271385729, 7647850.134104065597057 ], [ 6225963.518233682028949, 7647906.926152978092432 ], [ 6225966.84487575199455, 7647933.933500686660409 ], [ 6225986.953195855021477, 7647963.553758000954986 ], [ 6225992.680558331310749, 7647989.141075632534921 ], [ 6225986.892435438930988, 7648014.216654554009438 ], [ 6225975.941793075762689, 7648037.183423841372132 ], [ 6225968.80963531229645, 7648061.000689558684826 ], [ 6225954.971623233519495, 7648081.578553680330515 ], [ 6225938.557663130573928, 7648099.744669621810317 ], [ 6225920.695918534882367, 7648116.660079475492239 ], [ 6225915.091530981473625, 7648121.368277747184038 ], [ 6225926.913839315064251, 7648131.808330716565251 ], [ 6225945.884621598757803, 7648147.264530094340444 ], [ 6225967.35178435780108, 7648161.180602838285267 ], [ 6225987.082732254639268, 7648185.627153987064958 ], [ 6226007.487801565788686, 7648203.578860126435757 ], [ 6226027.03012534789741, 7648225.438499349169433 ], [ 6226051.185338481329381, 7648241.871138386428356 ], [ 6226071.973245314322412, 7648263.639370882883668 ], [ 6226111.543512379750609, 7648298.2768644830212 ], [ 6226131.77362157870084, 7648312.396790014579892 ], [ 6226154.675291756168008, 7648328.808338732458651 ], [ 6226174.801666443236172, 7648342.935869764536619 ], [ 6226197.793655104935169, 7648360.584633974358439 ], [ 6226218.302844287827611, 7648378.52869950979948 ], [ 6226246.766416747123003, 7648401.090517886914313 ], [ 6226267.177222889848053, 7648417.684871228411794 ], [ 6226283.355479237623513, 7648446.349975818768144 ], [ 6226303.57230010163039, 7648461.714718475937843 ], [ 6226322.745876208879054, 7648478.512966629117727 ], [ 6226344.298540922813118, 7648495.023515393957496 ], [ 6226367.591540908440948, 7648515.364056264981627 ], [ 6226385.50614121556282, 7648533.498573649674654 ], [ 6226408.687216497026384, 7648553.734254764392972 ], [ 6226429.385466838255525, 7648574.265256870537996 ], [ 6226452.484566915780306, 7648593.376174166798592 ], [ 6226474.420223422348499, 7648613.7032750248909 ], [ 6226491.278167163953185, 7648634.516174074262381 ], [ 6226506.800332858227193, 7648654.183264832943678 ], [ 6226540.516344020143151, 7648695.809086436405778 ], [ 6226578.932774532586336, 7648731.775199979543686 ], [ 6226594.351265388540924, 7648751.449928944930434 ], [ 6226611.020654339343309, 7648769.675894873216748 ], [ 6226628.256272297352552, 7648795.662752583622932 ], [ 6226644.925711737945676, 7648813.888726809062064 ], [ 6226666.582721177488565, 7648830.391639608889818 ], [ 6226689.395053599029779, 7648845.565870095044374 ], [ 6226712.018677916377783, 7648858.153123127296567 ], [ 6226737.048499964177608, 7648867.962905286811292 ], [ 6226761.106488894671202, 7648883.045667551457882 ], [ 6226785.934096179902554, 7648891.513308387249708 ], [ 6226808.459359394386411, 7648902.750780440866947 ], [ 6226828.690487384796143, 7648916.870572784915566 ], [ 6226848.908120535314083, 7648932.235229777172208 ], [ 6226871.901259236037731, 7648949.883882086724043 ], [ 6226894.525122125633061, 7648962.471043443307281 ], [ 6226916.092210416682065, 7648977.736619774252176 ], [ 6226933.917315175756812, 7648994.633873976767063 ], [ 6226949.431864411570132, 7649014.188525345176458 ], [ 6226957.75494709610939, 7649039.58591892849654 ], [ 6226950.819758921861649, 7649066.103501091711223 ], [ 6226928.739272409118712, 7649078.127871906384826 ], [ 6226903.511076509021223, 7649081.336876813322306 ], [ 6226879.052475805394351, 7649077.930713778361678 ], [ 6226854.309550825506449, 7649072.057640266604722 ], [ 6226826.892080537974834, 7649062.423085095360875 ], [ 6226799.280576955527067, 7649051.558874069713056 ], [ 6226773.571147133596241, 7649049.601377083919942 ], [ 6226749.301357910968363, 7649048.78204601071775 ], [ 6226721.199265971779823, 7649048.357060451060534 ], [ 6226697.594118557870388, 7649056.648289946839213 ], [ 6226674.658899242058396, 7649072.692760014906526 ], [ 6226653.914063471369445, 7649085.862513491883874 ], [ 6226634.813935334794223, 7649102.982351956889033 ], [ 6226619.734789784997702, 7649122.294769192114472 ], [ 6226607.335456038825214, 7649144.011288994923234 ], [ 6226592.152416881173849, 7649163.331266318447888 ], [ 6226571.896758180111647, 7649181.779616500250995 ], [ 6226550.28345908690244, 7649200.214471450075507 ], [ 6226531.183034812100232, 7649217.334081146866083 ], [ 6226518.87368475086987, 7649240.287687007337809 ], [ 6226505.704247429966927, 7649268.619060699827969 ], [ 6226492.149192890152335, 7649291.664013665169477 ], [ 6226486.458536787889898, 7649318.089593237265944 ], [ 6226472.8131447955966, 7649339.897258531302214 ], [ 6226464.442543002776802, 7649363.918646869249642 ], [ 6226465.083536783233285, 7649389.879587987437844 ], [ 6226467.164133208803833, 7649416.978757599368691 ], [ 6226474.128686927258968, 7649442.362636648118496 ], [ 6226478.51180412247777, 7649466.692071380093694 ], [ 6226484.329168489202857, 7649493.517073720693588 ], [ 6226493.896922772750258, 7649518.823047708719969 ], [ 6226504.611864251084626, 7649542.68792050331831 ], [ 6226521.371592762880027, 7649562.151543231680989 ], [ 6226538.229773156344891, 7649582.964887808077037 ], [ 6226574.163934499025345, 7649619.227259824052453 ], [ 6226593.324771074578166, 7649637.270859962329268 ], [ 6226612.868322509340942, 7649659.131053285673261 ], [ 6226631.840561754070222, 7649674.587688528932631 ], [ 6226652.350909566506743, 7649692.532274521887302 ], [ 6226673.724218895658851, 7649706.568860554136336 ], [ 6226692.890574289485812, 7649723.255116192623973 ], [ 6226706.006761688739061, 7649745.700026201084256 ], [ 6226720.562623765319586, 7649769.283174902200699 ], [ 6226732.613676552660763, 7649794.293997283093631 ], [ 6226766.142026513814926, 7649833.333806574344635 ], [ 6226766.783028958365321, 7649859.294969635084271 ], [ 6226761.09739996958524, 7649884.363401362672448 ], [ 6226753.972063487395644, 7649908.293586980551481 ], [ 6226743.096190655604005, 7649933.742811989039183 ], [ 6226735.970764186233282, 7649957.672966392710805 ], [ 6226724.136211994104087, 7649987.150242037139833 ], [ 6226711.834086107090116, 7650010.216293964534998 ], [ 6226703.74172424338758, 7650038.062006050720811 ], [ 6226702.581167070195079, 7650040.465267585590482 ], [ 6226692.676938133314252, 7650060.924146315082908 ], [ 6226675.20342355594039, 7650081.768697547726333 ], [ 6226658.961910707876086, 7650103.766688417643309 ], [ 6226642.818749589845538, 7650127.114366091787815 ], [ 6226634.447274777106941, 7650151.135745163075626 ], [ 6226623.584440264850855, 7650175.339864409528673 ], [ 6226611.560698242858052, 7650202.229919444769621 ], [ 6226590.813890782184899, 7650215.398868922144175 ], [ 6226576.019905200228095, 7650238.647396265529096 ], [ 6226564.954651749692857, 7650261.509302204474807 ], [ 6226559.172610596753657, 7650286.697535602375865 ], [ 6226550.890993557870388, 7650311.956017211079597 ], [ 6226542.519134569913149, 7650335.977238851599395 ], [ 6226530.30641058832407, 7650360.280152114108205 ], [ 6226519.631688370369375, 7650387.071024501696229 ], [ 6226511.246063489466906, 7650412.337045205757022 ], [ 6226501.816904344595969, 7650439.036514070816338 ], [ 6226492.486072293482721, 7650467.085680992342532 ], [ 6226492.159124352037907, 7650496.96220220439136 ], [ 6226485.122791321948171, 7650522.129191913641989 ], [ 6226476.939106445759535, 7650548.737239832058549 ], [ 6226469.812502350658178, 7650572.666959078982472 ], [ 6226459.992296221666038, 7650595.437261684797704 ], [ 6226447.590487999841571, 7650617.153002873063087 ], [ 6226435.377174993976951, 7650641.455676412209868 ], [ 6226420.58224561624229, 7650664.703774582594633 ], [ 6226403.003521372564137, 7650685.555183277465403 ], [ 6226389.355807160027325, 7650707.362155567854643 ], [ 6226376.953740345314145, 7650729.077759665437043 ], [ 6226368.581060064956546, 7650753.098665522411466 ], [ 6226357.793443702161312, 7650779.784316562116146 ], [ 6226340.312795047648251, 7650801.985277224332094 ], [ 6226322.829343160614371, 7650822.716397127136588 ], [ 6226306.307422371581197, 7650840.889285203069448 ], [ 6226289.875608719885349, 7650860.299376270733774 ], [ 6226272.107882795855403, 7650878.563524339348078 ], [ 6226249.349064413458109, 7650897.080458299256861 ], [ 6226228.609021372161806, 7650910.360890680924058 ], [ 6226204.230138821527362, 7650925.264953348785639 ], [ 6226183.585631656460464, 7650938.425212861970067 ], [ 6226161.788231969811022, 7650954.383774328045547 ], [ 6226136.163493817672133, 7650969.378998564556241 ], [ 6226111.210834565572441, 7650976.409565541893244 ], [ 6226089.036381679587066, 7650987.19410914555192 ], [ 6226065.706310452893376, 7650999.307148166932166 ], [ 6226041.327127653174102, 7651014.210853300988674 ], [ 6226030.453952779993415, 7651038.301420223899186 ], [ 6226015.365555996075273, 7651058.969403358176351 ], [ 6226003.24924941174686, 7651084.621007116511464 ], [ 6226002.737796735018492, 7651110.552824784070253 ], [ 6226002.409254525788128, 7651140.428882434032857 ], [ 6226003.334602565504611, 7651170.32611739076674 ], [ 6226003.96498622559011, 7651196.174244393594563 ], [ 6226004.805660311132669, 7651223.476942237466574 ], [ 6226008.948332201689482, 7651278.919639347121119 ], [ 6226009.586813527159393, 7651304.880245729349554 ], [ 6226011.574828048236668, 7651330.741953627206385 ], [ 6226011.057629542425275, 7651358.031080596148968 ], [ 6226009.106237759813666, 7651382.824563706293702 ], [ 6226008.498869573697448, 7651408.876458533108234 ], [ 6226007.981582592241466, 7651436.165580166503787 ], [ 6226008.52161322068423, 7651460.776482213288546 ], [ 6226009.263733771629632, 7651486.7294811764732 ], [ 6226012.587454218417406, 7651513.737140029668808 ], [ 6226025.792653718963265, 7651537.419988273642957 ], [ 6226044.084731773473322, 7651560.730097867548466 ], [ 6226059.696907449513674, 7651581.635849149897695 ], [ 6226074.153446584939957, 7651603.87012249417603 ], [ 6226090.142475742846727, 7651629.949761705473065 ], [ 6226105.754718036390841, 7651650.855532756075263 ], [ 6226122.522646055556834, 7651670.432790363207459 ], [ 6226135.727981720119715, 7651694.115694170817733 ], [ 6226166.988224685192108, 7651733.550070591270924 ], [ 6226183.52404107991606, 7651752.805133998394012 ], [ 6226196.541044658981264, 7651773.90112133603543 ], [ 6226213.300918732769787, 7651793.365930908359587 ], [ 6226228.913336757570505, 7651814.271745109930634 ], [ 6226245.681450862437487, 7651833.849038888700306 ], [ 6226262.629809139296412, 7651855.900810470804572 ], [ 6226280.64375967066735, 7651875.386822183616459 ], [ 6226302.679138307459652, 7651897.065832050517201 ], [ 6226323.190240634605289, 7651915.011941414326429 ], [ 6226339.86018764320761, 7651933.239535112865269 ], [ 6226360.546064401045442, 7651955.017448866739869 ], [ 6226381.147374821826816, 7651974.200798898935318 ], [ 6226400.407299690879881, 7651993.595527816563845 ], [ 6226416.019979379139841, 7652014.50138607993722 ], [ 6226436.531269352883101, 7652032.447497025132179 ], [ 6226456.65204343944788, 7652046.464530189521611 ], [ 6226467.267896668054163, 7652068.98043829202652 ], [ 6226486.631778440438211, 7652088.367569671943784 ], [ 6226499.649154059588909, 7652109.463652804493904 ], [ 6226512.089829944074154, 7652138.404335610568523 ], [ 6226523.271006060764194, 7652168.681181760504842 ], [ 6226542.908024617470801, 7652193.249889587983489 ], [ 6226567.441034718416631, 7652213.389021607115865 ], [ 6226589.004474520683289, 7652230.0142205003649 ], [ 6226610.475143141113222, 7652243.932354377582669 ], [ 6226634.535783847793937, 7652259.017603912390769 ], [ 6226657.063896328210831, 7652270.257439902983606 ], [ 6226683.531619822606444, 7652282.565469967201352 ], [ 6226711.73725045658648, 7652284.342941861599684 ], [ 6226821.975661364383996, 7652276.037017430178821 ], [ 6226847.878141812980175, 7652280.583898301236331 ], [ 6226876.362408635206521, 7652286.185370396822691 ], [ 6226902.349574374035001, 7652293.326792687177658 ], [ 6226927.558027520775795, 7652306.970760848373175 ], [ 6226955.460309347137809, 7652321.774197375401855 ], [ 6226980.682514152489603, 7652334.173262880183756 ], [ 6227003.016991163603961, 7652344.183181138709188 ], [ 6227027.083578705787659, 7652357.910802822560072 ], [ 6227052.980767113156617, 7652363.814832063391805 ], [ 6227076.65676779486239, 7652373.613283466547728 ], [ 6227115.146090812981129, 7652381.873441554605961 ], [ 6227127.210897590965033, 7652384.155190256424248 ], [ 6227151.575493928976357, 7652386.213691202923656 ], [ 6227175.751596052199602, 7652385.685149364173412 ], [ 6227343.074566820636392, 7652372.964953362941742 ], [ 6227372.337778792716563, 7652372.063129241578281 ], [ 6227400.453534975647926, 7652372.602362213656306 ], [ 6227427.503816358745098, 7652375.707456655800343 ], [ 6227452.057013832032681, 7652380.352595856413245 ], [ 6227474.872765407897532, 7652395.528553972020745 ], [ 6227495.183253307826817, 7652412.132109759375453 ], [ 6227515.204333723522723, 7652440.517307840287685 ], [ 6227532.252870602533221, 7652463.918773159384727 ], [ 6227547.867051524110138, 7652484.824566505849361 ], [ 6227559.730108920484781, 7652507.249335136264563 ], [ 6227572.847212349995971, 7652529.695232523605227 ], [ 6227586.158327288925648, 7652553.370804624632001 ], [ 6227599.554187837988138, 7652579.641040228307247 ], [ 6227610.171457912772894, 7652602.157200200483203 ], [ 6227626.728499451652169, 7652635.998255157843232 ], [ 6227645.413803894072771, 7652663.237623693421483 ], [ 6227665.724617093801498, 7652679.841230189427733 ], [ 6227689.311167425476015, 7652688.401992820203304 ], [ 6227716.460370755754411, 7652692.856699582189322 ], [ 6227749.158669274300337, 7652704.707068486139178 ], [ 6227789.162621325813234, 7652710.819859917275608 ], [ 6227825.317037243396044, 7652717.101821342483163 ], [ 6227848.911920877173543, 7652725.77492287196219 ], [ 6227877.307087901979685, 7652730.138067617081106 ], [ 6227897.72200243268162, 7652746.733952844515443 ], [ 6227915.730000079609454, 7652766.107262805104256 ], [ 6227941.617581964470446, 7652787.616638734936714 ], [ 6227962.018966960720718, 7652805.457424668595195 ], [ 6227981.097960724495351, 7652820.907384751364589 ], [ 6227996.986106051132083, 7652846.994982287287712 ], [ 6228014.327780232764781, 7652872.9759825700894 ], [ 6228031.18848648481071, 7652893.790464101359248 ], [ 6228050.540948396548629, 7652914.422192811965942 ], [ 6228066.434625052846968, 7652939.152432796545327 ], [ 6228083.205215387046337, 7652958.729633222334087 ], [ 6228102.369175276719034, 7652976.774297850206494 ], [ 6228130.363511462695897, 7652992.814282720908523 ], [ 6228160.661041209474206, 7653006.084403636865318 ], [ 6228189.999741519801319, 7653023.382747419178486 ], [ 6228223.179939980618656, 7653040.399298582226038 ], [ 6228247.046008488163352, 7653052.784114498645067 ], [ 6228276.687685544602573, 7653057.055570276454091 ], [ 6228310.170832206495106, 7653061.045193133875728 ], [ 6228342.492917912080884, 7653067.720865273848176 ], [ 6228371.266022043302655, 7653077.25777548737824 ], [ 6228409.058164776302874, 7653087.376945359632373 ], [ 6228433.891463788226247, 7653095.845810176804662 ], [ 6228466.12345465272665, 7653101.284009494818747 ], [ 6228501.13148947339505, 7653109.006357646547258 ], [ 6228534.795255474746227, 7653115.47026576474309 ], [ 6228561.756729511544108, 7653117.337049371562898 ], [ 6228587.745810358785093, 7653124.477041937410831 ], [ 6228617.576382029801607, 7653131.335156433284283 ], [ 6228641.073745265603065, 7653138.657917320728302 ], [ 6228673.499954788014293, 7653145.32551945745945 ], [ 6228706.01103478204459, 7653154.587811744771898 ], [ 6228737.183217527344823, 7653161.234261053614318 ], [ 6228762.98377148527652, 7653165.786950947716832 ], [ 6228788.694104257039726, 7653169.102291280403733 ], [ 6228821.701837096363306, 7653166.567082348279655 ], [ 6228864.55294441524893, 7653194.521159848198295 ], [ 6228886.403728550300002, 7653213.612394839525223 ], [ 6228906.828174237161875, 7653230.32040935382247 ], [ 6228927.239070090465248, 7653248.273364244028926 ], [ 6228945.437150426208973, 7653270.23363640345633 ], [ 6228962.110429203137755, 7653288.460883517749608 ], [ 6228982.813935396261513, 7653308.993357194587588 ], [ 6229000.733163378201425, 7653327.129177160561085 ], [ 6229016.439563950523734, 7653349.272328939288855 ], [ 6229026.099807585589588, 7653375.817218555137515 ], [ 6229033.541811722330749, 7653407.726879976689816 ], [ 6229042.333535186015069, 7653439.537502070888877 ], [ 6229055.829947542399168, 7653467.157944611273706 ], [ 6229069.233305528759956, 7653492.071152151562274 ], [ 6229090.125726186670363, 7653515.190835256129503 ], [ 6229109.102365303784609, 7653530.648136487230659 ], [ 6229138.72162701562047, 7653551.77035856153816 ], [ 6229159.425469136796892, 7653572.302896065637469 ], [ 6229177.435235185548663, 7653591.676105940714478 ], [ 6229200.442279112525284, 7653609.438623990863562 ], [ 6229245.489513283595443, 7653648.87957220710814 ], [ 6229263.318905542604625, 7653665.778114516288042 ], [ 6229282.295791014097631, 7653681.235396893694997 ], [ 6229304.147339320741594, 7653700.326673751696944 ], [ 6229324.279955674894154, 7653714.455173037946224 ], [ 6229352.389967854134738, 7653714.880035847425461 ], [ 6229378.975083771161735, 7653711.571796325035393 ], [ 6229398.179298826493323, 7653695.800157178193331 ], [ 6229421.791249993257225, 7653687.508014014922082 ], [ 6229445.501646818593144, 7653680.565655400045216 ], [ 6229474.172471336089075, 7653690.109263552352786 ], [ 6229494.589593163691461, 7653706.704704064875841 ], [ 6229513.755463749170303, 7653724.749045971781015 ], [ 6229529.470790076069534, 7653747.004755239002407 ], [ 6229542.582245550118387, 7653769.338514984585345 ], [ 6229557.141948246397078, 7653792.923038037493825 ], [ 6229572.857337700203061, 7653815.178769111633301 ], [ 6229585.878579111769795, 7653836.275205463171005 ], [ 6229594.195093344897032, 7653861.561992919072509 ], [ 6229601.260311968624592, 7653888.297696648165584 ], [ 6229608.315820165909827, 7653930.640322498977184 ], [ 6229624.017723156139255, 7653954.141073955222964 ], [ 6229629.85055154748261, 7653979.723291013389826 ], [ 6229633.074081265367568, 7654006.741008453071117 ], [ 6229632.55974302161485, 7654034.033082518726587 ], [ 6229625.62152467481792, 7654060.55267518479377 ], [ 6229620.312022073194385, 7654090.797714833170176 ], [ 6229619.49520976562053, 7654131.117130960337818 ], [ 6229630.213294399902225, 7654154.983755744993687 ], [ 6229630.756038618274033, 7654179.59719433542341 ], [ 6229629.00375309586525, 7654207.093190658837557 ], [ 6229611.51248577143997, 7654229.185154290869832 ], [ 6229595.18224944639951, 7654248.59083700273186 ], [ 6229591.981576105579734, 7654274.836021207273006 ], [ 6229594.15290451515466, 7654303.174903018400073 ], [ 6229604.870902983471751, 7654327.04157673381269 ], [ 6229619.326832056976855, 7654350.633945317938924 ], [ 6229641.745245587080717, 7654377.486985106021166 ], [ 6229658.706763498485088, 7654399.651523733511567 ], [ 6229677.788241717964411, 7654415.101359225809574 ], [ 6229697.913440955802798, 7654429.117534060031176 ], [ 6229716.989595830440521, 7654445.924820762127638 ], [ 6229734.915423360653222, 7654462.703441643156111 ], [ 6229752.835900485515594, 7654480.839522016234696 ], [ 6229769.510418813675642, 7654499.067047037184238 ], [ 6229786.275213111191988, 7654518.531928389333189 ], [ 6229805.72892355453223, 7654540.51360734179616 ], [ 6229817.594688607379794, 7654562.939091601409018 ], [ 6229828.312931205146015, 7654586.805869991891086 ], [ 6229842.782743846997619, 7654609.153348024003208 ], [ 6229853.591261258348823, 7654634.257499543949962 ], [ 6229862.189579074271023, 7654664.839055577293038 ], [ 6229872.809399865567684, 7654687.356026064604521 ], [ 6229883.527685289271176, 7654711.222848514094949 ], [ 6229895.401731296442449, 7654733.760878251865506 ], [ 6229904.874030637554824, 7654757.719160741195083 ], [ 6229922.492327550426126, 7654788.882784139364958 ], [ 6229937.897588740102947, 7654824.053874131292105 ], [ 6229949.960393959656358, 7654849.179149254225194 ], [ 6229963.085899652913213, 7654870.268315574154258 ], [ 6229978.968822489492595, 7654896.244151692837477 ], [ 6230001.297729420475662, 7654921.860025214031339 ], [ 6230020.666975762695074, 7654941.247008735314012 ], [ 6230038.489484423771501, 7654958.033359069377184 ], [ 6230058.812265874817967, 7654974.749304641038179 ], [ 6230074.429951064288616, 7654995.655614413321018 ], [ 6230079.003185048699379, 7655022.574621374718845 ], [ 6230074.646545237861574, 7655050.148989438079298 ], [ 6230065.026794819161296, 7655074.264542299322784 ], [ 6230055.30854413844645, 7655097.030224746093154 ], [ 6230052.386498270556331, 7655127.100330719724298 ], [ 6230053.697327483445406, 7655160.817939287051558 ], [ 6230050.87364165391773, 7655192.237887688912451 ], [ 6230049.30133940000087, 7655222.208922557532787 ], [ 6230046.105586844496429, 7655247.096960004419088 ], [ 6230054.331869857385755, 7655271.146841912530363 ], [ 6230071.105385981500149, 7655290.724486452527344 ], [ 6230086.520839059725404, 7655310.288702500984073 ], [ 6230110.021334867924452, 7655317.611386403441429 ], [ 6230136.117784017696977, 7655324.74355267174542 ], [ 6230164.54171846434474, 7655334.158945825882256 ], [ 6230164.895047167316079, 7655334.280034013092518 ], [ 6230192.511153194122016, 7655346.502772774547338 ], [ 6230221.665884735062718, 7655361.21365203615278 ], [ 6230225.991986678913236, 7655363.847827763296664 ], [ 6230228.668098136782646, 7655365.472188770771027 ], [ 6230231.803300286643207, 7655367.379511008039117 ], [ 6230244.38811126165092, 7655375.039496365003288 ], [ 6230258.948726300150156, 7655398.624615713953972 ], [ 6230279.36222826782614, 7655416.578055815771222 ], [ 6230300.257011949084699, 7655439.698338115587831 ], [ 6230318.547673588618636, 7655462.896650481969118 ], [ 6230335.411802845075727, 7655483.711670221760869 ], [ 6230349.783834460191429, 7655504.70958985760808 ], [ 6230366.836719304323196, 7655528.111857074312866 ], [ 6230378.801531719043851, 7655551.887543981894851 ], [ 6230385.841300601139665, 7655561.096704619936645 ], [ 6230442.61085516307503, 7655553.650691367685795 ], [ 6230466.414263883605599, 7655547.945487489923835 ], [ 6230492.903885561041534, 7655543.287088688462973 ], [ 6230516.518536500632763, 7655534.994555817916989 ], [ 6230540.231634519994259, 7655528.051849154755473 ], [ 6230563.742403336800635, 7655519.766853865236044 ], [ 6230588.815125423483551, 7655497.117626544088125 ], [ 6230612.830455174669623, 7655477.147050740197301 ], [ 6230631.568892495706677, 7655454.962660595774651 ], [ 6230648.094186468981206, 7655436.785807173699141 ], [ 6230670.674505298025906, 7655414.319290386512876 ], [ 6230690.847573105245829, 7655394.630548005923629 ], [ 6230711.201147486455739, 7655377.416528908535838 ], [ 6230735.503361797891557, 7655361.382766466587782 ], [ 6230757.305216762237251, 7655345.419423526152968 ], [ 6230780.158944836817682, 7655328.134785423986614 ], [ 6230805.88763431366533, 7655314.484149495139718 ], [ 6230828.066937734372914, 7655303.695190761238337 ], [ 6230856.391473186202347, 7655289.853840770199895 ], [ 6230880.005559608340263, 7655281.560563832521439 ], [ 6230907.078641852363944, 7655269.168094050139189 ], [ 6230932.037230337969959, 7655262.13310747500509 ], [ 6230959.870848415419459, 7655258.732118343934417 ], [ 6230979.030818051658571, 7655276.664069863967597 ], [ 6231004.367050839588046, 7655274.803531343117356 ], [ 6231032.200685474090278, 7655271.402434146031737 ], [ 6231087.952933293767273, 7655267.195004044100642 ], [ 6231114.540504931472242, 7655263.885274617932737 ], [ 6231138.343298025429249, 7655258.178865788504481 ], [ 6231162.825561456382275, 7655244.619035801850259 ], [ 6231191.234762790612876, 7655233.371890367008746 ], [ 6231219.944837179034948, 7655224.816838081926107 ], [ 6231245.876173871569335, 7655196.787430949509144 ], [ 6231269.67882991489023, 7655191.080779105424881 ], [ 6231297.331632218323648, 7655185.204370757564902 ], [ 6231320.846828044392169, 7655175.560439823195338 ], [ 6231347.141505621373653, 7655169.670599046163261 ], [ 6231371.132986513897777, 7655166.551079848781228 ], [ 6231396.370496631599963, 7655163.339989368803799 ], [ 6231417.122509786859155, 7655150.166738839820027 ], [ 6231426.830884228460491, 7655127.286925834603608 ], [ 6231441.914641747251153, 7655107.970510618761182 ], [ 6231457.781483947299421, 7655080.792970586568117 ], [ 6231464.718385313637555, 7655054.271458126604557 ], [ 6231466.575514915399253, 7655028.236233158037066 ], [ 6231468.514752226881683, 7655003.325921289622784 ], [ 6231472.680206501856446, 7654973.162756880745292 ], [ 6231479.526576671749353, 7654945.403794013895094 ], [ 6231495.001704097725451, 7654914.29652913287282 ], [ 6231514.115863712504506, 7654897.284940637648106 ], [ 6231530.647584641352296, 7654879.21901282761246 ], [ 6231553.406363202258945, 7654859.225240875035524 ], [ 6231581.444871, 7654842.914883017539978 ], [ 6231608.423298023641109, 7654827.813307248987257 ], [ 6231633.682120526209474, 7654807.74871720187366 ], [ 6231649.731810220517218, 7654784.515561749227345 ], [ 6231674.89189834613353, 7654763.100949354469776 ], [ 6231701.779702935367823, 7654746.761711750179529 ], [ 6231723.286787531338632, 7654728.216644981876016 ], [ 6231742.400413835421205, 7654711.20459115318954 ], [ 6231763.92083484865725, 7654691.414381574839354 ], [ 6231784.280358538031578, 7654674.310661789029837 ], [ 6231804.450831091031432, 7654654.619568658992648 ], [ 6231825.19348374940455, 7654641.33287749812007 ], [ 6231847.568213820457458, 7654617.521274867467582 ], [ 6231866.780150066129863, 7654601.858875291422009 ], [ 6231890.973007002845407, 7654584.360030708834529 ], [ 6231912.969690118916333, 7654571.094060758128762 ], [ 6231936.105481749400496, 7654556.274041974917054 ], [ 6231956.27556742914021, 7654536.582617711275816 ], [ 6231976.355183768086135, 7654515.653723317198455 ], [ 6232003.242197807878256, 7654499.313689405098557 ], [ 6232026.09312155470252, 7654482.026248353533447 ], [ 6232055.282930813729763, 7654462.915527185425162 ], [ 6232080.7213100111112, 7654445.324619367718697 ], [ 6232107.027946479618549, 7654438.18790291249752 ], [ 6232130.927839971147478, 7654433.829351889900863 ], [ 6232159.334845977835357, 7654422.57966813724488 ], [ 6232182.659247488714755, 7654410.346475018188357 ], [ 6232206.538037981837988, 7654422.840978236868978 ], [ 6232259.79544625710696, 7654418.811617881059647 ], [ 6232293.471624547615647, 7654425.383050767704844 ], [ 6232317.070984169840813, 7654434.052662353031337 ], [ 6232341.908126557245851, 7654442.518131652846932 ], [ 6232366.654852099716663, 7654449.746143341064453 ], [ 6232419.500607062131166, 7654474.360671492293477 ], [ 6232449.524293187074363, 7654483.801810005679727 ], [ 6232477.825122450478375, 7654486.809871378354728 ], [ 6232508.527484722435474, 7654488.397173589095473 ], [ 6232532.805648490786552, 7654489.212830616161227 ], [ 6232558.132449214346707, 7654487.236939108930528 ], [ 6232588.078291369602084, 7654478.474584767594934 ], [ 6232612.467600613832474, 7654463.674185922369361 ], [ 6232638.297136615030468, 7654450.011889096349478 ], [ 6232662.875501846894622, 7654437.798765240237117 ], [ 6232692.253735302947462, 7654421.274002121761441 ], [ 6232715.59321469720453, 7654393.544066161848605 ], [ 6232745.160468673333526, 7654379.606543273665011 ], [ 6232770.984612101688981, 7654367.301519943401217 ], [ 6232793.070791644975543, 7654355.271436536684632 ], [ 6232817.829840889200568, 7654345.532876072451472 ], [ 6232838.187778462655842, 7654328.427218052558601 ], [ 6232859.98595117777586, 7654312.45965679641813 ], [ 6232875.066883670166135, 7654293.14084299467504 ], [ 6232892.365138287656009, 7654268.456207677721977 ], [ 6232909.572832342237234, 7654242.534076929092407 ], [ 6232927.249359574168921, 7654223.024161603301764 ], [ 6232951.239290062338114, 7654219.901720285415649 ], [ 6232974.961437789723277, 7654195.988311955705285 ], [ 6232996.285199103876948, 7654174.965755109675229 ], [ 6233023.450351739302278, 7654162.448295956477523 ], [ 6233058.000713547691703, 7654148.143168933689594 ], [ 6233088.911875804886222, 7654135.462985103949904 ], [ 6233114.062204290181398, 7654129.653498772531748 ], [ 6233161.370158553123474, 7654115.653303034603596 ], [ 6233187.675878710113466, 7654108.514524318277836 ], [ 6233218.776136659085751, 7654098.421454597264528 ], [ 6233246.319534355774522, 7654091.07836246304214 ], [ 6233277.888797727413476, 7654087.397473584860563 ], [ 6233308.212097224779427, 7654083.808234857395291 ], [ 6233332.111261878162622, 7654079.447686614468694 ], [ 6233363.581737038679421, 7654074.416663413867354 ], [ 6233398.90211614780128, 7654069.21527268178761 ], [ 6233428.069952981546521, 7654066.954992264509201 ], [ 6233455.418862039223313, 7654058.381683081388474 ], [ 6233480.857053654268384, 7654056.508972657844424 ], [ 6233507.807756047695875, 7654059.614524409174919 ], [ 6233533.611290942877531, 7654064.161740187555552 ], [ 6233561.052716319449246, 7654072.546966671943665 ], [ 6233589.641346673481166, 7654079.490460781380534 ], [ 6233620.623132139444351, 7654084.900479669682682 ], [ 6233650.268436419777572, 7654089.164715602993965 ], [ 6233674.826108881272376, 7654093.803508264943957 ], [ 6233701.770812544971704, 7654112.517637655138969 ], [ 6233727.275223971344531, 7654130.093663389794528 ], [ 6233753.561446137726307, 7654139.807919982820749 ], [ 6233778.40735244192183, 7654148.384061738848686 ], [ 6233807.185550084337592, 7654157.914783023297787 ], [ 6233836.92159734852612, 7654163.416283823549747 ], [ 6233862.914747668430209, 7654170.55061949044466 ], [ 6233894.275517260655761, 7654181.13523269072175 ], [ 6233920.092623757198453, 7654184.436911767348647 ], [ 6233947.142440756782889, 7654188.89193726144731 ], [ 6233969.318170722573996, 7654178.097362941130996 ], [ 6234001.266300078481436, 7654179.590163668617606 ], [ 6234030.044689370319247, 7654189.120620470494032 ], [ 6234055.848591626621783, 7654193.667261613532901 ], [ 6234083.282263374887407, 7654201.939432895742357 ], [ 6234099.003825817257166, 7654224.194418555125594 ], [ 6234112.220222687348723, 7654247.878076972439885 ], [ 6234130.425529750995338, 7654269.837050268426538 ], [ 6234149.407484970055521, 7654285.291802218183875 ], [ 6234181.649070265702903, 7654289.364234642125666 ], [ 6234236.152011059224606, 7654285.236838219687343 ], [ 6234261.297319503501058, 7654280.783314600586891 ], [ 6234285.287234861403704, 7654277.659021288156509 ], [ 6234326.463950743898749, 7654265.464374567382038 ], [ 6234350.472688751295209, 7654245.485710702836514 ], [ 6234380.318521770648658, 7654235.369702966883779 ], [ 6234414.001049313694239, 7654226.328271146863699 ], [ 6234442.889123190194368, 7654220.24141672346741 ], [ 6234470.720656838268042, 7654216.833802027627826 ], [ 6234494.321117631159723, 7654225.500991135835648 ], [ 6234518.220325686968863, 7654221.138823022134602 ], [ 6234548.164876245893538, 7654212.372471700422466 ], [ 6234571.866360371001065, 7654205.310202926397324 ], [ 6234602.099171843379736, 7654200.481256615370512 ], [ 6234632.422584727406502, 7654196.889758966863155 ], [ 6234656.412344932556152, 7654193.764878583140671 ], [ 6234682.803404301404953, 7654189.218839319422841 ], [ 6234706.603668585419655, 7654183.506360437721014 ], [ 6234728.400017386302352, 7654167.535560896620154 ], [ 6234752.309256010688841, 7654146.206039309501648 ], [ 6234780.045045947656035, 7654142.918007800355554 ], [ 6234809.213007969781756, 7654140.655471581965685 ], [ 6234835.6945865675807, 7654137.346660919487476 ], [ 6234873.610635205172002, 7654131.950937261804938 ], [ 6234924.271349389106035, 7654128.104245498776436 ], [ 6234951.326413887552917, 7654131.200185941532254 ], [ 6234989.481341042555869, 7654164.696109114214778 ], [ 6235020.856133041903377, 7654174.033947421237826 ], [ 6235047.228983581066132, 7654186.341931132599711 ], [ 6235073.222799425013363, 7654193.474803602322936 ], [ 6235097.293323934078217, 7654208.553964688442647 ], [ 6235126.352683998644352, 7654221.908088382333517 ], [ 6235151.393993866629899, 7654231.712628434412181 ], [ 6235176.240848114714026, 7654240.287276381626725 ], [ 6235202.234798390418291, 7654247.420032669790089 ], [ 6235230.725639004260302, 7654253.011392667889595 ], [ 6235253.676990427076817, 7654235.710384044796228 ], [ 6235281.404658630490303, 7654232.309106526896358 ], [ 6235358.750104962848127, 7654226.494200051762164 ], [ 6235388.39628301281482, 7654230.755934324115515 ], [ 6235412.368234289810061, 7654244.484808713197708 ], [ 6235434.046109940856695, 7654261.097460267134011 ], [ 6235459.363011784851551, 7654276.08449299633503 ], [ 6235484.490363279357553, 7654288.483938925899565 ], [ 6235511.925011067651212, 7654296.754374435171485 ], [ 6235536.203369865193963, 7654297.565935423597693 ], [ 6235561.529861243441701, 7654295.585517008788884 ], [ 6235588.024790424853563, 7654291.030459629371762 ], [ 6235611.445794978179038, 7654280.14154359139502 ], [ 6235642.166110008955002, 7654264.868568370118737 ], [ 6235666.264148522168398, 7654246.124913634732366 ], [ 6235690.650683318264782, 7654231.318832622841001 ], [ 6235714.748603278771043, 7654212.575061505660415 ], [ 6235744.692684104666114, 7654203.806408726610243 ], [ 6235769.928332746960223, 7654200.588070698082447 ], [ 6235790.00299524422735, 7654179.652353450655937 ], [ 6235806.521116363815963, 7654161.467344437725842 ], [ 6235821.128690414130688, 7654135.731566162779927 ], [ 6235833.425694341771305, 7654112.654629667289555 ], [ 6235846.886139269918203, 7654088.360731400549412 ], [ 6235862.365016113966703, 7654056.000054387375712 ], [ 6235877.063028978183866, 7654031.501687427982688 ], [ 6235890.515029342845082, 7654007.09518654551357 ], [ 6235902.432381110265851, 7653978.842904115095735 ], [ 6235908.123324738815427, 7653952.520326426252723 ], [ 6235911.300982569344342, 7653927.51424920745194 ], [ 6235911.994972976855934, 7653902.804481561295688 ], [ 6235912.589969561435282, 7653876.744659734889865 ], [ 6235912.624109229072928, 7653843.034538206644356 ], [ 6235913.219043027609587, 7653816.974713679403067 ], [ 6235912.386567207053304, 7653788.531701086089015 ], [ 6235912.602045282721519, 7653757.296673654578626 ], [ 6235912.04993767477572, 7653732.678810201585293 ], [ 6235916.283559281378984, 7653704.9931909609586 ], [ 6235923.513574449345469, 7653681.158573070541024 ], [ 6235938.301564862020314, 7653657.897488887421787 ], [ 6235966.619054418057203, 7653644.044618539512157 ], [ 6235998.376952796243131, 7653642.945865955203772 ], [ 6236024.857613300904632, 7653639.634801770560443 ], [ 6236054.140448988415301, 7653621.864656683057547 ], [ 6236081.310857106931508, 7653609.453512718901038 ], [ 6236102.530926592648029, 7653587.07490158919245 ], [ 6236121.448841774836183, 7653567.467716705054045 ], [ 6236146.601094363257289, 7653546.043091997504234 ], [ 6236166.777871306985617, 7653525.098656471818686 ], [ 6236194.322789247147739, 7653502.139964531175792 ], [ 6236213.430220168083906, 7653485.120200144127011 ], [ 6236231.200934637337923, 7653466.954782677814364 ], [ 6236257.801580864004791, 7653446.780312279239297 ], [ 6236280.258750942535698, 7653424.196815095841885 ], [ 6236299.469792253337801, 7653407.169208023697138 ], [ 6236320.012656733393669, 7653392.64489627815783 ], [ 6236350.631312996149063, 7653376.019501890987158 ], [ 6236374.149317882955074, 7653366.478769795969129 ], [ 6236400.538712142966688, 7653361.929335676133633 ], [ 6236426.157392567023635, 7653362.526915840804577 ], [ 6236450.707225273363292, 7653384.12963860668242 ], [ 6236475.545671167783439, 7653392.589704828336835 ], [ 6236501.448476794175804, 7653398.482650617137551 ], [ 6236527.545912319794297, 7653405.605471549555659 ], [ 6236558.717772503383458, 7653413.597954801283777 ], [ 6236582.40945353731513, 7653423.499968356452882 ], [ 6236601.393378272652626, 7653438.952809708192945 ], [ 6236613.367558555677533, 7653462.728087159805 ], [ 6236626.686702653765678, 7653487.761478112079203 ], [ 6236643.748379169031978, 7653511.161220265552402 ], [ 6236664.552603733725846, 7653532.927308470010757 ], [ 6236681.234670557081699, 7653551.151761308312416 ], [ 6236706.065588794648647, 7653576.579664599150419 ], [ 6236722.071304860524833, 7653602.659060187637806 ], [ 6236735.291541833430529, 7653626.342424899339676 ], [ 6236760.692091025412083, 7653659.53332033008337 ], [ 6236782.172937833704054, 7653673.444489019922912 ], [ 6236810.952552173286676, 7653682.970882713794708 ], [ 6236836.476189178414643, 7653683.688307146541774 ], [ 6236864.397402277216315, 7653681.513897124677896 ], [ 6236891.843329401686788, 7653674.284281338565052 ], [ 6236916.992017988115549, 7653668.468499006703496 ], [ 6236944.627769033424556, 7653663.826450519263744 ], [ 6236973.620899580419064, 7653642.11658878903836 ], [ 6236993.404167633503675, 7653617.240675874054432 ], [ 6237013.951636111363769, 7653601.357649011537433 ], [ 6237026.345324093475938, 7653579.628963613882661 ], [ 6237041.90704252384603, 7653549.861229881644249 ], [ 6237062.168886228464544, 7653531.51058048196137 ], [ 6237082.435424362309277, 7653511.802126083523035 ], [ 6237107.776365673169494, 7653492.963185966946185 ], [ 6237138.014790154062212, 7653471.160796515643597 ], [ 6237160.005954258143902, 7653457.885624559596181 ], [ 6237189.084418537095189, 7653438.770448330789804 ], [ 6237215.197789715602994, 7653429.036730856634676 ], [ 6237247.152531276457012, 7653413.554980702698231 ], [ 6237274.317067274823785, 7653402.499198481440544 ], [ 6237301.288091627880931, 7653387.385388035327196 ], [ 6237324.615741237066686, 7653375.255463115870953 ], [ 6237348.323257062584162, 7653368.300881375558674 ], [ 6237377.984166165813804, 7653355.703043214976788 ], [ 6237398.61698004975915, 7653342.414600645191967 ], [ 6237423.281240020878613, 7653331.430043814703822 ], [ 6237450.351114256307483, 7653317.665991000831127 ], [ 6237472.047994008287787, 7653301.810179434716702 ], [ 6237479.839242443442345, 7653270.01374507881701 ], [ 6237489.550088495016098, 7653245.880690870806575 ], [ 6237516.802883888594806, 7653251.672535670921206 ], [ 6237537.344560536555946, 7653237.146215099841356 ], [ 6237559.037653423845768, 7653219.819915935397148 ], [ 6237579.974257168360054, 7653193.613017398864031 ], [ 6237592.176624303683639, 7653169.295707488432527 ], [ 6237603.042177461087704, 7653143.832824882119894 ], [ 6237603.72471338044852, 7653119.009201703593135 ], [ 6237602.78957780636847, 7653089.214720588177443 ], [ 6237603.290305001661181, 7653061.915893580764532 ], [ 6237602.350425282493234, 7653033.479194823652506 ], [ 6237603.032852547243237, 7653008.65556794218719 ], [ 6237597.200314077548683, 7652981.824713199399412 ], [ 6237581.776177088730037, 7652962.263550259172916 ], [ 6237565.859933940693736, 7652937.422138296067715 ], [ 6237532.304133628495038, 7652898.386792429722846 ], [ 6237511.883689554408193, 7652880.439152292907238 ], [ 6237490.113593448884785, 7652862.591239582747221 ], [ 6237478.54311379045248, 7652854.283525733277202 ], [ 6237467.196809744462371, 7652846.185484981164336 ], [ 6237445.241454497911036, 7652824.392089230939746 ], [ 6237399.969837088137865, 7652799.231136006303132 ], [ 6237373.105980539694428, 7652798.727400610223413 ], [ 6237343.845974734984338, 7652798.287545517086983 ], [ 6237315.736270642839372, 7652797.87577561289072 ], [ 6237289.054160337895155, 7652799.847098287194967 ], [ 6237263.630861877463758, 7652800.481075316667557 ], [ 6237239.164314453490078, 7652797.085191497579217 ], [ 6237213.080218819901347, 7652788.718459757044911 ], [ 6237180.460107896476984, 7652779.477140258066356 ], [ 6237154.566042783670127, 7652773.698032135143876 ], [ 6237128.840742129832506, 7652771.639321107417345 ], [ 6237096.993547004647553, 7652771.503340083174407 ], [ 6237071.661156600341201, 7652773.374648504890501 ], [ 6237046.427871759980917, 7652776.596008703112602 ], [ 6237017.262343946844339, 7652778.863495908677578 ], [ 6236987.997708382084966, 7652779.780844056978822 ], [ 6236963.721216457895935, 7652778.972297705709934 ], [ 6236936.758355285041034, 7652777.117851009592414 ], [ 6236909.88392629288137, 7652792.111277224496007 ], [ 6236883.210084127262235, 7652794.194488917477429 ], [ 6236852.600482738576829, 7652793.853533847257495 ], [ 6236828.134068675339222, 7652790.457140687853098 ], [ 6236799.735444871708751, 7652786.106844555586576 ], [ 6236772.49659937992692, 7652779.069180594757199 ], [ 6236745.929157143458724, 7652765.534268923103809 ], [ 6236718.895841193385422, 7652744.228720420971513 ], [ 6236697.027636352926493, 7652725.030286341905594 ], [ 6236677.960467809811234, 7652691.372359504923224 ], [ 6236663.1097750402987, 7652663.963803246617317 ], [ 6236640.680211496539414, 7652637.114956421777606 ], [ 6236626.304951006546617, 7652614.761537695303559 ], [ 6236613.084725168533623, 7652591.078553553670645 ], [ 6236594.673516139388084, 7652567.778929424472153 ], [ 6236582.129440924152732, 7652536.241036075167358 ], [ 6236570.930292448960245, 7652505.96122520416975 ], [ 6236562.417460583150387, 7652476.727316146716475 ], [ 6236557.832029795274138, 7652449.805038565769792 ], [ 6236551.901671061292291, 7652421.624701082706451 ], [ 6236548.661127935163677, 7652395.960500495508313 ], [ 6236544.189182565547526, 7652336.452501865103841 ], [ 6236545.746668141335249, 7652306.474895629100502 ], [ 6236547.787784793414176, 7652281.664892977103591 ], [ 6236552.026757, 7652254.090891487896442 ], [ 6236561.547415058128536, 7652227.371054516173899 ], [ 6236583.044795985333622, 7652208.815864673815668 ], [ 6236603.68916891515255, 7652194.282690079882741 ], [ 6236630.843344358727336, 7652183.114579671993852 ], [ 6236655.019860143773258, 7652182.573056886903942 ], [ 6236682.650741577148438, 7652193.540443346835673 ], [ 6236711.618318405002356, 7652205.653350425884128 ], [ 6236736.075684479437768, 7652208.936955997720361 ], [ 6236769.560499412938952, 7652212.911066927015781 ], [ 6236793.927037250250578, 7652214.957031629048288 ], [ 6236825.682305760681629, 7652213.855440018698573 ], [ 6236849.957998587749898, 7652214.663757944479585 ], [ 6236875.864169099368155, 7652219.197572536766529 ], [ 6236910.210201572626829, 7652219.261843174695969 ], [ 6236937.073098862543702, 7652219.765793241560459 ], [ 6236966.055898237973452, 7652215.022793683223426 ], [ 6236997.241178466938436, 7652206.15789240039885 ], [ 6237022.473561781458557, 7652202.936173278838396 ], [ 6237052.132098538801074, 7652190.337946718558669 ], [ 6237077.850203062407672, 7652176.67339051514864 ], [ 6237110.104084387421608, 7652163.88324523717165 ], [ 6237139.944247331470251, 7652153.759975753724575 ], [ 6237169.503457666374743, 7652139.811374960467219 ], [ 6237197.81214330997318, 7652127.312530990689993 ], [ 6237223.54294856544584, 7652112.402399592101574 ], [ 6237245.328657209873199, 7652097.78375855833292 ], [ 6237271.825903659686446, 7652076.255977620370686 ], [ 6237293.231393121182919, 7652056.461860310286283 ], [ 6237305.432282025925815, 7652032.144517108798027 ], [ 6237316.682778872549534, 7651994.88870813138783 ], [ 6237326.110970720648766, 7651966.930187925696373 ], [ 6237334.955965147353709, 7651932.453843669965863 ], [ 6237344.764186058193445, 7651909.670658435672522 ], [ 6237348.7121566766873, 7651878.157969179563224 ], [ 6237349.986683240160346, 7651844.354260234162211 ], [ 6237350.57737969327718, 7651818.293194271624088 ], [ 6237352.327553292736411, 7651789.544676134362817 ], [ 6237352.736360732465982, 7651761.008425153791904 ], [ 6237351.597183065488935, 7651729.871739275753498 ], [ 6237345.897838337346911, 7651653.711356151849031 ], [ 6237346.298238778486848, 7651625.062598155811429 ], [ 6237349.484060186892748, 7651598.809663997963071 ], [ 6237355.057560447603464, 7651572.380206982605159 ], [ 6237361.608629886992276, 7651540.788096910342574 ], [ 6237369.78198856767267, 7651512.808969159610569 ], [ 6237369.711021237075329, 7651477.747216106392443 ], [ 6237375.396408055908978, 7651451.42254742141813 ], [ 6237386.147428216412663, 7651425.854536766186357 ], [ 6237394.419769179075956, 7651399.225446412339807 ], [ 6237409.794545510783792, 7651366.980821758508682 ], [ 6237421.804002509452403, 7651340.075358605012298 ], [ 6237438.034732908010483, 7651318.061244469136 ], [ 6237457.622332590632141, 7651290.59536468051374 ], [ 6237477.871255431324244, 7651272.130111962556839 ], [ 6237495.727857142686844, 7651255.199152454733849 ], [ 6237518.290851280093193, 7651232.7166040930897 ], [ 6237537.111966416239738, 7651211.868145365267992 ], [ 6237554.778238469734788, 7651192.349363622255623 ], [ 6237579.529388088732958, 7651182.600533957593143 ], [ 6237603.05671364068985, 7651156.200344065204263 ], [ 6237626.104330257512629, 7651123.274568284861743 ], [ 6237645.401789144612849, 7651091.870397751219571 ], [ 6237661.441604409366846, 7651067.268103426322341 ], [ 6237683.623575653880835, 7651039.609689024277031 ], [ 6237696.97701570764184, 7651013.961667280644178 ], [ 6237711.857300625182688, 7650992.046782607212663 ], [ 6237722.239494168199599, 7650960.057455977424979 ], [ 6237748.755690352991223, 7650906.173486041836441 ], [ 6237759.518126372247934, 7650879.359500551596284 ], [ 6237767.776255747303367, 7650853.975077148526907 ], [ 6237778.737088486552238, 7650829.861270826309919 ], [ 6237792.081751639023423, 7650804.100508589297533 ], [ 6237799.102292121388018, 7650778.920692266896367 ], [ 6237807.56328858807683, 7650754.878626745194197 ], [ 6237804.324440972879529, 7650712.245251286774874 ], [ 6237799.545433000661433, 7650682.734780484810472 ], [ 6237778.070341740734875, 7650667.468498725444078 ], [ 6237764.934634975157678, 7650646.381670342758298 ], [ 6237746.725182780995965, 7650624.425885428674519 ], [ 6237725.250181720592082, 7650609.159601934254169 ], [ 6237701.370273338630795, 7650596.67301494628191 ], [ 6237679.981774933636189, 7650584.002102261409163 ], [ 6237660.898983774706721, 7650567.201378015801311 ], [ 6237641.915478527545929, 7650551.75075910706073 ], [ 6237622.54696380533278, 7650532.482517447322607 ], [ 6237615.648967615328729, 7650508.219385680742562 ], [ 6237607.042080411687493, 7650477.747924933210015 ], [ 6237602.661832419224083, 7650419.588581890799105 ], [ 6237608.246186551637948, 7650391.91335097886622 ], [ 6237615.167158588767052, 7650365.383545374497771 ], [ 6237624.389163415879011, 7650336.081701220944524 ], [ 6237630.83850681129843, 7650303.138862321153283 ], [ 6237637.668320711702108, 7650275.371413035318255 ], [ 6237645.748280090279877, 7650246.153996616601944 ], [ 6237653.633372907526791, 7650215.706645110622048 ], [ 6237661.898961550556123, 7650190.434683134779334 ], [ 6237667.664913199841976, 7650165.234537329524755 ], [ 6237666.536158923059702, 7650132.852317575365305 ], [ 6237667.708385748788714, 7650097.698048770427704 ], [ 6237665.433183811604977, 7650066.758110432885587 ], [ 6237661.709218081086874, 7650034.567925741896033 ], [ 6237650.688854937441647, 7650006.763783039525151 ], [ 6237639.387192763388157, 7649975.134353216737509 ], [ 6237624.815693715587258, 7649951.5522485319525 ], [ 6237607.956022075377405, 7649929.496925976127386 ], [ 6237588.678796418942511, 7649911.466614574193954 ], [ 6237562.01878634467721, 7649895.226938916370273 ], [ 6237538.139660096727312, 7649882.740701476112008 ], [ 6237516.561549657024443, 7649867.482415278442204 ], [ 6237495.757529828697443, 7649845.71897781547159 ], [ 6237482.725947685539722, 7649824.624752456322312 ], [ 6237469.02424736879766, 7649794.417365964502096 ], [ 6237465.589941365644336, 7649766.165142184123397 ], [ 6237463.496769864112139, 7649737.700561663135886 ], [ 6237469.270690053701401, 7649712.613050725311041 ], [ 6237477.436527280136943, 7649685.991079912520945 ], [ 6237487.241319745779037, 7649663.207023352384567 ], [ 6237507.296841159462929, 7649642.153020862489939 ], [ 6237517.002240887843072, 7649618.018813874572515 ], [ 6237532.364723963662982, 7649585.660596517845988 ], [ 6237549.175818916410208, 7649554.55256958026439 ], [ 6237562.046890359371901, 7649522.378637708723545 ], [ 6237575.778486807830632, 7649501.905555477365851 ], [ 6237588.74043389968574, 7649470.969151413068175 ], [ 6237605.650488351471722, 7649441.211062126792967 ], [ 6237616.601055576466024, 7649416.9844741942361 ], [ 6237626.305970882996917, 7649392.850060074590147 ], [ 6237644.453117812052369, 7649362.887153112329543 ], [ 6237654.91900214087218, 7649333.492769222706556 ], [ 6237665.869333552196622, 7649309.266078449785709 ], [ 6237681.243643200024962, 7649275.662160616368055 ], [ 6237690.654093915596604, 7649248.947603001259267 ], [ 6237702.949154489673674, 7649225.978732918389142 ], [ 6237717.549429100938141, 7649198.879921989515424 ], [ 6237724.468539450317621, 7649172.349717463366687 ], [ 6237724.964849567040801, 7649145.050651792436838 ], [ 6237726.797760860994458, 7649118.896968295797706 ], [ 6237722.32335698697716, 7649059.499969440512359 ], [ 6237711.310752041637897, 7649031.808624357916415 ], [ 6237698.088459825143218, 7649008.127021677792072 ], [ 6237684.675793562084436, 7648981.85772673599422 ], [ 6237664.91877419129014, 7648957.302487426437438 ], [ 6237643.35389831289649, 7648940.799603417515755 ], [ 6237602.793679120019078, 7648910.092266476713121 ], [ 6237580.645007006824017, 7648887.071564976125956 ], [ 6237563.772789896465838, 7648866.262027307413518 ], [ 6237545.274278718046844, 7648840.369323870167136 ], [ 6237524.561652378179133, 7648819.844115273095667 ], [ 6237513.419341620057821, 7648804.571880562230945 ], [ 6237507.499140034429729, 7648796.446904748678207 ], [ 6237490.730829039588571, 7648775.629704577848315 ], [ 6237473.477990994229913, 7648749.644821722991765 ], [ 6237456.605936028063297, 7648728.835318086668849 ], [ 6237433.120949874632061, 7648704.669276332482696 ], [ 6237394.671762592159212, 7648668.602167616598308 ], [ 6237352.866809195838869, 7648637.987030737102032 ], [ 6237329.944846789352596, 7648621.471511085517704 ], [ 6237304.82152821496129, 7648609.078155990689993 ], [ 6237276.048193793743849, 7648599.556744419038296 ], [ 6237251.496017811819911, 7648594.926361843943596 ], [ 6237227.324566792696714, 7648595.471290290355682 ], [ 6237201.894820706918836, 7648597.353644603863358 ], [ 6237175.232292511500418, 7648598.082892365753651 ], [ 6237145.594208004884422, 7648593.828839556314051 ], [ 6237118.927201682701707, 7648595.915772564709187 ], [ 6237096.485494488850236, 7648585.925503438338637 ], [ 6237071.17207139544189, 7648570.944278225302696 ], [ 6237047.182722287252545, 7648573.964129516854882 ], [ 6237023.300942217931151, 7648578.446532247588038 ], [ 6236997.97501771338284, 7648580.32091882172972 ], [ 6236968.920589467510581, 7648566.9739063763991 ], [ 6236942.82892435695976, 7648559.855383209884167 ], [ 6236910.600623685866594, 7648554.435288801789284 ], [ 6236883.644083732739091, 7648552.584169827401638 ], [ 6236859.191402814351022, 7648549.303417481482029 ], [ 6236826.288466001860797, 7648536.127953011542559 ], [ 6236798.484286901541054, 7648521.330847268924117 ], [ 6236773.841352144256234, 7648499.852055797353387 ], [ 6236747.866435592994094, 7648475.870113003998995 ], [ 6236727.436283592134714, 7648459.16989959590137 ], [ 6236712.013840416446328, 7648439.610528407618403 ], [ 6236698.780111102387309, 7648417.174370908178389 ], [ 6236681.338239043951035, 7648388.601894296705723 ], [ 6236665.816579806618392, 7648367.692474266514182 ], [ 6236653.750202564522624, 7648342.68137083388865 ], [ 6236636.399410750716925, 7648315.346487876027822 ], [ 6236620.492725336924195, 7648290.619582882151008 ], [ 6236600.456159399822354, 7648262.239172386005521 ], [ 6236585.989838599227369, 7648238.650000586174428 ], [ 6236564.513038169592619, 7648224.742119763046503 ], [ 6236557.524328795261681, 7648199.242230046540499 ], [ 6236551.880403460934758, 7648175.000246348790824 ], [ 6236540.96037027798593, 7648148.546989664435387 ], [ 6236528.414259325712919, 7648117.010668151080608 ], [ 6236511.647282127290964, 7648080.583300623111427 ], [ 6236502.072057234123349, 7648055.387976156547666 ], [ 6236486.550606147386134, 7648018.868475947529078 ], [ 6236474.385124157182872, 7647992.50744592025876 ], [ 6236459.629387985914946, 7647964.98069915920496 ], [ 6236445.643052231520414, 7647932.306755213998258 ], [ 6236432.132837822660804, 7647904.687867425382137 ], [ 6236420.256987947970629, 7647882.264553586021066 ], [ 6236408.857172676362097, 7647849.286131025291979 ], [ 6236392.479212117381394, 7647818.146634738892317 ], [ 6236381.178698814474046, 7647786.518299309536815 ], [ 6236371.504262696951628, 7647759.973026363179088 ], [ 6236365.479737241752446, 7647730.555970189161599 ], [ 6236360.510366863571107, 7647698.459145525470376 ], [ 6236359.943810327909887, 7647673.728453952819109 ], [ 6236365.625610840506852, 7647647.404179133474827 ], [ 6236368.808164156973362, 7647621.151733905076981 ], [ 6236370.740724382922053, 7647596.349193775095046 ], [ 6236375.934200161136687, 7647563.387115539982915 ], [ 6236380.167284693568945, 7647535.812603894621134 ], [ 6236380.663958808407187, 7647508.514617312699556 ], [ 6236384.620099646039307, 7647475.75719466432929 ], [ 6236385.985661085695028, 7647426.223919838666916 ], [ 6236387.346987708471715, 7647393.65852617751807 ], [ 6236387.843497170135379, 7647366.36052861995995 ], [ 6236388.923368769697845, 7647329.969969650730491 ], [ 6236391.534478729590774, 7647295.954641863703728 ], [ 6236392.121911130845547, 7647269.894188972190022 ], [ 6236395.018114689737558, 7647241.174254254437983 ], [ 6236396.941956237889826, 7647216.259158379398286 ], [ 6236400.806591905653477, 7647182.264122977852821 ], [ 6236407.435148254968226, 7647151.797347629442811 ], [ 6236418.788884596899152, 7647099.035979924723506 ], [ 6236423.315447812899947, 7647074.041280884295702 ], [ 6236429.079117964953184, 7647048.841870414093137 ], [ 6236428.32531070895493, 7647022.993765378370881 ], [ 6236399.939257272519171, 7647001.679878004826605 ], [ 6236377.603289683349431, 7646991.682306060567498 ], [ 6236348.742304548621178, 7646978.095533869229257 ], [ 6236327.547370188869536, 7646970.84139521047473 ], [ 6236303.862281126901507, 7646960.943651098757982 ], [ 6236274.711066510528326, 7646946.247139366343617 ], [ 6236249.681310413405299, 7646935.091497864574194 ], [ 6236228.205743726342916, 7646921.184181356802583 ], [ 6236202.791343526914716, 7646921.821120943874121 ], [ 6236178.137882705777884, 7646917.198336316272616 ], [ 6236148.12211318872869, 7646907.769078321754932 ], [ 6236123.572474781423807, 7646903.138555021956563 ], [ 6236091.918304071761668, 7646905.481480775400996 ], [ 6236062.953552359715104, 7646910.340080199763179 ], [ 6236034.361157547682524, 7646920.261286251246929 ], [ 6236010.854161625728011, 7646929.806058537214994 ], [ 6235988.973178574815392, 7646944.433775201439857 ], [ 6235972.748521389439702, 7646966.447826264426112 ], [ 6235943.974130476824939, 7646989.503687035292387 ], [ 6235920.466973678208888, 7646999.048266533762217 ], [ 6235895.610586987808347, 7647008.69264364335686 ], [ 6235870.957237683236599, 7647019.679329731501639 ], [ 6235842.554816444404423, 7647032.187650325708091 ], [ 6235821.066858454607427, 7647050.744946243241429 ], [ 6235801.767355573363602, 7647066.425496293231845 ], [ 6235781.615712440572679, 7647086.128079771995544 ], [ 6235764.054129306226969, 7647106.996353961527348 ], [ 6235745.528315544128418, 7647131.781829909421504 ], [ 6235727.867344352416694, 7647151.299988890998065 ], [ 6235714.137386251240969, 7647171.771533880382776 ], [ 6235703.287011746317148, 7647197.346395426429808 ], [ 6235688.306990605778992, 7647219.267735836096108 ], [ 6235674.76711983140558, 7647242.326757350936532 ], [ 6235661.045228585600853, 7647262.910693243145943 ], [ 6235651.522779317572713, 7647289.518342841416597 ], [ 6235640.676662023179233, 7647313.735370632261038 ], [ 6235629.825952748768032, 7647339.310083106160164 ], [ 6235615.03581958822906, 7647363.818804739043117 ], [ 6235601.495613092556596, 7647386.877659782767296 ], [ 6235589.300039976835251, 7647411.194389613345265 ], [ 6235570.392957287840545, 7647430.80427538882941 ], [ 6235544.199211522936821, 7647439.302340559661388 ], [ 6235490.393879655748606, 7647435.590253934264183 ], [ 6235465.069722548127174, 7647437.463270840235054 ], [ 6235441.090241061523557, 7647440.594159994274378 ], [ 6235417.391892684623599, 7647447.550076879560947 ], [ 6235385.922285763546824, 7647453.836435986682773 ], [ 6235359.551090261898935, 7647458.501434208825231 ], [ 6235302.363392154686153, 7647478.340190963819623 ], [ 6235266.771714754402637, 7647496.694844925776124 ], [ 6235250.549775432795286, 7647517.349802419543266 ], [ 6235236.72317707259208, 7647537.940712062641978 ], [ 6235213.975320046767592, 7647557.833899237215519 ], [ 6235192.4774449467659, 7647576.277251377701759 ], [ 6235171.939320560544729, 7647592.161113878712058 ], [ 6235151.31481072306633, 7647605.449733283370733 ], [ 6235126.841816700994968, 7647618.909736342728138 ], [ 6235101.611974054947495, 7647623.489780858159065 ], [ 6235075.232177976518869, 7647628.041688524186611 ], [ 6235047.996403593569994, 7647622.363646754994988 ], [ 6235021.531311752274632, 7647608.710770474746823 ], [ 6234992.09959913417697, 7647590.187169201672077 ], [ 6234961.409610189497471, 7647573.000804958865047 ], [ 6234936.19837199151516, 7647559.368303971365094 ], [ 6234914.814461486414075, 7647546.697080149315298 ], [ 6234890.460291512310505, 7647527.684965403750539 ], [ 6234861.309824717231095, 7647512.986302589997649 ], [ 6234835.908643241971731, 7647496.766242384910583 ], [ 6234811.653779594227672, 7647479.104103178717196 ], [ 6234789.98903620056808, 7647462.607827165164053 ], [ 6234772.065291648730636, 7647444.477680816315114 ], [ 6234747.797660442069173, 7647428.060697974637151 ], [ 6234723.452038612216711, 7647409.161037214100361 ], [ 6234702.073034009896219, 7647395.132066981866956 ], [ 6234671.57366886921227, 7647380.533028020523489 ], [ 6234646.552946669049561, 7647369.487874704413116 ], [ 6234622.678531871177256, 7647357.00065128877759 ], [ 6234598.228072484023869, 7647353.717928475700319 ], [ 6234572.320966793224216, 7647349.072409892454743 ], [ 6234541.44863099232316, 7647345.020067781209946 ], [ 6234516.0254564601928, 7647345.541776888072491 ], [ 6234486.869586039334536, 7647347.809753004461527 ], [ 6234460.956520077772439, 7647360.131004054099321 ], [ 6234444.552128767594695, 7647378.30982849188149 ], [ 6234438.002425732091069, 7647409.899034537374973 ], [ 6234434.241006640717387, 7647445.354109443724155 ], [ 6234434.212263585999608, 7647479.062900661490858 ], [ 6234431.411653948947787, 7647509.13079931307584 ], [ 6234422.930044203065336, 7647566.991009027697146 ], [ 6234414.762764854356647, 7647593.609723905101418 ], [ 6234405.250831225886941, 7647618.970465654507279 ], [ 6234395.82506699860096, 7647646.926332570612431 ], [ 6234387.566754173487425, 7647672.307504311203957 ], [ 6234380.446469193324447, 7647696.134146343916655 ], [ 6234373.433534545823932, 7647721.423260705545545 ], [ 6234365.06303093675524, 7647746.699555254541337 ], [ 6234355.550792446359992, 7647772.060186818242073 ], [ 6234346.0338368229568, 7647798.778452874161303 ], [ 6234332.689522819593549, 7647824.535268429666758 ], [ 6234312.534865170717239, 7647844.23487775400281 ], [ 6234290.560065986588597, 7647857.621698020026088 ], [ 6234269.822451406158507, 7647870.8039625659585 ], [ 6234244.695851905271411, 7647875.374832791276276 ], [ 6234222.62183955591172, 7647887.411540664732456 ], [ 6234192.880240855738521, 7647898.770428350195289 ], [ 6234170.909946948289871, 7647910.799371546134353 ], [ 6234147.970237888395786, 7647928.102861706167459 ], [ 6234125.896075198426843, 7647940.13938120752573 ], [ 6234100.093668287619948, 7647952.56434858776629 ], [ 6234078.209368319250643, 7647967.188231837935746 ], [ 6234057.864237299188972, 7647984.299864518456161 ], [ 6234048.057479022070765, 7648007.080241356045008 ], [ 6234031.411550141870975, 7648074.590883832424879 ], [ 6234023.053005382418633, 7648098.621523693203926 ], [ 6234005.677489180117846, 7648122.07389357034117 ], [ 6233992.133953132666647, 7648145.130111834034324 ], [ 6233970.72809855081141, 7648166.27856158837676 ], [ 6233943.762206710875034, 7648179.920028200373054 ], [ 6233917.85542263649404, 7648192.352145126089454 ], [ 6233890.418855985626578, 7648199.581127997487783 ], [ 6233856.17563564889133, 7648202.222852664999664 ], [ 6233823.944611221551895, 7648198.155722331255674 ], [ 6233799.48504495061934, 7648194.758885411545634 ], [ 6233774.554946102201939, 7648184.94967766944319 ], [ 6233748.865408541634679, 7648164.790711153298616 ], [ 6233731.99823784828186, 7648143.980330241844058 ], [ 6233705.924323669634759, 7648120.004124168306589 ], [ 6233684.837196487933397, 7648094.302441843785346 ], [ 6233665.479123719036579, 7648073.675998916849494 ], [ 6233637.863656480796635, 7648062.820853235200047 ], [ 6233611.308599445037544, 7648047.92867529951036 ], [ 6233585.219351964071393, 7648040.80641457810998 ], [ 6233553.768446616828442, 7648028.877106413245201 ], [ 6233524.808572179637849, 7648016.763858426362276 ], [ 6233499.684265080839396, 7648005.724684957414865 ], [ 6233475.909271882846951, 7647994.585879375226796 ], [ 6233444.169638123363256, 7647978.719093961641192 ], [ 6233416.835074162110686, 7647971.688628304749727 ], [ 6233390.173814673908055, 7647972.412700422108173 ], [ 6233365.619134371168911, 7647969.135641667060554 ], [ 6233337.233710013329983, 7647963.426816964522004 ], [ 6233312.679057179950178, 7647960.149697884917259 ], [ 6233283.529650954529643, 7647945.448806019499898 ], [ 6233254.949727497063577, 7647938.510094938799739 ], [ 6233228.379310174845159, 7647940.471402420662344 ], [ 6233201.143939054571092, 7647934.790632436051965 ], [ 6233168.82761169783771, 7647928.127611780539155 ], [ 6233144.174030588939786, 7647923.5003613056615 ], [ 6233065.612791298888624, 7647929.411915207281709 ], [ 6233034.435221187770367, 7647938.273000285029411 ], [ 6233006.037383878603578, 7647950.887500861659646 ], [ 6232973.411455046385527, 7647958.498084577731788 ], [ 6232936.942103803157806, 7647982.000526875257492 ], [ 6232907.488375887274742, 7647997.294087940827012 ], [ 6232884.258600776083767, 7648010.657946267165244 ], [ 6232854.80476695112884, 7648025.951371742412448 ], [ 6232828.993166461586952, 7648038.261487944051623 ], [ 6232803.280517760664225, 7648051.921480911783874 ], [ 6232767.107542520388961, 7648062.394615219905972 ], [ 6232720.474298641085625, 7648086.759340737015009 ], [ 6232697.442192548885942, 7648102.822679106146097 ], [ 6232676.996583215892315, 7648118.582036381587386 ], [ 6232653.865402659401298, 7648133.295348403975368 ], [ 6232626.126737803220749, 7648154.908451428636909 ], [ 6232607.124423150904477, 7648173.275632270611823 ], [ 6232600.289721780456603, 7648201.037473728880286 ], [ 6232589.804331723600626, 7648231.669951375573874 ], [ 6232580.198092952370644, 7648255.79072411172092 ], [ 6232567.807306009344757, 7648277.515528118237853 ], [ 6232550.140941201709211, 7648297.028101835399866 ], [ 6232528.452756758779287, 7648314.349046712741256 ], [ 6232509.25214649643749, 7648330.016132393851876 ], [ 6232488.520766709931195, 7648343.30784451495856 ], [ 6232466.548672376200557, 7648355.333804294466972 ], [ 6232441.127554066479206, 7648357.321858571842313 ], [ 6232411.582331024110317, 7648354.298271933570504 ], [ 6232384.45055515691638, 7648348.608417477458715 ], [ 6232358.072997130453587, 7648337.54715009778738 ], [ 6232330.548895412124693, 7648327.927634831517935 ], [ 6232305.998921229504049, 7648323.291406953707337 ], [ 6232275.026891055516899, 7648317.884649802930653 ], [ 6232249.894966159015894, 7648306.731431072577834 ], [ 6232219.491857372224331, 7648309.086601376533508 ], [ 6232189.765404557809234, 7648303.587875535711646 ], [ 6232165.892180872149765, 7648291.097658779472113 ], [ 6232146.915222068317235, 7648275.645066517405212 ], [ 6232128.895259618759155, 7648256.163390451110899 ], [ 6232110.400550143793225, 7648231.627211817540228 ], [ 6232098.522368577308953, 7648209.091345820575953 ], [ 6232085.217322826385498, 7648184.172500258311629 ], [ 6232063.266470570117235, 7648163.73661520332098 ], [ 6232044.100066788494587, 7648145.696712002158165 ], [ 6232016.106517052277923, 7648129.664912415668368 ], [ 6231998.086756965145469, 7648110.183258047327399 ], [ 6231974.299680937081575, 7648100.287964276969433 ], [ 6231950.33614182472229, 7648086.560274238698184 ], [ 6231931.16989856492728, 7648068.520354872569442 ], [ 6231906.917906778864563, 7648050.855434541590512 ], [ 6231891.397536338306963, 7648031.302595840767026 ], [ 6231880.765111804008484, 7648008.674964522011578 ], [ 6231864.865583755075932, 7647983.947520760819316 ], [ 6231847.81126649864018, 7647960.549329236149788 ], [ 6231829.32189108710736, 7647934.655674213543534 ], [ 6231813.793388588353992, 7647914.990374587476254 ], [ 6231795.304070902988315, 7647889.096735212951899 ], [ 6231780.740827577188611, 7647865.514904960989952 ], [ 6231767.625794128514826, 7647843.183492513373494 ], [ 6231750.662305696867406, 7647821.022750461474061 ], [ 6231734.952564141713083, 7647798.882672476582229 ], [ 6231720.298726617358625, 7647774.06347019597888 ], [ 6231704.87416966445744, 7647754.390559946186841 ], [ 6231685.604555536061525, 7647736.358349883928895 ], [ 6231668.270252142101526, 7647709.135539775714278 ], [ 6231654.957520926371217, 7647684.104394780471921 ], [ 6231639.437510188668966, 7647664.551650626584888 ], [ 6231618.634035346098244, 7647642.674105517566204 ], [ 6231602.063072718679905, 7647624.442946989089251 ], [ 6231578.18608108907938, 7647613.310190139338374 ], [ 6231554.594248404726386, 7647604.644560639746487 ], [ 6231520.270666927099228, 7647589.079462369903922 ], [ 6231496.497559171169996, 7647577.938997190445662 ], [ 6231470.703375988639891, 7647573.394118466414511 ], [ 6231442.215593794360757, 7647567.690618987195194 ], [ 6231387.734958434477448, 7647571.820185027085245 ], [ 6231360.690476179122925, 7647568.72451813519001 ], [ 6231333.448210406117141, 7647562.929054236039519 ], [ 6231307.654108580201864, 7647558.383975809440017 ], [ 6231281.945781836286187, 7647556.433786152862012 ], [ 6231267.252661249600351, 7647557.562131455168128 ], [ 6231198.308916162699461, 7647562.825115256942809 ], [ 6231142.393311085179448, 7647564.458462912589312 ], [ 6231105.457820910960436, 7647565.936773905530572 ], [ 6231071.11703824903816, 7647567.223768096417189 ], [ 6231003.974225245416164, 7647572.28536335285753 ], [ 6230974.908566136844456, 7647575.784604685381055 ], [ 6230945.941765154711902, 7647580.633660351857543 ], [ 6230916.307616053149104, 7647576.371063844300807 ], [ 6230883.302910230122507, 7647578.803275761194527 ], [ 6230853.280108395963907, 7647586.331185868009925 ], [ 6230827.089217914268374, 7647593.463569038547575 ], [ 6230779.025273619219661, 7647599.719533367082477 ], [ 6230718.592344362288713, 7647609.48790880292654 ], [ 6230693.646835368126631, 7647616.528284185566008 ], [ 6230671.76881845574826, 7647631.259258504025638 ], [ 6230645.76723666023463, 7647640.978529926389456 ], [ 6230622.067117537371814, 7647647.927006721496582 ], [ 6230598.185780690982938, 7647652.40070771612227 ], [ 6230568.063908468000591, 7647658.578158486634493 ], [ 6230544.273141846992075, 7647664.289138820022345 ], [ 6230522.081056613475084, 7647668.604339925572276 ], [ 6230511.5565095115453, 7647670.657625386491418 ], [ 6230485.645371420308948, 7647681.61395239084959 ], [ 6230462.04396088141948, 7647689.912007311359048 ] ] ] } }
]
}
