{
"type": "FeatureCollection",
"name": "3159357",
"crs": { "type": "name", "properties": { "name": "urn:ogc:def:crs:EPSG::5880" } },
"features": [
{ "type": "Feature", "properties": { "lv_id": "LOC_036655", "id": 207949.0, "CD_SETOR": "315935705000001", "SITUACAO": "Urbana", "CD_SIT": "1", "CD_TIPO": "0", "AREA_KM2": 0.109221272213659, "CD_REGIAO": "3", "NM_REGIAO": "Sudeste", "CD_UF": "31", "NM_UF": "Minas Gerais", "CD_MUN": "3159357", "NM_MUN": "Santa Rita de Minas", "CD_DIST": "315935705", "NM_DIST": "Santa Rita de Minas", "CD_SUBDIST": "31593570500", "NM_SUBDIST": null, "CD_BAIRRO": null, "NM_BAIRRO": null, "CD_NU": null, "NM_NU": null, "CD_FCU": null, "NM_FCU": null, "CD_AGLOM": null, "NM_AGLOM": null, "CD_RGINT": "3105", "NM_RGINT": "Ipatinga", "CD_RGI": "310025", "NM_RGI": "Caratinga", "CD_CONCURB": null, "NM_CONCURB": null, "mun_code_x": "3159357", "index_right": 30343, "dist_m": 3.8824362945777291, "local_id": 392852, "ano": 2022, "cod_localidade_ibge": 3159357, "NR_ZONA": "71", "nr_cep": 35326000.0, "nm_localidade": "SANTA RITA DE MINAS", "nm_locvot": "ESCOLA ESTADUAL JOSEFINA VIEIRA", "ds_endereco": "PÇA. MONSENHOR ROCHA, 82", "ds_bairro": "CENTRO", "pred_long": -42.133561, "pred_lat": -19.87441, "pred_dist": 0.0197603204546914, "tse_long": null, "tse_lat": null, "long": -42.133561, "lat": -19.87441, "ID_UNICO": "LOC_036655", "SG_UF": "MG", "CD_MUNICIPIO": "40665", "NR_LOCAL_VOTACAO": "1015", "QT_SECOES_AGREGADAS": 0, "QT_ELEITORES_TRANSFERIDOS": 2, "CIRO GOMES (PDT) (NÃO ELEITO) 1T": 35.0, "CONSTITUINTE EYMAEL (DC) (NÃO ELEITO) 1T": 0.0, "FELIPE D AVILA (NOVO) (NÃO ELEITO) 1T": 20.0, "JAIR BOLSONARO (PL) (2º TURNO) 1T": 1308.0, "LULA (PT) (2º TURNO) 1T": 1309.0, "LÉO PÉRICLES (UP) (NÃO ELEITO) 1T": 0.0, "PADRE KELMON (PTB) (NÃO ELEITO) 1T": 4.0, "SIMONE TEBET (MDB) (NÃO ELEITO) 1T": 81.0, "SOFIA MANZANO (PCB) (NÃO ELEITO) 1T": 4.0, "SORAYA THRONICKE (UNIÃO) (NÃO ELEITO) 1T": 9.0, "VERA (PSTU) (NÃO ELEITO) 1T": 0.0, "Total_Votos_Validos 1T": 2770.0, "Votos_Brancos 1T": 43.0, "Votos_Nulos 1T": 119.0, "Abstenções 1T": 896.0, "Eleitores_Aptos 1T": 3828.0, "JAIR BOLSONARO (PL) (NÃO ELEITO) 2T": 1504.0, "LULA (PT) (ELEITO) 2T": 1428.0, "Total_Votos_Validos 2T": 2932.0, "Votos_Brancos 2T": 33.0, "Votos_Nulos 2T": 74.0, "Abstenções 2T": 789.0, "Eleitores_Aptos 2T": 3828.0, "mun_code_y": "3159357", "mun_code": "3159357" }, "geometry": { "type": "Polygon", "coordinates": [ [ [ 6241262.886514337733388, 7753805.645375093445182 ], [ 6241251.512240496464074, 7753805.849400125443935 ], [ 6241209.613469724543393, 7753798.562555743381381 ], [ 6241197.424968706443906, 7753796.437781653366983 ], [ 6241148.896178892813623, 7753794.436913602054119 ], [ 6241097.574595453217626, 7753790.032025326043367 ], [ 6241037.92910717241466, 7753773.209158420562744 ], [ 6240978.353037330321968, 7753758.869316581636667 ], [ 6240925.069844488054514, 7753762.405988225713372 ], [ 6240875.927036788314581, 7753750.156431490555406 ], [ 6240819.946729727089405, 7753712.265257269144058 ], [ 6240774.909391222521663, 7753686.720047185197473 ], [ 6240730.22750704921782, 7753666.238852810114622 ], [ 6240685.113211026415229, 7753638.097894262522459 ], [ 6240632.548265710473061, 7753612.971005484461784 ], [ 6240577.190728073939681, 7753585.440125847235322 ], [ 6240525.255906086415052, 7753570.786129453219473 ], [ 6240470.625012015923858, 7753553.608199345879257 ], [ 6240420.748829709365964, 7753530.892315501347184 ], [ 6240368.80639854632318, 7753516.125511052086949 ], [ 6240301.174911675974727, 7753494.662916881963611 ], [ 6240242.334463781677186, 7753451.88408594019711 ], [ 6240190.755522384308279, 7753442.293508106842637 ], [ 6240146.074818968772888, 7753421.811622520908713 ], [ 6240101.220549784600735, 7753398.853968607261777 ], [ 6240045.968814994208515, 7753371.314958471804857 ], [ 6239996.896861695684493, 7753361.547105893492699 ], [ 6239943.433375814929605, 7753362.493316102772951 ], [ 6239892.217930052429438, 7753358.078621974214911 ], [ 6239841.184038240462542, 7753356.252035766839981 ], [ 6239785.654039489105344, 7753365.14676186721772 ], [ 6239738.397323628887534, 7753381.260576980188489 ], [ 6239685.918339136987925, 7753397.742722379975021 ], [ 6239579.450764385983348, 7753404.689633004367352 ], [ 6239529.03827409259975, 7753413.222366468049586 ], [ 6239470.638424444012344, 7753417.116431169211864 ], [ 6239410.268375186249614, 7753428.839219372719526 ], [ 6239359.855763839557767, 7753437.371423522010446 ], [ 6239310.350283560343087, 7753458.844451466575265 ], [ 6239215.989440054632723, 7753496.25993868149817 ], [ 6239162.699197892099619, 7753499.67936806473881 ], [ 6239111.84653958119452, 7753500.438827240839601 ], [ 6239070.767553594894707, 7753534.321510711684823 ], [ 6239032.376433862373233, 7753570.615425312891603 ], [ 6239021.896757094189525, 7753579.835882392711937 ], [ 6239030.488111525774002, 7753620.053923014551401 ], [ 6239043.961032943800092, 7753668.522244798950851 ], [ 6239058.131918724626303, 7753729.946227520704269 ], [ 6239067.462832854129374, 7753794.199425667524338 ], [ 6239079.481738373637199, 7753860.864076176658273 ], [ 6239083.436309307813644, 7753920.294478671625257 ], [ 6239080.024390413425863, 7753985.446237099356949 ], [ 6239079.042128600180149, 7754047.825687058269978 ], [ 6239070.435010699555278, 7754110.742711465805769 ], [ 6239061.017568457871675, 7754160.598891395144165 ], [ 6239042.174097891896963, 7754224.237473446875811 ], [ 6239030.249531055800617, 7754274.270281679928303 ], [ 6239003.877326378598809, 7754338.326313443481922 ], [ 6238986.842214346863329, 7754388.832300178706646 ], [ 6238962.432326834648848, 7754444.946864729747176 ], [ 6238933.18984304741025, 7754504.002869199961424 ], [ 6238903.507654120214283, 7754555.286841794848442 ], [ 6238875.969482680782676, 7754601.217657977715135 ], [ 6238843.31298465654254, 7754647.50905229523778 ], [ 6238818.281203066930175, 7754693.262959276326001 ], [ 6238785.184950453229249, 7754731.782223859801888 ], [ 6238751.80281460378319, 7754767.720550042577088 ], [ 6238708.574322213418782, 7754806.953453976660967 ], [ 6238672.68494588881731, 7754843.068114554509521 ], [ 6238637.081047314219177, 7754881.763425399549305 ], [ 6238568.456256249919534, 7754961.57250047288835 ], [ 6238543.785206072032452, 7755012.501722056418657 ], [ 6238532.380972072482109, 7755073.013001220300794 ], [ 6238528.267061550170183, 7755125.207948196679354 ], [ 6238523.86739993840456, 7755174.822087707929313 ], [ 6238539.731836201623082, 7755223.008853483013809 ], [ 6238550.590307123959064, 7755271.661338452249765 ], [ 6238558.837365234270692, 7755320.49778182245791 ], [ 6238551.930439986288548, 7755370.288513644598424 ], [ 6238537.752527749165893, 7755425.680052873678505 ], [ 6238510.572920880280435, 7755476.785386051982641 ], [ 6238479.980438398197293, 7755515.126408100128174 ], [ 6238435.661760576069355, 7755538.828515481203794 ], [ 6238397.081349169835448, 7755572.52995188254863 ], [ 6238356.899328738451004, 7755619.348456460051239 ], [ 6238329.537467561662197, 7755667.864950934424996 ], [ 6238312.746589566580951, 7755723.439684264361858 ], [ 6238321.277919733896852, 7755774.856761336326599 ], [ 6238337.330200811848044, 7755825.74433464743197 ], [ 6238353.193517772480845, 7755873.931273449212313 ], [ 6238389.442071586847305, 7755920.9091781321913 ], [ 6238415.808029469102621, 7755973.671622139401734 ], [ 6238439.485925362445414, 7756024.022472077980638 ], [ 6238468.290266063995659, 7756074.125520771369338 ], [ 6238487.022914523258805, 7756127.312442545779049 ], [ 6238498.061205786652863, 7756178.55329423584044 ], [ 6238504.697308469563723, 7756240.394607271067798 ], [ 6238508.359641999006271, 7756297.243485754355788 ], [ 6238509.265002735890448, 7756349.197735796682537 ], [ 6238512.85054032318294, 7756403.451121971011162 ], [ 6238506.198694813065231, 7756458.425163697451353 ], [ 6238501.900619742460549, 7756508.031687879934907 ], [ 6238503.236363418400288, 7756567.645209189504385 ], [ 6238510.052761377766728, 7756632.074743449687958 ], [ 6238516.402515073306859, 7756691.335342975333333 ], [ 6238527.259112298488617, 7756739.988233232870698 ], [ 6238551.117910759523511, 7756792.927785376086831 ], [ 6238583.584384044632316, 7756860.86694217659533 ], [ 6238607.00464382674545, 7756906.034758726134896 ], [ 6238635.696870256215334, 7756956.033358605578542 ], [ 6238671.222321366891265, 7756992.659598049707711 ], [ 6238706.56683608982712, 7757026.697679834440351 ], [ 6238752.225668274797499, 7757062.610698258504272 ], [ 6238795.377455884590745, 7757098.700180249288678 ], [ 6238840.235805317759514, 7757121.664935354143381 ], [ 6238884.921078277751803, 7757142.153994735330343 ], [ 6238929.675160777755082, 7757165.126011690124869 ], [ 6238985.475777268409729, 7757200.438123286701739 ], [ 6239040.648911656811833, 7757225.27753690816462 ], [ 6239087.841829305514693, 7757245.589881278574467 ], [ 6239139.429426654241979, 7757255.18899654597044 ], [ 6239242.95911278296262, 7757279.450776938349009 ], [ 6239291.391939653083682, 7757281.468825904652476 ], [ 6239347.555357571691275, 7757282.942435179837048 ], [ 6239398.962127545848489, 7757289.952761789783835 ], [ 6239450.912298657000065, 7757304.727630958892405 ], [ 6239505.188650623895228, 7757316.73762415535748 ], [ 6239567.815730875357985, 7757338.563365950249135 ], [ 6239618.052303190343082, 7757366.350476360879838 ], [ 6239665.866330121643841, 7757397.022234326228499 ], [ 6239703.635807702317834, 7757428.175199531018734 ], [ 6239729.288238124921918, 7757470.698608472943306 ], [ 6239729.016498448327184, 7757543.319472921080887 ], [ 6239724.796129607595503, 7757595.523510640487075 ], [ 6239718.507275039330125, 7757655.676168265752494 ], [ 6239707.203692271374166, 7757716.18190747871995 ], [ 6239693.022516258992255, 7757771.575135650113225 ], [ 6239673.110014551319182, 7757817.080970972776413 ], [ 6239644.219002418220043, 7757881.312694855034351 ], [ 6239620.342249978333712, 7757945.191211245954037 ], [ 6239606.341234471648932, 7758003.172356662340462 ], [ 6239599.612177990376949, 7758055.552613271400332 ], [ 6239597.71657501719892, 7758104.991592873819172 ], [ 6239588.918629639782012, 7758165.320364896208048 ], [ 6239574.735809480771422, 7758220.713099038228393 ], [ 6239565.756420698016882, 7758278.453551897779107 ], [ 6239561.352923187427223, 7758328.06894541438669 ], [ 6239533.985114355571568, 7758376.586607314646244 ], [ 6239500.878209899179637, 7758415.10418457351625 ], [ 6239454.586675656959414, 7758446.746630529873073 ], [ 6239394.196381255984306, 7758497.474670710042119 ], [ 6239331.290401286445558, 7758548.266242468729615 ], [ 6239277.19044613558799, 7758577.856357336975634 ], [ 6239224.43537088483572, 7758589.144985528662801 ], [ 6239174.541699321940541, 7758605.320898225530982 ], [ 6239124.836761379614472, 7758624.197364495135844 ], [ 6239075.312662342563272, 7758645.661843551322818 ], [ 6239053.500193189829588, 7758701.589639637619257 ], [ 6239049.275341254658997, 7758753.792278696782887 ], [ 6239090.979660985991359, 7758808.192045703530312 ], [ 6239130.273295188322663, 7758862.648363959975541 ], [ 6239179.709200453944504, 7758916.504345744848251 ], [ 6239215.132490968331695, 7758953.139553056098521 ], [ 6239255.236927174031734, 7758981.64264178276062 ], [ 6239303.149277660064399, 7759012.197377778589725 ], [ 6239339.115734561346471, 7759056.597245874814689 ], [ 6239367.371055230498314, 7759098.825599539093673 ], [ 6239388.5423613935709, 7759149.355209062807262 ], [ 6239401.905797118321061, 7759197.833187052980065 ], [ 6239409.260443014092743, 7759309.04368008300662 ], [ 6239408.085579767823219, 7759368.835139402188361 ], [ 6239406.186872217804193, 7759418.273693803697824 ], [ 6239394.688357706181705, 7759476.077249482274055 ], [ 6239374.951247251592577, 7759524.169512955471873 ], [ 6239341.916687230579555, 7759565.281026769429445 ], [ 6239297.870835014618933, 7759591.561171393841505 ], [ 6239245.104522221721709, 7759602.735720190219581 ], [ 6239192.16513679176569, 7759611.434407590888441 ], [ 6239141.190648132935166, 7759612.191965717822313 ], [ 6239092.21708445250988, 7759602.518079830333591 ], [ 6239017.296371204778552, 7759586.639679035171866 ], [ 6238918.513884441927075, 7759556.833367746323347 ], [ 6238863.870676268823445, 7759539.641908609308302 ], [ 6238812.096771853044629, 7759527.450422300025821 ], [ 6238762.219518514350057, 7759504.835004398599267 ], [ 6238707.395795711316168, 7759485.055084646679461 ], [ 6238658.414983157999814, 7759475.267865172587335 ], [ 6238560.614036686718464, 7759460.996685948222876 ], [ 6238509.202175273559988, 7759453.980933991260827 ], [ 6238460.65946305077523, 7759451.965132385492325 ], [ 6238413.201449990272522, 7759465.478154378943145 ], [ 6238363.312128026038408, 7759481.762753611430526 ], [ 6238319.341594529338181, 7759510.635468227788806 ], [ 6238294.293437037616968, 7759556.38415334187448 ], [ 6238276.429128041490912, 7759632.838082223199308 ], [ 6238300.465957419015467, 7759688.367658514529467 ], [ 6238347.468507491052151, 7759744.997358142398298 ], [ 6238378.228960998356342, 7759787.050274213775992 ], [ 6238416.986074845306575, 7759833.856067376211286 ], [ 6238440.661701708100736, 7759884.20951617974788 ], [ 6238463.975875278934836, 7759929.3866809559986 ], [ 6238491.605140284635127, 7760000.269302959553897 ], [ 6238515.718626666814089, 7760058.394724015146494 ], [ 6238536.706041920930147, 7760106.336396230384707 ], [ 6238553.838910058140755, 7760172.755054216831923 ], [ 6238567.73330295830965, 7760228.884759824723005 ], [ 6238576.154279426671565, 7760280.310440874658525 ], [ 6238579.552038347348571, 7760331.976018818095326 ], [ 6238598.650205170735717, 7760390.454109765589237 ], [ 6238609.49460931494832, 7760438.995616646483541 ], [ 6238633.531874179840088, 7760494.525875302031636 ], [ 6238658.187561826780438, 7760560.416232948191464 ], [ 6238682.044170192442834, 7760613.358414464630187 ], [ 6238698.196991311386228, 7760664.241041519679129 ], [ 6238709.041329641826451, 7760712.78271596506238 ], [ 6238727.95877621229738, 7760768.672922937199473 ], [ 6238739.24855777528137, 7760825.099076825194061 ], [ 6238748.384106250479817, 7760886.765284162014723 ], [ 6238757.338874964043498, 7760945.843332458287477 ], [ 6238764.863628809340298, 7761059.64035459049046 ], [ 6238767.274465760216117, 7761134.783433368429542 ], [ 6238765.912581495940685, 7761191.9853705316782 ], [ 6238757.276202347129583, 7761254.78695878945291 ], [ 6238757.984304009005427, 7761304.040814420208335 ], [ 6238747.285119898617268, 7761374.902926367707551 ], [ 6238735.530075788497925, 7761427.633003167808056 ], [ 6238718.361731849610806, 7761478.029267620295286 ], [ 6238706.606333587318659, 7761530.759240536019206 ], [ 6238693.029255270957947, 7761596.508355751633644 ], [ 6238676.867938216775656, 7761659.83799958974123 ], [ 6238654.69092046841979, 7761710.698742777109146 ], [ 6238629.817359438166022, 7761759.03478314820677 ], [ 6238599.566641667857766, 7761802.54655038844794 ], [ 6238561.868188126944005, 7761849.181961422786117 ], [ 6238529.185225971974432, 7761895.465035818517208 ], [ 6238486.109324318356812, 7761937.275897312909365 ], [ 6238450.300209147855639, 7761973.374698542058468 ], [ 6238409.37061751820147, 7762009.832796048372984 ], [ 6238368.25242084171623, 7762043.590023333206773 ], [ 6238330.191407429054379, 7762085.048051523976028 ], [ 6238294.381511941552162, 7762121.146228529512882 ], [ 6238251.921801317483187, 7762173.315922913141549 ], [ 6238214.04057555925101, 7762217.361575419083238 ], [ 6238163.763585735112429, 7762267.365494912490249 ], [ 6238085.67230973765254, 7762358.219947919249535 ], [ 6238052.729948101565242, 7762399.317411180585623 ], [ 6238012.512078055180609, 7762446.013719374313951 ], [ 6237977.317705214954913, 7762492.470442203804851 ], [ 6237939.795544840395451, 7762541.691084979102015 ], [ 6237907.289057854562998, 7762590.559661289677024 ], [ 6237884.850680369883776, 7762636.234087316319346 ], [ 6237872.97750763501972, 7762688.856578698381782 ], [ 6237863.980837476439774, 7762746.591890024021268 ], [ 6237850.320929979905486, 7762809.74273063801229 ], [ 6237846.083607809618115, 7762861.942542208358645 ], [ 6237854.212278535589576, 7762986.096942940726876 ], [ 6237865.412247892469168, 7763039.814806575886905 ], [ 6237881.275353943929076, 7763088.11716057639569 ], [ 6237889.967200469225645, 7763142.010978841222823 ], [ 6237918.40708212275058, 7763186.943646299652755 ], [ 6237921.706864408217371, 7763189.086856002919376 ], [ 6237970.257010772824287, 7763201.625824129208922 ], [ 6238002.945951199159026, 7763155.345807329751551 ], [ 6238022.704957551322877, 7763107.371749034151435 ], [ 6238052.239645229652524, 7763053.510294047184289 ], [ 6238079.807278062216938, 7763007.589069413021207 ], [ 6238107.194265245459974, 7762959.079579014331102 ], [ 6238124.436563970521092, 7762911.168557634577155 ], [ 6238146.626629960723221, 7762860.422610935755074 ], [ 6238173.291144022718072, 7762801.560191528871655 ], [ 6238198.341814980842173, 7762755.701848203316331 ], [ 6238233.897562535479665, 7762714.421008560806513 ], [ 6238275.010511718690395, 7762680.552521806210279 ], [ 6238323.655086372047663, 7762646.268412834964693 ], [ 6238377.773060449399054, 7762616.688542244955897 ], [ 6238424.803917963989079, 7762595.408297413960099 ], [ 6238474.711516450159252, 7762579.240730648860335 ], [ 6238529.266080907545984, 7762557.432048944756389 ], [ 6238596.577221780084074, 7762534.840808946639299 ], [ 6238666.576712851412594, 7762514.661374684423208 ], [ 6238717.017693944275379, 7762506.144971219822764 ], [ 6238774.621406023390591, 7762491.923826836980879 ], [ 6238827.578104353509843, 7762483.343531353399158 ], [ 6238898.472243627533317, 7762475.991472907364368 ], [ 6238969.450293062254786, 7762471.347192969173193 ], [ 6239040.352216833271086, 7762464.107080949470401 ], [ 6239103.79848085809499, 7762459.878040169365704 ], [ 6239156.032487807795405, 7762440.94382182508707 ], [ 6239203.499384621158242, 7762427.432912319898605 ], [ 6239314.412297059781849, 7762409.691981897689402 ], [ 6239382.083320582285523, 7762392.273603616282344 ], [ 6239428.931754946708679, 7762368.401683650910854 ], [ 6239485.382145086303353, 7762336.165354675613344 ], [ 6239526.310932666994631, 7762299.7041792627424 ], [ 6239569.317698121070862, 7762255.407087108120322 ], [ 6239605.298537592403591, 7762221.780997682362795 ], [ 6239646.234546080231667, 7762185.431822739541531 ], [ 6239684.911528876051307, 7762154.330002599395812 ], [ 6239728.708672679960728, 7762122.868239287286997 ], [ 6239777.625949645414948, 7762091.046481572091579 ], [ 6239819.171827791258693, 7762064.944442645646632 ], [ 6239866.380153346806765, 7762046.247199837118387 ], [ 6239914.206960921175778, 7762037.910204291343689 ], [ 6239971.559067845344543, 7762018.612762115895748 ], [ 6240019.566552339121699, 7762012.863711992278695 ], [ 6240071.889846505597234, 7762032.821034291759133 ], [ 6240126.608798449859023, 7762052.496802020817995 ], [ 6240179.917468462139368, 7762048.97574058175087 ], [ 6240227.306251738220453, 7762032.865668799728155 ], [ 6240265.989685693755746, 7762001.874481162056327 ], [ 6240319.117371537722647, 7761995.764638210646808 ], [ 6240376.706133908592165, 7762020.440060203894973 ], [ 6240457.295654376037419, 7762082.73972026258707 ], [ 6240508.172869672998786, 7762081.989738998003304 ], [ 6240558.431153139099479, 7762070.879022128880024 ], [ 6240606.438712486065924, 7762065.128468330949545 ], [ 6240655.599999863654375, 7762077.3908228026703 ], [ 6240705.130977827124298, 7762094.942267410457134 ], [ 6240736.801836277358234, 7762149.938072897493839 ], [ 6240757.613071383908391, 7762195.293411590158939 ], [ 6240806.70626132003963, 7762205.072480566799641 ], [ 6240859.291846502572298, 7762191.196356350556016 ], [ 6240910.350331675261259, 7762193.033795952796936 ], [ 6240933.66992110107094, 7762238.212826234288514 ], [ 6240947.395991861820221, 7762291.869778874330223 ], [ 6240950.79699697624892, 7762343.538740217685699 ], [ 6240943.957110696472228, 7762395.927892519161105 ], [ 6240945.211723901331425, 7762452.949903219938278 ], [ 6240954.178873846307397, 7762512.143704702146351 ], [ 6240963.318959446623921, 7762573.813336574472487 ], [ 6240972.897069997154176, 7762643.255371551960707 ], [ 6240996.759234180673957, 7762696.199744479730725 ], [ 6241030.327714312821627, 7762740.771540101617575 ], [ 6241078.956129206344485, 7762745.381435258314013 ], [ 6241130.370099227875471, 7762752.283318741247058 ], [ 6241183.688798017799854, 7762748.873004262335598 ], [ 6241232.309436539188027, 7762753.370004026219249 ], [ 6241289.394603469409049, 7762767.78902068734169 ], [ 6241353.830849607475102, 7762779.202893165871501 ], [ 6241401.659415871836245, 7762770.862851408310235 ], [ 6241434.414953473955393, 7762727.167475494556129 ], [ 6241457.83861065749079, 7762715.228520078584552 ], [ 6241481.26223383564502, 7762703.289518984034657 ], [ 6241524.371094858273864, 7762696.389309460297227 ], [ 6241533.032101719640195, 7762694.999707961454988 ], [ 6241536.719032473862171, 7762694.412379095330834 ], [ 6241575.537498479709029, 7762693.287492258474231 ], [ 6241607.98349193111062, 7762692.339411397464573 ], [ 6241669.36102887429297, 7762696.050907865166664 ], [ 6241719.266714043915272, 7762679.87342613004148 ], [ 6241755.253124417737126, 7762646.354116700589657 ], [ 6241812.417196518741548, 7762624.350187266245484 ], [ 6241875.767463725060225, 7762620.23176915384829 ], [ 6241922.975889469496906, 7762601.52907441649586 ], [ 6241969.021593541838229, 7762564.699981288984418 ], [ 6242038.664215674623847, 7762539.441895607858896 ], [ 6242085.872237011790276, 7762520.738590344786644 ], [ 6242132.794611174613237, 7762499.454048624262214 ], [ 6242193.378848844207823, 7762490.326615944504738 ], [ 6242243.714302603155375, 7762481.807299656793475 ], [ 6242291.646249913610518, 7762473.457017773762345 ], [ 6242341.542882730253041, 7762457.164727943018079 ], [ 6242385.956829657778144, 7762436.055867977440357 ], [ 6242445.635273683816195, 7762413.985232722014189 ], [ 6242495.712706434540451, 7762400.280820582993329 ], [ 6242555.028658987022936, 7762373.032804473303258 ], [ 6242648.718086008913815, 7762325.26858521066606 ], [ 6242690.365570697002113, 7762299.150976601988077 ], [ 6242737.217818340286613, 7762275.380965188145638 ], [ 6242781.010635384358466, 7762243.909467684105039 ], [ 6242816.993821492418647, 7762210.386602561920881 ], [ 6242865.906621846370399, 7762178.554099636152387 ], [ 6242912.214685266837478, 7762147.017938850447536 ], [ 6242948.197333196178079, 7762113.494586635380983 ], [ 6242986.248596193268895, 7762072.021622963249683 ], [ 6243019.541757724247873, 7762036.086174707859755 ], [ 6243070.425664527341723, 7761996.423098145052791 ], [ 6243119.337236069142818, 7761964.589382745325565 ], [ 6243160.620451146736741, 7761933.292938477359712 ], [ 6243213.649007009342313, 7761888.275451419875026 ], [ 6243308.245570465922356, 7761814.541751595214009 ], [ 6243346.742210670374334, 7761780.952682569622993 ], [ 6243382.283546613529325, 7761739.654789592139423 ], [ 6243410.007425505667925, 7761696.193339891731739 ], [ 6243445.633026666007936, 7761657.603574583306909 ], [ 6243493.817416506819427, 7761615.413985245861113 ], [ 6243532.228348068892956, 7761579.115694394335151 ], [ 6243568.131251569837332, 7761542.994035558775067 ], [ 6243608.694811705499887, 7761501.454132527112961 ], [ 6243651.939416699111462, 7761462.213206058368087 ], [ 6243700.674519551917911, 7761427.900663070380688 ], [ 6243788.613629612140357, 7761370.126023169606924 ], [ 6243837.243642183020711, 7761335.820220900699496 ], [ 6243889.203448704443872, 7761311.571572326123714 ], [ 6243930.749423993751407, 7761285.568904642015696 ], [ 6243976.967674110084772, 7761251.31942439544946 ], [ 6244029.003942516632378, 7761229.66607600916177 ], [ 6244083.841681177727878, 7761210.529353145509958 ], [ 6244130.862135020084679, 7761189.229375278577209 ], [ 6244182.103112554177642, 7761154.737798813730478 ], [ 6244238.359399614855647, 7761119.892142420634627 ], [ 6244286.902773914858699, 7761082.875873951241374 ], [ 6244335.090818034484982, 7761040.794785268604755 ], [ 6244380.770829089917243, 7760998.890398003160954 ], [ 6244419.254991500638425, 7760965.184567345306277 ], [ 6244455.335720995441079, 7760931.648168559186161 ], [ 6244493.37943872064352, 7760890.168926786631346 ], [ 6244534.120082049630582, 7760851.213660919107497 ], [ 6244572.603481743484735, 7760817.507190251722932 ], [ 6244613.335804057307541, 7760778.439023729413748 ], [ 6244649.234032997861505, 7760742.313266772776842 ], [ 6244674.088903168216348, 7760693.959832280874252 ], [ 6244754.755680872127414, 7760641.892675733193755 ], [ 6244801.236652767285705, 7760612.936554597690701 ], [ 6244856.867071975022554, 7760606.633972067385912 ], [ 6244904.869893193244934, 7760600.86972963809967 ], [ 6244955.666491020470858, 7760597.509524576365948 ], [ 6245004.654537425376475, 7760607.284047109074891 ], [ 6245058.762523209676147, 7760616.696959102526307 ], [ 6245119.702339094132185, 7760612.733218752779067 ], [ 6245169.667893584817648, 7760599.025326346978545 ], [ 6245222.24555467441678, 7760585.132789949886501 ], [ 6245268.648479167371988, 7760553.579032151959836 ], [ 6245309.560109389945865, 7760517.096859458833933 ], [ 6245345.351690838113427, 7760480.976124037057161 ], [ 6245400.003829280845821, 7760459.244971225038171 ], [ 6245453.30769413150847, 7760455.70604539476335 ], [ 6245504.544518176466227, 7760460.117416280321777 ], [ 6245564.212984601035714, 7760476.940463073551655 ], [ 6245611.420404780656099, 7760497.245186824351549 ], [ 6245663.098106742836535, 7760509.42956708651036 ], [ 6245712.554420333355665, 7760524.372287584468722 ], [ 6245761.361111456528306, 7760531.556318053044379 ], [ 6245819.680572183802724, 7760527.6621023286134 ], [ 6245870.840482290834188, 7760529.476595303043723 ], [ 6245921.168873367831111, 7760520.943644950166345 ], [ 6245968.997445790097117, 7760512.700287785381079 ], [ 6246010.271193136461079, 7760481.393149604089558 ], [ 6246042.749233022332191, 7760432.496719842776656 ], [ 6246082.680591956712306, 7760380.58494365401566 ], [ 6246113.091359883546829, 7760339.63885866291821 ], [ 6246156.508303152397275, 7760302.976433521136642 ], [ 6246215.733263477683067, 7760273.114160094410181 ], [ 6246262.930264389142394, 7760254.394909438677132 ], [ 6246314.166915034875274, 7760258.803901754319668 ], [ 6246361.634125157259405, 7760284.29171259328723 ], [ 6246406.690379464998841, 7760309.836814896203578 ], [ 6246513.200636335648596, 7760302.8724175542593 ], [ 6246564.619402003474534, 7760309.869562312960625 ], [ 6246607.868778079748154, 7760348.550052436068654 ], [ 6246649.156263532117009, 7760395.17401675414294 ], [ 6246684.882901191711426, 7760434.386437949724495 ], [ 6246720.141388511285186, 7760468.428806940093637 ], [ 6246771.301408559083939, 7760470.240841788239777 ], [ 6246822.175065426155925, 7760469.471398105844855 ], [ 6246878.16856575012207, 7760468.33977154828608 ], [ 6246930.029220678843558, 7760483.10988184157759 ], [ 6246985.125312804244459, 7760508.057542514055967 ], [ 6247032.152723722159863, 7760525.770912485197186 ], [ 6247083.208509193733335, 7760527.589605431072414 ], [ 6247132.484374588355422, 7760539.940552743151784 ], [ 6247185.60657221544534, 7760533.807968160137534 ], [ 6247227.137910729274154, 7760507.681990979239345 ], [ 6247292.728831991553307, 7760498.178560774773359 ], [ 6247342.987169687636197, 7760487.157836690545082 ], [ 6247446.982961007393897, 7760480.25343338958919 ], [ 6247492.118737570941448, 7760508.393243933096528 ], [ 6247522.727509742602706, 7760547.967416349798441 ], [ 6247595.346610643900931, 7760644.407748401165009 ], [ 6247621.199729589745402, 7760689.521802207455039 ], [ 6247664.997872455045581, 7760735.967996349558234 ], [ 6247703.416730424389243, 7760777.591453445143998 ], [ 6247708.20412786770612, 7760779.967540180310607 ], [ 6247748.371372373774648, 7760803.142474196851254 ], [ 6247789.643346610479057, 7760771.830172166228294 ], [ 6247883.317698647268116, 7760724.14068641141057 ], [ 6247908.528281796723604, 7760680.955926764756441 ], [ 6247917.929465593770146, 7760630.971618583425879 ], [ 6247918.471123874187469, 7760622.845415567979217 ], [ 6247908.246183687821031, 7760629.903543038293719 ], [ 6247901.843945866450667, 7760612.925260878168046 ], [ 6247901.065657548606396, 7760595.435884090140462 ], [ 6247902.867708389647305, 7760578.951635044068098 ], [ 6247906.021750073879957, 7760561.534640090540051 ], [ 6247907.650754367001355, 7760541.544688556343317 ], [ 6247918.117080238647759, 7760527.467495634220541 ], [ 6247923.498994034714997, 7760513.659615840762854 ], [ 6247930.897965136915445, 7760497.774676512926817 ], [ 6247931.736432274803519, 7760477.444735268130898 ], [ 6247933.129451445303857, 7760457.08685626834631 ], [ 6247932.676210543140769, 7760433.918591253459454 ], [ 6247932.067489960230887, 7760413.317778399214149 ], [ 6247937.457676472142339, 7760391.715497235767543 ], [ 6247927.471156637184322, 7760374.53845418151468 ], [ 6247929.03761787712574, 7760359.484801273792982 ], [ 6247937.903045700863004, 7760348.179074480198324 ], [ 6247947.016848780214787, 7760336.821821834892035 ], [ 6247950.295883881859481, 7760321.782682021148503 ], [ 6247959.598777923732996, 7760301.17033607326448 ], [ 6247944.873016517609358, 7760283.19758224952966 ], [ 6247944.401561823673546, 7760259.623363938182592 ], [ 6247946.573101069778204, 7760237.796378884464502 ], [ 6247951.199427392333746, 7760220.863294009119272 ], [ 6247945.118121866136789, 7760208.002446284517646 ], [ 6247939.043936686590314, 7760194.49632856156677 ], [ 6247945.162951773032546, 7760178.781057624146342 ], [ 6247955.884508585557342, 7760163.859856057912111 ], [ 6247952.420001685619354, 7760146.402211338281631 ], [ 6247952.819000804796815, 7760125.650857761502266 ], [ 6247962.70475092343986, 7760109.148585844784975 ], [ 6247965.145007973536849, 7760092.189216375350952 ], [ 6247972.816748598590493, 7760075.560848493129015 ], [ 6247986.54809616599232, 7760060.43782707490027 ], [ 6247987.403833298012614, 7760037.821604207158089 ], [ 6247989.056919598951936, 7760021.913366170600057 ], [ 6247988.249788923189044, 7760001.631958303973079 ], [ 6247987.855096615850925, 7759984.228475583717227 ], [ 6247979.454867248423398, 7759957.957711859606206 ], [ 6247976.241696885786951, 7759936.014132190495729 ], [ 6247962.119424443691969, 7759932.590981531888247 ], [ 6247964.281772858463228, 7759948.851259421557188 ], [ 6247956.79325052164495, 7759961.812994068488479 ], [ 6247940.496594454161823, 7759958.079961915500462 ], [ 6247934.221546335145831, 7759939.92766647785902 ], [ 6247921.603704476729035, 7759920.572869131341577 ], [ 6247920.060252010822296, 7759890.570283610373735 ], [ 6247902.929370390251279, 7759870.200201541185379 ], [ 6247896.140009191818535, 7759845.184183290228248 ], [ 6247894.889308532699943, 7759826.359507720917463 ], [ 6247890.724391147494316, 7759810.73874506726861 ], [ 6247893.219016401097178, 7759790.076599074527621 ], [ 6247906.383532913401723, 7759771.079794395714998 ], [ 6247916.421349729411304, 7759747.937986346893013 ], [ 6247936.881417881697416, 7759738.016989087685943 ], [ 6247941.009276958182454, 7759715.497153533622622 ], [ 6247939.821687754243612, 7759693.840042663738132 ], [ 6247936.490098037756979, 7759670.513533562421799 ], [ 6247934.254432652145624, 7759652.018736748024821 ], [ 6247940.959187231957912, 7759637.472214751876891 ], [ 6247937.562725578434765, 7759621.582123456522822 ], [ 6247932.598355956375599, 7759604.151528427377343 ], [ 6247953.568212632089853, 7759597.599149318411946 ], [ 6247969.811621804721653, 7759588.938047368079424 ], [ 6247980.181794921867549, 7759559.630253215320408 ], [ 6247983.905155513435602, 7759538.677379075437784 ], [ 6247965.39914489723742, 7759490.555278595536947 ], [ 6247951.396479484625161, 7759431.820631485432386 ], [ 6247940.439833422191441, 7759380.562331606633961 ], [ 6247907.40839771181345, 7759343.875691577792168 ], [ 6247869.171964666806161, 7759304.842812018468976 ], [ 6247836.055126196704805, 7759265.447446083649993 ], [ 6247817.289476977661252, 7759212.140564233064651 ], [ 6247850.200256308540702, 7759171.010902172885835 ], [ 6247887.249654528684914, 7759114.090903363190591 ], [ 6247883.823103463277221, 7759062.412599377334118 ], [ 6247841.188251722604036, 7759033.985199211165309 ], [ 6247800.99120513536036, 7759002.896571539342403 ], [ 6247775.14506069291383, 7758957.896334507502615 ], [ 6247768.838842513971031, 7758901.105619402602315 ], [ 6247770.713788006454706, 7758851.653742510825396 ], [ 6247776.882693655788898, 7758791.604080565273762 ], [ 6247781.004927876405418, 7758736.789609219878912 ], [ 6247750.213713872246444, 7758694.628372442908585 ], [ 6247706.676565862260759, 7758653.369863273575902 ], [ 6247668.987574530765414, 7758622.103955075144768 ], [ 6247632.999662249349058, 7758577.709149640984833 ], [ 6247593.419307683594525, 7758518.071813724935055 ], [ 6247582.357991204597056, 7758466.821529554203153 ], [ 6247561.084941573441029, 7758413.692805828526616 ], [ 6247518.095035901293159, 7758380.200787040404975 ], [ 6247496.203813889995217, 7758355.734371403232217 ], [ 6247485.161493793129921, 7758343.394899800419807 ], [ 6247439.482280026189983, 7758307.491675378754735 ], [ 6247411.199301183223724, 7758265.153139168396592 ], [ 6247361.660076864995062, 7758208.709976742044091 ], [ 6247316.875857086852193, 7758146.726804425939918 ], [ 6247315.956558777950704, 7758094.871783595532179 ], [ 6247329.855891203507781, 7758034.275398906320333 ], [ 6247355.059596132487059, 7757991.089961463585496 ], [ 6247387.707313973456621, 7757944.77549281809479 ], [ 6247432.457061073742807, 7757889.911735308356583 ], [ 6247449.661378093063831, 7757841.976039515808225 ], [ 6247438.711966447532177, 7757790.831249787472188 ], [ 6247419.763837927952409, 7757734.936628425493836 ], [ 6247411.399398263543844, 7757686.2104527708143 ], [ 6247418.39191254787147, 7757636.396398313343525 ], [ 6247414.781852407380939, 7757582.130073786713183 ], [ 6247414.139978682622313, 7757532.743708029389381 ], [ 6247398.25354534201324, 7757484.550461249426007 ], [ 6247384.501931194216013, 7757430.889537770301104 ], [ 6247363.67088028229773, 7757385.535220522433519 ], [ 6247355.038153282366693, 7757331.511701709590852 ], [ 6247348.920504420995712, 7757277.423125179484487 ], [ 6247347.73939966224134, 7757220.38312659971416 ], [ 6247358.764220763929188, 7757154.786380536854267 ], [ 6247363.144015659578145, 7757105.157345279119909 ], [ 6247372.538054671138525, 7757055.172985063865781 ], [ 6247384.361303376033902, 7757002.414766188710928 ], [ 6247401.675680028274655, 7756954.583843819797039 ], [ 6247453.518342402763665, 7756930.435888977721334 ], [ 6247501.067842064425349, 7756916.885605238378048 ], [ 6247552.296172518283129, 7756921.286283260211349 ], [ 6247604.425328369252384, 7756899.719127556309104 ], [ 6247651.245318301953375, 7756875.813244387507439 ], [ 6247698.872412038035691, 7756864.858493979088962 ], [ 6247744.892817002721131, 7756828.113484494388103 ], [ 6247770.879936722107232, 7756758.852996253408492 ], [ 6247772.750638659112155, 7756709.400918228551745 ], [ 6247764.305912379175425, 7756658.078409389592707 ], [ 6247743.473438804969192, 7756612.72444830276072 ], [ 6247719.761214312165976, 7756562.258138624951243 ], [ 6247708.444573819637299, 7756505.935899549163878 ], [ 6247702.689201358705759, 7756457.024541722610593 ], [ 6247699.068164552561939, 7756402.645331896841526 ], [ 6247697.623809926211834, 7756340.419780150055885 ], [ 6247699.389422120526433, 7756290.975186672061682 ], [ 6247718.660885933786631, 7756235.199018362909555 ], [ 6247730.488898161798716, 7756182.552264923229814 ], [ 6247749.049780059605837, 7756130.106729358434677 ], [ 6247736.929891327396035, 7756124.970895066857338 ], [ 6247684.973979068920016, 7756110.216804073192179 ], [ 6247642.533567145466805, 7756084.494200335815549 ], [ 6247586.533707312308252, 7756046.611364128068089 ], [ 6247544.085608770139515, 7756020.776142483577132 ], [ 6247499.138516305014491, 7755995.231199683621526 ], [ 6247448.517947384156287, 7755962.170281304046512 ], [ 6247406.078113876283169, 7755936.447520811110735 ], [ 6247358.259602174162865, 7755905.902700303122401 ], [ 6247308.916053352877498, 7755890.962945597246289 ], [ 6247263.857143620960414, 7755865.312653543427587 ], [ 6247221.053011376410723, 7755834.412255272269249 ], [ 6247162.54754352197051, 7755796.706798292696476 ], [ 6247104.589335484430194, 7755766.767506083473563 ], [ 6247064.474957519210875, 7755738.278045367449522 ], [ 6247016.831797312945127, 7755710.209140728227794 ], [ 6246974.2106544226408, 7755681.897342298179865 ], [ 6246921.266992301680148, 7755651.602446765638888 ], [ 6246858.815994365140796, 7755632.387963348999619 ], [ 6246806.966574467718601, 7755617.62522941455245 ], [ 6246749.269582189619541, 7755592.870313012972474 ], [ 6246696.326502052135766, 7755562.575137380510569 ], [ 6246652.976872221566737, 7755523.908258540555835 ], [ 6246614.928046167828143, 7755487.467341762036085 ], [ 6246574.554684370756149, 7755453.792798848822713 ], [ 6246522.054618422873318, 7755431.271007444709539 ], [ 6246467.334480875171721, 7755411.508088039234281 ], [ 6246412.32771865464747, 7755389.163789492100477 ], [ 6246349.071163270622492, 7755356.997597638517618 ], [ 6246303.944700751453638, 7755328.862959801219404 ], [ 6246247.9491923796013, 7755290.97897014580667 ], [ 6246195.007593290880322, 7755260.683332864195108 ], [ 6246137.676900100894272, 7755241.104970814660192 ], [ 6246075.957052077166736, 7755232.24379694648087 ], [ 6246027.240793061442673, 7755227.664337174966931 ], [ 6245978.160091227851808, 7755217.907449251040816 ], [ 6245933.398938559927046, 7755194.949742949567735 ], [ 6245888.447734876535833, 7755169.290790721774101 ], [ 6245825.6349579654634, 7755144.897121395915747 ], [ 6245772.347417047247291, 7755148.445675784721971 ], [ 6245720.682431768625975, 7755136.26985607855022 ], [ 6245675.809406508691609, 7755113.206680058501661 ], [ 6245665.043649218976498, 7755064.653043351136148 ], [ 6245674.43738828599453, 7755014.671429880894721 ], [ 6245695.957765226252377, 7754953.537667662836611 ], [ 6245712.793980825692415, 7754900.427148728631437 ], [ 6245705.13162106089294, 7754784.12651252001524 ], [ 6245688.614805366843939, 7754725.461048293858767 ], [ 6245671.636953783221543, 7754661.738304331898689 ], [ 6245668.208876388147473, 7754610.063349958509207 ], [ 6245626.64900497160852, 7754519.239096933975816 ], [ 6245604.839717172086239, 7754458.460362177342176 ], [ 6245593.414201425388455, 7754402.035942658782005 ], [ 6245592.040031961165369, 7754303.500909917987883 ], [ 6245590.858236068859696, 7754246.463808326050639 ], [ 6245592.547634825110435, 7754194.42633721511811 ], [ 6245591.807992866262794, 7754145.162519510835409 ], [ 6245584.682339398190379, 7754036.515701929107308 ], [ 6245576.057648003101349, 7753982.607565028592944 ], [ 6245568.384590586647391, 7753866.194938853383064 ], [ 6245566.402807257138193, 7753796.319895174354315 ], [ 6245573.287055531516671, 7753746.51573290862143 ], [ 6245585.106687134131789, 7753693.760189399123192 ], [ 6245599.258433846756816, 7753638.350851031020284 ], [ 6245616.560161279514432, 7753590.40970666334033 ], [ 6245636.454200892709196, 7753544.999393623322248 ], [ 6245648.971148673444986, 7753424.666817393153906 ], [ 6245655.497548983432353, 7753369.797700570896268 ], [ 6245675.487386222928762, 7753324.267200360074639 ], [ 6245689.820164572447538, 7753271.446102808229625 ], [ 6245685.582156050950289, 7753206.820654679089785 ], [ 6245676.043975663371384, 7753139.969431795179844 ], [ 6245650.011391200125217, 7753092.272397074848413 ], [ 6245613.126446837559342, 7753035.051724112592638 ], [ 6245584.665343331173062, 7752990.128518551588058 ], [ 6245548.692487029358745, 7752945.85104425996542 ], [ 6245510.647914092987776, 7752909.412020752206445 ], [ 6245470.174807929433882, 7752875.746734257787466 ], [ 6245431.323048398829997, 7752826.35725206695497 ], [ 6245402.680020537227392, 7752778.845582379028201 ], [ 6245379.162534387782216, 7752731.083676386624575 ], [ 6245353.320914227515459, 7752686.088122915476561 ], [ 6245329.256399009376764, 7752630.560475515201688 ], [ 6245312.451193692162633, 7752569.315131375566125 ], [ 6245306.501536995172501, 7752478.909508099779487 ], [ 6245286.382201544009149, 7752404.891566604375839 ], [ 6245243.221152175217867, 7752368.815752836875618 ], [ 6245200.789752476848662, 7752343.094312762841582 ], [ 6245149.027551157400012, 7752330.928897274658084 ], [ 6245097.804594706743956, 7752326.416594133712351 ], [ 6245043.900750658474863, 7752319.605823950842023 ], [ 6244990.074871569871902, 7752315.390906711108983 ], [ 6244939.667239682748914, 7752323.941054387949407 ], [ 6244894.045691650360823, 7752335.918296650052071 ], [ 6244887.109815500676632, 7752337.733313741162419 ], [ 6244835.367431911639869, 7752364.588181906379759 ], [ 6244788.369762128219008, 7752385.790436316281557 ], [ 6244737.17398436088115, 7752420.41056958399713 ], [ 6244690.17602788284421, 7752441.612438332289457 ], [ 6244643.00358983501792, 7752460.338119301944971 ], [ 6244595.46648851595819, 7752473.886521881446242 ], [ 6244548.111590657383204, 7752490.023317166604102 ], [ 6244495.99573237914592, 7752511.587107030674815 ], [ 6244446.498628879897296, 7752533.078235728666186 ], [ 6244399.682248077355325, 7752556.867578892968595 ], [ 6244345.4318603919819, 7752583.897956971079111 ], [ 6244301.303948778659105, 7752610.097870156168938 ], [ 6244253.401748344302177, 7752618.467999963089824 ], [ 6244141.821276169270277, 7752625.806470426730812 ], [ 6244086.399371874518692, 7752634.708752635866404 ], [ 6244035.990500807762146, 7752643.255781784653664 ], [ 6243979.649702128022909, 7752639.102591503411531 ], [ 6243930.766664235852659, 7752632.045879893936217 ], [ 6243878.207625496201217, 7752645.834436754696071 ], [ 6243827.980817601084709, 7752656.969344698823988 ], [ 6243704.821109971031547, 7752683.22161316499114 ], [ 6243657.387222725898027, 7752696.759568167850375 ], [ 6243602.771090631373227, 7752718.610016277059913 ], [ 6243534.955463580787182, 7752733.364376023411751 ], [ 6243477.832513907924294, 7752755.391776846721768 ], [ 6243410.822638323530555, 7752783.095322251319885 ], [ 6243356.75214881170541, 7752812.710166811943054 ], [ 6243296.827720508910716, 7752832.220574925653636 ], [ 6243244.093506524339318, 7752843.530874249525368 ], [ 6243181.220597866922617, 7752855.445434633642435 ], [ 6243128.12218754272908, 7752861.578426517546177 ], [ 6243077.886463513597846, 7752872.598229674622416 ], [ 6243027.8406166061759, 7752886.318855939432979 ], [ 6242976.085814186371863, 7752913.053747780621052 ], [ 6242929.456360553391278, 7752939.538853088393807 ], [ 6242882.904302290640771, 7752968.619597179815173 ], [ 6242842.37169024720788, 7753010.167715008370578 ], [ 6242801.300828495062888, 7753044.062884311191738 ], [ 6242757.177283301949501, 7753070.369911808520555 ], [ 6242712.871636046096683, 7753094.088338982313871 ], [ 6242663.986127894371748, 7753125.821333510801196 ], [ 6242617.90132181160152, 7753160.070384691469371 ], [ 6242567.132047861814499, 7753202.341291915625334 ], [ 6242526.241948233917356, 7753238.823758354410529 ], [ 6242496.46169968508184, 7753290.01490175537765 ], [ 6242459.792317585088313, 7753352.211261539719999 ], [ 6242432.084819397889078, 7753395.564765169285238 ], [ 6242398.81817040592432, 7753431.507426127791405 ], [ 6242357.640608656220138, 7753465.408037982881069 ], [ 6242304.103492526337504, 7753502.670484558679163 ], [ 6242260.159588059410453, 7753531.563744138926268 ], [ 6242211.089823950082064, 7753560.706093065440655 ], [ 6242161.404897857457399, 7753579.599817574955523 ], [ 6242106.594158484600484, 7753598.742588526569307 ], [ 6242036.820584384724498, 7753621.544007239863276 ], [ 6241984.342368449084461, 7753638.033261920325458 ], [ 6241937.163668827153742, 7753656.748981710523367 ], [ 6241880.832019854336977, 7753691.605623343959451 ], [ 6241822.175195724703372, 7753729.227493284270167 ], [ 6241771.142639942467213, 7753766.31026363093406 ], [ 6241724.145086689852178, 7753787.613512617535889 ], [ 6241674.26931737177074, 7753803.804448125883937 ], [ 6241621.167710189707577, 7753809.931429782882333 ], [ 6241567.884349459782243, 7753813.469891486689448 ], [ 6241514.419259096495807, 7753814.419844102114439 ], [ 6241456.122467257082462, 7753818.312164612114429 ], [ 6241407.775245863944292, 7753818.900251191109419 ], [ 6241359.064636277034879, 7753814.311537655070424 ], [ 6241304.977263053879142, 7753804.900181395933032 ], [ 6241282.584620573557913, 7753805.294445340521634 ], [ 6241262.886514337733388, 7753805.645375093445182 ] ] ] } }
]
}
