{
"type": "FeatureCollection",
"name": "3164472",
"crs": { "type": "name", "properties": { "name": "urn:ogc:def:crs:EPSG::5880" } },
"features": [
{ "type": "Feature", "properties": { "lv_id": "LOC_038430", "id": 210215.0, "CD_SETOR": "316447205000001", "SITUACAO": "Urbana", "CD_SIT": "1", "CD_TIPO": "0", "AREA_KM2": 0.236787029575938, "CD_REGIAO": "3", "NM_REGIAO": "Sudeste", "CD_UF": "31", "NM_UF": "Minas Gerais", "CD_MUN": "3164472", "NM_MUN": "São Sebastião do Anta", "CD_DIST": "316447205", "NM_DIST": "São Sebastião do Anta", "CD_SUBDIST": "31644720500", "NM_SUBDIST": null, "CD_BAIRRO": null, "NM_BAIRRO": null, "CD_NU": null, "NM_NU": null, "CD_FCU": null, "NM_FCU": null, "CD_AGLOM": null, "NM_AGLOM": null, "CD_RGINT": "3105", "NM_RGINT": "Ipatinga", "CD_RGI": "310025", "NM_RGI": "Caratinga", "CD_CONCURB": null, "NM_CONCURB": null, "mun_code_x": "3164472", "index_right": 32364, "dist_m": 259.73626303739093, "local_id": 411524, "ano": 2022, "cod_localidade_ibge": 3164472, "NR_ZONA": "128", "nr_cep": 35334000.0, "nm_localidade": "SÃO SEBASTIÃO DO ANTA", "nm_locvot": "ESCOLA ESTADUAL PROFESSOR ILÍDIO ALVES DE CARVALHO", "ds_endereco": "RUA MANOEL MEDINA, 2 - NOVO MUNDO", "ds_bairro": "CENTRO", "pred_long": -41.985671, "pred_lat": -19.498648, "pred_dist": 0.016783682571331698, "tse_long": null, "tse_lat": null, "long": -41.985671, "lat": -19.498648, "ID_UNICO": "LOC_038430", "SG_UF": "MG", "CD_MUNICIPIO": "42366", "NR_LOCAL_VOTACAO": "1015", "QT_SECOES_AGREGADAS": 1, "QT_ELEITORES_TRANSFERIDOS": 22, "CIRO GOMES (PDT) (NÃO ELEITO) 1T": 20.0, "CONSTITUINTE EYMAEL (DC) (NÃO ELEITO) 1T": 0.0, "FELIPE D AVILA (NOVO) (NÃO ELEITO) 1T": 12.0, "JAIR BOLSONARO (PL) (2º TURNO) 1T": 902.0, "LULA (PT) (2º TURNO) 1T": 1013.0, "LÉO PÉRICLES (UP) (NÃO ELEITO) 1T": 0.0, "PADRE KELMON (PTB) (NÃO ELEITO) 1T": 0.0, "SIMONE TEBET (MDB) (NÃO ELEITO) 1T": 32.0, "SOFIA MANZANO (PCB) (NÃO ELEITO) 1T": 0.0, "SORAYA THRONICKE (UNIÃO) (NÃO ELEITO) 1T": 3.0, "VERA (PSTU) (NÃO ELEITO) 1T": 0.0, "Total_Votos_Validos 1T": 1982.0, "Votos_Brancos 1T": 27.0, "Votos_Nulos 1T": 67.0, "Abstenções 1T": 799.0, "Eleitores_Aptos 1T": 2875.0, "JAIR BOLSONARO (PL) (NÃO ELEITO) 2T": 1050.0, "LULA (PT) (ELEITO) 2T": 1051.0, "Total_Votos_Validos 2T": 2101.0, "Votos_Brancos 2T": 12.0, "Votos_Nulos 2T": 29.0, "Abstenções 2T": 733.0, "Eleitores_Aptos 2T": 2875.0, "mun_code_y": "3164472", "mun_code": "3164472" }, "geometry": { "type": "Polygon", "coordinates": [ [ [ 6270340.31335542909801, 7793902.977550549432635 ], [ 6270285.686680319719017, 7793889.188718143850565 ], [ 6270239.531371301040053, 7793853.74630269035697 ], [ 6270203.713061403483152, 7793820.175181239843369 ], [ 6270147.113090879283845, 7793814.2228958979249 ], [ 6270086.570241719484329, 7793855.410503946244717 ], [ 6270059.352113638073206, 7793899.21833585575223 ], [ 6270043.11414139252156, 7793952.548841746523976 ], [ 6269990.511310245841742, 7793964.536423211917281 ], [ 6269942.580834126099944, 7793939.745900563895702 ], [ 6269910.86902522854507, 7793892.753726432099938 ], [ 6269879.529652342200279, 7793851.05513477884233 ], [ 6269843.157483172602952, 7793809.599730711430311 ], [ 6269788.426825810223818, 7793795.817280660383403 ], [ 6269740.360319038853049, 7793833.403482379391789 ], [ 6269710.628990089520812, 7793877.388253658078611 ], [ 6269683.227758876048028, 7793918.604590361937881 ], [ 6269641.969357839785516, 7793945.294896103441715 ], [ 6269597.911464184522629, 7793969.579866052605212 ], [ 6269528.652139863930643, 7793964.634907368570566 ], [ 6269479.512156195938587, 7793955.549193657934666 ], [ 6269432.41574577242136, 7793941.112111601047218 ], [ 6269405.912420148961246, 7793896.354610213078558 ], [ 6269401.850724413059652, 7793844.575758075341582 ], [ 6269444.71079071611166, 7793804.756053796038032 ], [ 6269485.135630728676915, 7793767.711838152259588 ], [ 6269506.50425006262958, 7793714.019491812214255 ], [ 6269510.25826090388, 7793664.177331265062094 ], [ 6269496.057226153090596, 7793613.342471402138472 ], [ 6269474.206242288462818, 7793562.936017315834761 ], [ 6269420.588878174312413, 7793561.977771338075399 ], [ 6269377.183193072676659, 7793594.026454446837306 ], [ 6269326.806853744201362, 7793603.251724597066641 ], [ 6269283.817482525482774, 7793575.39447433501482 ], [ 6269269.434819750487804, 7793521.969424246810377 ], [ 6269285.673719530925155, 7793468.640600135549903 ], [ 6269291.758053684607148, 7793416.03051889128983 ], [ 6269243.647381721064448, 7793388.649192500859499 ], [ 6269202.624338123947382, 7793352.843041215091944 ], [ 6269193.62285659648478, 7793304.13065280765295 ], [ 6269181.380249341949821, 7793245.234506376087666 ], [ 6269187.472275678999722, 7793192.737202439457178 ], [ 6269188.070353556424379, 7793135.422187024727464 ], [ 6269147.229822237975895, 7793102.206695617176592 ], [ 6269123.23935363907367, 7793057.271998688578606 ], [ 6269127.000928640365601, 7793007.543025616556406 ], [ 6269154.218360305763781, 7792963.736979437991977 ], [ 6269203.759294399060309, 7792944.156995130702853 ], [ 6269249.857485875487328, 7792914.520516248419881 ], [ 6269285.437008555047214, 7792880.421992529183626 ], [ 6269312.835907444357872, 7792839.205815562978387 ], [ 6269286.619485932402313, 7792797.032176710665226 ], [ 6269238.5097869746387, 7792769.651744034141302 ], [ 6269197.669501171447337, 7792736.436757015995681 ], [ 6269154.681440779007971, 7792708.580458360724151 ], [ 6269107.587835546582937, 7792694.144523667171597 ], [ 6269054.884071217849851, 7792706.13868520129472 ], [ 6269000.788247224874794, 7792731.247666913084686 ], [ 6268945.02543774060905, 7792735.648129977285862 ], [ 6268894.105083242990077, 7792737.102337557822466 ], [ 6268833.694198762997985, 7792715.798737438395619 ], [ 6268784.088571401312947, 7792701.539993613027036 ], [ 6268725.5266980715096, 7792703.534722056239843 ], [ 6268678.603176290169358, 7792722.928340019658208 ], [ 6268652.210744, 7792776.974726709537208 ], [ 6268633.831919215619564, 7792835.773520329967141 ], [ 6268584.205503045581281, 7792852.641480239108205 ], [ 6268541.121562278829515, 7792824.904230995103717 ], [ 6268517.237189825624228, 7792779.962409153580666 ], [ 6268496.703250322490931, 7792713.844371129758656 ], [ 6268457.179380098357797, 7792664.91614249907434 ], [ 6268421.365339122712612, 7792631.344854032620788 ], [ 6268387.699457394890487, 7792592.415084625594318 ], [ 6268355.704893024638295, 7792542.840945952571929 ], [ 6268346.809240449219942, 7792494.122218893840909 ], [ 6268337.262492435052991, 7792437.639887636527419 ], [ 6268351.352850490249693, 7792389.671278908848763 ], [ 6268360.054241696372628, 7792336.877540519461036 ], [ 6268322.93843795824796, 7792287.779285544529557 ], [ 6268318.338462451472878, 7792228.343665637075901 ], [ 6268337.731716590933502, 7792182.489679267629981 ], [ 6268375.648433925583959, 7792145.737416177988052 ], [ 6268405.74141454976052, 7792106.935549505054951 ], [ 6268424.95194679684937, 7792058.490927619859576 ], [ 6268403.579762158915401, 7792013.371822024695575 ], [ 6268353.976055321283638, 7791999.113230601884425 ], [ 6268306.577612524852157, 7792013.220858974382281 ], [ 6268259.369168313220143, 7792030.031291289255023 ], [ 6268199.429867157712579, 7792013.900690408423543 ], [ 6268163.0703344643116, 7791972.558900639414787 ], [ 6268141.59408800303936, 7791927.44733177870512 ], [ 6268112.39912579394877, 7791880.278899667784572 ], [ 6268108.163302222266793, 7791826.024305926635861 ], [ 6268121.419365205802023, 7791767.702016999013722 ], [ 6268167.793744928203523, 7791740.537697667255998 ], [ 6268221.041216392070055, 7791736.315699066966772 ], [ 6268273.924315769225359, 7791726.912866139784455 ], [ 6268321.504074712283909, 7791715.395252905786037 ], [ 6268381.61699815094471, 7791734.002713322639465 ], [ 6268437.911471221596003, 7791768.613088607788086 ], [ 6268485.002578761428595, 7791783.049021258950233 ], [ 6268540.828260408714414, 7791812.485988955944777 ], [ 6268592.579509544186294, 7791821.385304971598089 ], [ 6268636.813654839992523, 7791799.690782966092229 ], [ 6268669.234990459866822, 7791758.11961320694536 ], [ 6268709.758556596934795, 7791721.067885367199779 ], [ 6268757.330183124169707, 7791709.436417387798429 ], [ 6268804.727420686744153, 7791695.327049471437931 ], [ 6268831.83677542861551, 7791651.528163999319077 ], [ 6268856.538442808203399, 7791607.899683472700417 ], [ 6268883.4651251854375, 7791561.510201182216406 ], [ 6268869.542409599758685, 7791513.147040527313948 ], [ 6268819.652374685741961, 7791496.307230334728956 ], [ 6268788.133568747900426, 7791452.020138469524682 ], [ 6268779.227327740751207, 7791403.188597802072763 ], [ 6268747.890904010273516, 7791361.491951528936625 ], [ 6268692.132458684965968, 7791365.89400321058929 ], [ 6268646.999388086609542, 7791343.397446680814028 ], [ 6268636.980608282610774, 7791281.741724617779255 ], [ 6268652.85019962862134, 7791223.232538004405797 ], [ 6268676.255854692310095, 7791164.189458778128028 ], [ 6268678.816219323314726, 7791098.926202522590756 ], [ 6268647.654432303272188, 7791059.707542821764946 ], [ 6268599.548511083237827, 7791032.328596411272883 ], [ 6268563.552978512831032, 7790996.168823531828821 ], [ 6268507.91108669526875, 7790969.323632460087538 ], [ 6268466.786983063444495, 7790933.527134211733937 ], [ 6268434.644815261475742, 7790914.751326609402895 ], [ 6268433.179281065240502, 7790915.002269661054015 ], [ 6268316.363203215412796, 7790935.013102181255817 ], [ 6268268.793722283095121, 7790946.64446971938014 ], [ 6268225.031110174022615, 7790973.512329465709627 ], [ 6268197.81784147862345, 7791017.317549895495176 ], [ 6268183.912883297540247, 7791067.876790205016732 ], [ 6268168.0423150267452, 7791126.384834060445428 ], [ 6268132.640840062871575, 7791162.959803165867925 ], [ 6268113.71902714855969, 7791213.987173707224429 ], [ 6268091.990111220628023, 7791262.496784027665854 ], [ 6268041.790879649110138, 7791305.551745649427176 ], [ 6267991.044832319021225, 7791340.835495492443442 ], [ 6267950.156980833038688, 7791372.704763434827328 ], [ 6267918.828343874774873, 7791429.816078249365091 ], [ 6267873.749048737809062, 7791472.394453575834632 ], [ 6267826.88587433192879, 7791525.511624982580543 ], [ 6267783.02397177554667, 7791552.497366471216083 ], [ 6267744.74398029781878, 7791584.067911205813289 ], [ 6267696.403771538287401, 7791619.179757055826485 ], [ 6267649.657099805772305, 7791641.04952547699213 ], [ 6267598.075975485146046, 7791665.977543521672487 ], [ 6267522.74072658829391, 7791713.637728633359075 ], [ 6267479.234005510807037, 7791745.69021740090102 ], [ 6267428.84929964132607, 7791786.151749391108751 ], [ 6267375.952127613127232, 7791826.790738921612501 ], [ 6267338.216705920174718, 7791866.130575904622674 ], [ 6267308.668436646461487, 7791912.700558751821518 ], [ 6267306.10109547432512, 7791977.960789561271667 ], [ 6267307.647943275049329, 7792029.914276674389839 ], [ 6267315.939922824501991, 7792135.94354647770524 ], [ 6267312.644012035802007, 7792190.842677975073457 ], [ 6267313.903798417188227, 7792240.213308281265199 ], [ 6267318.431093823164701, 7792297.162281447090209 ], [ 6267342.96329602971673, 7792349.867006102576852 ], [ 6267339.848965292796493, 7792407.356431964784861 ], [ 6267293.645214700140059, 7792436.99477500282228 ], [ 6267244.936918145976961, 7792466.923191297799349 ], [ 6267203.680110995657742, 7792493.608191953971982 ], [ 6267156.097513465210795, 7792505.121531254611909 ], [ 6267106.010479841381311, 7792516.924965077079833 ], [ 6267053.593029307201505, 7792531.496104997582734 ], [ 6266949.605473637580872, 7792539.75303862337023 ], [ 6266899.336326798424125, 7792548.965568007901311 ], [ 6266835.932488039135933, 7792553.90018798969686 ], [ 6266784.726324445568025, 7792552.766223173588514 ], [ 6266730.098438291810453, 7792538.858537486754358 ], [ 6266631.25584134273231, 7792515.513053314760327 ], [ 6266560.807403897866607, 7792495.027137748897076 ], [ 6266484.405663476325572, 7792464.662698516622186 ], [ 6266430.323844579979777, 7792458.525075575336814 ], [ 6266376.060224633663893, 7792449.797115358524024 ], [ 6266288.0146817676723, 7792433.383460620418191 ], [ 6266231.238947032019496, 7792424.832696648314595 ], [ 6266171.308760495856404, 7792408.808738516643643 ], [ 6266083.081829002127051, 7792389.804182569496334 ], [ 6266015.692211478948593, 7792376.9099485501647 ], [ 6265959.280409222468734, 7792373.538913084194064 ], [ 6265908.647898949682713, 7792377.568509697914124 ], [ 6265862.086562787182629, 7792402.134466827847064 ], [ 6265811.219704810529947, 7792437.303210292942822 ], [ 6265771.15638914052397, 7792479.517627466470003 ], [ 6265738.734381848014891, 7792521.192145314067602 ], [ 6265698.366794731467962, 7792592.060619520954788 ], [ 6265652.62817151285708, 7792626.866225033067167 ], [ 6265599.619060952216387, 7792667.5041717980057 ], [ 6265558.35948749165982, 7792694.184076676145196 ], [ 6265514.587454233318567, 7792721.041220650076866 ], [ 6265451.899625174701214, 7792767.680899415165186 ], [ 6265396.377158916555345, 7792808.495188159868121 ], [ 6265344.807336250320077, 7792802.176808218471706 ], [ 6265288.499239566735923, 7792798.795770671218634 ], [ 6265227.146705476567149, 7792798.486803606152534 ], [ 6265203.563215685077012, 7792789.966133868321776 ], [ 6265179.97974706813693, 7792781.445447752252221 ], [ 6265130.9145412389189, 7792774.836625469848514 ], [ 6265068.653954721987247, 7792761.576623260043561 ], [ 6265015.708347270265222, 7792737.134107995778322 ], [ 6264940.263544265180826, 7792685.873677934519947 ], [ 6264894.128734827041626, 7792650.538668250665069 ], [ 6264844.52705486677587, 7792636.271688921377063 ], [ 6264774.969732034951448, 7792659.966922672465444 ], [ 6264719.751846242696047, 7792672.125088984146714 ], [ 6264667.695642974227667, 7792691.868652705103159 ], [ 6264617.606914026662707, 7792703.664484434761107 ], [ 6264566.018323878757656, 7792728.580438908189535 ], [ 6264473.245202746242285, 7792782.770241869613528 ], [ 6264414.663768303580582, 7792815.987510274164379 ], [ 6264368.462255902588367, 7792845.728267209604383 ], [ 6264330.172692625783384, 7792877.287236131727695 ], [ 6264279.490674432367086, 7792915.152241645380855 ], [ 6264230.231753872707486, 7792937.299439828842878 ], [ 6264179.367808322422206, 7792972.573918842710555 ], [ 6264082.341655584052205, 7793003.634654186666012 ], [ 6264027.771352332085371, 7793023.552763449959457 ], [ 6263951.045086348429322, 7793053.067817462608218 ], [ 6263903.467265468090773, 7793064.683835752308369 ], [ 6263859.224295952357352, 7793086.362702218815684 ], [ 6263798.987671578302979, 7793098.984080426394939 ], [ 6263743.767836082726717, 7793111.13836451433599 ], [ 6263682.882161669433117, 7793115.996610444039106 ], [ 6263630.279276135377586, 7793127.966003902256489 ], [ 6263547.048110676929355, 7793139.71774953790009 ], [ 6263480.307379342615604, 7793134.576822755858302 ], [ 6263425.213849456980824, 7793115.487658355385065 ], [ 6263360.834113787859678, 7793076.456992364488542 ], [ 6263304.834061792120337, 7793044.417682856321335 ], [ 6263249.273562559857965, 7793020.155670282430947 ], [ 6263187.014081312343478, 7793006.88993610907346 ], [ 6263135.730975522659719, 7793003.148411944508553 ], [ 6263077.825367736630142, 7793013.000399713404477 ], [ 6263026.129168305546045, 7793037.917975002899766 ], [ 6262969.694073256105185, 7793065.771979788318276 ], [ 6262883.718516314402223, 7793108.947049364447594 ], [ 6262822.991206413134933, 7793147.626847374252975 ], [ 6262790.085564194247127, 7793184.006853744387627 ], [ 6262740.982308795675635, 7793239.973143290728331 ], [ 6262702.931320932693779, 7793308.061042979359627 ], [ 6262676.527847936376929, 7793362.201535468921065 ], [ 6262655.42698931414634, 7793418.457962789572775 ], [ 6262659.651642704382539, 7793472.817438306286931 ], [ 6262651.314035060815513, 7793528.061662105843425 ], [ 6262652.558903907425702, 7793577.425554936751723 ], [ 6262651.39592314325273, 7793626.959016373381019 ], [ 6262662.868638504296541, 7793774.392565081827343 ], [ 6262651.913105553947389, 7793829.821002366021276 ], [ 6262635.299910822883248, 7793878.065960824489594 ], [ 6262606.200580099597573, 7793929.792728169821203 ], [ 6262564.622852726839483, 7793985.113785801455379 ], [ 6262514.347935131751001, 7793994.311503406614065 ], [ 6262413.32310657016933, 7794007.421355659142137 ], [ 6262380.421861862763762, 7794043.911931995302439 ], [ 6262342.13314638286829, 7794075.576241690665483 ], [ 6262292.401259988546371, 7794092.542964797466993 ], [ 6262227.497360352426767, 7794110.690557477995753 ], [ 6262176.755053086206317, 7794114.714643186889589 ], [ 6262118.837372129783034, 7794124.448905050754547 ], [ 6262050.410564307123423, 7794129.830389067530632 ], [ 6261997.517836065031588, 7794139.210587593726814 ], [ 6261942.301481719128788, 7794151.46992333047092 ], [ 6261844.435913375578821, 7794172.161621626466513 ], [ 6261789.686156866140664, 7794189.592829428613186 ], [ 6261722.81205303221941, 7794215.68470555357635 ], [ 6261671.395502054132521, 7794243.178243583999574 ], [ 6261605.168740520253778, 7794277.031784834340215 ], [ 6261553.208795165643096, 7794296.755184475332499 ], [ 6261495.833268098533154, 7794314.256698301061988 ], [ 6261439.113141726702452, 7794339.632828116416931 ], [ 6261376.997926520183682, 7794360.069793408736587 ], [ 6261319.62990078702569, 7794377.68318381998688 ], [ 6261259.379434777423739, 7794390.18071954138577 ], [ 6261209.750402450561523, 7794407.136267504654825 ], [ 6261162.995712731964886, 7794429.094660492613912 ], [ 6261115.955284026451409, 7794448.470392176881433 ], [ 6261007.265192250721157, 7794493.453578962013125 ], [ 6260931.849749743007123, 7794507.24222107976675 ], [ 6260853.636058048345149, 7794518.624665797688067 ], [ 6260799.370885724201798, 7794509.879216490313411 ], [ 6260739.622059320099652, 7794496.427191833034158 ], [ 6260692.533007177524269, 7794481.972030190750957 ], [ 6260632.233921363018453, 7794460.637730759568512 ], [ 6260584.497793913818896, 7794438.420335603877902 ], [ 6260537.047310401685536, 7794418.78533598408103 ], [ 6260475.642865167930722, 7794384.629075079225004 ], [ 6260424.671180095523596, 7794352.228899452835321 ], [ 6260376.393026341684163, 7794322.241905952803791 ], [ 6260333.417749470099807, 7794294.371564541012049 ], [ 6260274.345694646239281, 7794257.448744415305555 ], [ 6260206.601987367495894, 7794239.465856748633087 ], [ 6260157.821505894884467, 7794235.42572377435863 ], [ 6260104.212511228397489, 7794234.55355335585773 ], [ 6260049.767794877290726, 7794223.216907244175673 ], [ 6260000.167424164712429, 7794208.937304493039846 ], [ 6259953.07966143079102, 7794194.481086419895291 ], [ 6259905.135061894543469, 7794200.904704725369811 ], [ 6259852.888456091284752, 7794218.040253635495901 ], [ 6259794.007945287972689, 7794248.653900944627821 ], [ 6259756.256760102696717, 7794288.079626112245023 ], [ 6259723.808030216023326, 7794329.622003169730306 ], [ 6259683.732455023564398, 7794371.926239074207842 ], [ 6259635.930372308008373, 7794412.05736480653286 ], [ 6259595.018897105008364, 7794443.896993843838573 ], [ 6259543.779433017596602, 7794473.972492066211998 ], [ 6259485.867553246207535, 7794483.810083644464612 ], [ 6259432.61153559666127, 7794488.002533923834562 ], [ 6259378.859090931713581, 7794518.253815008327365 ], [ 6259325.964303590357304, 7794527.625347443856299 ], [ 6259267.690849101170897, 7794532.282692197710276 ], [ 6259244.81631400808692, 7794549.729451021179557 ], [ 6259226.778385579586029, 7794564.121035858988762 ], [ 6259203.158617808483541, 7794620.655967082828283 ], [ 6259181.862695665098727, 7794674.312085734680295 ], [ 6259185.894125729799271, 7794726.076954370364547 ], [ 6259198.026101490482688, 7794782.364812472835183 ], [ 6259224.503396346233785, 7794827.122938461601734 ], [ 6259242.013993928208947, 7794888.124945797026157 ], [ 6259242.208357925526798, 7794955.773633848875761 ], [ 6259238.596836645156145, 7795008.075079455971718 ], [ 6259227.920992961153388, 7795066.190298790112138 ], [ 6259222.804228409193456, 7795131.609304742887616 ], [ 6259212.023297104984522, 7795189.731790238060057 ], [ 6259185.24221212323755, 7795238.680751981213689 ], [ 6259149.629988154396415, 7795272.635033037513494 ], [ 6259104.163111652247608, 7795310.109408016316593 ], [ 6259044.417923387140036, 7795361.59738003090024 ], [ 6258988.517615497112274, 7795397.314090209081769 ], [ 6258944.44274578243494, 7795421.56502672098577 ], [ 6258892.656944580376148, 7795443.867578243836761 ], [ 6258854.25348493643105, 7795475.527325935661793 ], [ 6258821.445708414539695, 7795511.999058350920677 ], [ 6258774.359221982769668, 7795562.484066695906222 ], [ 6258746.929618592374027, 7795603.669740939512849 ], [ 6258700.962174744345248, 7795667.200642682611942 ], [ 6258679.015383154153824, 7795713.092968423850834 ], [ 6258648.899748178198934, 7795751.977409888058901 ], [ 6258608.309839700348675, 7795820.221983524039388 ], [ 6258594.83186421636492, 7795875.929328589700162 ], [ 6258588.703736017458141, 7795928.405701911076903 ], [ 6258589.539049599319696, 7796003.814693572930992 ], [ 6258595.391905935481191, 7796078.758681874722242 ], [ 6258609.386882498860359, 7796127.108445000834763 ], [ 6258613.767161393538117, 7796183.939417130313814 ], [ 6258623.097270172089338, 7796237.820988598279655 ], [ 6258640.71645775064826, 7796298.928363963961601 ], [ 6258663.068339237011969, 7796356.988465906120837 ], [ 6258689.405361147597432, 7796432.985541118308902 ], [ 6258706.731552705168724, 7796491.398135351017118 ], [ 6258729.188158926554024, 7796549.45105998031795 ], [ 6258766.49986017215997, 7796634.97509057726711 ], [ 6258781.021524455398321, 7796671.55510039255023 ], [ 6258785.512620003893971, 7796682.860237866640091 ], [ 6258797.443800545297563, 7796711.554638311266899 ], [ 6258809.156204838305712, 7796739.676035109907389 ], [ 6258816.980177157558501, 7796758.497969426214695 ], [ 6258850.126545589417219, 7796823.495563864707947 ], [ 6258869.424480905756354, 7796873.963212502188981 ], [ 6258879.261345250532031, 7796966.844908533617854 ], [ 6258872.631790806539357, 7797045.380070950835943 ], [ 6258876.838586640544236, 7797099.734419270418584 ], [ 6258874.332633915357292, 7797164.968721459619701 ], [ 6258878.816447175107896, 7797221.792848616838455 ], [ 6258869.861267752014101, 7797303.206388510763645 ], [ 6258858.704638642258942, 7797356.035252506844699 ], [ 6258856.093245215713978, 7797421.276823744177818 ], [ 6258864.962815680541098, 7797535.045018928125501 ], [ 6258860.311171485111117, 7797605.747364374808967 ], [ 6258858.164488080888987, 7797676.160972082987428 ], [ 6258845.179961072281003, 7797770.755090717226267 ], [ 6258837.54917692579329, 7797836.461381955072284 ], [ 6258827.21697798371315, 7797899.641436906531453 ], [ 6258806.743256046436727, 7797963.758328876458108 ], [ 6258787.768346391618252, 7798014.645287232473493 ], [ 6258761.337392782792449, 7798068.770019656047225 ], [ 6258721.522790500894189, 7798113.536112735047936 ], [ 6258691.932724866084754, 7798160.074880829080939 ], [ 6258660.122128374874592, 7798209.484518175013363 ], [ 6258623.825771944597363, 7798267.01515088789165 ], [ 6258600.904621879570186, 7798333.791644044220448 ], [ 6258581.575457929633558, 7798379.611080669797957 ], [ 6258580.744842825457454, 7798434.204578444361687 ], [ 6258585.593582944013178, 7798496.320352341979742 ], [ 6258581.972494903020561, 7798548.620106359943748 ], [ 6258576.483446003869176, 7798608.857576912268996 ], [ 6258598.11202557105571, 7798656.560366729274392 ], [ 6258634.271226406097412, 7798695.325483856722713 ], [ 6258659.418803026899695, 7798755.793462546542287 ], [ 6258675.399152807891369, 7798813.056611948646605 ], [ 6258675.605130144394934, 7798864.409571081399918 ], [ 6258688.979724692180753, 7798911.446006492711604 ], [ 6258689.420574696734548, 7798966.176845951005816 ], [ 6258702.045026774518192, 7799050.829678701236844 ], [ 6258695.070817239582539, 7799095.783647461794317 ], [ 6258682.111115240491927, 7799174.19472711160779 ], [ 6258680.21382066514343, 7799184.736816364340484 ], [ 6258675.775193450972438, 7799234.378340285271406 ], [ 6258668.8986298115924, 7799286.792843040078878 ], [ 6258656.81524855364114, 7799336.969552410766482 ], [ 6258636.823781684972346, 7799382.38210685364902 ], [ 6258622.587064603343606, 7799437.914042791351676 ], [ 6258620.556310552172363, 7799487.386807786300778 ], [ 6258623.949433973059058, 7799539.195304088294506 ], [ 6258639.908968908712268, 7799590.124106079339981 ], [ 6258663.333010566420853, 7799637.928096307441592 ], [ 6258689.02270867023617, 7799680.482055075466633 ], [ 6258715.328226145356894, 7799733.402171902358532 ], [ 6258738.752391083166003, 7799781.206278482452035 ], [ 6258765.162719087675214, 7799834.119154326617718 ], [ 6258788.586962158791721, 7799881.92334190569818 ], [ 6258809.685843260027468, 7799932.605808360502124 ], [ 6258818.976650143042207, 7799999.615633830428123 ], [ 6258819.743500500917435, 7800051.495107240974903 ], [ 6258823.563936895690858, 7800110.967778205871582 ], [ 6258809.505772143602371, 7800169.089528502896428 ], [ 6258784.380836687982082, 7800214.861073187552392 ], [ 6258764.462570599280298, 7800262.870405494235456 ], [ 6258725.689793553203344, 7800293.98303747177124 ], [ 6258668.310159225016832, 7800313.272992718964815 ], [ 6258618.215231632813811, 7800326.848350815474987 ], [ 6258562.373233464546502, 7800330.416524081490934 ], [ 6258506.891303613781929, 7800339.163898418657482 ], [ 6258454.538132993504405, 7800358.101286621764302 ], [ 6258407.504247847944498, 7800379.381722171790898 ], [ 6258366.209300661459565, 7800410.556412514299154 ], [ 6258335.875716691836715, 7800454.088568564504385 ], [ 6258316.503447519615293, 7800509.978249721229076 ], [ 6258304.663431787863374, 7800565.227785820141435 ], [ 6258311.766647846437991, 7800676.515121538192034 ], [ 6258323.777036848478019, 7800743.333881733007729 ], [ 6258335.851913488470018, 7800932.228302605450153 ], [ 6258341.650432273745537, 7800983.8680250486359 ], [ 6258347.365832614712417, 7801032.79816466756165 ], [ 6258358.295971162617207, 7801084.079013973474503 ], [ 6258376.774451282806695, 7801134.945122987031937 ], [ 6258393.016264548525214, 7801188.456818366423249 ], [ 6258415.155343938618898, 7801257.16973277553916 ], [ 6258423.391884373500943, 7801306.036812659353018 ], [ 6258429.901961689814925, 7801367.922843695618212 ], [ 6258437.542640717700124, 7801486.979725150391459 ], [ 6258438.920517140068114, 7801549.22465851996094 ], [ 6258437.717307827435434, 7801609.160938940010965 ], [ 6258433.707893279381096, 7801666.578008458018303 ], [ 6258424.843206634745002, 7801726.823650043457747 ], [ 6258415.626350088045001, 7801782.002476394176483 ], [ 6258414.669751951470971, 7801847.012793028727174 ], [ 6258413.105993895791471, 7801901.769632307812572 ], [ 6258413.868044671602547, 7801953.648453548550606 ], [ 6258416.21930355578661, 7802031.438782645389438 ], [ 6258413.722907231189311, 7802112.170241124927998 ], [ 6258403.317692667245865, 7802188.13684671279043 ], [ 6258392.125464618206024, 7802251.260240314528346 ], [ 6258380.033774219453335, 7802301.435156716965139 ], [ 6258370.455615445040166, 7802351.434333542361856 ], [ 6258359.509900331497192, 7802419.631675183773041 ], [ 6258344.724156616255641, 7802467.392451518215239 ], [ 6258322.104728348553181, 7802512.985240144655108 ], [ 6258297.076129046268761, 7802558.746286650188267 ], [ 6258264.656276831403375, 7802610.228205109015107 ], [ 6258255.436662940308452, 7802665.406403515487909 ], [ 6258253.683058563619852, 7802717.460620921105146 ], [ 6258257.504027375951409, 7802777.045167833566666 ], [ 6258278.411545432172716, 7802825.026869092136621 ], [ 6258301.660882839933038, 7802870.355876561254263 ], [ 6258327.595999445766211, 7802917.98636326007545 ], [ 6258358.85106791369617, 7802967.960562450811267 ], [ 6258384.794114382006228, 7803015.703724885359406 ], [ 6258413.535530171357095, 7803065.853653596714139 ], [ 6258439.223855761811137, 7803108.410194283351302 ], [ 6258470.299414466135204, 7803155.794864511117339 ], [ 6258501.08270668797195, 7803200.484599757008255 ], [ 6258534.605012841522694, 7803245.209275932051241 ], [ 6258575.481280766427517, 7803286.704740758985281 ], [ 6258613.492079141549766, 7803323.309059513732791 ], [ 6258659.141414569690824, 7803359.266509779728949 ], [ 6258704.079515595920384, 7803384.977702662348747 ], [ 6258746.863482900895178, 7803416.043953775428236 ], [ 6258779.734471967443824, 7803452.894327587448061 ], [ 6258815.411763335578144, 7803492.264049713499844 ], [ 6258866.277055338956416, 7803530.572460156865418 ], [ 6258935.031943373382092, 7803570.346137683838606 ], [ 6259001.451429853215814, 7803609.830391723662615 ], [ 6259046.559326791204512, 7803639.489625694230199 ], [ 6259113.542164520360529, 7803687.080787448212504 ], [ 6259158.331274914555252, 7803707.597602603957057 ], [ 6259208.50792701728642, 7803732.942466173321009 ], [ 6259253.477075649425387, 7803756.048935644328594 ], [ 6259289.592038950882852, 7803772.906359998509288 ], [ 6259322.008085419423878, 7803788.03095225431025 ], [ 6259382.53315329644829, 7803815.367813779041171 ], [ 6259433.070061267353594, 7803845.891964514739811 ], [ 6259482.401238454505801, 7803880.573597813025117 ], [ 6259483.862090001814067, 7803881.602934645488858 ], [ 6259483.99638762511313, 7803881.718006817623973 ], [ 6259532.604840021580458, 7803922.661831735633314 ], [ 6259563.256193312816322, 7803962.383038450032473 ], [ 6259582.49118135124445, 7803983.214981826022267 ], [ 6259601.72619757335633, 7804004.0469303522259 ], [ 6259647.850681528449059, 7804045.288916319608688 ], [ 6259681.120999360457063, 7804084.827134029008448 ], [ 6259712.492203734815121, 7804134.907571515068412 ], [ 6259755.71802731975913, 7804210.182976718991995 ], [ 6259779.075214053504169, 7804255.505877290852368 ], [ 6259823.405879992060363, 7804307.282923255115747 ], [ 6259869.786177880130708, 7804353.711996173486114 ], [ 6259920.864464066922665, 7804392.005555453710258 ], [ 6259958.98359586764127, 7804428.602682428434491 ], [ 6260044.153315402567387, 7804480.353514997288585 ], [ 6260088.840163944289088, 7804500.877171061933041 ], [ 6260141.818300230428576, 7804528.628288197331131 ], [ 6260192.972580166533589, 7804569.518864057958126 ], [ 6260251.706489563919604, 7804607.390245510265231 ], [ 6260315.543795621022582, 7804647.50718098692596 ], [ 6260379.658177975565195, 7804690.093969939276576 ], [ 6260420.217342452146113, 7804723.918105334043503 ], [ 6260462.750883070752025, 7804749.796932931989431 ], [ 6260538.729098645038903, 7804817.691487312316895 ], [ 6260600.773180918768048, 7804868.343435257673264 ], [ 6260678.299130512401462, 7804920.628351874649525 ], [ 6260745.748362821526825, 7804936.957403249107301 ], [ 6260804.58363408409059, 7804938.387173376977444 ], [ 6260858.562944119796157, 7804942.645693687722087 ], [ 6260919.904503579251468, 7804943.786699587479234 ], [ 6260978.372066489420831, 7804939.923610420897603 ], [ 6261024.983508294448256, 7804910.864952537231147 ], [ 6261088.247399397194386, 7804862.423895161598921 ], [ 6261140.531283373944461, 7804840.775348784402013 ], [ 6261198.998510314151645, 7804836.911389144137502 ], [ 6261251.537498602643609, 7804820.44954926893115 ], [ 6261321.996765034273267, 7804802.84683117736131 ], [ 6261366.520761057734489, 7804781.627191813662648 ], [ 6261418.624025702476501, 7804757.387680869549513 ], [ 6261486.103977833874524, 7804734.787571990862489 ], [ 6261601.34162035677582, 7804701.150420290417969 ], [ 6261673.953942545689642, 7804678.19019028544426 ], [ 6261726.484226141124964, 7804661.613972311839461 ], [ 6261774.354442309588194, 7804650.681974366307259 ], [ 6261841.293190377764404, 7804620.310365406796336 ], [ 6261885.740710635669529, 7804596.491684352047741 ], [ 6261944.027885826304555, 7804573.401254426687956 ], [ 6262005.5014908015728, 7804552.237407144159079 ], [ 6262049.948603769764304, 7804528.418139453977346 ], [ 6262105.99710787832737, 7804488.284117467701435 ], [ 6262154.503347892314196, 7804448.677918279543519 ], [ 6262227.922824962064624, 7804399.519075740128756 ], [ 6262288.507214151322842, 7804309.617226276546717 ], [ 6262318.83681783080101, 7804265.964755779132247 ], [ 6262373.463115260004997, 7804202.392160498537123 ], [ 6262411.987356193363667, 7804166.086241544224322 ], [ 6262447.704614565707743, 7804127.261019227094948 ], [ 6262491.428770324215293, 7804093.079926488921046 ], [ 6262527.618759205564857, 7804059.539613643661141 ], [ 6262578.448218780569732, 7804017.052488088607788 ], [ 6262631.543303210288286, 7803969.3142503593117 ], [ 6262670.314296364784241, 7803938.08196724858135 ], [ 6262715.942628092132509, 7803893.469024769961834 ], [ 6262779.178676843643188, 7803884.058800521306694 ], [ 6262832.795288198627532, 7803883.130383037030697 ], [ 6262891.627907912246883, 7803884.552065085619688 ], [ 6262948.119146015495062, 7803888.627165287733078 ], [ 6263012.076545743271708, 7803889.576168236322701 ], [ 6263087.007133665494621, 7803902.99545019492507 ], [ 6263191.063060129061341, 7803932.591606167145073 ], [ 6263242.963139755651355, 7803944.795845048502088 ], [ 6263296.219216367229819, 7803938.686172815039754 ], [ 6263355.602888692170382, 7803908.722584450617433 ], [ 6263404.465135012753308, 7803874.290976924821734 ], [ 6263439.999038580805063, 7803832.872392037883401 ], [ 6263467.554485253989697, 7803784.204972991719842 ], [ 6263496.360511950217187, 7803717.23082635179162 ], [ 6263494.669704368337989, 7803652.168729693628848 ], [ 6263500.528199303895235, 7803586.690387798473239 ], [ 6263507.573985982686281, 7803536.744954833760858 ], [ 6263509.374597198329866, 7803487.054169103503227 ], [ 6263524.956031299196184, 7803413.085710506886244 ], [ 6263546.218832679092884, 7803346.639953496865928 ], [ 6263579.244877692312002, 7803266.242267416790128 ], [ 6263613.000256583094597, 7803196.317182618193328 ], [ 6263630.2884356752038, 7803148.368754079565406 ], [ 6263656.389121575281024, 7803078.867123676463962 ], [ 6263678.98971494846046, 7803033.148529500700533 ], [ 6263714.444312706589699, 7802989.130750742740929 ], [ 6263776.171539042145014, 7802917.355298742651939 ], [ 6263831.591846441850066, 7802866.843780889175832 ], [ 6263895.018936090171337, 7802820.975529950112104 ], [ 6263935.319211080670357, 7802774.013942325487733 ], [ 6263957.557053174823523, 7802723.114263258874416 ], [ 6263973.856343047693372, 7802659.504335212521255 ], [ 6263993.210923915728927, 7802603.488131218589842 ], [ 6264006.710624357685447, 7802537.471747694537044 ], [ 6264027.418791491538286, 7802463.141025231219828 ], [ 6264047.773165834136307, 7802383.742633343674242 ], [ 6264080.355233371257782, 7802295.56423719227314 ], [ 6264107.257230740040541, 7802239.130712574347854 ], [ 6264129.665748363360763, 7802190.707660063169897 ], [ 6264170.698667130433023, 7802115.062284165993333 ], [ 6264198.503177307546139, 7802071.578773777000606 ], [ 6264231.439517293125391, 7802027.734784614294767 ], [ 6264273.458561616949737, 7801967.749283296987414 ], [ 6264310.261371505446732, 7801905.41387495957315 ], [ 6264340.20922602340579, 7801856.46045130956918 ], [ 6264372.783042170107365, 7801807.435606657527387 ], [ 6264410.307806773111224, 7801755.460049074143171 ], [ 6264449.449954986572266, 7801690.46982024051249 ], [ 6264486.431754508055747, 7801630.723528544418514 ], [ 6264522.682222940959036, 7801560.503971461206675 ], [ 6264549.504221678711474, 7801501.470968512818217 ], [ 6264569.479726657271385, 7801455.932902421802282 ], [ 6264581.183325770311058, 7801400.451487516053021 ], [ 6264591.175547924824059, 7801318.948901560157537 ], [ 6264596.405121052637696, 7801243.099688878282905 ], [ 6264600.462744205258787, 7801188.155346083454788 ], [ 6264600.114488382823765, 7801104.776374368928373 ], [ 6264599.506429061293602, 7801055.365491053089499 ], [ 6264595.187169681303203, 7800990.485302712768316 ], [ 6264589.439336138777435, 7800941.322445370256901 ], [ 6264583.70955869089812, 7800853.22916339058429 ], [ 6264572.649017579853535, 7800801.836878744885325 ], [ 6264564.973045269027352, 7800706.977274905890226 ], [ 6264550.730759933590889, 7800584.400828002952039 ], [ 6264541.041520079597831, 7800436.607850722037256 ], [ 6264546.184475632384419, 7800358.04849548637867 ], [ 6264537.274989683181047, 7800301.299504460766912 ], [ 6264528.658919275738299, 7800247.245896091684699 ], [ 6264532.322555400431156, 7800220.292443726211786 ], [ 6264539.016839874908328, 7800171.035875324159861 ], [ 6264560.151585536077619, 7800104.479439996182919 ], [ 6264590.024212816730142, 7800053.03868617489934 ], [ 6264628.531082270666957, 7799977.565194530412555 ], [ 6264653.082849257625639, 7799923.78219124302268 ], [ 6264683.573653500527143, 7799882.708804856985807 ], [ 6264714.349939672276378, 7799844.218046898022294 ], [ 6264752.923242948018014, 7799810.384535307995975 ], [ 6264793.684087349101901, 7799768.701627282425761 ], [ 6264836.226205221377313, 7799716.368646499700844 ], [ 6264881.470159949734807, 7799666.56140382681042 ], [ 6264911.959658747538924, 7799625.487125664949417 ], [ 6264945.429003023542464, 7799589.40883338265121 ], [ 6264972.853900163434446, 7799540.628076588734984 ], [ 6264992.82288312446326, 7799495.087724672630429 ], [ 6265015.40181936044246, 7799449.250504659488797 ], [ 6265024.842682235874236, 7799399.131725024431944 ], [ 6265039.165149541571736, 7799343.57687268126756 ], [ 6265048.424641908146441, 7799290.867871331050992 ], [ 6265056.395771191455424, 7799266.700067332014441 ], [ 6265078.291944414377213, 7799200.268522307276726 ], [ 6265104.560288172215223, 7799133.461286557838321 ], [ 6265118.769162090495229, 7799077.800866931676865 ], [ 6265114.910538576543331, 7799018.092849278822541 ], [ 6265106.540304861031473, 7798969.113868223503232 ], [ 6265095.045044032856822, 7798910.056447995826602 ], [ 6265132.811975757591426, 7798824.106194378808141 ], [ 6265164.829459210857749, 7798767.305271700955927 ], [ 6265190.107999242842197, 7798723.992958297021687 ], [ 6265234.177922531962395, 7798695.088415157049894 ], [ 6265307.737697085365653, 7798648.490396676585078 ], [ 6265351.368446338921785, 7798611.807533990591764 ], [ 6265384.547888094559312, 7798573.144149005413055 ], [ 6265423.220494851469994, 7798539.299713630229235 ], [ 6265458.473878556862473, 7798492.681235920637846 ], [ 6265475.84914589766413, 7798444.718444030731916 ], [ 6265493.400852692313492, 7798330.085614905692637 ], [ 6265531.654454013332725, 7798218.068917386233807 ], [ 6265573.890610950998962, 7798170.505191769450903 ], [ 6265618.820797947235405, 7798125.354432922787964 ], [ 6265661.886057919822633, 7798088.143604774028063 ], [ 6265710.799109510146081, 7798060.819295631721616 ], [ 6265771.9148577619344, 7798027.429315643385053 ], [ 6265832.478643293492496, 7797986.155832664109766 ], [ 6265873.392494858242571, 7797954.301525918766856 ], [ 6265911.68839992955327, 7797922.631476900540292 ], [ 6265954.752360511571169, 7797885.419394912198186 ], [ 6265992.503975196741521, 7797845.978424093686044 ], [ 6266047.708584221079946, 7797768.75260685570538 ], [ 6266086.139062848873436, 7797705.949637964367867 ], [ 6266119.067798661068082, 7797638.214981027878821 ], [ 6266168.241011869162321, 7797548.511303051374853 ], [ 6266194.363150211051106, 7797491.780998844653368 ], [ 6266205.41493555996567, 7797436.225935148075223 ], [ 6266222.036666287109256, 7797388.087208568118513 ], [ 6266260.924490570090711, 7797330.343530286103487 ], [ 6266288.238708533346653, 7797289.146688646636903 ], [ 6266325.165075456723571, 7797239.463077032007277 ], [ 6266359.57030909974128, 7797189.843826754949987 ], [ 6266395.121369836851954, 7797122.035657295957208 ], [ 6266452.491540561430156, 7797008.211043691262603 ], [ 6266490.309485868550837, 7796903.686807820573449 ], [ 6266506.566090079024434, 7796850.366663417778909 ], [ 6266523.003973782062531, 7796799.636683721095324 ], [ 6266552.64742614608258, 7796755.671225754544139 ], [ 6266607.298840614967048, 7796670.669875014573336 ], [ 6266642.245758909732103, 7796628.819801030680537 ], [ 6266677.123530871234834, 7796584.48456371948123 ], [ 6266705.208983587101102, 7796519.803885047324002 ], [ 6266742.123402851633728, 7796470.00533083640039 ], [ 6266772.233077519573271, 7796431.212046757340431 ], [ 6266828.906548378057778, 7796372.096702137961984 ], [ 6266904.634018682874739, 7796329.631654446944594 ], [ 6266958.383064648136497, 7796299.355627872049809 ], [ 6266999.289375480264425, 7796267.495704555884004 ], [ 6267047.370769560337067, 7796229.923090202733874 ], [ 6267121.415350323542953, 7796197.987620772793889 ], [ 6267172.658636254258454, 7796168.000547653064132 ], [ 6267207.888936053961515, 7796128.731069283559918 ], [ 6267258.474289231933653, 7796090.867501044645905 ], [ 6267306.917806723155081, 7796058.474254185333848 ], [ 6267363.464336199685931, 7796030.601801107637584 ], [ 6267422.515567873604596, 7796002.439066983759403 ], [ 6267488.923267346806824, 7795971.153526248410344 ], [ 6267562.428649287670851, 7795931.557064393535256 ], [ 6267610.499748192727566, 7795893.869284341111779 ], [ 6267675.251344135962427, 7795841.987621890380979 ], [ 6267708.148510832339525, 7795805.484032649546862 ], [ 6267753.064040975645185, 7795760.322065444663167 ], [ 6267788.299701748415828, 7795721.163008596748114 ], [ 6267820.909815849736333, 7795682.076051307842135 ], [ 6267873.096033049747348, 7795631.080368125811219 ], [ 6267907.862752516753972, 7795586.747550189495087 ], [ 6267952.716907650232315, 7795507.747547091916203 ], [ 6267985.273737679235637, 7795434.935495527461171 ], [ 6267996.028118244372308, 7795376.792653132230043 ], [ 6268016.574117335490882, 7795312.751580040901899 ], [ 6268043.514794928953052, 7795266.367641428485513 ], [ 6268090.022883273661137, 7795207.961816957220435 ], [ 6268127.768667308613658, 7795168.623575625941157 ], [ 6268167.655272067524493, 7795123.814294430427253 ], [ 6268212.922763136215508, 7795083.717736521735787 ], [ 6268267.497095875442028, 7795063.788800047710538 ], [ 6268370.795715807937086, 7795014.044069461524487 ], [ 6268464.770830377005041, 7794975.370401280000806 ], [ 6268564.316603880375624, 7794944.111896350979805 ], [ 6268614.228727017529309, 7794929.717554271221161 ], [ 6268682.76318871602416, 7794924.306165914051235 ], [ 6268732.206564637832344, 7794904.738077079877257 ], [ 6268792.27367630135268, 7794889.625095448456705 ], [ 6268840.218794644810259, 7794883.178826315328479 ], [ 6268894.308455806225538, 7794889.31421014200896 ], [ 6268952.758101373910904, 7794918.570537373423576 ], [ 6269013.530641983263195, 7794944.946072459220886 ], [ 6269072.82784616202116, 7794953.316112466156483 ], [ 6269117.777306860312819, 7794973.113882075063884 ], [ 6269165.247415561228991, 7794992.846518261358142 ], [ 6269239.513282368890941, 7795028.567342566326261 ], [ 6269301.315619914792478, 7795036.646551325917244 ], [ 6269364.910440515726805, 7795034.29878344386816 ], [ 6269412.491786048747599, 7795022.670344970189035 ], [ 6269464.7342619728297, 7795005.505391293205321 ], [ 6269514.289848109707236, 7794986.040191574022174 ], [ 6269569.408909439109266, 7794973.877965497784317 ], [ 6269630.300900937989354, 7794969.003882255405188 ], [ 6269701.894406235776842, 7794971.182393383234739 ], [ 6269769.659954991191626, 7794989.251555984839797 ], [ 6269845.424575535580516, 7795011.848038310185075 ], [ 6269945.67105346173048, 7795053.425503807142377 ], [ 6269990.803892605006695, 7795075.812395228073001 ], [ 6270073.078756799921393, 7795116.171235704794526 ], [ 6270130.228791531175375, 7795129.897421717643738 ], [ 6270183.668688895180821, 7795128.265830110758543 ], [ 6270561.602634781040251, 7795098.343668110668659 ], [ 6270617.919568715617061, 7795101.71394959744066 ], [ 6270720.972024509683251, 7795114.339335903525352 ], [ 6270788.200497572310269, 7795124.746865024790168 ], [ 6270950.486287713982165, 7795111.896536752581596 ], [ 6271038.560043569654226, 7795097.056399444118142 ], [ 6271100.592368285171688, 7795073.985977832227945 ], [ 6271140.654150108806789, 7795031.7569460850209 ], [ 6271175.872693654149771, 7794992.474243370816112 ], [ 6271200.482331151142716, 7794948.962332649156451 ], [ 6271206.851729325018823, 7794898.932028748095036 ], [ 6271200.464339788071811, 7794850.031782648526132 ], [ 6271173.956801529042423, 7794805.273547003045678 ], [ 6271132.823810519650578, 7794769.475009663030505 ], [ 6271094.777545714750886, 7794738.664745311252773 ], [ 6271048.984178650192916, 7794708.403270434588194 ], [ 6270999.852365721017122, 7794668.077644166536629 ], [ 6270963.849736676551402, 7794631.915724068880081 ], [ 6270927.664906004443765, 7794593.163282252848148 ], [ 6270880.491281385533512, 7794544.775471338070929 ], [ 6270824.004614186473191, 7794507.574314111843705 ], [ 6270778.871519666165113, 7794485.189560476690531 ], [ 6270731.40030964743346, 7794465.460615165531635 ], [ 6270682.921044968999922, 7794432.899074987508357 ], [ 6270638.730017706751823, 7794389.506917301565409 ], [ 6270602.546029821969569, 7794350.754521146416664 ], [ 6270572.693530258722603, 7794295.820019982755184 ], [ 6270548.335412172600627, 7794245.70326017215848 ], [ 6270539.071695448830724, 7794191.800839612260461 ], [ 6270534.181430336087942, 7794129.778422053903341 ], [ 6270532.082615382969379, 7794070.048511733300984 ], [ 6270533.225356965325773, 7794020.502653102390468 ], [ 6270522.889193246141076, 7793888.573748134076595 ], [ 6270489.265741901472211, 7793850.319623285904527 ], [ 6270441.919914778321981, 7793863.747471982613206 ], [ 6270392.37689758464694, 7793883.329942655749619 ], [ 6270340.31335542909801, 7793902.977550549432635 ] ] ] } }
]
}
