{
"type": "FeatureCollection",
"name": "3502606",
"crs": { "type": "name", "properties": { "name": "urn:ogc:def:crs:EPSG::5880" } },
"features": [
{ "type": "Feature", "properties": { "lv_id": "LOC_049946", "id": 270647.0, "CD_SETOR": "350260605000004", "SITUACAO": "Urbana", "CD_SIT": "1", "CD_TIPO": "0", "AREA_KM2": 0.104113142446997, "CD_REGIAO": "3", "NM_REGIAO": "Sudeste", "CD_UF": "35", "NM_UF": "São Paulo", "CD_MUN": "3502606", "NM_MUN": "Aparecida d'Oeste", "CD_DIST": "350260605", "NM_DIST": "Aparecida d'Oeste", "CD_SUBDIST": "35026060500", "NM_SUBDIST": null, "CD_BAIRRO": null, "NM_BAIRRO": null, "CD_NU": "3502606004", "NM_NU": "Córrego do Boi", "CD_FCU": null, "NM_FCU": null, "CD_AGLOM": null, "NM_AGLOM": null, "CD_RGINT": "3507", "NM_RGINT": "São José do Rio Preto", "CD_RGI": "350028", "NM_RGI": "Jales", "CD_CONCURB": null, "NM_CONCURB": null, "mun_code_x": "3502606", "index_right": 80966, "dist_m": 0.0, "local_id": 543148, "ano": 2022, "cod_localidade_ibge": 3502606, "NR_ZONA": "232", "nr_cep": 15735000.0, "nm_localidade": "APARECIDA DOESTE", "nm_locvot": "EE CORIPHEU DE AZEVEDO MARQUES", "ds_endereco": "R SAO LUIS, 815", "ds_bairro": "CENTRO", "pred_long": -50.879559, "pred_lat": -20.45303, "pred_dist": 0.0, "tse_long": -50.879426, "tse_lat": -20.4530487, "long": -50.879426, "lat": -20.4530487, "ID_UNICO": "LOC_049946", "SG_UF": "SP", "CD_MUNICIPIO": "61514", "NR_LOCAL_VOTACAO": "1015", "QT_SECOES_AGREGADAS": 0, "QT_ELEITORES_TRANSFERIDOS": 0, "CIRO GOMES (PDT) (NÃO ELEITO) 1T": 37.0, "CONSTITUINTE EYMAEL (DC) (NÃO ELEITO) 1T": 0.0, "FELIPE D AVILA (NOVO) (NÃO ELEITO) 1T": 4.0, "JAIR BOLSONARO (PL) (2º TURNO) 1T": 1425.0, "LULA (PT) (2º TURNO) 1T": 1345.0, "LÉO PÉRICLES (UP) (NÃO ELEITO) 1T": 1.0, "PADRE KELMON (PTB) (NÃO ELEITO) 1T": 0.0, "SIMONE TEBET (MDB) (NÃO ELEITO) 1T": 92.0, "SOFIA MANZANO (PCB) (NÃO ELEITO) 1T": 0.0, "SORAYA THRONICKE (UNIÃO) (NÃO ELEITO) 1T": 4.0, "VERA (PSTU) (NÃO ELEITO) 1T": 0.0, "Total_Votos_Validos 1T": 2908.0, "Votos_Brancos 1T": 44.0, "Votos_Nulos 1T": 76.0, "Abstenções 1T": 970.0, "Eleitores_Aptos 1T": 3998.0, "JAIR BOLSONARO (PL) (NÃO ELEITO) 2T": 1544.0, "LULA (PT) (ELEITO) 2T": 1409.0, "Total_Votos_Validos 2T": 2953.0, "Votos_Brancos 2T": 36.0, "Votos_Nulos 2T": 74.0, "Abstenções 2T": 935.0, "Eleitores_Aptos 2T": 3998.0, "mun_code_y": "3502606", "mun_code": "3502606" }, "geometry": { "type": "Polygon", "coordinates": [ [ [ 5321737.559821022674441, 7724694.250047460198402 ], [ 5321730.8494205577299, 7724676.936610144563019 ], [ 5321712.283770147711039, 7724659.836103243753314 ], [ 5321696.606879754923284, 7724650.442070663906634 ], [ 5321683.818516097031534, 7724648.743433779105544 ], [ 5321669.12202394939959, 7724643.211391002871096 ], [ 5321657.149316298775375, 7724636.652200130745769 ], [ 5321648.778869220986962, 7724628.084680248051882 ], [ 5321646.533523143269122, 7724605.841745203360915 ], [ 5321638.291183263994753, 7724604.05719400011003 ], [ 5321624.219486343674362, 7724583.002269124612212 ], [ 5321616.82165642362088, 7724577.332309322431684 ], [ 5321598.449545725248754, 7724569.918300212360919 ], [ 5321592.683046018704772, 7724554.527271413244307 ], [ 5321590.199823260307312, 7724519.68264501541853 ], [ 5321589.778972854837775, 7724497.394161300733685 ], [ 5321576.661555184051394, 7724478.261457063257694 ], [ 5321570.73321062233299, 7724405.685520561411977 ], [ 5321546.311319867148995, 7724367.862607954069972 ], [ 5321529.976247464306653, 7724323.58938411809504 ], [ 5321490.289627566933632, 7724298.173083078116179 ], [ 5321437.226818976923823, 7724288.520325156860054 ], [ 5321393.404524560086429, 7724285.467239880934358 ], [ 5321365.920367760583758, 7724278.236167263239622 ], [ 5321346.411762217991054, 7724259.212917709723115 ], [ 5321331.488550584763288, 7724241.089855120517313 ], [ 5321329.437519824132323, 7724181.03586801327765 ], [ 5321322.00334310438484, 7724173.426243506371975 ], [ 5321291.521316107362509, 7724152.68092730268836 ], [ 5321248.811211235821247, 7724111.810243688523769 ], [ 5321213.326491929590702, 7724066.922605959698558 ], [ 5321191.043683894909918, 7723997.571339364163578 ], [ 5321178.395474647171795, 7723955.168639525771141 ], [ 5321177.865498925559223, 7723927.072580046020448 ], [ 5321173.595006686635315, 7723894.202000028453767 ], [ 5321147.899332036264241, 7723884.985586803406477 ], [ 5321140.637623080052435, 7723887.062871848233044 ], [ 5321123.813132686540484, 7723913.546118265017867 ], [ 5321116.835866527631879, 7723930.153339900076389 ], [ 5321092.449381076730788, 7723942.243902059271932 ], [ 5321081.244791260920465, 7723976.382095872424543 ], [ 5321080.297145835123956, 7724022.921834401786327 ], [ 5321085.456138327717781, 7724054.799975832924247 ], [ 5321118.263575727120042, 7724102.643178876489401 ], [ 5321151.623102074488997, 7724131.084418531507254 ], [ 5321182.287624955177307, 7724161.516722394153476 ], [ 5321195.689112389460206, 7724195.190679170191288 ], [ 5321203.744541933760047, 7724235.739793094806373 ], [ 5321206.281804078258574, 7724273.488186880946159 ], [ 5321202.141855193302035, 7724344.313734591007233 ], [ 5321193.294223006814718, 7724358.539245050400496 ], [ 5321184.809275221079588, 7724440.11263238824904 ], [ 5321177.042147887870669, 7724463.5201102681458 ], [ 5321176.416811756789684, 7724479.031808184459805 ], [ 5321181.630944004282355, 7724513.824844189919531 ], [ 5321184.539869479835033, 7724619.408764444291592 ], [ 5321178.798113949596882, 7724653.432810055091977 ], [ 5321168.317447547800839, 7724677.867123730480671 ], [ 5321149.904733490198851, 7724716.975264778360724 ], [ 5321133.345400765538216, 7724757.024087192490697 ], [ 5321127.475783824920654, 7724784.276227409020066 ], [ 5321133.414096197113395, 7724809.354317296296358 ], [ 5321144.531335148960352, 7724866.809101584367454 ], [ 5321153.311397074721754, 7724897.665454421192408 ], [ 5321149.90982601325959, 7724910.324656005948782 ], [ 5321152.008440368808806, 7724924.82037787232548 ], [ 5321162.320891175419092, 7724940.136852713301778 ], [ 5321165.710282752290368, 7724974.964307281188667 ], [ 5321167.303587613627315, 7725010.790222762152553 ], [ 5321173.625611348077655, 7725056.217153443023562 ], [ 5321164.409202295355499, 7725099.043386187404394 ], [ 5321170.804338522255421, 7725148.349453343078494 ], [ 5321175.385200206190348, 7725197.689737234264612 ], [ 5321183.714557252824306, 7725252.769012289121747 ], [ 5321175.386744981631637, 7725294.602797916159034 ], [ 5321156.431366987526417, 7725353.112532813102007 ], [ 5321133.123231436125934, 7725374.38484866451472 ], [ 5321119.873435027897358, 7725396.930989350192249 ], [ 5321118.742379596456885, 7725433.772831970825791 ], [ 5321129.261604603379965, 7725508.202294239774346 ], [ 5321130.831686824560165, 7725591.515002408064902 ], [ 5321127.407040033489466, 7725651.672061040997505 ], [ 5321088.417455639690161, 7725711.523866952396929 ], [ 5321041.609599358402193, 7725743.416921941563487 ], [ 5320998.933570674620569, 7725801.408748080953956 ], [ 5320930.949815155006945, 7725871.496551465243101 ], [ 5320900.372494601644576, 7725875.720245094969869 ], [ 5320803.539361621253192, 7726016.388284048065543 ], [ 5320826.436645685695112, 7725943.846340491436422 ], [ 5320868.994131505489349, 7725880.058754069730639 ], [ 5320907.497269414365292, 7725842.501974700018764 ], [ 5320956.98816204443574, 7725759.192022347822785 ], [ 5320972.485090835951269, 7725686.456531004980206 ], [ 5320984.114084689877927, 7725650.381521353498101 ], [ 5321005.240737707354128, 7725633.984616727568209 ], [ 5321035.985319314524531, 7725596.584708547219634 ], [ 5321044.385533520951867, 7725582.367852600291371 ], [ 5321047.284116310067475, 7725566.802270209416747 ], [ 5321046.506041751243174, 7725549.864655050449073 ], [ 5321043.95916519779712, 7725535.37738234270364 ], [ 5321029.740235765464604, 7725507.051580511033535 ], [ 5321023.683198933489621, 7725475.667101382277906 ], [ 5321014.728706906549633, 7725436.099468303844333 ], [ 5321001.249563068151474, 7725398.313450396060944 ], [ 5320994.441887898370624, 7725351.443260453641415 ], [ 5321006.558945783413947, 7725292.574849518015981 ], [ 5321023.476605464704335, 7725270.935336597263813 ], [ 5321049.223159068264067, 7725234.594079094007611 ], [ 5321051.052548944018781, 7725186.097555461339653 ], [ 5321050.430626559071243, 7725104.940075445920229 ], [ 5321041.987408890388906, 7725092.504223372787237 ], [ 5321035.287850863300264, 7725075.179314673878253 ], [ 5321030.604688378050923, 7725044.744613660499454 ], [ 5321016.910183973610401, 7725019.324890302494168 ], [ 5321003.745933849364519, 7724998.241336884908378 ], [ 5320993.204310592263937, 7724971.309748891741037 ], [ 5320986.791288617998362, 7724921.028360040858388 ], [ 5320974.721926617436111, 7724861.174498332664371 ], [ 5320967.034175219014287, 7724864.46817291714251 ], [ 5320968.429904487915337, 7724841.668815259821713 ], [ 5320964.095988731831312, 7724805.406767575070262 ], [ 5320944.011398276314139, 7724779.619645414873958 ], [ 5320916.634863023646176, 7724778.683244345709682 ], [ 5320847.701440849341452, 7724773.197028249502182 ], [ 5320803.613371103070676, 7724756.088755462318659 ], [ 5320759.446691796183586, 7724746.986786233261228 ], [ 5320719.93379682675004, 7724730.778883608058095 ], [ 5320697.124230890534818, 7724729.756116648204625 ], [ 5320669.068526751361787, 7724740.939285611733794 ], [ 5320657.047784829512239, 7724756.188754899427295 ], [ 5320645.367288641631603, 7724765.134309533983469 ], [ 5320612.63653994910419, 7724770.107919173315167 ], [ 5320592.862502811476588, 7724760.790105276741087 ], [ 5320568.694734687916934, 7724760.757316655479372 ], [ 5320558.161285621114075, 7724758.050807816907763 ], [ 5320539.236711119301617, 7724770.037493829615414 ], [ 5320520.415300562977791, 7724763.118661724962294 ], [ 5320468.408978544175625, 7724736.479583196341991 ], [ 5320445.652803115546703, 7724738.848136004060507 ], [ 5320435.073726234957576, 7724733.71433620993048 ], [ 5320425.183270432986319, 7724716.948271694593132 ], [ 5320420.040458083152771, 7724710.259742166846991 ], [ 5320396.196238649077713, 7724702.470738500356674 ], [ 5320377.119794148020446, 7724681.985941058024764 ], [ 5320370.574849512428045, 7724673.394627713598311 ], [ 5320369.575172332115471, 7724669.045116181485355 ], [ 5320349.941216859035194, 7724642.76114271953702 ], [ 5320334.593785990960896, 7724602.593050416558981 ], [ 5320327.199494051747024, 7724572.686109196394682 ], [ 5320321.318855345249176, 7724526.763075238093734 ], [ 5320328.324541955254972, 7724511.608223017305136 ], [ 5320329.553668941371143, 7724504.31195074506104 ], [ 5320323.358129981905222, 7724489.893323978409171 ], [ 5320309.634373405016959, 7724487.246721424162388 ], [ 5320302.255161501467228, 7724482.540494501590729 ], [ 5320296.526123599149287, 7724469.077663639560342 ], [ 5320300.286684942431748, 7724451.079054817557335 ], [ 5320296.438362044282258, 7724440.008916195482016 ], [ 5320295.615242715924978, 7724420.644136838614941 ], [ 5320298.331944137811661, 7724395.392022407613695 ], [ 5320295.848028838634491, 7724384.772958738729358 ], [ 5320286.416617268696427, 7724367.998221855610609 ], [ 5320273.096906709484756, 7724362.428094174712896 ], [ 5320259.409732054919004, 7724361.721023167483509 ], [ 5320253.844779908657074, 7724356.980652602389455 ], [ 5320252.938348209485412, 7724308.779881997033954 ], [ 5320251.317378995940089, 7724295.239760096184909 ], [ 5320253.327508259564638, 7724280.666745816357434 ], [ 5320259.956270351074636, 7724269.876235463656485 ], [ 5320266.24026785697788, 7724240.199775235727429 ], [ 5320276.949882228858769, 7724227.89114829711616 ], [ 5320281.764421024359763, 7724217.134759157896042 ], [ 5320279.253215596079826, 7724205.063798421993852 ], [ 5320282.7385842371732, 7724196.283748649060726 ], [ 5320290.230184661224484, 7724182.572158899158239 ], [ 5320298.677556516602635, 7724147.034227898344398 ], [ 5320295.590635050088167, 7724128.199876009486616 ], [ 5320289.834363779984415, 7724113.285156935453415 ], [ 5320287.894398333504796, 7724082.787754135206342 ], [ 5320278.921865014359355, 7724066.004398761317134 ], [ 5320276.346874784678221, 7724050.541983117349446 ], [ 5320277.597551153041422, 7724019.995628741569817 ], [ 5320258.607064291834831, 7723979.641100717708468 ], [ 5320249.329265892505646, 7723971.577953381463885 ], [ 5320246.646324847824872, 7723949.820090387016535 ], [ 5320231.96005692705512, 7723944.774613428860903 ], [ 5320224.094810170121491, 7723938.614035702310503 ], [ 5320228.06801550462842, 7723907.528635453432798 ], [ 5320228.475436967797577, 7723880.390813123434782 ], [ 5320220.227714261971414, 7723853.892589746974409 ], [ 5320224.668591895140707, 7723823.275131199508905 ], [ 5320219.491610517725348, 7723790.909484641626477 ], [ 5320211.305888651870191, 7723791.551339397206903 ], [ 5320203.865015484392643, 7723759.705035094171762 ], [ 5320192.627511671744287, 7723743.928861835971475 ], [ 5320191.565573268570006, 7723735.711121188476682 ], [ 5320186.7634346652776, 7723722.718686233274639 ], [ 5320183.131176958791912, 7723699.282358966767788 ], [ 5320172.139675329439342, 7723696.584337176755071 ], [ 5320164.010468983091414, 7723676.381354140117764 ], [ 5320158.043062186799943, 7723674.076634649187326 ], [ 5320149.704412562772632, 7723642.735048631206155 ], [ 5320149.394692528061569, 7723626.265437657013535 ], [ 5320140.080636650323868, 7723616.262703912332654 ], [ 5320128.258227715268731, 7723593.224373359233141 ], [ 5320108.026977538131177, 7723583.914837202057242 ], [ 5320105.122197533026338, 7723574.756099109537899 ], [ 5320083.114022857509553, 7723544.159473033621907 ], [ 5320038.004524731077254, 7723520.782637946307659 ], [ 5320001.79448221065104, 7723510.321109378710389 ], [ 5319915.703819770365953, 7723513.39231495372951 ], [ 5319833.297169655561447, 7723518.810820589773357 ], [ 5319770.644811820238829, 7723532.594314882531762 ], [ 5319726.878769617527723, 7723544.071386804804206 ], [ 5319696.341243919916451, 7723544.645144764333963 ], [ 5319657.397252370603383, 7723557.982752915471792 ], [ 5319586.8407017076388, 7723587.413704965263605 ], [ 5319550.36782896053046, 7723611.836024850606918 ], [ 5319517.884738284163177, 7723629.896984012797475 ], [ 5319476.298208594322205, 7723648.605522632598877 ], [ 5319426.280310040339828, 7723654.866255270317197 ], [ 5319382.110498739406466, 7723657.63553501944989 ], [ 5319333.649401219561696, 7723674.055743388831615 ], [ 5319235.123460555449128, 7723719.276722048409283 ], [ 5319191.575529681518674, 7723730.748202139511704 ], [ 5319133.265758051536977, 7723757.042543590068817 ], [ 5319088.147352839820087, 7723782.11367018148303 ], [ 5319065.425038078799844, 7723810.157401388511062 ], [ 5319031.624657347798347, 7723855.371860511600971 ], [ 5319027.781386906281114, 7723869.014382051303983 ], [ 5319020.361646248027682, 7723886.604389342479408 ], [ 5319010.953677272424102, 7723895.495112149044871 ], [ 5318991.067631762474775, 7723904.593310557305813 ], [ 5318989.560750817880034, 7723921.584642527624965 ], [ 5318986.112636444158852, 7723931.827122393064201 ], [ 5318970.837165337987244, 7723943.743663650006056 ], [ 5318952.7288599293679, 7723950.868265664204955 ], [ 5318932.663163435645401, 7723962.630622806958854 ], [ 5318911.501670974306762, 7723976.586532486602664 ], [ 5318881.695740342140198, 7723991.203288400545716 ], [ 5318854.915335027500987, 7723997.514596985653043 ], [ 5318812.828472753986716, 7723989.588658090680838 ], [ 5318770.373365798965096, 7723986.503434555605054 ], [ 5318742.136431946419179, 7723987.996839746832848 ], [ 5318704.638022737577558, 7724005.662104925140738 ], [ 5318665.213876957073808, 7724018.518333233892918 ], [ 5318627.579266841523349, 7724028.912918468937278 ], [ 5318582.836615070700645, 7724049.618278079666197 ], [ 5318569.493995221331716, 7724067.307779107242823 ], [ 5318564.418952444568276, 7724088.722956296056509 ], [ 5318560.029274895787239, 7724122.243328163400292 ], [ 5318548.792098914273083, 7724154.916196433827281 ], [ 5318531.578611324541271, 7724184.807198827154934 ], [ 5318503.060952170751989, 7724208.113408088684082 ], [ 5318456.655948239378631, 7724237.563769808039069 ], [ 5318384.00256232637912, 7724276.718189916573465 ], [ 5318342.207973175682127, 7724308.997804440557957 ], [ 5318289.030538185499609, 7724366.202856345102191 ], [ 5318266.118969639763236, 7724408.794748729094863 ], [ 5318265.211868291720748, 7724408.811708003282547 ], [ 5318249.980571486987174, 7724423.143576568923891 ], [ 5318236.347723936662078, 7724425.338646421208978 ], [ 5318231.115347687155008, 7724413.806298797018826 ], [ 5318227.517488023266196, 7724392.06561728566885 ], [ 5318219.680140895769, 7724387.367150427773595 ], [ 5318205.238512508571148, 7724395.397941744886339 ], [ 5318195.040526827797294, 7724410.611316787078977 ], [ 5318197.272270610556006, 7724432.366447381675243 ], [ 5318214.907474960200489, 7724448.999762845225632 ], [ 5318268.030684487894177, 7724486.533660741522908 ], [ 5318280.364000449888408, 7724512.468180194497108 ], [ 5318299.125059369020164, 7724540.22272695414722 ], [ 5318323.707503116689622, 7724563.023433555848897 ], [ 5318393.941387020051479, 7724686.726125018671155 ], [ 5318398.778551994822919, 7724701.658436104655266 ], [ 5318396.731785495765507, 7724713.803625920787454 ], [ 5318402.036844993941486, 7724729.215011407621205 ], [ 5318409.101661008782685, 7724741.677627171389759 ], [ 5318422.223243903368711, 7724809.760904287919402 ], [ 5318423.020071385428309, 7724852.386286556720734 ], [ 5318414.038230836391449, 7724883.564360964111984 ], [ 5318400.362850394099951, 7724908.056087374687195 ], [ 5318382.076445158571005, 7724929.718157006427646 ], [ 5318368.497466767206788, 7724934.817035009153187 ], [ 5318362.691397761926055, 7724941.710781514644623 ], [ 5318368.37362898606807, 7724952.746884701773524 ], [ 5318361.760051772929728, 7724964.98853144235909 ], [ 5318354.625617440789938, 7724973.359494035132229 ], [ 5318334.864425516687334, 7724989.228438758291304 ], [ 5318332.635424214415252, 7724992.185966096818447 ], [ 5318326.050246279686689, 7725005.391622081398964 ], [ 5318320.263463550247252, 7725012.761723706498742 ], [ 5318302.603356279432774, 7725019.389211895875633 ], [ 5318293.852492551319301, 7725038.943779454566538 ], [ 5318270.877973544411361, 7725053.664219995960593 ], [ 5318248.40570479631424, 7725095.272048287093639 ], [ 5318250.773276667110622, 7725124.297643593512475 ], [ 5318256.167428862303495, 7725145.040198305621743 ], [ 5318267.943972376175225, 7725165.164560055360198 ], [ 5318274.246609388850629, 7725185.402310729026794 ], [ 5318299.021202703937888, 7725217.889531066641212 ], [ 5318320.409012042917311, 7725264.498225204646587 ], [ 5318335.897188286297023, 7725288.433601032942533 ], [ 5318343.016580219380558, 7725303.811098992824554 ], [ 5318340.537967652082443, 7725317.416712764650583 ], [ 5318332.055629763752222, 7725326.788481059484184 ], [ 5318331.795839736238122, 7725337.447849501855671 ], [ 5318345.565271814353764, 7725342.523270454257727 ], [ 5318357.260632497258484, 7725358.291967106983066 ], [ 5318393.443001407198608, 7725416.254223600029945 ], [ 5318416.303632268682122, 7725517.094658177345991 ], [ 5318418.50237615313381, 7725561.634007482789457 ], [ 5318430.698880416341126, 7725628.770045232027769 ], [ 5318428.834245394915342, 7725699.794368717819452 ], [ 5318421.095708386972547, 7725700.415769010782242 ], [ 5318415.929143529385328, 7725716.987491006962955 ], [ 5318415.148711564950645, 7725723.787265463732183 ], [ 5318403.457207631319761, 7725732.243381180800498 ], [ 5318407.754336663521826, 7725742.828658672049642 ], [ 5318397.91339866258204, 7725753.190384167246521 ], [ 5318386.879655661992729, 7725772.28870134241879 ], [ 5318388.698070690967143, 7725796.479592489078641 ], [ 5318404.585105437785387, 7725841.738723943941295 ], [ 5318420.550812194123864, 7725866.640826270915568 ], [ 5318453.18250587861985, 7725904.790663339197636 ], [ 5318499.143691073171794, 7725948.999706815928221 ], [ 5318551.236060164868832, 7726004.236366188153625 ], [ 5318574.199373783543706, 7726061.957845972850919 ], [ 5318584.363088081590831, 7726117.967367802746594 ], [ 5318629.167313264682889, 7726173.340179027989507 ], [ 5318699.415737377479672, 7726224.367656037211418 ], [ 5318649.189459311775863, 7726220.462092973291874 ], [ 5318629.263842178508639, 7726227.608844900503755 ], [ 5318601.922760505229235, 7726228.120131894946098 ], [ 5318593.408430429175496, 7726211.804186877794564 ], [ 5318583.333274093456566, 7726209.087809227406979 ], [ 5318571.978407114744186, 7726187.015428644604981 ], [ 5318553.523351507261395, 7726175.730322750285268 ], [ 5318548.731009010225534, 7726163.214106334373355 ], [ 5318520.720215480774641, 7726127.882735343649983 ], [ 5318517.408900356851518, 7726096.934556018561125 ], [ 5318511.300898439250886, 7726063.133892552927136 ], [ 5318480.467610814608634, 7726022.999192144721746 ], [ 5318460.951720476150513, 7726003.496281391941011 ], [ 5318449.033887657336891, 7725999.849730957299471 ], [ 5318443.233541679568589, 7725982.507366844452918 ], [ 5318413.742343942634761, 7725965.618907783180475 ], [ 5318366.442482197657228, 7725922.887064341455698 ], [ 5318335.599516431801021, 7725882.763454686850309 ], [ 5318325.888760924339294, 7725850.959227971732616 ], [ 5318329.103995225392282, 7725827.638840513303876 ], [ 5318340.279888646677136, 7725791.574969370849431 ], [ 5318335.596455078572035, 7725784.877312919124961 ], [ 5318327.656255390495062, 7725750.135236730799079 ], [ 5318327.131430260837078, 7725722.039763644337654 ], [ 5318348.301986848004162, 7725683.848879463039339 ], [ 5318356.78199948836118, 7725649.775563694536686 ], [ 5318350.77733894623816, 7725572.357101369649172 ], [ 5318306.053391881287098, 7725423.45333438552916 ], [ 5318287.725963410921395, 7725418.95087955892086 ], [ 5318282.590254160575569, 7725388.036809138022363 ], [ 5318260.261950239539146, 7725364.229210119694471 ], [ 5318241.993962210603058, 7725313.205004936084151 ], [ 5318216.688132546842098, 7725276.847215816378593 ], [ 5318191.465272413566709, 7725244.368265037424862 ], [ 5318183.815008684061468, 7725225.131322301924229 ], [ 5318173.815334191545844, 7725177.83301311172545 ], [ 5318156.589102585799992, 7725134.539044614881277 ], [ 5318152.316965127363801, 7725100.704074797220528 ], [ 5318141.544507244601846, 7725061.169936182908714 ], [ 5318156.676993067376316, 7725041.507328741252422 ], [ 5318181.030959887430072, 7725027.481925867497921 ], [ 5318201.745924104936421, 7725013.524484301917255 ], [ 5318224.631600734777749, 7724969.480957854539156 ], [ 5318222.408772062510252, 7724948.202398799359798 ], [ 5318260.969625377096236, 7724913.566873607225716 ], [ 5318269.512323817238212, 7724882.873870942741632 ], [ 5318294.900027986615896, 7724875.625204125419259 ], [ 5318292.676896536722779, 7724854.335559066385031 ], [ 5318303.125763811171055, 7724827.975131016224623 ], [ 5318314.818140451796353, 7724819.042234430089593 ], [ 5318322.8142798114568, 7724808.227136908099055 ], [ 5318322.57898991368711, 7724795.63680855743587 ], [ 5318311.126780120655894, 7724767.745605920441449 ], [ 5318293.319304359145463, 7724741.913420336320996 ], [ 5318269.43830719217658, 7724732.658812494017184 ], [ 5318209.663656732067466, 7724656.245423031970859 ], [ 5318197.410439990460873, 7724635.154334909282625 ], [ 5318193.337157943286002, 7724611.970153640024364 ], [ 5318156.076997356489301, 7724618.487126817926764 ], [ 5318135.773291111923754, 7724605.296191051602364 ], [ 5318113.536494691856205, 7724586.331826413050294 ], [ 5318100.921594261191785, 7724545.867569223977625 ], [ 5318077.30730623472482, 7724501.728417708538473 ], [ 5318075.247318252921104, 7724489.161115881055593 ], [ 5318076.764363620430231, 7724472.657655706629157 ], [ 5318075.441199649125338, 7724450.397733554244041 ], [ 5318051.542700030840933, 7724440.178666560910642 ], [ 5318075.079162852838635, 7724431.013530660420656 ], [ 5318070.295440208166838, 7724419.483854136429727 ], [ 5318096.075039566494524, 7724384.111708512529731 ], [ 5318117.512639028020203, 7724335.738115461543202 ], [ 5318134.088843875564635, 7724295.69289565179497 ], [ 5318139.045400693081319, 7724268.459536831825972 ], [ 5318155.112563420087099, 7724249.743896262720227 ], [ 5318171.133229436352849, 7724229.09998325817287 ], [ 5318181.889467837288976, 7724219.208970200270414 ], [ 5318194.470300639048219, 7724209.283839989453554 ], [ 5318227.118957800790668, 7724199.948088083416224 ], [ 5318243.085005174390972, 7724176.389250345528126 ], [ 5318252.716786247678101, 7724154.889036575332284 ], [ 5318253.297833243384957, 7724137.427376427687705 ], [ 5318244.440688589587808, 7724102.713567055761814 ], [ 5318219.562956493347883, 7724088.632681043818593 ], [ 5318152.417563653551042, 7724056.937648860737681 ], [ 5318139.203385887667537, 7724032.959775421768427 ], [ 5318117.04991476982832, 7724017.863285154104233 ], [ 5318064.607498861849308, 7723992.678333388641477 ], [ 5318036.171572444029152, 7723983.519779758527875 ], [ 5318024.128483089618385, 7723973.09031777177006 ], [ 5317998.889281142503023, 7723939.636040803045034 ], [ 5317971.143429357558489, 7723918.834361325018108 ], [ 5317942.44676919374615, 7723895.145646248012781 ], [ 5317921.862256575375795, 7723867.424946967512369 ], [ 5317901.351554252207279, 7723843.095438376069069 ], [ 5317877.973522982560098, 7723811.546480217948556 ], [ 5317877.069019849412143, 7723763.102634452283382 ], [ 5317866.181506864726543, 7723716.796551699750125 ], [ 5317864.160435413941741, 7723657.707985952496529 ], [ 5317870.088973606005311, 7723633.37241437099874 ], [ 5317879.720796910114586, 7723611.872420597821474 ], [ 5317872.417525921016932, 7723562.583539821207523 ], [ 5317874.751146976836026, 7723541.219875443726778 ], [ 5317863.307744484394789, 7723514.292964644730091 ], [ 5317851.120391387492418, 7723496.116408290341496 ], [ 5317806.148389798589051, 7723480.48133011162281 ], [ 5317779.37511489354074, 7723462.566072494722903 ], [ 5317741.430151210166514, 7723432.264722427353263 ], [ 5317708.015422828495502, 7723399.92742926441133 ], [ 5317689.382867408916354, 7723378.955295074731112 ], [ 5317652.500272487290204, 7723356.383676677942276 ], [ 5317588.72630463540554, 7723346.431902278214693 ], [ 5317541.05955358594656, 7723332.786719914525747 ], [ 5317457.410151968710124, 7723295.588085511699319 ], [ 5317386.963153298944235, 7723282.356460737995803 ], [ 5317332.612310454249382, 7723276.585131705738604 ], [ 5317264.719773530960083, 7723277.85129735711962 ], [ 5317223.372518373653293, 7723285.407406033948064 ], [ 5317174.101326690986753, 7723307.645943516865373 ], [ 5317141.406583147123456, 7723326.19386694394052 ], [ 5317094.534344424493611, 7723355.172549275681376 ], [ 5317038.560196162201464, 7723384.320679486729205 ], [ 5316995.175540573894978, 7723429.221210511401296 ], [ 5316960.165834593586624, 7723458.455167612060905 ], [ 5316940.504834811203182, 7723479.664566640742123 ], [ 5316919.613141039386392, 7723508.158702425658703 ], [ 5316896.582311085425317, 7723544.442301692441106 ], [ 5316866.857706874608994, 7723588.123431006446481 ], [ 5316825.288079167716205, 7723644.863511590287089 ], [ 5316817.067237832583487, 7723668.276622224599123 ], [ 5316811.737758380360901, 7723676.125499546527863 ], [ 5316801.728415462188423, 7723701.512078845873475 ], [ 5316796.310141702182591, 7723704.029864259064198 ], [ 5316785.544624202884734, 7723713.443381307646632 ], [ 5316763.82494499348104, 7723746.797566927969456 ], [ 5316748.50298798084259, 7723756.284779224544764 ], [ 5316725.165189766325057, 7723776.109900377690792 ], [ 5316703.482727096416056, 7723810.915649939328432 ], [ 5316689.662501970306039, 7723852.36014895606786 ], [ 5316673.136812350712717, 7723870.594949784688652 ], [ 5316655.038101771846414, 7723877.716807998716831 ], [ 5316639.11312960088253, 7723879.465472819283605 ], [ 5316631.438656400889158, 7723883.488622249104083 ], [ 5316624.851185142062604, 7723897.170279213227332 ], [ 5316611.272582494653761, 7723902.267807408235967 ], [ 5316585.858938792720437, 7723908.073301803320646 ], [ 5316520.849120272323489, 7723942.232295734807849 ], [ 5316503.657344787381589, 7723949.337104875594378 ], [ 5316474.621420153416693, 7723956.662142863497138 ], [ 5316443.31158141233027, 7723989.229552240110934 ], [ 5316426.47975563723594, 7724015.707185056060553 ], [ 5316386.931497253477573, 7724094.936439213342965 ], [ 5316361.159802282229066, 7724179.730014100670815 ], [ 5316366.184133754111826, 7724204.836749348789454 ], [ 5316352.972800463438034, 7724230.28241563308984 ], [ 5316341.821289458312094, 7724267.796481523662806 ], [ 5316334.355118103325367, 7724331.894513674080372 ], [ 5316327.436751565895975, 7724381.691572029143572 ], [ 5316287.789517280645669, 7724693.809633096680045 ], [ 5316308.93501184694469, 7724847.88790894113481 ], [ 5316282.092405489645898, 7725211.631307343021035 ], [ 5316233.351831833831966, 7725456.155509264208376 ], [ 5316169.267668516375124, 7725739.024683319032192 ], [ 5316170.263876493088901, 7726115.454425863921642 ], [ 5316182.634838512167335, 7726280.194608239457011 ], [ 5316189.941247468814254, 7726343.984799506142735 ], [ 5316222.940886829979718, 7726451.689241264015436 ], [ 5316306.742337066680193, 7726557.186868625693023 ], [ 5316459.043779426254332, 7726670.891436157748103 ], [ 5316559.034356241114438, 7726769.490968074649572 ], [ 5316582.739613351412117, 7726823.685928227379918 ], [ 5316567.739759887568653, 7726874.28712304122746 ], [ 5316516.137731188908219, 7726916.587845586240292 ], [ 5316314.334518381394446, 7726977.087112966924906 ], [ 5316272.437923896126449, 7727037.089640716090798 ], [ 5316259.435041088610888, 7727071.688519667834044 ], [ 5316250.733926942571998, 7727099.189700839109719 ], [ 5316253.735058884136379, 7727394.893140438944101 ], [ 5316204.636926479637623, 7727689.988504809327424 ], [ 5316162.242288420908153, 7727860.589004543609917 ], [ 5316137.436914425343275, 7728120.786960765719414 ], [ 5316113.23930879496038, 7728169.49569533392787 ], [ 5315906.73987665399909, 7728332.7922254037112 ], [ 5315819.438016105443239, 7728416.594160936772823 ], [ 5315779.541077699512243, 7728478.9966089297086 ], [ 5315655.636016130447388, 7728746.991485791280866 ], [ 5315600.038866506889462, 7728811.790246540680528 ], [ 5315521.644029072485864, 7728870.291966086253524 ], [ 5315424.441050353460014, 7728915.393662543967366 ], [ 5315366.036962107755244, 7728966.695556201040745 ], [ 5315319.3384017823264, 7729024.787553465925157 ], [ 5315297.738448366522789, 7729086.694958060979843 ], [ 5315271.63893483672291, 7729279.495638249441981 ], [ 5315234.536865005269647, 7729369.195007014088333 ], [ 5315170.542441038414836, 7729477.794597767293453 ], [ 5315076.436699565500021, 7729568.291174486279488 ], [ 5314817.53603508323431, 7729723.790368413552642 ], [ 5314761.940351085737348, 7729799.793791569769382 ], [ 5314751.638898883014917, 7729852.78872768394649 ], [ 5314757.141685700975358, 7729911.889096299186349 ], [ 5314778.540558684617281, 7729961.694077941589057 ], [ 5314927.242177404463291, 7730112.997952063567936 ], [ 5314976.144007878378034, 7730175.787627885118127 ], [ 5314999.83563147764653, 7730230.494741051457822 ], [ 5315010.038446319289505, 7730286.991783615201712 ], [ 5314988.038044000975788, 7730454.094441527500749 ], [ 5314936.738818321377039, 7730644.398243974894285 ], [ 5314912.636139241047204, 7730806.794312368147075 ], [ 5314891.041574611328542, 7730890.197112767025828 ], [ 5314803.837411156855524, 7731104.388252079486847 ], [ 5314788.246938020922244, 7731142.790942866355181 ], [ 5314775.940009913407266, 7731173.095392763614655 ], [ 5314772.642271216958761, 7731241.592973560094833 ], [ 5314786.943265285342932, 7731296.296122865751386 ], [ 5314822.340463390573859, 7731352.594898765906692 ], [ 5314844.136044969782233, 7731428.390490273013711 ], [ 5314858.840861935168505, 7731726.98865791130811 ], [ 5314876.935710503719747, 7731847.697269599884748 ], [ 5314926.338195035234094, 7731933.493979810737073 ], [ 5315126.938482204452157, 7732199.795507264323533 ], [ 5315165.243711970746517, 7732413.690314796753228 ], [ 5315162.336458995006979, 7732514.098882555961609 ], [ 5315134.339130782522261, 7732605.790496208705008 ], [ 5314993.541083338670433, 7732870.392877979204059 ], [ 5314979.344828667119145, 7732964.191052950918674 ], [ 5314987.043870640918612, 7733014.492615078575909 ], [ 5315034.143812000751495, 7733095.797548888251185 ], [ 5315065.444903057068586, 7733194.089839761145413 ], [ 5315058.14456083625555, 7733287.794229291379452 ], [ 5315027.845456033945084, 7733377.598681624978781 ], [ 5314979.041667753830552, 7733446.890312572941184 ], [ 5314966.24351058062166, 7733490.296777185983956 ], [ 5314967.039020332507789, 7733538.596920828334987 ], [ 5315061.84472587890923, 7733864.300075337290764 ], [ 5315068.239968062378466, 7733964.492588670924306 ], [ 5315053.443878064863384, 7734024.099939581938088 ], [ 5315018.136482540518045, 7734086.291296293959022 ], [ 5314872.83843089453876, 7734237.192834539338946 ], [ 5314744.037881702184677, 7734406.292408719658852 ], [ 5314509.641745410859585, 7734623.695751114748418 ], [ 5314468.242448936216533, 7734729.400691613554955 ], [ 5314467.737171279266477, 7734829.697516065090895 ], [ 5314491.844881780445576, 7734909.198373325169086 ], [ 5314586.445029413327575, 7735092.291694497689605 ], [ 5314609.042584668844938, 7735204.292343972250819 ], [ 5314612.437522455118597, 7735391.290801804512739 ], [ 5314598.542402664199471, 7735514.893538883887231 ], [ 5314581.342249960638583, 7735551.794830365106463 ], [ 5314513.839656496420503, 7735600.795674533583224 ], [ 5314423.436698632314801, 7735757.699370556510985 ], [ 5314411.339045686647296, 7735844.594901219010353 ], [ 5314428.340770076960325, 7735912.796397202648222 ], [ 5314470.535683237016201, 7735982.597141740843654 ], [ 5314466.63680206798017, 7735999.897003136575222 ], [ 5314037.940665184520185, 7736603.602219355292618 ], [ 5314023.839974959380925, 7736670.800077639520168 ], [ 5314018.340271073393524, 7736772.196699602529407 ], [ 5314015.13944495562464, 7736960.301622812636197 ], [ 5314035.043814790435135, 7737131.697049763053656 ], [ 5314053.341464275494218, 7737217.701824283227324 ], [ 5314113.336379804648459, 7737366.799210642464459 ], [ 5314191.440517967566848, 7737467.992921885102987 ], [ 5314271.237264552153647, 7737531.095948888920248 ], [ 5314312.639148232527077, 7737580.302486537024379 ], [ 5314381.338911091908813, 7737696.202379794791341 ], [ 5314444.839645286090672, 7737773.894193992950022 ], [ 5314552.138648651540279, 7737823.099139053374529 ], [ 5314588.437447968870401, 7737855.802623011171818 ], [ 5314662.943342142738402, 7738031.395088819786906 ], [ 5314784.446097529493272, 7738270.192351588048041 ], [ 5315206.345302743837237, 7738936.701908429153264 ], [ 5315267.945644929073751, 7739050.302424303255975 ], [ 5315295.444518447853625, 7739123.698751697316766 ], [ 5315342.040465134195983, 7739192.198375416919589 ], [ 5315388.23771246150136, 7739238.998035142198205 ], [ 5315449.838126149959862, 7739270.192758109420538 ], [ 5315836.838916709646583, 7739318.00128579698503 ], [ 5315897.239981608465314, 7739352.598041811957955 ], [ 5315926.8426762688905, 7739416.498291201889515 ], [ 5315965.940060222521424, 7739599.702545436099172 ], [ 5316054.040219710208476, 7739845.795379574410617 ], [ 5316127.645390491001308, 7739978.197228392586112 ], [ 5316205.747043369337916, 7740074.695551497861743 ], [ 5316294.743281777948141, 7740139.19665302708745 ], [ 5316441.839802424423397, 7740264.99835508223623 ], [ 5316558.642481759190559, 7740432.699833011254668 ], [ 5316653.644459569826722, 7740626.202481443062425 ], [ 5316692.14171760622412, 7740644.593983416445553 ], [ 5316905.840998039580882, 7740628.995918687433004 ], [ 5316965.040706117637455, 7740611.19483051635325 ], [ 5317103.743020002730191, 7740634.795986627228558 ], [ 5317134.445633471943438, 7740622.299309844151139 ], [ 5317370.548520724289119, 7740404.593714691698551 ], [ 5317443.243120862171054, 7740352.793460423126817 ], [ 5317485.348984126001596, 7740332.601542788557708 ], [ 5317559.946006239391863, 7740355.9993239287287 ], [ 5317637.446242416277528, 7740345.595344495028257 ], [ 5317948.645077086053789, 7740057.097890320234001 ], [ 5318092.249091782607138, 7739961.196200001984835 ], [ 5318121.644799266941845, 7739927.302222887054086 ], [ 5318221.945822644978762, 7739706.002442438155413 ], [ 5318257.641580791212618, 7739638.099152923561633 ], [ 5318275.044641353189945, 7739625.192742535844445 ], [ 5318475.451005317270756, 7739613.500562935136259 ], [ 5318589.464733705855906, 7739565.461419612169266 ], [ 5318595.59698383230716, 7739562.886229274794459 ], [ 5318613.848240597173572, 7739555.196607056073844 ], [ 5318747.642341802828014, 7739536.301676975563169 ], [ 5318821.945430928841233, 7739550.696768562309444 ], [ 5319115.345423737540841, 7739755.699567805975676 ], [ 5319165.046587178483605, 7739770.795057808980346 ], [ 5319228.543380422517657, 7739762.595257105305791 ], [ 5319315.249088727869093, 7739720.292447870597243 ], [ 5319386.443879782222211, 7739671.393116288818419 ], [ 5319440.052119976840913, 7739603.097588002681732 ], [ 5319611.346188450232148, 7739217.897588910534978 ], [ 5319644.245624056085944, 7739181.795251118019223 ], [ 5319678.848467032425106, 7739162.601773435249925 ], [ 5319809.150996503420174, 7739131.900106796994805 ], [ 5319938.551550904288888, 7739074.694403734058142 ], [ 5320061.049940538592637, 7739012.394531186670065 ], [ 5320147.845487521961331, 7738939.995073822326958 ], [ 5320231.842805691994727, 7738897.792641807347536 ], [ 5320356.352349645458162, 7738994.694180642254651 ], [ 5320500.651008385233581, 7739055.591677878051996 ], [ 5320670.446038633584976, 7739082.595175062306225 ], [ 5320748.248837925493717, 7739077.591888026334345 ], [ 5320834.043331056833267, 7739058.391497800126672 ], [ 5320886.647093926556408, 7739028.891269939020276 ], [ 5320924.45263437833637, 7738978.990673940628767 ], [ 5321102.343518965877593, 7738680.701080204918981 ], [ 5321205.149379874579608, 7738698.19929532520473 ], [ 5321461.648104919120669, 7738386.690061404369771 ], [ 5321507.352921943180263, 7738367.993658303283155 ], [ 5321996.054195674136281, 7738353.796238988637924 ], [ 5322024.049829002469778, 7738339.300480216741562 ], [ 5322051.544229559600353, 7738299.7905059652403 ], [ 5322079.346182632260025, 7738177.199026023969054 ], [ 5322079.744325152598321, 7738005.596428364515305 ], [ 5322057.851450815796852, 7737964.298240216448903 ], [ 5321899.053225396201015, 7737790.398793239146471 ], [ 5321861.050451468676329, 7737727.195688586682081 ], [ 5321838.950562802143395, 7737676.499385241419077 ], [ 5321828.844383579678833, 7737614.690250907093287 ], [ 5321827.052848657593131, 7737520.394977023825049 ], [ 5321812.447490392252803, 7737427.992398856207728 ], [ 5321785.353588337078691, 7737354.794431820511818 ], [ 5321603.243669644929469, 7737048.49718365073204 ], [ 5321564.446516934782267, 7736956.194067560136318 ], [ 5321548.647905176505446, 7736859.090810576453805 ], [ 5321596.851411616429687, 7736697.389847248792648 ], [ 5321643.548663944005966, 7736645.09092322550714 ], [ 5321710.047780116088688, 7736620.691876463592052 ], [ 5321961.951501049101353, 7736601.388915036804974 ], [ 5322077.945995129644871, 7736572.598454397171736 ], [ 5322110.848482513800263, 7736536.689219300635159 ], [ 5322266.844018140807748, 7736185.296062659472227 ], [ 5322337.452833897434175, 7736086.588291587308049 ], [ 5322423.751532194204628, 7735984.191911378875375 ], [ 5322459.453164473176003, 7735954.593011124059558 ], [ 5322547.251023805700243, 7735927.992766136303544 ], [ 5322838.15196683537215, 7735913.894217124208808 ], [ 5322910.453875814564526, 7735901.897836608812213 ], [ 5322945.449118037708104, 7735883.597884675487876 ], [ 5323077.351201744750142, 7735764.493357642553747 ], [ 5323151.153422678820789, 7735741.89029173925519 ], [ 5323218.248359780758619, 7735747.69711179472506 ], [ 5323558.137077242136002, 7735888.226371074095368 ], [ 5323574.747235300950706, 7735895.096960790455341 ], [ 5323754.75490877777338, 7735893.289951627142727 ], [ 5323874.452529955655336, 7735880.792074757628143 ], [ 5323944.645155056379735, 7735858.298168507404625 ], [ 5324038.754068401642144, 7735794.693976851180196 ], [ 5324058.545842817053199, 7735794.297119272872806 ], [ 5324330.255019955337048, 7735999.788671355694532 ], [ 5324532.153210337273777, 7736060.89004810526967 ], [ 5324589.450300117954612, 7736098.687225270085037 ], [ 5324690.554509113542736, 7736229.596953720785677 ], [ 5324716.450243029743433, 7736294.587977092713118 ], [ 5324733.34655088186264, 7736444.789980789646506 ], [ 5324723.850075415335596, 7736504.897432412952185 ], [ 5324642.952154639177024, 7736708.898074738681316 ], [ 5324628.153360644355416, 7736772.897780617699027 ], [ 5324645.651830185204744, 7736864.591315824538469 ], [ 5324880.44721539132297, 7737170.49736625701189 ], [ 5324993.347111916169524, 7737270.792174497619271 ], [ 5325059.146650582551956, 7737381.293692095205188 ], [ 5325100.450928896665573, 7737424.793011657893658 ], [ 5325323.356606727465987, 7737595.188489884138107 ], [ 5325417.747495770454407, 7737642.890195711515844 ], [ 5325511.956622279249132, 7737673.298487201333046 ], [ 5325637.648713928647339, 7737692.197898507118225 ], [ 5325727.656596416607499, 7737692.094613581895828 ], [ 5325935.454588521271944, 7737665.291423374786973 ], [ 5326037.956218772567809, 7737666.789334880188107 ], [ 5326100.152416761033237, 7737683.489788798615336 ], [ 5326157.456919603981078, 7737735.497122295200825 ], [ 5326265.950545716099441, 7737806.088042732328176 ], [ 5326463.354789579287171, 7737808.99154956266284 ], [ 5326706.455967450514436, 7737779.987414145842195 ], [ 5326787.753157601691782, 7737788.892646187916398 ], [ 5326862.458828885108232, 7737817.792215851135552 ], [ 5327007.151490856893361, 7737911.094359846785665 ], [ 5327100.65479105245322, 7738031.195791224017739 ], [ 5327377.849398170597851, 7738234.992993817664683 ], [ 5327496.152085456065834, 7738272.193615898489952 ], [ 5327569.952475538477302, 7738283.589423473924398 ], [ 5327663.9548061164096, 7738425.688158294185996 ], [ 5327751.253268489614129, 7738463.291526017710567 ], [ 5328898.76109922491014, 7738375.892018752172589 ], [ 5329107.258010106161237, 7738380.892998147755861 ], [ 5329216.555092080496252, 7738417.989369337446988 ], [ 5329403.45416406635195, 7738564.793836412020028 ], [ 5329674.856843689456582, 7738779.293115308508277 ], [ 5329814.85977638233453, 7738837.594504284672439 ], [ 5329946.955114771611989, 7738839.687347896397114 ], [ 5329796.560610351152718, 7738631.889446742832661 ], [ 5329705.058960600756109, 7738431.894793514162302 ], [ 5329656.207138465717435, 7738215.911404845304787 ], [ 5329537.44096733815968, 7737862.68547801207751 ], [ 5329533.435641845688224, 7737643.477836634032428 ], [ 5329404.582206112332642, 7737530.409172592684627 ], [ 5329256.643206148408353, 7737453.974949369207025 ], [ 5329054.298542762175202, 7737373.584175647236407 ], [ 5328978.216054648160934, 7737355.187151879072189 ], [ 5328827.935741243883967, 7737240.874466871842742 ], [ 5328764.15451883431524, 7737141.088929023593664 ], [ 5328727.15071941819042, 7737081.193266942165792 ], [ 5328676.238002452068031, 7736958.419533021748066 ], [ 5328655.658786419779062, 7736860.698630720376968 ], [ 5328527.554472541436553, 7736683.789539139717817 ], [ 5328386.902851941064, 7736533.376325804740191 ], [ 5328279.117248819209635, 7736401.802334324456751 ], [ 5328198.489358809776604, 7736314.235742473974824 ], [ 5328066.283022593706846, 7736197.942156662233174 ], [ 5327970.346809479407966, 7736084.290435278788209 ], [ 5327916.109215572476387, 7735999.543685652315617 ], [ 5327868.876738253980875, 7735937.758391391485929 ], [ 5327847.379336795769632, 7735842.527468492276967 ], [ 5327816.650304097682238, 7735693.043750962242484 ], [ 5327771.096998198889196, 7735524.817418191581964 ], [ 5327780.553897933103144, 7735396.196219218894839 ], [ 5327781.955331077799201, 7735335.286727454513311 ], [ 5327779.255801651626825, 7735232.987713339738548 ], [ 5327724.038032982498407, 7735040.187668835744262 ], [ 5327740.214021823368967, 7734934.37822331301868 ], [ 5327793.153840594924986, 7734839.794815453700721 ], [ 5327903.051732880994678, 7734645.294599734246731 ], [ 5327910.049124283716083, 7734615.589482542127371 ], [ 5327868.24943614192307, 7734440.095600290223956 ], [ 5327829.554327113553882, 7734368.888890543952584 ], [ 5327800.267411285080016, 7734275.049186857417226 ], [ 5327733.325782809406519, 7734197.509265337139368 ], [ 5327698.555912009440362, 7734129.586781961843371 ], [ 5327682.148487729951739, 7734076.092407111078501 ], [ 5327686.649887791834772, 7734014.691048977896571 ], [ 5327704.658153519965708, 7733962.688287923112512 ], [ 5327732.644781979732215, 7733800.171342351473868 ], [ 5327762.149714432656765, 7733717.490103874355555 ], [ 5327732.646017214283347, 7733620.46133195515722 ], [ 5327745.154669570736587, 7733548.894178064540029 ], [ 5327747.348647742532194, 7733521.786958080716431 ], [ 5327795.649242923595011, 7733458.791893938556314 ], [ 5327894.35449502337724, 7733373.486148662865162 ], [ 5327885.721145802177489, 7733167.552521230652928 ], [ 5327891.039226537570357, 7733098.207479097880423 ], [ 5327926.553033191710711, 7733059.639406226575375 ], [ 5327956.252823172137141, 7733013.388073597103357 ], [ 5327901.658374765887856, 7732868.841964544728398 ], [ 5327841.208827952854335, 7732714.961336798034608 ], [ 5327726.242463459260762, 7732550.539404380135238 ], [ 5327673.96257387381047, 7732393.219911459833384 ], [ 5327654.884406601078808, 7732340.808041425421834 ], [ 5327636.464321758598089, 7732233.97599177248776 ], [ 5327648.538106911815703, 7732083.727293871343136 ], [ 5327633.983119050040841, 7732008.144024217501283 ], [ 5327608.260198034346104, 7731952.566519660875201 ], [ 5327729.357157839462161, 7731799.084770972840488 ], [ 5327798.156077950261533, 7731712.688464266248047 ], [ 5327816.956841850653291, 7731672.28978275321424 ], [ 5327819.549991114065051, 7731634.486165942624211 ], [ 5327800.954643772915006, 7731505.515245631337166 ], [ 5327751.450334975495934, 7731339.993408324196935 ], [ 5327661.353469219058752, 7731235.789502463303506 ], [ 5327617.149119165726006, 7731150.685167031362653 ], [ 5327573.800428811460733, 7731059.576979862526059 ], [ 5327528.15227363537997, 7730993.282878294587135 ], [ 5327507.555633532814682, 7730948.683792410418391 ], [ 5327513.45600310806185, 7730873.284822642803192 ], [ 5327516.704391453415155, 7730729.225904803723097 ], [ 5327515.671748565509915, 7730673.186036900617182 ], [ 5327445.898460023105145, 7730369.444807254709303 ], [ 5327382.39396804291755, 7730228.817142521962523 ], [ 5327344.979333586059511, 7730163.551441665738821 ], [ 5327401.96759394928813, 7730038.85237062163651 ], [ 5327416.160657187923789, 7729914.940629951655865 ], [ 5327348.771228977479041, 7729741.401541130617261 ], [ 5327333.012806770391762, 7729690.589256192557514 ], [ 5327340.532453243620694, 7729643.632564842700958 ], [ 5327316.421643835492432, 7729593.612475749105215 ], [ 5327321.791033733636141, 7729527.559574619866908 ], [ 5327300.913979831151664, 7729419.266795632429421 ], [ 5327257.951063144020736, 7729349.683573064394295 ], [ 5327258.712439097464085, 7729336.607609251514077 ], [ 5327224.506185084581375, 7729311.806118512526155 ], [ 5327220.455355311743915, 7729298.600683037191629 ], [ 5327248.847260978072882, 7729224.189670596271753 ], [ 5327240.986505462788045, 7729198.372926911339164 ], [ 5327235.82007297873497, 7729181.396882086992264 ], [ 5327249.107675864361227, 7729163.75646561011672 ], [ 5327249.242030316963792, 7729129.947352128103375 ], [ 5327265.534665088169277, 7729106.882809065282345 ], [ 5327265.230815779417753, 7729090.489857649430633 ], [ 5327278.795890660025179, 7729064.47282725200057 ], [ 5327281.379149450920522, 7728986.443126438185573 ], [ 5327266.842433576472104, 7728959.601330624893308 ], [ 5327275.738106087781489, 7728842.964950701221824 ], [ 5327269.65788237284869, 7728821.316330600529909 ], [ 5327284.020824792794883, 7728802.646215880289674 ], [ 5327280.913604747503996, 7728770.640040738508105 ], [ 5327290.265396393835545, 7728687.05853461381048 ], [ 5327279.238823456689715, 7728632.707237364724278 ], [ 5327266.720955754630268, 7728569.680663334205747 ], [ 5327197.34980720281601, 7728432.392382107675076 ], [ 5327190.244865766726434, 7728391.027223717421293 ], [ 5327177.738721271045506, 7728383.550043592229486 ], [ 5327168.72825316619128, 7728366.315113176591694 ], [ 5327170.197461037896574, 7728336.83787202835083 ], [ 5327172.055721473880112, 7728292.284914816729724 ], [ 5327164.104261206462979, 7728278.045541852712631 ], [ 5327157.85329890716821, 7728265.436711007729173 ], [ 5327162.587082169950008, 7728252.240189503878355 ], [ 5327158.582240799441934, 7728214.219505179673433 ], [ 5327144.833049044013023, 7728193.050622198730707 ], [ 5327147.981774382293224, 7728182.612092075869441 ], [ 5327177.479424287565053, 7728126.818156369030476 ], [ 5327168.736858145333827, 7728075.128457771614194 ], [ 5327150.377642474137247, 7728021.915729106403887 ], [ 5327199.63355715572834, 7727864.378369804471731 ], [ 5327215.555148180574179, 7727857.398031299933791 ], [ 5327203.234133356250823, 7727769.265012793242931 ], [ 5327182.841281360015273, 7727750.895830149762332 ], [ 5327186.566829922609031, 7727516.539982007816434 ], [ 5327211.336527289822698, 7727444.404407875612378 ], [ 5327215.532124944962561, 7727418.943989196792245 ], [ 5327249.475954670459032, 7727379.673778053373098 ], [ 5327282.877193920314312, 7727263.753020539879799 ], [ 5327397.053414327092469, 7727110.378686463460326 ], [ 5327380.357227524742484, 7727038.384803022257984 ], [ 5327308.201460469514132, 7727004.234133783727884 ], [ 5327271.265121254138649, 7726958.729491665959358 ], [ 5327265.815485649742186, 7726916.656221173703671 ], [ 5327300.189919638447464, 7726859.126954683102667 ], [ 5327288.585395357571542, 7726746.398563524708152 ], [ 5327275.764960610307753, 7726694.232811721973121 ], [ 5327196.585416478104889, 7726568.509814939461648 ], [ 5327203.708651664666831, 7726519.509221489541233 ], [ 5327202.88466349709779, 7726438.528832106851041 ], [ 5327171.257899368181825, 7726317.946689557284117 ], [ 5327155.184388191439211, 7726279.425912579521537 ], [ 5327104.149523398838937, 7726230.8211859036237 ], [ 5327060.959268695674837, 7726208.85381671693176 ], [ 5327059.247516396455467, 7726188.141463216394186 ], [ 5327031.913334406912327, 7726172.710828466340899 ], [ 5327012.925259538926184, 7726157.330644035711884 ], [ 5327009.943738665431738, 7726150.358225861564279 ], [ 5326998.904897226020694, 7726133.372967710718513 ], [ 5326993.529736015945673, 7726126.690417358651757 ], [ 5326993.8786062868312, 7726108.987656189128757 ], [ 5326990.291267769411206, 7726100.341523959301412 ], [ 5326988.328664736822248, 7726081.230627589859068 ], [ 5326984.054191406816244, 7726072.109821075573564 ], [ 5326980.107122575864196, 7726056.673795353621244 ], [ 5326970.393852080218494, 7726043.532718959264457 ], [ 5326955.433578174561262, 7726035.825543273240328 ], [ 5326944.968659538775682, 7726025.371030769310892 ], [ 5326934.374505628831685, 7726007.634338066913188 ], [ 5326926.941806607879698, 7726000.270554627291858 ], [ 5326900.306387887336314, 7725966.864203909412026 ], [ 5326890.913939855061471, 7725952.497290007770061 ], [ 5326885.652205628342927, 7725939.758631009608507 ], [ 5326885.480448733083904, 7725930.803022960200906 ], [ 5326883.59702580049634, 7725915.815256582573056 ], [ 5326878.065099699422717, 7725900.409633427858353 ], [ 5326871.947220004163682, 7725890.348460663110018 ], [ 5326860.813788994215429, 7725880.383516763336957 ], [ 5326846.554854772053659, 7725873.882470886223018 ], [ 5326839.616953648626804, 7725868.926299570128322 ], [ 5326834.480461729690433, 7725862.715914227068424 ], [ 5326827.360788587480783, 7725859.703582149930298 ], [ 5326813.915269105695188, 7725859.717590907588601 ], [ 5326802.657599981874228, 7725867.207110540010035 ], [ 5326794.86174513399601, 7725876.803413406014442 ], [ 5326774.291318882256746, 7725886.046007875353098 ], [ 5326743.667954431846738, 7725905.770805085077882 ], [ 5326711.852479858323932, 7725922.624498527497053 ], [ 5326665.875112242996693, 7725938.04216163046658 ], [ 5326646.2308544581756, 7725935.746671764180064 ], [ 5326631.035661321133375, 7725928.287683628499508 ], [ 5326618.216895140707493, 7725925.628460054285824 ], [ 5326608.279650393873453, 7725930.176445199176669 ], [ 5326603.062498432584107, 7725931.728953890502453 ], [ 5326599.18480565957725, 7725931.326519160531461 ], [ 5326596.789706788025796, 7725925.551379589363933 ], [ 5326613.810520499944687, 7725921.588303092867136 ], [ 5326626.476139917969704, 7725916.256215233355761 ], [ 5326636.372819975949824, 7725909.047940695658326 ], [ 5326637.828865234740078, 7725901.746475170366466 ], [ 5326632.752977001480758, 7725898.694879713468254 ], [ 5326616.23729820176959, 7725905.065419176593423 ], [ 5326612.133587243035436, 7725905.388023496605456 ], [ 5326611.530990940518677, 7725897.893186587840319 ], [ 5326619.17168533615768, 7725892.169575939886272 ], [ 5326619.908325973898172, 7725882.70871090143919 ], [ 5326617.911705093458295, 7725873.777020192705095 ], [ 5326595.967604749836028, 7725858.697081584483385 ], [ 5326585.825000870041549, 7725853.070466883480549 ], [ 5326572.589245189912617, 7725849.332616006955504 ], [ 5326552.727004272863269, 7725835.654127452522516 ], [ 5326536.027734716422856, 7725820.462502954527736 ], [ 5326526.084269568324089, 7725801.271764177829027 ], [ 5326522.3552072243765, 7725773.235877241939306 ], [ 5326522.030521335080266, 7725756.28898087143898 ], [ 5326518.862191440537572, 7725733.564450599253178 ], [ 5326514.410477728582919, 7725715.720939826220274 ], [ 5326505.384674685075879, 7725696.512610543519258 ], [ 5326495.158738233149052, 7725686.530085813254118 ], [ 5326475.829841328784823, 7725676.722022117115557 ], [ 5326284.173939123749733, 7725596.316138323396444 ], [ 5326263.76087848469615, 7725577.813709324225783 ], [ 5326255.549624783918262, 7725553.733289064839482 ], [ 5326251.700460352934897, 7725519.401903448626399 ], [ 5326249.637188021093607, 7725435.607372347265482 ], [ 5326253.383637171238661, 7725416.631091371178627 ], [ 5326253.498189018107951, 7725399.187953177839518 ], [ 5326240.443041450344026, 7725360.187583800405264 ], [ 5326239.257681978866458, 7725345.67432190105319 ], [ 5326239.895748600363731, 7725331.602903438732028 ], [ 5326230.921314341016114, 7725315.054563142359257 ], [ 5326231.777098402380943, 7725288.383354501798749 ], [ 5326244.103834187611938, 7725265.373107124119997 ], [ 5326257.46756365057081, 7725249.12865050137043 ], [ 5326273.590932074934244, 7725234.28379949182272 ], [ 5326286.168020003475249, 7725224.352196018211544 ], [ 5326301.759345645084977, 7725205.148948982357979 ], [ 5326307.310799362137914, 7725185.66127903200686 ], [ 5326309.764363941736519, 7725171.078288713470101 ], [ 5326305.42523100040853, 7725158.554709104821086 ], [ 5326298.353379082866013, 7725146.582434942945838 ], [ 5326287.165085800923407, 7725133.713310704566538 ], [ 5326272.815072901546955, 7725121.869386380538344 ], [ 5326267.108964115381241, 7725109.859850939363241 ], [ 5326270.531047022901475, 7725097.919361220672727 ], [ 5326278.916416558437049, 7725083.710587438195944 ], [ 5326288.052276288159192, 7725060.761405445635319 ], [ 5326287.379949548281729, 7725049.620058100670576 ], [ 5326273.631257547996938, 7725021.787244223058224 ], [ 5326222.853793615475297, 7724965.081847663968801 ], [ 5326216.185229379683733, 7724950.196855749934912 ], [ 5326199.485904494300485, 7724935.492928688414395 ], [ 5326188.007125872187316, 7724930.86749136634171 ], [ 5326150.090317538008094, 7724902.998609993606806 ], [ 5326076.131311531178653, 7724802.40833090711385 ], [ 5326069.008259852416813, 7724763.771104062907398 ], [ 5326075.217600242234766, 7724730.699591925367713 ], [ 5326085.774938641116023, 7724710.628272604197264 ], [ 5326107.334708488546312, 7724693.739049531519413 ], [ 5326134.835426087491214, 7724677.711713064461946 ], [ 5326141.798940482549369, 7724660.614156532101333 ], [ 5326150.346004555001855, 7724630.890639115124941 ], [ 5326148.123668543994427, 7724609.611573191359639 ], [ 5326145.682565099559724, 7724601.4201779384166 ], [ 5326147.340192083269358, 7724592.662408327683806 ], [ 5326145.640478137880564, 7724575.254024165682495 ], [ 5326143.134436221793294, 7724563.67103848606348 ], [ 5326128.344630742445588, 7724552.800129543989897 ], [ 5326109.604671340435743, 7724550.254116965457797 ], [ 5326096.495223891921341, 7724556.326253081671894 ], [ 5326084.854585839435458, 7724567.204478276893497 ], [ 5326075.514929192140698, 7724579.502199295908213 ], [ 5326016.240558168850839, 7724650.423194172792137 ], [ 5325989.439516863785684, 7724679.032536096870899 ], [ 5325957.053469904698431, 7724701.9498878614977 ], [ 5325944.221885257400572, 7724722.552499204874039 ], [ 5325938.137263084761798, 7724738.169542284682393 ], [ 5325914.887131603434682, 7724738.137825530022383 ], [ 5325913.128453591838479, 7724741.07645813934505 ], [ 5325909.469793387688696, 7724740.658631278201938 ], [ 5325901.477127593010664, 7724751.954722886905074 ], [ 5325902.580007213167846, 7724761.624235155060887 ], [ 5325897.00877227447927, 7724780.635342227295041 ], [ 5325887.632828543893993, 7724790.505413891747594 ], [ 5325876.403328539803624, 7724799.446326078847051 ], [ 5325874.323642454110086, 7724810.141373516991735 ], [ 5325883.331298133358359, 7724827.908822733908892 ], [ 5325876.889775018207729, 7724848.865824496373534 ], [ 5325852.79237890522927, 7724875.981722629629076 ], [ 5325827.865352318622172, 7724883.721133878454566 ], [ 5325814.205218557268381, 7724884.47036989685148 ], [ 5325794.668902046978474, 7724887.749133046716452 ], [ 5325778.105381019413471, 7724903.577659875154495 ], [ 5325762.471712071448565, 7724944.579520957544446 ], [ 5325753.085158398374915, 7724954.449693768285215 ], [ 5325736.841281590983272, 7724962.998551261611283 ], [ 5325710.254140541888773, 7724967.387786317616701 ], [ 5325650.055560111068189, 7724966.110916612669826 ], [ 5325628.564988187514246, 7724962.652296356856823 ], [ 5325600.123237785883248, 7724953.505555902607739 ], [ 5325591.741325818933547, 7724944.451999499462545 ], [ 5325556.918438505381346, 7724935.42720447294414 ], [ 5325542.989691840484738, 7724922.12223737500608 ], [ 5325511.061392882838845, 7724897.541519708931446 ], [ 5325488.835426152683794, 7724879.061981 ], [ 5325456.790878274478018, 7724824.912720587104559 ], [ 5325431.647086086682975, 7724797.286176113411784 ], [ 5325415.070164549164474, 7724788.400270272046328 ], [ 5325392.58882733527571, 7724757.086063494905829 ], [ 5325373.001303020864725, 7724734.198564613237977 ], [ 5325313.684821292757988, 7724683.486314298585057 ], [ 5325266.782950570806861, 7724638.346647728234529 ], [ 5325253.826512347906828, 7724628.415745123289526 ], [ 5325233.378318648785353, 7724607.961674224585295 ], [ 5325210.841230894438922, 7724597.736991520039737 ], [ 5325187.504139279015362, 7724569.099975522607565 ], [ 5325166.16648034285754, 7724550.126398144289851 ], [ 5325143.528851426206529, 7724534.082577646709979 ], [ 5325137.7360679814592, 7724540.978814229369164 ], [ 5325135.095657131634653, 7724546.362371720373631 ], [ 5325127.367146858014166, 7724547.47458460368216 ], [ 5325109.697268776595592, 7724529.39552712906152 ], [ 5325101.391164441592991, 7724523.744241511449218 ], [ 5325091.175955789163709, 7724514.248751044273376 ], [ 5325072.709885279648006, 7724501.994765269570053 ], [ 5325066.074596517719328, 7724488.794179536402225 ], [ 5325051.06275175511837, 7724466.79475973546505 ], [ 5325044.581117482855916, 7724461.097531223669648 ], [ 5325055.56006105337292, 7724439.566480007022619 ], [ 5325066.632746591232717, 7724422.402136534452438 ], [ 5325067.616877715103328, 7724330.788775930181146 ], [ 5325068.340195149183273, 7724320.596556903794408 ], [ 5325074.744251477532089, 7724298.188210710883141 ], [ 5325088.228329476900399, 7724288.240157017484307 ], [ 5325099.568716060370207, 7724285.107549263164401 ], [ 5325115.173394970595837, 7724290.630516358651221 ], [ 5325129.319548511877656, 7724291.324960644356906 ], [ 5325147.883427873253822, 7724284.672636918723583 ], [ 5325163.808776221238077, 7724235.427781611680984 ], [ 5325179.043284540995955, 7724221.565542395226657 ], [ 5325193.94853569753468, 7724214.495189012959599 ], [ 5325239.104348884895444, 7724132.227257058024406 ], [ 5325314.480063248425722, 7724021.26338204741478 ], [ 5325312.540400579571724, 7723991.253008423373103 ], [ 5325326.571422197856009, 7723961.913090098649263 ], [ 5325372.875659324228764, 7723832.843928589485586 ], [ 5325381.479093745350838, 7723806.035877909511328 ], [ 5325385.212438737042248, 7723762.345770141109824 ], [ 5325389.828042440116405, 7723741.900635062716901 ], [ 5325381.364800151437521, 7723728.014421261847019 ], [ 5325381.253595735877752, 7723722.195542149245739 ], [ 5325371.390316711738706, 7723683.621769740246236 ], [ 5325353.888707109726965, 7723673.777934158220887 ], [ 5325337.487499503418803, 7723674.579342653974891 ], [ 5325305.361739818938076, 7723711.050835489295423 ], [ 5325289.905725395306945, 7723713.286603264510632 ], [ 5325265.244827366434038, 7723710.852999176830053 ], [ 5325236.34217581152916, 7723724.965532650239766 ], [ 5325226.719462332315743, 7723746.470908017829061 ], [ 5325224.358123597688973, 7723765.908267846331 ], [ 5325208.25389124173671, 7723781.716487687081099 ], [ 5325180.313804447650909, 7723798.726546936668456 ], [ 5325148.457471038214862, 7723801.275521850213408 ], [ 5325119.433235415257514, 7723809.580237162299454 ], [ 5325112.57099674642086, 7723832.008491098880768 ], [ 5325105.523562123999, 7723844.738626917824149 ], [ 5325067.128019266761839, 7723839.662116605788469 ], [ 5325033.520868416875601, 7723846.113872805610299 ], [ 5325019.944697977975011, 7723851.218419670127332 ], [ 5325002.348603773862123, 7723884.506756463088095 ], [ 5324948.552217253483832, 7723884.5693275090307 ], [ 5324924.531349203549325, 7723867.587163764983416 ], [ 5324914.316358471289277, 7723858.080544895492494 ], [ 5324905.000687252730131, 7723847.603221563622355 ], [ 5324910.094265477731824, 7723828.124893428757787 ], [ 5324909.853788077831268, 7723815.52290578186512 ], [ 5324901.289184430614114, 7723796.305320272222161 ], [ 5324876.569927197881043, 7723779.336446742527187 ], [ 5324861.110262363217771, 7723757.334437591955066 ], [ 5324858.36600271333009, 7723732.672614536248147 ], [ 5324858.204205774702132, 7723700.688045492395759 ], [ 5324851.453820917755365, 7723681.435818603262305 ], [ 5324843.161906599067152, 7723652.999240992590785 ], [ 5324851.642340528778732, 7723595.658727057278156 ], [ 5324851.032408823259175, 7723563.693797131069005 ], [ 5324852.74714189209044, 7723510.351987686008215 ], [ 5324836.403859474696219, 7723466.080830059945583 ], [ 5324844.220715382136405, 7723445.574812746606767 ], [ 5324853.122642770409584, 7723386.285893838852644 ], [ 5324852.568063081242144, 7723357.224845925346017 ], [ 5324842.198701134882867, 7723291.518236166797578 ], [ 5324831.706761252135038, 7723267.481092808768153 ], [ 5324831.244616083800793, 7723243.263554004952312 ], [ 5324822.355552217923105, 7723207.576025634072721 ], [ 5324826.523255906067789, 7723187.139661419205368 ], [ 5324833.322066156193614, 7723160.843167960643768 ], [ 5324830.265795034356415, 7723144.425373644568026 ], [ 5324815.191534709185362, 7723118.546481093391776 ], [ 5324806.302312420681119, 7723082.847869749180973 ], [ 5324793.959640203975141, 7723056.916819795966148 ], [ 5324773.504468314349651, 7723035.985906729474664 ], [ 5324774.819396332837641, 7723009.794122630730271 ], [ 5324777.839776299893856, 7722976.784181019291282 ], [ 5324768.099255648441613, 7722944.017852419055998 ], [ 5324750.431129123084247, 7722925.938672970980406 ], [ 5324698.168888718821108, 7722862.484208105131984 ], [ 5324673.065686157904565, 7722836.796674555167556 ], [ 5324654.053888043388724, 7722843.945112500339746 ], [ 5324634.29475899040699, 7722811.369953572750092 ], [ 5324573.419161986559629, 7722774.734094327315688 ], [ 5324524.822361215017736, 7722760.149792354553938 ], [ 5324472.716499825939536, 7722752.417881416156888 ], [ 5324412.498417268507183, 7722749.696877280250192 ], [ 5324355.863275119103491, 7722743.99132190272212 ], [ 5324340.241805111058056, 7722737.503614582121372 ], [ 5324324.491072939708829, 7722724.232787531800568 ], [ 5324310.74963167309761, 7722720.625233564525843 ], [ 5324252.493127050809562, 7722725.605383311398327 ], [ 5324189.746638375334442, 7722733.586920721456409 ], [ 5324165.382687218487263, 7722746.657753348350525 ], [ 5324144.306307564489543, 7722741.238445395603776 ], [ 5324124.221264167688787, 7722739.680854342877865 ], [ 5324069.742934352718294, 7722751.385014606639743 ], [ 5324027.302492988295853, 7722772.539079558104277 ], [ 5323973.649227482266724, 7722779.381953140720725 ], [ 5323819.648808904923499, 7722830.777649132534862 ], [ 5323786.272411097772419, 7722849.818183356896043 ], [ 5323746.286645252257586, 7722856.400141667574644 ], [ 5323695.530191528610885, 7722871.901705164462328 ], [ 5323672.330475983209908, 7722898.509563701227307 ], [ 5323653.826063265092671, 7722931.81357841566205 ], [ 5323630.718286627903581, 7722963.264827888458967 ], [ 5323651.245726217515767, 7722988.076115701347589 ], [ 5323676.786096678115427, 7722988.565897962078452 ], [ 5323714.781821737997234, 7722973.296183181926608 ], [ 5323754.251959222368896, 7722939.593105002306402 ], [ 5323811.149448304437101, 7722911.37912180647254 ], [ 5323882.631830957718194, 7722882.876154214143753 ], [ 5323966.344706732779741, 7722874.496578792110085 ], [ 5324116.917849194258451, 7722834.806748194620013 ], [ 5324199.907911194488406, 7722836.130240835249424 ], [ 5324242.179543030448258, 7722853.740948859602213 ], [ 5324276.135512535460293, 7722865.689130716025829 ], [ 5324281.4508554963395, 7722857.837623745203018 ], [ 5324286.591822543181479, 7722840.287849470041692 ], [ 5324299.592760776169598, 7722852.646528254263103 ], [ 5324306.13917385507375, 7722861.236527297645807 ], [ 5324313.500524242408574, 7722864.976824162527919 ], [ 5324334.308143485337496, 7722856.829936403781176 ], [ 5324340.522311879321933, 7722847.985566303133965 ], [ 5324352.320755110122263, 7722844.855674872174859 ], [ 5324358.756502188742161, 7722847.637897949665785 ], [ 5324367.190917241387069, 7722860.07251718826592 ], [ 5324373.626883416436613, 7722862.865819251164794 ], [ 5324383.600657661445439, 7722859.759612353518605 ], [ 5324415.233874590136111, 7722845.596312709152699 ], [ 5324438.124295149929821, 7722850.969634702429175 ], [ 5324486.239000182598829, 7722887.849381349049509 ], [ 5324491.256903538480401, 7722911.991051385179162 ], [ 5324489.931148543953896, 7722938.182956824079156 ], [ 5324474.030440663918853, 7722964.652855955064297 ], [ 5324460.407456941902637, 7722967.817619648762047 ], [ 5324457.13827315159142, 7722987.260999839752913 ], [ 5324469.3880594978109, 7723008.348721336573362 ], [ 5324497.826317965053022, 7723017.507917549461126 ], [ 5324510.845698844641447, 7723030.819655436091125 ], [ 5324527.503849464468658, 7723044.073063034564257 ], [ 5324549.469147990457714, 7723048.499311486259103 ], [ 5324559.517191338352859, 7723049.283329632133245 ], [ 5324570.823119401931763, 7723068.448687260970473 ], [ 5324592.936208879575133, 7723080.622269968502223 ], [ 5324616.734234794043005, 7723085.989180528558791 ], [ 5324628.188007107935846, 7723112.901897547766566 ], [ 5324627.835446787066758, 7723141.991296927444637 ], [ 5324648.216551431454718, 7723159.04313987493515 ], [ 5324633.778777758590877, 7723167.068833304569125 ], [ 5324617.990693399682641, 7723151.869663659483194 ], [ 5324594.451288508251309, 7723160.068976843729615 ], [ 5324561.512311332859099, 7723153.911783033050597 ], [ 5324557.974276012741029, 7723159.800241437740624 ], [ 5324525.293967708945274, 7723167.20920692011714 ], [ 5324513.007052033208311, 7723144.181888170540333 ], [ 5324506.441854286938906, 7723134.616592211648822 ], [ 5324480.550260221585631, 7723115.718295507133007 ], [ 5324469.20743721164763, 7723094.61327342223376 ], [ 5324434.399218508973718, 7723085.586574479006231 ], [ 5324404.951328476890922, 7723071.612345864996314 ], [ 5324380.839498777873814, 7723049.775057438760996 ], [ 5324346.002616464160383, 7723039.784130720421672 ], [ 5324317.675287434831262, 7723036.443528280593455 ], [ 5324288.994857397861779, 7723062.192196670919657 ], [ 5324269.204839082434773, 7723076.140540352091193 ], [ 5324188.111762600950897, 7723078.650598214939237 ], [ 5324141.320612456649542, 7723063.066107806749642 ], [ 5324103.623175412416458, 7723046.3436508923769 ], [ 5324032.688814244233072, 7723055.44500913657248 ], [ 5323991.887594720348716, 7723066.877160193398595 ], [ 5323974.114345552399755, 7723091.452887631952763 ], [ 5323967.564338551834226, 7723130.339496333152056 ], [ 5323966.090246041305363, 7723148.783893224783242 ], [ 5323951.662597506307065, 7723156.808769851922989 ], [ 5323959.356018049642444, 7723177.994616476818919 ], [ 5323938.109797678887844, 7723211.351172826252878 ], [ 5323861.273445059545338, 7723245.765914119780064 ], [ 5323829.919356474652886, 7723226.970696388743818 ], [ 5323812.377272065728903, 7723263.172552576288581 ], [ 5323820.383650558069348, 7723300.817387256771326 ], [ 5323822.871691852807999, 7723335.662326028570533 ], [ 5323807.198559160344303, 7723374.72241497412324 ], [ 5323806.00061959028244, 7723407.697186093777418 ], [ 5323792.494123472832143, 7723464.167693058028817 ], [ 5323764.438548406586051, 7723522.855301370844245 ], [ 5323721.280921421945095, 7723554.688016563653946 ], [ 5323705.202010767534375, 7723572.434464757330716 ], [ 5323684.396774809807539, 7723629.043637806549668 ], [ 5323683.577468389645219, 7723681.403113551437855 ], [ 5323718.570608192123473, 7723700.11838418059051 ], [ 5323734.907397264614701, 7723695.927004605531693 ], [ 5323745.365443330258131, 7723670.537338054738939 ], [ 5323764.714447303675115, 7723633.336668539792299 ], [ 5323812.468999340198934, 7723651.808953266590834 ], [ 5323862.206214529462159, 7723678.004622284322977 ], [ 5323897.752411730587482, 7723725.780401896685362 ], [ 5323939.620600893162191, 7723818.029656440019608 ], [ 5323961.550176601856947, 7723916.46824078541249 ], [ 5323979.15917653311044, 7723979.132142467424273 ], [ 5324003.705908420495689, 7724023.24766449816525 ], [ 5324024.419234974309802, 7724057.745680252090096 ], [ 5324021.765487521886826, 7724110.129136903211474 ], [ 5324030.712567794136703, 7724197.184076133184135 ], [ 5324014.920636427588761, 7724325.423157287761569 ], [ 5323974.691631504334509, 7724415.354318806901574 ], [ 5323897.421285365708172, 7724474.967331981286407 ], [ 5323807.304331972263753, 7724530.954728178679943 ], [ 5323760.652513981796801, 7724570.61479588970542 ], [ 5323713.363788655027747, 7724577.323824973776937 ], [ 5323691.90455736592412, 7724599.0640803957358 ], [ 5323623.072026948444545, 7724623.622968665324152 ], [ 5323579.800669151358306, 7724649.647158307954669 ], [ 5323542.518302149139345, 7724702.688352730125189 ], [ 5323510.625784859992564, 7724751.757507028989494 ], [ 5323462.037436115555465, 7724785.632447864860296 ], [ 5323424.276229818351567, 7724813.491758832708001 ], [ 5323411.95542261376977, 7724836.987182152457535 ], [ 5323359.753861051052809, 7724872.859597569331527 ], [ 5323307.258209772408009, 7724893.248298820108175 ], [ 5323254.87242663744837, 7724919.433442890644073 ], [ 5323191.76956893876195, 7724957.463574348948896 ], [ 5323126.327096307650208, 7724968.395905951038003 ], [ 5323091.014302314259112, 7725029.159563706256449 ], [ 5323065.305717216804624, 7725019.956950433552265 ], [ 5322975.47512732539326, 7724994.519080938771367 ], [ 5322922.574425618164241, 7724993.582065049558878 ], [ 5322846.083864409476519, 7724998.91300982516259 ], [ 5322805.431673428975046, 7724970.612653940916061 ], [ 5322754.576027530245483, 7724981.266991071403027 ], [ 5322644.53825521375984, 7724948.460437064990401 ], [ 5322547.567280034534633, 7724930.916899248957634 ], [ 5322374.316079661250114, 7724906.091458454728127 ], [ 5322336.167591127566993, 7724913.588000474497676 ], [ 5322305.032675103284419, 7724906.427332528866827 ], [ 5322254.048628290183842, 7724910.297169106081128 ], [ 5322219.612607418559492, 7724921.614822584204376 ], [ 5322199.488564572297037, 7724918.115068567916751 ], [ 5322177.283486711792648, 7724901.094910774379969 ], [ 5322142.462623255327344, 7724892.063426736742258 ], [ 5322107.458630013279617, 7724873.345055649057031 ], [ 5322065.386036089621484, 7724866.379795784130692 ], [ 5322017.959868468344212, 7724865.336504273116589 ], [ 5321998.450173339806497, 7724846.324903851374984 ], [ 5321991.83102591149509, 7724833.854934575036168 ], [ 5321974.577568954788148, 7724837.086064090952277 ], [ 5321946.192973558790982, 7724830.837372466921806 ], [ 5321899.28971182834357, 7724809.438752414658666 ], [ 5321861.169855669140816, 7724770.422639779746532 ], [ 5321844.758270559832454, 7724770.732868608087301 ], [ 5321838.00309547688812, 7724750.504350866191089 ], [ 5321826.184626451693475, 7724752.668013571761549 ], [ 5321818.676729377359152, 7724741.179391166195273 ], [ 5321804.988956719636917, 7724740.462423836812377 ], [ 5321769.07851096894592, 7724721.760594999417663 ], [ 5321737.559821022674441, 7724694.250047460198402 ] ] ] } }
]
}
