{
"type": "FeatureCollection",
"name": "3510906",
"crs": { "type": "name", "properties": { "name": "urn:ogc:def:crs:EPSG::5880" } },
"features": [
{ "type": "Feature", "properties": { "lv_id": "LOC_051284", "id": 284268.0, "CD_SETOR": "351090605000003", "SITUACAO": "Urbana", "CD_SIT": "1", "CD_TIPO": "0", "AREA_KM2": 0.095775104054704005, "CD_REGIAO": "3", "NM_REGIAO": "Sudeste", "CD_UF": "35", "NM_UF": "São Paulo", "CD_MUN": "3510906", "NM_MUN": "Cássia dos Coqueiros", "CD_DIST": "351090605", "NM_DIST": "Cássia dos Coqueiros", "CD_SUBDIST": "35109060500", "NM_SUBDIST": null, "CD_BAIRRO": null, "NM_BAIRRO": null, "CD_NU": null, "NM_NU": null, "CD_FCU": null, "NM_FCU": null, "CD_AGLOM": null, "NM_AGLOM": null, "CD_RGINT": "3508", "NM_RGINT": "Ribeirão Preto", "CD_RGI": "350031", "NM_RGI": "Ribeirão Preto", "CD_CONCURB": null, "NM_CONCURB": null, "mun_code_x": "3510906", "index_right": 82585, "dist_m": 648.37938993877412, "local_id": 556609, "ano": 2022, "cod_localidade_ibge": 3510906, "NR_ZONA": "32", "nr_cep": 1000000.0, "nm_localidade": "CÁSSIA DOS COQUEIROS", "nm_locvot": "EMEF ABEL DOS REIS", "ds_endereco": "R JOAQUIM LOPES FERREIRA N 622", "ds_bairro": "CENTRO", "pred_long": -47.169052, "pred_lat": -21.282171, "pred_dist": 0.0, "tse_long": -47.1686464, "tse_lat": -21.2824411, "long": -47.1686464, "lat": -21.2824411, "ID_UNICO": "LOC_051284", "SG_UF": "SP", "CD_MUNICIPIO": "63193", "NR_LOCAL_VOTACAO": "1015", "QT_SECOES_AGREGADAS": 0, "QT_ELEITORES_TRANSFERIDOS": 0, "CIRO GOMES (PDT) (NÃO ELEITO) 1T": 23.0, "CONSTITUINTE EYMAEL (DC) (NÃO ELEITO) 1T": 0.0, "FELIPE D AVILA (NOVO) (NÃO ELEITO) 1T": 3.0, "JAIR BOLSONARO (PL) (2º TURNO) 1T": 566.0, "LULA (PT) (2º TURNO) 1T": 558.0, "LÉO PÉRICLES (UP) (NÃO ELEITO) 1T": 0.0, "PADRE KELMON (PTB) (NÃO ELEITO) 1T": 2.0, "SIMONE TEBET (MDB) (NÃO ELEITO) 1T": 67.0, "SOFIA MANZANO (PCB) (NÃO ELEITO) 1T": 1.0, "SORAYA THRONICKE (UNIÃO) (NÃO ELEITO) 1T": 5.0, "VERA (PSTU) (NÃO ELEITO) 1T": 0.0, "Total_Votos_Validos 1T": 1225.0, "Votos_Brancos 1T": 26.0, "Votos_Nulos 1T": 70.0, "Abstenções 1T": 495.0, "Eleitores_Aptos 1T": 1816.0, "JAIR BOLSONARO (PL) (NÃO ELEITO) 2T": 659.0, "LULA (PT) (ELEITO) 2T": 628.0, "Total_Votos_Validos 2T": 1287.0, "Votos_Brancos 2T": 18.0, "Votos_Nulos 2T": 68.0, "Abstenções 2T": 443.0, "Eleitores_Aptos 2T": 1816.0, "mun_code_y": "3510906", "mun_code": "3510906" }, "geometry": { "type": "Polygon", "coordinates": [ [ [ 5716523.2363435421139, 7629321.856553187593818 ], [ 5716654.344071852974594, 7629072.955467578023672 ], [ 5716670.141219685785472, 7629009.259842902421951 ], [ 5716679.736575926654041, 7628905.160695878788829 ], [ 5716728.436771160922945, 7628823.862435193732381 ], [ 5716904.835442377254367, 7628598.356408786028624 ], [ 5716902.742922860197723, 7628533.659717530012131 ], [ 5716900.840491604991257, 7628476.159600481390953 ], [ 5716876.44316116720438, 7628391.160536702722311 ], [ 5716801.535165688954294, 7628291.857902495190501 ], [ 5716492.643171335570514, 7628052.053849758580327 ], [ 5716219.340059133246541, 7627732.159872172400355 ], [ 5715926.142491417005658, 7627417.162343807518482 ], [ 5715853.433781011030078, 7627353.262025468051434 ], [ 5715641.941525245085359, 7627202.557658940553665 ], [ 5715578.140776005573571, 7627122.86467414163053 ], [ 5715281.834937646985054, 7626855.855906734243035 ], [ 5714852.5400997903198, 7626323.263007119297981 ], [ 5714784.738917634822428, 7626273.354692898690701 ], [ 5714722.336296348832548, 7626250.757144032046199 ], [ 5714520.033872362226248, 7626240.156314238905907 ], [ 5714288.736047620885074, 7626204.054767040535808 ], [ 5714147.538691056892276, 7626170.357547108083963 ], [ 5714017.628830015659332, 7626128.058089793659747 ], [ 5713753.3369613699615, 7626012.057315149344504 ], [ 5713671.231447827070951, 7625964.555437738075852 ], [ 5713611.132719974964857, 7625915.65692812204361 ], [ 5713440.930268779397011, 7625736.757869785651565 ], [ 5713320.733284560032189, 7625633.662665484473109 ], [ 5713012.034988117404282, 7625181.757179440930486 ], [ 5712848.832494430243969, 7625036.464901285246015 ], [ 5712724.930345637723804, 7624967.566649636253715 ], [ 5712633.026427202858031, 7624968.857268519699574 ], [ 5712513.426948118023574, 7625016.366363724693656 ], [ 5712469.533575241453946, 7625061.663861643522978 ], [ 5712430.130508857779205, 7625146.656575896777213 ], [ 5712417.231997954659164, 7625259.666746526956558 ], [ 5712304.234853712841868, 7625425.756083494983613 ], [ 5712247.627583703957498, 7625544.263099937699735 ], [ 5712171.92569069378078, 7625657.357118392363191 ], [ 5711978.831047085113823, 7625837.863787656649947 ], [ 5711901.625976575538516, 7625894.758929735049605 ], [ 5711828.827671561390162, 7625969.661592362448573 ], [ 5711658.228146863169968, 7626303.75936593580991 ], [ 5711381.730551443062723, 7626744.359002240002155 ], [ 5711236.826723037287593, 7627077.361229408532381 ], [ 5711187.834580063819885, 7627154.958014221861959 ], [ 5711064.633666650392115, 7627310.166052190586925 ], [ 5710953.031995195895433, 7627499.862184386700392 ], [ 5710931.934741219505668, 7627561.969705227762461 ], [ 5710854.030576750636101, 7627656.668583180755377 ], [ 5710842.52780887670815, 7627706.069307080470026 ], [ 5710851.230815184302628, 7627858.760020413435996 ], [ 5710914.736338029615581, 7627947.967215673997998 ], [ 5710987.328593016602099, 7628008.665553466416895 ], [ 5711067.635074648074806, 7628095.859498307108879 ], [ 5711110.827242624945939, 7628169.266886659897864 ], [ 5711164.632747355848551, 7628452.26846210937947 ], [ 5711197.128298031166196, 7628545.065860355272889 ], [ 5711206.933926674537361, 7628622.869500778615475 ], [ 5711201.537385212257504, 7628709.363576082512736 ], [ 5711144.627713122405112, 7628832.065998888574541 ], [ 5711095.233888797461987, 7628877.861766032874584 ], [ 5711021.935703337192535, 7628890.259773940779269 ], [ 5710990.331410869024694, 7628884.06160625256598 ], [ 5710915.628795363008976, 7628829.36427160166204 ], [ 5710819.93201388604939, 7628714.467700393870473 ], [ 5710665.631794207729399, 7628443.76353005040437 ], [ 5710604.333670455031097, 7628375.268436720594764 ], [ 5710526.433640439994633, 7628312.869823895394802 ], [ 5710197.131700633093715, 7628170.863915863446891 ], [ 5710079.930819649249315, 7628133.065364787355065 ], [ 5709852.231647323817015, 7628084.362768925726414 ], [ 5709769.925117215141654, 7628055.362562720663846 ], [ 5709625.025037026032805, 7627955.166995531879365 ], [ 5709218.831144820898771, 7627603.47024735994637 ], [ 5709033.923567354679108, 7627462.264640973880887 ], [ 5708940.126897496171296, 7627383.166615836322308 ], [ 5708806.02524954918772, 7627241.662889754399657 ], [ 5708726.823403621092439, 7627176.762619448825717 ], [ 5708480.428866125643253, 7627005.669886813499033 ], [ 5708313.929924549534917, 7626868.669178947806358 ], [ 5708054.028467574156821, 7626608.871164292097092 ], [ 5707977.725843575783074, 7626501.870658349245787 ], [ 5707844.825042771175504, 7626246.871610932983458 ], [ 5707648.622070010751486, 7625678.67155016027391 ], [ 5707564.625885589979589, 7625357.870371701195836 ], [ 5707492.720452927052975, 7625009.771942552179098 ], [ 5707436.320583273656666, 7624674.461301349103451 ], [ 5707373.518783607520163, 7624442.966134832240641 ], [ 5707328.92388148419559, 7624316.962811227887869 ], [ 5707223.921648737043142, 7624179.471500752493739 ], [ 5707166.220337203703821, 7624044.970532838255167 ], [ 5707065.723895540460944, 7623919.661514639854431 ], [ 5706932.220967641100287, 7623837.565210985951126 ], [ 5706894.319140303879976, 7623803.368107426911592 ], [ 5706765.627590475603938, 7623611.571449065580964 ], [ 5706690.422156970947981, 7623537.765177298337221 ], [ 5706540.62496205419302, 7623449.470770414918661 ], [ 5706483.326309769414365, 7623404.862118153832853 ], [ 5706455.617007845081389, 7623345.568593310192227 ], [ 5706439.019145828671753, 7623276.471734918653965 ], [ 5706411.126085683703423, 7623240.067802120000124 ], [ 5706344.820429577492177, 7623192.671089312061667 ], [ 5706202.419809562154114, 7623146.662253217771649 ], [ 5705971.424419648945332, 7623120.065013349987566 ], [ 5705913.721650834195316, 7623204.264127567410469 ], [ 5705768.017493368126452, 7623304.36918723769486 ], [ 5705713.017567885108292, 7623379.072334254160523 ], [ 5705623.925443165935576, 7623445.470664577558637 ], [ 5705552.921936646103859, 7623519.872694550082088 ], [ 5705450.318886738270521, 7623548.462231487035751 ], [ 5705264.322531245648861, 7623694.269998142495751 ], [ 5705173.420246617868543, 7623706.272352516651154 ], [ 5705095.415120680816472, 7623681.968045710586011 ], [ 5705039.121694702655077, 7623650.469711833633482 ], [ 5704839.417093719355762, 7623490.971349561586976 ], [ 5704699.721444863826036, 7623434.664174998179078 ], [ 5704594.322914923541248, 7623375.770838817581534 ], [ 5704511.020545425824821, 7623311.373364326544106 ], [ 5704268.21777506172657, 7623184.663836162537336 ], [ 5704104.817088291049004, 7623129.164853904396296 ], [ 5704006.721531131304801, 7623134.871158154681325 ], [ 5703931.513669752515852, 7623161.666721532121301 ], [ 5703901.022839192301035, 7623187.268031306564808 ], [ 5703814.717909217812121, 7623278.968263703398407 ], [ 5703666.718278523534536, 7623499.672874410636723 ], [ 5703545.022787311114371, 7623582.371373254805803 ], [ 5703488.022122588939965, 7623602.870583196170628 ], [ 5703305.42027194891125, 7623696.667154837399721 ], [ 5702695.814762635156512, 7623919.366072178818285 ], [ 5702379.019253403879702, 7624024.068713461980224 ], [ 5702268.31633329205215, 7624101.865915011614561 ], [ 5702219.911589786410332, 7624157.468796212226152 ], [ 5702150.41505219321698, 7624276.574611349031329 ], [ 5702124.219228091649711, 7624341.869451568461955 ], [ 5702086.518304952420294, 7624535.570709329098463 ], [ 5702092.012152401730418, 7624739.968286127783358 ], [ 5702142.419552053324878, 7625077.068895130418241 ], [ 5702167.421173290349543, 7625169.674927957355976 ], [ 5702186.120142427273095, 7625293.972491944208741 ], [ 5702317.120383949950337, 7625366.074864751659334 ], [ 5702331.220660930499434, 7625388.069209402427077 ], [ 5702386.914110456593335, 7625580.975619170814753 ], [ 5702428.518288478255272, 7625630.475623778998852 ], [ 5702467.018316008150578, 7625719.16741537861526 ], [ 5702587.314950615167618, 7625912.874018797650933 ], [ 5702629.323712591081858, 7626008.773922082968056 ], [ 5702660.71497989539057, 7626049.168890636414289 ], [ 5702734.315212085843086, 7626191.074787403456867 ], [ 5702828.521288034506142, 7626267.267912064678967 ], [ 5702914.223856849595904, 7626303.575092765502632 ], [ 5703059.822823010385036, 7626334.070456614717841 ], [ 5703357.416182371787727, 7626469.176206325180829 ], [ 5703398.623188490979373, 7626511.266514087095857 ], [ 5703445.216923462226987, 7626600.167296982370317 ], [ 5703585.917871676385403, 7626728.26695058029145 ], [ 5703623.173803046345711, 7626806.218976388685405 ], [ 5703624.280178280547261, 7626808.524016203358769 ], [ 5703624.919477575458586, 7626809.867955713532865 ], [ 5703626.480495860800147, 7626812.119964774698019 ], [ 5703674.018590781837702, 7626880.675573760643601 ], [ 5703685.321930941194296, 7626983.472983005456626 ], [ 5703719.424082576297224, 7627074.773903355002403 ], [ 5703891.72569227591157, 7627298.173334388062358 ], [ 5703990.917685113847256, 7627456.772185396403074 ], [ 5704037.416894160211086, 7627596.767631080001593 ], [ 5704043.818553411401808, 7627691.570108383893967 ], [ 5704039.817832691594958, 7627856.766185143962502 ], [ 5704009.620848442427814, 7628065.372092803940177 ], [ 5704005.022482796572149, 7628182.870626133866608 ], [ 5704067.420557289384305, 7628752.068354979157448 ], [ 5704154.325663466006517, 7629157.574146362952888 ], [ 5704164.428476180881262, 7629348.968078291974962 ], [ 5704159.721826092340052, 7629371.170130276121199 ], [ 5704111.323379649780691, 7629416.170791721902788 ], [ 5704072.1195965455845, 7629426.666937327943742 ], [ 5703893.01836603321135, 7629430.271583101712167 ], [ 5703862.022398950532079, 7629438.172803294844925 ], [ 5703836.420258986763656, 7629453.167537651024759 ], [ 5703808.421882901340723, 7629488.068010387942195 ], [ 5703760.019167182967067, 7629574.367574574425817 ], [ 5703613.218122945167124, 7629641.372444059699774 ], [ 5703541.418461265042424, 7629655.677402228116989 ], [ 5703528.519539673812687, 7629682.078052490018308 ], [ 5703527.326266173273325, 7629947.367855472490191 ], [ 5703534.228169515728951, 7629996.867401379160583 ], [ 5703583.522403120994568, 7630110.374333241954446 ], [ 5703577.424776466563344, 7630131.175009399652481 ], [ 5703522.623208607546985, 7630177.373432165011764 ], [ 5703512.419295895844698, 7630212.377398509532213 ], [ 5703519.323360533453524, 7630367.969900693744421 ], [ 5703345.427060544490814, 7630804.375640001147985 ], [ 5703348.227374227717519, 7630936.773462504148483 ], [ 5703335.628450405783951, 7630974.578210725449026 ], [ 5703299.722381361760199, 7631040.768758939579129 ], [ 5703146.322176774963737, 7631217.373576411046088 ], [ 5702978.628028878010809, 7631369.078538460657001 ], [ 5702815.126265835016966, 7631459.176003991626203 ], [ 5702634.62392090447247, 7631506.471773555502295 ], [ 5702541.518888141028583, 7631542.076813239604235 ], [ 5702409.020508445799351, 7631568.377467075362802 ], [ 5702350.223961696028709, 7631565.871120606549084 ], [ 5702195.320877522230148, 7631495.369820913299918 ], [ 5702162.324413981288671, 7631498.8699332755059 ], [ 5702121.618844792246819, 7631519.079550050199032 ], [ 5702063.821293131448328, 7631576.080173250287771 ], [ 5701964.419183599762619, 7631616.277570445090532 ], [ 5701909.619387399405241, 7631615.170410823076963 ], [ 5701953.324496002867818, 7631698.079189381562173 ], [ 5701999.025335542857647, 7631817.674191702157259 ], [ 5702062.023369441740215, 7631891.170630345121026 ], [ 5702096.623284282162786, 7632019.570492159575224 ], [ 5702166.62113886885345, 7632102.478250899352133 ], [ 5702220.227479992434382, 7632264.772564295679331 ], [ 5702243.925883401185274, 7632285.977977139875293 ], [ 5702362.728510740213096, 7632324.47956108674407 ], [ 5702406.9289355808869, 7632365.979132000356913 ], [ 5702423.223778879269958, 7632381.179961819201708 ], [ 5702472.32874814234674, 7632435.570156967267394 ], [ 5702523.020859081298113, 7632470.9710000064224 ], [ 5702633.479046136140823, 7632513.486322415992618 ], [ 5702690.324830755591393, 7632535.376869920641184 ], [ 5703005.026169476099312, 7632504.66981971077621 ], [ 5703056.225284150801599, 7632485.178907776251435 ], [ 5703140.527502959594131, 7632426.078274983912706 ], [ 5703263.426376264542341, 7632408.570706211030483 ], [ 5703319.126519625075161, 7632425.769726668484509 ], [ 5703366.527580770663917, 7632453.170414076186717 ], [ 5703481.520929029211402, 7632567.26998742762953 ], [ 5703571.029060879722238, 7632624.071016639471054 ], [ 5704065.42854665312916, 7632872.674835750833154 ], [ 5704119.125222651287913, 7632887.672289511188865 ], [ 5704365.123899785801768, 7632881.168235840275884 ], [ 5704561.725426367484033, 7632912.175738937221467 ], [ 5704697.430768740363419, 7632963.272925229743123 ], [ 5704730.030158089473844, 7632962.071520125493407 ], [ 5704798.122524025849998, 7632931.969328819774091 ], [ 5704865.026026707142591, 7632939.271516520529985 ], [ 5704985.0255380384624, 7632992.068235533311963 ], [ 5705084.425396163016558, 7633022.368451735004783 ], [ 5705133.730061743408442, 7633033.270372184924781 ], [ 5705272.433129569515586, 7633034.370165703818202 ], [ 5705470.133619375526905, 7633077.073482530191541 ], [ 5705572.031376907601953, 7633119.774567941203713 ], [ 5705671.134186538867652, 7633214.668397834524512 ], [ 5705737.232180254533887, 7633254.673305631615222 ], [ 5705870.329534343443811, 7633358.773592540062964 ], [ 5705889.232062979601324, 7633384.27469165995717 ], [ 5705901.128703660331666, 7633462.37360773794353 ], [ 5705865.330450799316168, 7633637.172469502314925 ], [ 5705912.533561589196324, 7633834.076337406411767 ], [ 5705905.828453831374645, 7633929.468015659600496 ], [ 5705880.03237023204565, 7633935.273221809417009 ], [ 5705743.132258886471391, 7633908.37411536090076 ], [ 5705529.031561627984047, 7633807.468624287284911 ], [ 5705493.82561428565532, 7633807.768543618731201 ], [ 5705446.029229647479951, 7633823.574140348471701 ], [ 5705420.83417702279985, 7633864.175569516606629 ], [ 5705429.027176776900887, 7633958.668538000434637 ], [ 5705463.032824560068548, 7634003.46827681735158 ], [ 5705556.326167863793671, 7634212.672136788256466 ], [ 5705570.031333422288299, 7634264.478297023102641 ], [ 5705566.934111264534295, 7634308.477468261495233 ], [ 5705549.726426596753299, 7634348.567919806577265 ], [ 5705518.426483931019902, 7634380.578531827777624 ], [ 5705324.226944695226848, 7634520.67580530885607 ], [ 5705291.327474513091147, 7634575.46787323243916 ], [ 5705291.726266860030591, 7634608.478159919381142 ], [ 5705308.527993114665151, 7634640.470708063803613 ], [ 5705367.624867580831051, 7634677.769065536558628 ], [ 5705520.134061777964234, 7634697.86878027766943 ], [ 5705567.729329881258309, 7634716.270871602930129 ], [ 5705785.826584542170167, 7634888.471121517941356 ], [ 5705927.734511921182275, 7635049.676806988194585 ], [ 5706028.927293570712209, 7635129.875499859452248 ], [ 5706145.930628091096878, 7635363.070240769535303 ], [ 5706165.033667566254735, 7635459.46960997954011 ], [ 5706231.930478998459876, 7635624.773797958157957 ], [ 5706296.513835560530424, 7635912.042398065328598 ], [ 5706311.336656020022929, 7635977.973291314207017 ], [ 5706341.135894438251853, 7636044.474935023114085 ], [ 5706392.831859377212822, 7636116.869302397593856 ], [ 5706420.437735326588154, 7636137.870586160570383 ], [ 5706528.933477327227592, 7636149.668987214565277 ], [ 5706766.03607267793268, 7636109.07297065295279 ], [ 5706892.930374759249389, 7636140.370880728587508 ], [ 5706937.336604444310069, 7636173.170063313096762 ], [ 5707017.735850660130382, 7636282.573972068727016 ], [ 5707101.533170963637531, 7636372.875144992023706 ], [ 5707173.233778317458928, 7636409.471261292695999 ], [ 5707242.930171418003738, 7636425.067420499399304 ], [ 5707367.739024522714317, 7636412.875350603833795 ], [ 5707419.136481481604278, 7636434.968757431954145 ], [ 5707518.331030008383095, 7636554.868519925512373 ], [ 5707536.935751734301448, 7636622.376555418595672 ], [ 5707617.537911341525614, 7636736.376092446967959 ], [ 5707629.839684885926545, 7636768.473169980570674 ], [ 5707634.539878828451037, 7636850.675380920991302 ], [ 5707656.835816455073655, 7636939.969285603612661 ], [ 5707659.232366029173136, 7636988.673287329263985 ], [ 5707649.334916947409511, 7637032.276052626781166 ], [ 5707632.338258395902812, 7637063.272110588848591 ], [ 5707559.137185148894787, 7637122.571670929901302 ], [ 5707539.137426041066647, 7637159.372742332518101 ], [ 5707447.536565490998328, 7637379.467399698682129 ], [ 5707435.937396163120866, 7637434.271564489230514 ], [ 5707453.138127875514328, 7637502.977664601057768 ], [ 5707550.638700244948268, 7637678.371743965893984 ], [ 5707553.640036357566714, 7637768.474860290065408 ], [ 5707543.831501054577529, 7637795.570214366540313 ], [ 5707522.033580475486815, 7637828.768641928210855 ], [ 5707489.535826304927468, 7637854.076006973162293 ], [ 5707412.139611474238336, 7637886.97076615691185 ], [ 5707338.937051372602582, 7637904.77587200794369 ], [ 5707115.532917431555688, 7637912.177302103489637 ], [ 5707036.337713968008757, 7637946.273675434291363 ], [ 5706997.933383153751493, 7637979.974049033597112 ], [ 5706948.039900128729641, 7638048.367956461384892 ], [ 5706878.133020328357816, 7638209.47090514190495 ], [ 5706862.235213018022478, 7638222.576904160901904 ], [ 5706961.933712382800877, 7638214.572934167459607 ], [ 5707075.640307146124542, 7638245.271559219807386 ], [ 5707147.234443035908043, 7638278.273211382329464 ], [ 5707346.032475297339261, 7638404.771628439426422 ], [ 5707594.835299541242421, 7638644.068622441962361 ], [ 5707620.234338671900332, 7638683.976204580627382 ], [ 5707667.933727947995067, 7638830.472942242398858 ], [ 5707795.935486635193229, 7638987.371395035646856 ], [ 5707965.3388816351071, 7639123.875172726809978 ], [ 5708106.135674902237952, 7639219.571849415078759 ], [ 5708108.431994234211743, 7639220.286918548867106 ], [ 5708270.440708372741938, 7639270.777205036021769 ], [ 5708310.038860751315951, 7639291.372452166862786 ], [ 5708368.539284710772336, 7639324.968944453634322 ], [ 5708466.334223381243646, 7639405.668155081570148 ], [ 5708558.839637355878949, 7639460.267615707591176 ], [ 5708609.336655541323125, 7639502.270846607163548 ], [ 5708665.03981464728713, 7639585.074168641120195 ], [ 5708772.796779153868556, 7639873.800719815306365 ], [ 5708776.826218927279115, 7639884.599613346159458 ], [ 5708786.340507794171572, 7639910.070969551801682 ], [ 5708839.141349884681404, 7639995.675785006955266 ], [ 5708975.342705775052309, 7640153.868418533354998 ], [ 5709121.538063867017627, 7640243.574491927400231 ], [ 5709186.135253883898258, 7640269.970793292857707 ], [ 5709274.638248970732093, 7640288.667293201200664 ], [ 5709336.945125321857631, 7640275.374608342535794 ], [ 5709402.137158963829279, 7640242.676790816709399 ], [ 5709509.64121790509671, 7640134.476758295670152 ], [ 5709520.622910871170461, 7640113.150078520178795 ], [ 5709533.743442670442164, 7640087.672033526934683 ], [ 5709558.341914344578981, 7640062.769098026677966 ], [ 5709593.039842657744884, 7640046.975634778849781 ], [ 5709699.43767165672034, 7640042.472129582427442 ], [ 5709958.238223205320537, 7640110.271537381224334 ], [ 5710086.637642016634345, 7640130.575161688029766 ], [ 5710137.738494746387005, 7640129.07055925950408 ], [ 5710337.138469215482473, 7640091.373777518048882 ], [ 5710419.043377842754126, 7640064.773673547431827 ], [ 5710552.044599902816117, 7640040.670683215372264 ], [ 5710742.440211925655603, 7639931.374802727252245 ], [ 5710775.9437356274575, 7639905.270343985408545 ], [ 5710829.742983994074166, 7639830.470560122281313 ], [ 5710903.938165787607431, 7639777.47058192268014 ], [ 5711127.039247049950063, 7639693.071748128160834 ], [ 5711213.543079743161798, 7639682.069545506499708 ], [ 5711257.639243114739656, 7639686.373023208230734 ], [ 5711389.937782797962427, 7639751.973836310207844 ], [ 5711477.539090166799724, 7639834.474024377763271 ], [ 5711535.947073826566339, 7639906.874051071703434 ], [ 5711587.040637908503413, 7639997.366391997784376 ], [ 5711603.641077199019492, 7640101.373223839327693 ], [ 5711576.34111996833235, 7640243.66795077174902 ], [ 5711594.059462481178343, 7640315.810726088471711 ], [ 5711597.047844919376075, 7640327.970532603561878 ], [ 5711632.541823649778962, 7640397.771669993177056 ], [ 5711741.746123380959034, 7640561.168137772008777 ], [ 5711911.347879000939429, 7640757.970270480960608 ], [ 5711989.748166020959616, 7640866.974767226725817 ], [ 5712045.948509022593498, 7640927.872580910101533 ], [ 5712091.152344104833901, 7640950.995874035172164 ], [ 5712106.744783812202513, 7640958.974575849249959 ], [ 5712122.09073303360492, 7640959.804504487663507 ], [ 5712161.54551285225898, 7640961.965897794812918 ], [ 5712197.425829172134399, 7640951.401665231212974 ], [ 5712248.443832484073937, 7640936.367914188653231 ], [ 5712271.079863302409649, 7640918.771484721451998 ], [ 5712422.742998431436718, 7640800.874122875742614 ], [ 5712581.947320488281548, 7640749.269219035282731 ], [ 5712714.749548260122538, 7640664.469956651329994 ], [ 5712842.349669283255935, 7640598.563024057075381 ], [ 5712946.049574226140976, 7640567.871729679405689 ], [ 5713132.048749196343124, 7640541.57349644228816 ], [ 5713280.54958575963974, 7640564.072641720995307 ], [ 5713309.116393389180303, 7640574.275575382634997 ], [ 5713365.648666445165873, 7640594.473224118351936 ], [ 5713689.946885844692588, 7640751.565501350909472 ], [ 5713768.24238898884505, 7640781.06656713411212 ], [ 5713848.944086509756744, 7640789.563780844211578 ], [ 5713999.642791317775846, 7640759.067415522411466 ], [ 5714081.549913586117327, 7640777.87159688025713 ], [ 5714140.818169510923326, 7640780.093690097332001 ], [ 5714209.445745127275586, 7640782.667510027997196 ], [ 5714355.146354569122195, 7640832.067764028906822 ], [ 5714462.548601353541017, 7640747.96486066095531 ], [ 5714615.550715201534331, 7640732.261951742693782 ], [ 5714785.049602149985731, 7640620.264783605933189 ], [ 5715232.548085690476, 7639991.57157844491303 ], [ 5715434.648256646469235, 7639614.164919381961226 ], [ 5715683.648796854540706, 7639409.661183306947351 ], [ 5715913.145041678100824, 7639131.267283613793552 ], [ 5716066.349198457784951, 7638640.16434150096029 ], [ 5716190.045449394732714, 7638514.569097304716706 ], [ 5716256.345158412121236, 7638354.168695477768779 ], [ 5716196.946170192211866, 7637956.0624377168715 ], [ 5716185.350562268868089, 7637663.061148560605943 ], [ 5716217.545810795389116, 7637598.365287417545915 ], [ 5716297.748582296073437, 7637606.667108550667763 ], [ 5716373.34503670502454, 7637664.565222119912505 ], [ 5716613.546468369662762, 7638085.166102033108473 ], [ 5716783.553562622517347, 7638130.267780151218176 ], [ 5717187.747702653519809, 7638026.860279083251953 ], [ 5717369.451256423257291, 7638059.16626763343811 ], [ 5717501.947510501369834, 7638276.261954115703702 ], [ 5717566.148799125105143, 7638295.262162847444415 ], [ 5717923.64713622443378, 7638143.865715235471725 ], [ 5718198.85108804795891, 7638131.067084521055222 ], [ 5718555.551901074126363, 7638193.263038103468716 ], [ 5718816.951074212789536, 7638186.06609115563333 ], [ 5719124.256607044488192, 7638061.161384213715792 ], [ 5719393.957022379152477, 7638037.061892975121737 ], [ 5719767.379742931574583, 7638201.84959246776998 ], [ 5719835.857319098897278, 7638232.064697192981839 ], [ 5720084.752734784036875, 7637989.563829703256488 ], [ 5720134.949098905548453, 7637877.455502606928349 ], [ 5720123.054412759840488, 7637799.165367648936808 ], [ 5720062.556208738125861, 7637726.363260654732585 ], [ 5719963.253428097814322, 7637719.361855553463101 ], [ 5719765.750860790722072, 7637658.564481753855944 ], [ 5719618.450396041385829, 7637580.564293801784515 ], [ 5719462.853375756181777, 7637443.255528338253498 ], [ 5719379.454337187111378, 7637286.75607493519783 ], [ 5719337.955909812822938, 7637187.06616903655231 ], [ 5718953.653476394712925, 7636179.758008698932827 ], [ 5718637.645134323276579, 7635981.159468934871256 ], [ 5718248.153137459419668, 7635680.364480165764689 ], [ 5718204.448394782841206, 7635477.65986824221909 ], [ 5718224.143099581822753, 7635365.956687348894775 ], [ 5718266.850397998467088, 7635292.26002655737102 ], [ 5718503.447478740476072, 7635098.059860173612833 ], [ 5718389.447401736862957, 7634760.556687906384468 ], [ 5718369.742185181938112, 7634601.157844053581357 ], [ 5718490.849547262303531, 7634489.661958774551749 ], [ 5719215.643395020626485, 7634408.360290741547942 ], [ 5719758.651860342361033, 7634639.163835683837533 ], [ 5719846.345384338870645, 7634637.958772323094308 ], [ 5719950.349640652537346, 7634580.960500634275377 ], [ 5720101.848825866356492, 7634388.355109620839357 ], [ 5720538.745957338251173, 7633998.056199088692665 ], [ 5720742.453249436803162, 7633953.55609693005681 ], [ 5720932.254800404421985, 7633786.558926555328071 ], [ 5720952.330217541195452, 7633678.163618560880423 ], [ 5720961.454080674797297, 7633628.952863201498985 ], [ 5720929.645480490289629, 7633343.060314828529954 ], [ 5721105.446902005001903, 7633005.560856694355607 ], [ 5720980.051123466342688, 7632571.154928307980299 ], [ 5721046.645805478096008, 7632468.954477470368147 ], [ 5721152.348761541768909, 7632402.353476407006383 ], [ 5721286.450093891471624, 7632270.856559394858778 ], [ 5721601.650575402192771, 7631923.860349956899881 ], [ 5721617.647191548720002, 7631722.459895633161068 ], [ 5721571.651762521825731, 7631482.955263384617865 ], [ 5721665.849296695552766, 7631430.150699071586132 ], [ 5721523.251236730255187, 7631404.956550547853112 ], [ 5721401.944251267239451, 7631402.559368571266532 ], [ 5721327.049881804734468, 7631342.659290650859475 ], [ 5721297.747673145495355, 7631336.353963172063231 ], [ 5721261.850319115445018, 7631346.155470482073724 ], [ 5721229.143776632845402, 7631409.656854089349508 ], [ 5721213.052544321864843, 7631423.850672440603375 ], [ 5721183.952253611758351, 7631430.653344376012683 ], [ 5721124.744697593152523, 7631422.05061723664403 ], [ 5721100.947715441696346, 7631435.356639880686998 ], [ 5721084.952600969932973, 7631453.159951249137521 ], [ 5721078.552212307229638, 7631479.854393441230059 ], [ 5721017.449495127424598, 7631548.955203035846353 ], [ 5721008.743980339728296, 7631621.560400318354368 ], [ 5720983.144024019129574, 7631655.558016205206513 ], [ 5720740.147682049311697, 7631770.351705868728459 ], [ 5720621.750048282556236, 7631792.860491238534451 ], [ 5720597.744632560759783, 7631807.35695817694068 ], [ 5720555.1513179121539, 7631857.058396976441145 ], [ 5720519.852709444239736, 7631856.15720853023231 ], [ 5720402.351140068843961, 7631802.756382403895259 ], [ 5720304.344477834179997, 7631803.452529756352305 ], [ 5720201.25243463460356, 7631726.362121630460024 ], [ 5720182.650081899948418, 7631697.555589702911675 ], [ 5720139.451994080096483, 7631578.157588057219982 ], [ 5720082.448325888253748, 7631513.462411622516811 ], [ 5720033.44548908341676, 7631478.16249523870647 ], [ 5719997.746294409036636, 7631467.161656871438026 ], [ 5719764.748686029575765, 7631482.154477064497769 ], [ 5719715.549457154236734, 7631444.252561446279287 ], [ 5719653.543690841645002, 7631357.357575212605298 ], [ 5719632.14791595004499, 7631346.55295348726213 ], [ 5719569.450966050848365, 7631367.555253000929952 ], [ 5719544.740929806604981, 7631366.454831100068986 ], [ 5719511.446160113438964, 7631353.652153325267136 ], [ 5719452.746091627515852, 7631304.455898324027658 ], [ 5719382.443213763646781, 7631150.055319800972939 ], [ 5719304.142936288379133, 7631029.556190682575107 ], [ 5719279.44788886141032, 7630960.061060725711286 ], [ 5719215.747775112278759, 7630924.256670465692878 ], [ 5719188.045301351696253, 7630897.054191471077502 ], [ 5719174.948231799528003, 7630829.559216730296612 ], [ 5719175.044254815205932, 7630713.256676061078906 ], [ 5719133.744252382777631, 7630630.359489344060421 ], [ 5719064.047216504812241, 7630575.255128873512149 ], [ 5719000.145910747349262, 7630569.663171965628862 ], [ 5718864.342787764966488, 7630588.063240410760045 ], [ 5718777.744279858656228, 7630552.36001549102366 ], [ 5718745.640289808623493, 7630493.663451505824924 ], [ 5718716.547311132773757, 7630322.552617058157921 ], [ 5718680.74563679471612, 7630289.459560145623982 ], [ 5718482.138704085722566, 7630164.56038293428719 ], [ 5718362.948109061457217, 7630057.254194108769298 ], [ 5718286.246373922564089, 7629937.453711685724556 ], [ 5718253.246326533146203, 7629813.660673519596457 ], [ 5718246.647082515060902, 7629723.462888791225851 ], [ 5718210.545183377340436, 7629657.859461670741439 ], [ 5718170.842763537541032, 7629626.253405021503568 ], [ 5718011.942560755647719, 7629556.558584018610418 ], [ 5717893.946999672800303, 7629471.661765588447452 ], [ 5717667.041637022048235, 7629369.35819773375988 ], [ 5717452.438277064822614, 7629312.653873328119516 ], [ 5717334.141792906448245, 7629330.455260125920177 ], [ 5717188.743031115271151, 7629426.556715901009738 ], [ 5717129.240936525166035, 7629449.463536601513624 ], [ 5716767.642807993106544, 7629543.859329983592033 ], [ 5716521.441390478052199, 7629565.762152564711869 ], [ 5716338.843333235010505, 7629557.563155733048916 ], [ 5716523.2363435421139, 7629321.856553187593818 ] ] ] } }
]
}
