{
"type": "FeatureCollection",
"name": "3515301",
"crs": { "type": "name", "properties": { "name": "urn:ogc:def:crs:EPSG::5880" } },
"features": [
{ "type": "Feature", "properties": { "lv_id": "LOC_051741", "id": 289111.0, "CD_SETOR": "351530105000002", "SITUACAO": "Urbana", "CD_SIT": "1", "CD_TIPO": "0", "AREA_KM2": 0.276754178823651, "CD_REGIAO": "3", "NM_REGIAO": "Sudeste", "CD_UF": "35", "NM_UF": "São Paulo", "CD_MUN": "3515301", "NM_MUN": "Estrela do Norte", "CD_DIST": "351530105", "NM_DIST": "Estrela do Norte", "CD_SUBDIST": "35153010500", "NM_SUBDIST": null, "CD_BAIRRO": null, "NM_BAIRRO": null, "CD_NU": null, "NM_NU": null, "CD_FCU": null, "NM_FCU": null, "CD_AGLOM": null, "NM_AGLOM": null, "CD_RGINT": "3505", "NM_RGINT": "Presidente Prudente", "CD_RGI": "350018", "NM_RGI": "Presidente Prudente", "CD_CONCURB": "3541406", "NM_CONCURB": "Presidente Prudente/SP", "mun_code_x": "3515301", "index_right": 83134, "dist_m": 0.0, "local_id": 561179, "ano": 2022, "cod_localidade_ibge": 3515301, "NR_ZONA": "261", "nr_cep": 19230000.0, "nm_localidade": "ESTRELA DO NORTE", "nm_locvot": "EE DOUTOR MOACYR TEIXEIRA", "ds_endereco": "RUA PREFEITO JOSE CARLOS, 182", "ds_bairro": "CENTRO", "pred_long": -51.661453, "pred_lat": -22.485447, "pred_dist": 0.0, "tse_long": -51.6613486, "tse_lat": -22.4855179, "long": -51.6613486, "lat": -22.4855179, "ID_UNICO": "LOC_051741", "SG_UF": "SP", "CD_MUNICIPIO": "64076", "NR_LOCAL_VOTACAO": "1015", "QT_SECOES_AGREGADAS": 0, "QT_ELEITORES_TRANSFERIDOS": 2, "CIRO GOMES (PDT) (NÃO ELEITO) 1T": 42.0, "CONSTITUINTE EYMAEL (DC) (NÃO ELEITO) 1T": 1.0, "FELIPE D AVILA (NOVO) (NÃO ELEITO) 1T": 3.0, "JAIR BOLSONARO (PL) (2º TURNO) 1T": 774.0, "LULA (PT) (2º TURNO) 1T": 1031.0, "LÉO PÉRICLES (UP) (NÃO ELEITO) 1T": 0.0, "PADRE KELMON (PTB) (NÃO ELEITO) 1T": 0.0, "SIMONE TEBET (MDB) (NÃO ELEITO) 1T": 91.0, "SOFIA MANZANO (PCB) (NÃO ELEITO) 1T": 1.0, "SORAYA THRONICKE (UNIÃO) (NÃO ELEITO) 1T": 2.0, "VERA (PSTU) (NÃO ELEITO) 1T": 1.0, "Total_Votos_Validos 1T": 1946.0, "Votos_Brancos 1T": 27.0, "Votos_Nulos 1T": 37.0, "Abstenções 1T": 553.0, "Eleitores_Aptos 1T": 2563.0, "JAIR BOLSONARO (PL) (NÃO ELEITO) 2T": 863.0, "LULA (PT) (ELEITO) 2T": 1062.0, "Total_Votos_Validos 2T": 1925.0, "Votos_Brancos 2T": 27.0, "Votos_Nulos 2T": 52.0, "Abstenções 2T": 559.0, "Eleitores_Aptos 2T": 2563.0, "mun_code_y": "3515301", "mun_code": "3515301" }, "geometry": { "type": "Polygon", "coordinates": [ [ [ 5245481.807236162945628, 7503461.122901158407331 ], [ 5245475.5558778680861, 7503434.921784350648522 ], [ 5245469.304535308852792, 7503408.720666222274303 ], [ 5245391.87210376933217, 7503307.557647856883705 ], [ 5245363.915703492239118, 7503244.030566787347198 ], [ 5245279.499525452032685, 7503160.257704662159085 ], [ 5245239.526358602568507, 7503030.200129827484488 ], [ 5245210.17525059171021, 7502897.257529438473284 ], [ 5245163.111727233044803, 7502812.743945766240358 ], [ 5245049.518633750267327, 7502737.582077292725444 ], [ 5245027.842421980574727, 7502588.457025766372681 ], [ 5244960.658379624597728, 7502432.232917227782309 ], [ 5244831.480545246042311, 7502378.753655154258013 ], [ 5244776.367163673043251, 7502291.729707550257444 ], [ 5244604.832497779279947, 7502255.116561931557953 ], [ 5244463.221263133920729, 7502113.741900995373726 ], [ 5244307.489254760555923, 7502066.134397117421031 ], [ 5244286.780068271793425, 7501965.062201646156609 ], [ 5244156.206839384511113, 7501842.174029342830181 ], [ 5244051.584438073448837, 7501814.898585229180753 ], [ 5243387.405794898979366, 7502203.114475164562464 ], [ 5242990.097454222850502, 7501904.316970009356737 ], [ 5242842.405728980898857, 7501828.71593289449811 ], [ 5242709.200523867271841, 7501797.51684857904911 ], [ 5242416.799603047780693, 7501753.414060067385435 ], [ 5242303.60006944462657, 7501707.72034627199173 ], [ 5242237.997882719151676, 7501644.616960674524307 ], [ 5242185.197223500348628, 7501574.018679372034967 ], [ 5242169.397150252014399, 7501472.213803580962121 ], [ 5242226.199501817114651, 7501229.216175330802798 ], [ 5242234.199223120696843, 7501137.121480360627174 ], [ 5242225.101278197951615, 7501018.120543573051691 ], [ 5242196.399433857761323, 7500940.215158761478961 ], [ 5242102.59742022678256, 7500839.917932013049722 ], [ 5242061.196591045707464, 7500813.71632509957999 ], [ 5241993.196156631223857, 7500814.821869451552629 ], [ 5241851.201693901792169, 7500851.816864284686744 ], [ 5241778.756446901708841, 7500890.718615783378482 ], [ 5241706.300543350167572, 7500929.620153049007058 ], [ 5241556.505843603983521, 7501076.31425301078707 ], [ 5241515.000658733770251, 7501104.265151685103774 ], [ 5241473.505601523444057, 7501132.215762043371797 ], [ 5241356.104322937317193, 7501257.816464751958847 ], [ 5241154.897346074692905, 7501417.815833864733577 ], [ 5241049.601698854938149, 7501487.320274941623211 ], [ 5240833.096687885001302, 7501543.916876519098878 ], [ 5240755.597648562863469, 7501619.721533167175949 ], [ 5240722.59829299710691, 7501637.317982725799084 ], [ 5240667.603300728835166, 7501635.619922082871199 ], [ 5240656.50363252311945, 7501611.920946598052979 ], [ 5240638.2028276193887, 7501599.318164646625519 ], [ 5240600.298890735954046, 7501594.714227231219411 ], [ 5240593.801599380560219, 7501543.723058827221394 ], [ 5240571.396489766426384, 7501503.521170212887228 ], [ 5240578.197653905488551, 7501434.721687434241176 ], [ 5240565.699140805751085, 7501362.423132113181055 ], [ 5240532.602405565790832, 7501318.620505907572806 ], [ 5240525.802812452428043, 7501293.623876542784274 ], [ 5240532.501377758570015, 7501237.316643018275499 ], [ 5240525.703121895901859, 7501224.223217986524105 ], [ 5240224.898403943516314, 7501217.717348922044039 ], [ 5240056.198028232902288, 7501241.114927379414439 ], [ 5239879.99506260920316, 7501334.716894559562206 ], [ 5239621.003164578229189, 7501450.323144089430571 ], [ 5239568.997105559334159, 7501460.821307324804366 ], [ 5239475.304364242590964, 7501452.319442008621991 ], [ 5239300.803705449216068, 7501454.220256618224084 ], [ 5239196.204263135790825, 7501429.616912002675235 ], [ 5238991.004006245173514, 7501485.922184105962515 ], [ 5238754.702881068922579, 7501526.01733760163188 ], [ 5238527.001038138754666, 7501629.114520920440555 ], [ 5238416.001585181802511, 7501697.11435579136014 ], [ 5238294.899083416908979, 7501751.117218259721994 ], [ 5238258.095715933479369, 7501776.314543079584837 ], [ 5238189.403918290510774, 7501871.717839518561959 ], [ 5237897.602655460126698, 7502183.524971288628876 ], [ 5237707.696979891508818, 7502419.515683555975556 ], [ 5237665.902423509396613, 7502539.823904956690967 ], [ 5237708.802764187566936, 7502645.222834922373295 ], [ 5237774.499435612931848, 7502694.821371691301465 ], [ 5238183.697341515682638, 7502847.1221032012254 ], [ 5238294.600761246867478, 7502923.525401106104255 ], [ 5238347.396954190917313, 7502997.416093118488789 ], [ 5238376.594779339618981, 7503091.821505854837596 ], [ 5238368.495454133488238, 7503208.317462025210261 ], [ 5238339.695079922676086, 7503308.022539641708136 ], [ 5238256.600504068657756, 7503419.120374402031302 ], [ 5238155.894770048558712, 7503503.115899860858917 ], [ 5238003.402042603120208, 7503557.22439394518733 ], [ 5237732.798560928553343, 7503595.925123195163906 ], [ 5237710.197848890908062, 7503609.917710941284895 ], [ 5237580.904070815071464, 7503748.125023020431399 ], [ 5237502.294959569349885, 7503809.818975744768977 ], [ 5237450.096156321465969, 7503834.420349745079875 ], [ 5237397.897184120491147, 7503859.021531268954277 ], [ 5237336.504335908219218, 7503909.820152644068003 ], [ 5237274.400745389983058, 7503935.925915339961648 ], [ 5237088.79918095190078, 7503954.915605319663882 ], [ 5236958.703176397830248, 7504029.624875737354159 ], [ 5236816.603429038077593, 7504092.515236876904964 ], [ 5236603.901486068964005, 7504231.122267672792077 ], [ 5236475.101202628575265, 7504280.017492449842393 ], [ 5236362.399347157217562, 7504296.723635697737336 ], [ 5236247.904017397202551, 7504289.118865452706814 ], [ 5236110.302627462893724, 7504339.121407235041261 ], [ 5236041.599020885303617, 7504335.621547548100352 ], [ 5236017.417459903284907, 7504321.862416924908757 ], [ 5235985.701326015405357, 7504303.819098034873605 ], [ 5235921.999756487086415, 7504283.019441461190581 ], [ 5235812.099683520384133, 7504271.816648119129241 ], [ 5235644.499321927316487, 7504218.519181335344911 ], [ 5235485.49360070656985, 7504203.722465433180332 ], [ 5235143.798944914713502, 7504077.125654541887343 ], [ 5235082.599109821952879, 7504065.726862052455544 ], [ 5234934.396097569726408, 7504066.319436807185411 ], [ 5234793.400653537362814, 7504080.121770657598972 ], [ 5234516.500055230222642, 7504126.518458285368979 ], [ 5234240.600698865018785, 7504198.218384761363268 ], [ 5234105.800465067848563, 7504216.319596942514181 ], [ 5233965.688875765539706, 7504218.020709691569209 ], [ 5233943.503056603483856, 7504176.399908849038184 ], [ 5233897.157161148265004, 7504094.551438108086586 ], [ 5233863.391218356788158, 7504107.244946172460914 ], [ 5233829.937277285382152, 7504102.578386773355305 ], [ 5233831.839003324508667, 7504080.838779216632247 ], [ 5233833.740888861939311, 7504059.110250389203429 ], [ 5233860.526619745418429, 7504031.195866009220481 ], [ 5233895.59893646184355, 7504016.476526441983879 ], [ 5233871.771188326179981, 7503959.542421860620379 ], [ 5233853.973474669270217, 7503937.193789456039667 ], [ 5233825.525476273149252, 7503909.244265435263515 ], [ 5233783.916731043718755, 7503895.281569718383253 ], [ 5233774.341609889641404, 7503892.058132657781243 ], [ 5233773.863162839785218, 7503868.0384890306741 ], [ 5233790.581205563619733, 7503836.996908716857433 ], [ 5233760.401248297654092, 7503825.021398058161139 ], [ 5233731.380341783165932, 7503812.141603070311248 ], [ 5233724.359821010380983, 7503794.926388373598456 ], [ 5233730.545548224821687, 7503770.77214626967907 ], [ 5233726.127495006658137, 7503750.159346234053373 ], [ 5233705.951856744475663, 7503741.888309676200151 ], [ 5233668.297946870326996, 7503760.669478103518486 ], [ 5233635.370818791911006, 7503748.64685788564384 ], [ 5233571.943038496188819, 7503679.824426122009754 ], [ 5233539.301837793551385, 7503583.016045341268182 ], [ 5233543.876025621779263, 7503544.867003303021193 ], [ 5233588.308795816265047, 7503564.672120979987085 ], [ 5233644.217191868461668, 7503491.442179406993091 ], [ 5233648.502749348059297, 7503405.908583983778954 ], [ 5233674.466543124057353, 7503370.005331275053322 ], [ 5233689.999797190539539, 7503346.318458960391581 ], [ 5233693.844142268411815, 7503304.855656927451491 ], [ 5233687.003466752357781, 7503263.599699858576059 ], [ 5233669.318935813382268, 7503246.602086600847542 ], [ 5233626.292606287635863, 7503221.822003684937954 ], [ 5233605.054666400887072, 7503202.495618267916143 ], [ 5233592.938086291775107, 7503164.012916886247694 ], [ 5233620.494906149804592, 7503131.421334939077497 ], [ 5233602.055168314836919, 7503086.385275676846504 ], [ 5233560.840510251931846, 7503027.133031484670937 ], [ 5233509.511341818608344, 7502996.11755905020982 ], [ 5233450.029069536365569, 7502957.92245701700449 ], [ 5233436.881516519002616, 7502934.150765147060156 ], [ 5233476.406444102525711, 7502909.323718544095755 ], [ 5233487.403272515162826, 7502891.745940756052732 ], [ 5233471.699951969087124, 7502869.021631823852658 ], [ 5233467.044633699581027, 7502864.581799250096083 ], [ 5233423.989339226856828, 7502823.588003043085337 ], [ 5233382.202956600114703, 7502807.200175082311034 ], [ 5233336.567029065452516, 7502789.297001823782921 ], [ 5233312.379439001902938, 7502747.72818236798048 ], [ 5233293.305253418162465, 7502694.699939144775271 ], [ 5233284.38947016466409, 7502649.485726037994027 ], [ 5233262.845261259935796, 7502606.524645280092955 ], [ 5233226.393009996041656, 7502551.842982464469969 ], [ 5233214.722481558099389, 7502502.680878467857838 ], [ 5233241.333203822374344, 7502467.433390194550157 ], [ 5233234.059756447561085, 7502435.526480246335268 ], [ 5233246.624358930625021, 7502396.557972278445959 ], [ 5233245.617459520697594, 7502346.50248687248677 ], [ 5233206.875805094838142, 7502277.847311332821846 ], [ 5233173.035796726122499, 7502242.730885649099946 ], [ 5233172.805851183831692, 7502242.490561837330461 ], [ 5233148.347415521740913, 7502220.275756588205695 ], [ 5233123.097654266282916, 7502203.52552299387753 ], [ 5233116.29297991655767, 7502185.542174611240625 ], [ 5233101.293708423152566, 7502169.822135647758842 ], [ 5233067.966140677221119, 7502171.159167358651757 ], [ 5233061.357298035174608, 7502204.041496761143208 ], [ 5233038.389439954422414, 7502226.499624159187078 ], [ 5233007.521741149015725, 7502217.769527407363057 ], [ 5232990.212648945860565, 7502186.070233286358416 ], [ 5232991.567408262751997, 7502153.999109112657607 ], [ 5233005.396225776523352, 7502103.419353447854519 ], [ 5232955.003384202718735, 7502144.047614173963666 ], [ 5232931.297432323917747, 7502159.213413187302649 ], [ 5232919.060580123215914, 7502181.165023446083069 ], [ 5232911.897679096087813, 7502196.523164320737123 ], [ 5232923.698100073263049, 7502412.38617505505681 ], [ 5232877.026560633443296, 7502480.087514678016305 ], [ 5232792.315077687613666, 7502513.832273368723691 ], [ 5232679.320411219261587, 7502601.555483867414296 ], [ 5232580.311434233561158, 7502721.038846231997013 ], [ 5232536.463130082003772, 7502796.697658371180296 ], [ 5232519.401319056749344, 7502877.148532764986157 ], [ 5232429.836507366970181, 7502935.024415038526058 ], [ 5232353.111904775723815, 7502968.612289173528552 ], [ 5232317.008969401009381, 7503030.754459663294256 ], [ 5232265.745462452061474, 7503135.937136342749 ], [ 5232224.355010537430644, 7503200.851963413879275 ], [ 5232156.652677243575454, 7503284.993264618329704 ], [ 5231973.939900996163487, 7503355.422136016190052 ], [ 5231800.288847574032843, 7503479.084737071767449 ], [ 5231662.078159064054489, 7503572.986599449068308 ], [ 5231432.141827257350087, 7503684.415736591443419 ], [ 5231312.244329709559679, 7503760.262130959890783 ], [ 5231272.881900595501065, 7503859.853139383718371 ], [ 5231225.189091003499925, 7504209.287596635520458 ], [ 5231191.051165982149541, 7504303.435726111754775 ], [ 5231117.380233782343566, 7504422.415203061886132 ], [ 5231010.188829158432782, 7504599.481651274487376 ], [ 5230755.869994624517858, 7504958.399953160434961 ], [ 5230543.662731654942036, 7505154.924603762105107 ], [ 5230395.996472512371838, 7505310.106253746896982 ], [ 5230306.563051428645849, 7505391.337851093150675 ], [ 5230279.02644704375416, 7505399.241810195147991 ], [ 5230192.24332360830158, 7505404.652567192912102 ], [ 5230125.753787040710449, 7505407.653545251116157 ], [ 5230047.365873629227281, 7505407.56296666059643 ], [ 5229797.846774822100997, 7505357.489325974136591 ], [ 5229674.199897137470543, 7505346.292732089757919 ], [ 5229590.544603624381125, 7505349.636437634937465 ], [ 5229536.8609882555902, 7505351.047340276651084 ], [ 5229437.362647961825132, 7505362.727754670195282 ], [ 5229330.890193538740277, 7505393.827753539197147 ], [ 5228990.299815256148577, 7505651.121725874021649 ], [ 5228884.893909640610218, 7505687.023192774504423 ], [ 5228748.390390765853226, 7505700.424239204265177 ], [ 5228625.4985740352422, 7505688.919674810953438 ], [ 5228362.790231343358755, 7505579.219852777197957 ], [ 5228067.697726077400148, 7505375.820639694109559 ], [ 5227910.590915930457413, 7505292.828912576660514 ], [ 5227918.090430657379329, 7505496.229001644998789 ], [ 5228059.089752503670752, 7506038.823025282472372 ], [ 5228120.997049793601036, 7506179.024306216277182 ], [ 5228241.392725695855916, 7506327.223499277606606 ], [ 5228453.596317172981799, 7506526.521699924953282 ], [ 5228680.496754151768982, 7506772.819966070353985 ], [ 5228808.090302568860352, 7507003.825102936476469 ], [ 5228976.595634808763862, 7507253.326496538706124 ], [ 5229296.099818211048841, 7507816.729415209032595 ], [ 5229303.498312036506832, 7507886.525382710620761 ], [ 5229284.395649684593081, 7507924.921374276280403 ], [ 5229238.391783148050308, 7507970.023633829317987 ], [ 5229036.297331956215203, 7508111.923599535599351 ], [ 5228980.095550389960408, 7508206.226083606481552 ], [ 5228956.993578732013702, 7508309.322968973778188 ], [ 5228936.797834957949817, 7508549.129788411781192 ], [ 5228942.499045982956886, 7509055.319900503382087 ], [ 5228960.600768687203526, 7509158.524428701028228 ], [ 5229003.900619199499488, 7509280.825636764988303 ], [ 5229041.897426620125771, 7509362.024518507532775 ], [ 5229102.997205963358283, 7509439.721395447850227 ], [ 5229177.095351161435246, 7509509.821887939237058 ], [ 5229638.998296294361353, 7509837.924025972373784 ], [ 5229739.296478677541018, 7509872.423778129741549 ], [ 5229921.892574481666088, 7509910.925968612544239 ], [ 5229980.992720421403646, 7509932.119706654921174 ], [ 5230202.49243323598057, 7510049.929496211931109 ], [ 5230290.296084742061794, 7510076.622313281521201 ], [ 5230470.293158513493836, 7510153.723291892558336 ], [ 5230691.600505671463907, 7510274.721302102319896 ], [ 5230712.600811928510666, 7510306.722686752676964 ], [ 5230726.700486071407795, 7510374.12420898117125 ], [ 5230713.992729573510587, 7510545.523535020649433 ], [ 5230680.698710511438549, 7510737.422644999809563 ], [ 5230667.498717526905239, 7511197.320992043241858 ], [ 5230680.100639213807881, 7511236.828893860802054 ], [ 5230696.200570953078568, 7511265.922596622258425 ], [ 5230774.299552233889699, 7511407.725409695878625 ], [ 5230833.997048902325332, 7511555.721312164328992 ], [ 5230851.900693415664136, 7511703.921625463292003 ], [ 5230853.89464854914695, 7511833.719808349385858 ], [ 5230878.101085661910474, 7512000.720913466066122 ], [ 5230907.396121427416801, 7512097.129763035103679 ], [ 5230957.701665145345032, 7512215.022713868878782 ], [ 5231025.103089103475213, 7512310.82758819591254 ], [ 5231169.997731287963688, 7512410.524690983816981 ], [ 5231243.19969485886395, 7512446.120831085368991 ], [ 5231384.500870858319104, 7512492.021470630541444 ], [ 5231433.396431949920952, 7512499.1231823656708 ], [ 5231526.00326476059854, 7512490.219903580844402 ], [ 5231557.901290336623788, 7512499.127823436632752 ], [ 5231653.998204950243235, 7512545.128283124417067 ], [ 5231728.001043941825628, 7512601.722240757197142 ], [ 5231771.898316225968301, 7512652.927829755470157 ], [ 5231846.501861432567239, 7512778.222330776974559 ], [ 5231909.395250100642443, 7512920.127583650872111 ], [ 5231923.502791651524603, 7512978.729144791141152 ], [ 5231906.296783489175141, 7513034.520976042374969 ], [ 5231828.503498404286802, 7513193.124464131891727 ], [ 5231816.600607278756797, 7513271.023132922127843 ], [ 5231830.100901059806347, 7513400.926021799445152 ], [ 5231842.203435214236379, 7513434.32345823943615 ], [ 5231959.69649619050324, 7513611.824754415079951 ], [ 5232055.704000051133335, 7513793.128240400925279 ], [ 5232137.49984931666404, 7514049.228707052767277 ], [ 5232209.398944010026753, 7514166.628004288300872 ], [ 5232439.297621874138713, 7514405.926019920036197 ], [ 5232482.397503785789013, 7514432.42875291313976 ], [ 5232563.203716401942074, 7514453.321070222184062 ], [ 5232614.599680485203862, 7514446.229974850080907 ], [ 5232832.697873450815678, 7514363.028237307444215 ], [ 5232938.198420717380941, 7514339.427483043633401 ], [ 5233044.702316184528172, 7514340.723915593698621 ], [ 5233110.295638544484973, 7514354.229448327794671 ], [ 5233211.203789195045829, 7514396.026538605801761 ], [ 5233445.699560385197401, 7514530.923834993503988 ], [ 5233518.40533022582531, 7514557.220101652666926 ], [ 5233686.399726689793169, 7514582.329213360324502 ], [ 5233711.499012180604041, 7514596.023980107158422 ], [ 5233730.401305446401238, 7514630.82470097206533 ], [ 5233718.499688905663788, 7514672.929474182426929 ], [ 5233664.201603308320045, 7514759.728218696080148 ], [ 5233635.595768104307353, 7514836.828853851184249 ], [ 5233609.397932762280107, 7514951.329210011288524 ], [ 5233602.10510126221925, 7515286.027153158560395 ], [ 5233615.000777034088969, 7515394.029220381751657 ], [ 5233642.598739556968212, 7515489.828895148821175 ], [ 5233685.900999218225479, 7515570.230329537764192 ], [ 5233777.405495310202241, 7515698.930764647200704 ], [ 5233800.402674162760377, 7515742.32487822137773 ], [ 5233820.205850112251937, 7515817.529380349442363 ], [ 5233814.796850109472871, 7515986.029994716867805 ], [ 5233795.796954444609582, 7516076.228722957894206 ], [ 5233686.402388216927648, 7516404.125856589525938 ], [ 5233675.902174837887287, 7516483.224213035777211 ], [ 5233696.797392301261425, 7516924.927763059735298 ], [ 5233803.502910957671702, 7517168.522338477894664 ], [ 5233819.102642988786101, 7517242.128117989748716 ], [ 5233811.405516916885972, 7517303.031216198578477 ], [ 5233696.7972556008026, 7517573.5218166988343 ], [ 5233676.49920938629657, 7517648.922487258911133 ], [ 5233649.501294333487749, 7517799.529297344386578 ], [ 5233650.397079796530306, 7517881.325525216758251 ], [ 5233676.901737182401121, 7517954.323332291096449 ], [ 5233702.704146702773869, 7517988.321916814893484 ], [ 5233808.097255735658109, 7518082.724152335897088 ], [ 5233947.700465456582606, 7518387.028888856992126 ], [ 5233972.400152170099318, 7518422.927820700220764 ], [ 5234020.204675138927996, 7518461.425100779160857 ], [ 5234081.198194024153054, 7518481.425716213881969 ], [ 5234164.897108725272119, 7518484.425629907287657 ], [ 5234270.506214054301381, 7518465.527001263573766 ], [ 5234328.406339501030743, 7518475.023109719157219 ], [ 5234349.902584514580667, 7518506.027330909855664 ], [ 5234372.906427302397788, 7518593.728281375020742 ], [ 5234388.606797953136265, 7518698.229926910251379 ], [ 5234394.201753553003073, 7518824.229320341721177 ], [ 5234379.805416338145733, 7518944.524909300729632 ], [ 5234338.504780433140695, 7519075.92241788841784 ], [ 5234276.698061005212367, 7519176.522019765339792 ], [ 5233880.701068443246186, 7519595.32915367372334 ], [ 5233809.905148381367326, 7519689.523575119674206 ], [ 5233798.403199832886457, 7519808.222693731077015 ], [ 5233812.500221159309149, 7519847.030581906437874 ], [ 5233859.204838364385068, 7519903.831147876568139 ], [ 5233925.300038719549775, 7519943.526696283370256 ], [ 5234033.297757824882865, 7519970.231722667813301 ], [ 5234184.998656420968473, 7519970.231414415873587 ], [ 5234459.302342774346471, 7519949.422232287935913 ], [ 5234632.00316275190562, 7519980.82827583514154 ], [ 5234827.698590856045485, 7519992.422977963462472 ], [ 5234851.507712479680777, 7520033.831296868622303 ], [ 5234942.107155253179371, 7520402.830123476684093 ], [ 5234963.301863525062799, 7520458.529978783801198 ], [ 5234998.902925921604037, 7520511.428967870771885 ], [ 5235062.708028214983642, 7520568.831406209617853 ], [ 5235105.702886396087706, 7520591.130268996581435 ], [ 5235195.999913603067398, 7520615.525512109510601 ], [ 5235296.20492104254663, 7520662.322414195165038 ], [ 5235478.002727372571826, 7520863.331333020702004 ], [ 5235536.703786035068333, 7520914.027301918715239 ], [ 5235627.999407450668514, 7520953.122579699382186 ], [ 5235686.904899544082582, 7520954.930307513102889 ], [ 5235914.001367644406855, 7520776.32521615922451 ], [ 5236016.000356539152563, 7520716.93150987662375 ], [ 5236126.80536154191941, 7520674.525188925676048 ], [ 5236178.703259903006256, 7520634.22463467810303 ], [ 5236226.208505760878325, 7520551.722290299832821 ], [ 5236291.905962198041379, 7520366.329299842938781 ], [ 5236373.603465453721583, 7520242.221583856269717 ], [ 5236483.708009858615696, 7520120.527556573972106 ], [ 5236943.705483997240663, 7519732.021205875091255 ], [ 5237077.503370092250407, 7519589.223807526752353 ], [ 5237150.404390756972134, 7519481.825068010017276 ], [ 5237196.203711019828916, 7519369.920624189078808 ], [ 5237200.701275986619294, 7519260.222835120745003 ], [ 5237155.803984659723938, 7519073.427045248448849 ], [ 5237109.104413690976799, 7518947.723808733746409 ], [ 5237097.402563580311835, 7518876.221038768067956 ], [ 5237103.100883077830076, 7518824.721644264645875 ], [ 5237138.108151215128601, 7518758.620572568848729 ], [ 5237254.101598917506635, 7518625.923573560081422 ], [ 5237310.499151042662561, 7518512.426124563440681 ], [ 5237372.998829645104706, 7518138.327033018693328 ], [ 5237434.598720446228981, 7517982.923159003257751 ], [ 5237539.207894077524543, 7517895.326751185581088 ], [ 5237685.705098059028387, 7517804.525662617757916 ], [ 5237854.108148414641619, 7517668.62325662560761 ], [ 5237961.299366364255548, 7517569.125330105423927 ], [ 5238120.702495498582721, 7517386.023875304497778 ], [ 5238290.600120751187205, 7517136.528445267118514 ], [ 5238390.00296676158905, 7516888.926833529956639 ], [ 5238443.905698241665959, 7516727.52924127317965 ], [ 5238582.503822491504252, 7516510.928900588303804 ], [ 5238685.205833139829338, 7516272.926408478990197 ], [ 5238741.598955057561398, 7516213.826628254726529 ], [ 5238822.004126116633415, 7516162.922476831823587 ], [ 5238899.306775132194161, 7516149.126526757143438 ], [ 5239056.703335591591895, 7516152.920955367386341 ], [ 5239183.905866590328515, 7516131.624294232577085 ], [ 5239299.20374155510217, 7516004.426531059667468 ], [ 5239329.90159747749567, 7515982.927060311660171 ], [ 5239372.108596371486783, 7515973.31838608533144 ], [ 5239576.900084176100791, 7515990.126830721274018 ], [ 5239617.801899453625083, 7515985.325481632724404 ], [ 5239726.904360001906753, 7515956.823903042823076 ], [ 5240038.506558055989444, 7515850.622800780460238 ], [ 5240288.109032491222024, 7515741.3229861240834 ], [ 5240368.903918962925673, 7515683.521453652530909 ], [ 5240463.609518106095493, 7515563.017672015354037 ], [ 5240590.100050968118012, 7515349.620117401704192 ], [ 5240808.005870993249118, 7515078.727774055674672 ], [ 5240848.00230373442173, 7514967.818093605339527 ], [ 5240887.005126344040036, 7514896.22375906445086 ], [ 5240933.204054608009756, 7514845.120175119489431 ], [ 5240982.609451622702181, 7514829.320921030826867 ], [ 5241007.908744092099369, 7514831.619297829456627 ], [ 5241037.108066229149699, 7514841.725647991523147 ], [ 5241074.30592333804816, 7514880.821963609196246 ], [ 5241088.701349937357008, 7514925.228232791647315 ], [ 5241075.404279767535627, 7515050.828073200769722 ], [ 5241085.409178697504103, 7515116.027958113700151 ], [ 5241118.701138176955283, 7515189.121137929148972 ], [ 5241169.805580875836313, 7515237.919466987252235 ], [ 5241371.407786637544632, 7515263.220546379685402 ], [ 5241645.909490796737373, 7515257.521349400281906 ], [ 5241757.81031920388341, 7515218.91953994333744 ], [ 5241838.707209059968591, 7515173.421027556061745 ], [ 5241887.301732568070292, 7515172.227903436869383 ], [ 5241918.110703147947788, 7515194.321478806436062 ], [ 5241940.001642963849008, 7515227.42710143327713 ], [ 5241971.407325095497072, 7515377.021111870184541 ], [ 5241936.80083379521966, 7515609.519045945256948 ], [ 5241936.407982902601361, 7515683.72580735757947 ], [ 5242037.608766280114651, 7515926.121805235743523 ], [ 5242100.710642757825553, 7516040.518334513530135 ], [ 5242244.404694397002459, 7516223.020093772560358 ], [ 5242481.403330995701253, 7516491.524443194270134 ], [ 5242518.502778206951916, 7516521.919405767694116 ], [ 5242748.005222029052675, 7516625.223614697344601 ], [ 5242919.702615034766495, 7516749.127855389378965 ], [ 5242947.309689132496715, 7516778.817716373130679 ], [ 5242977.308587736450136, 7516849.322077120654285 ], [ 5243009.106887554749846, 7517004.827306540682912 ], [ 5243061.108891174197197, 7517125.723919648677111 ], [ 5243066.811636906117201, 7517182.623334662988782 ], [ 5243033.309544071555138, 7517326.919352296739817 ], [ 5243039.905215096659958, 7517424.922841476276517 ], [ 5243057.010192791931331, 7517481.421359905973077 ], [ 5243098.704843604005873, 7517521.618045939132571 ], [ 5243176.903609799221158, 7517556.718730799853802 ], [ 5243237.499597513116896, 7517574.407386944629252 ], [ 5243263.90840479452163, 7517582.126927057281137 ], [ 5243296.60318139474839, 7517606.527289673686028 ], [ 5243348.304158641956747, 7517696.927440477535129 ], [ 5243385.206258924677968, 7517725.628177261911333 ], [ 5243424.110375698655844, 7517727.121626075357199 ], [ 5243614.305935643613338, 7517668.522749165073037 ], [ 5243664.210444074124098, 7517674.818593467585742 ], [ 5243808.206678768619895, 7517722.921730533242226 ], [ 5243886.312578369863331, 7517712.125415001995862 ], [ 5243927.808695296756923, 7517687.320824248716235 ], [ 5244051.910790523514152, 7517574.121448641642928 ], [ 5244189.103820913471282, 7517411.726664030924439 ], [ 5244291.11270688008517, 7517327.024994620122015 ], [ 5244507.61130026448518, 7517254.322005006484687 ], [ 5244547.11166206933558, 7517230.422633572481573 ], [ 5244724.603985445573926, 7517009.319825580343604 ], [ 5244831.511058604344726, 7516855.222098457626998 ], [ 5244833.592203846201301, 7516891.71935488563031 ], [ 5244872.807226782664657, 7516964.324925178661942 ], [ 5244872.298809268511832, 7516983.584494570270181 ], [ 5244871.963451502844691, 7517004.670049891807139 ], [ 5244896.213494186289608, 7517022.36262293625623 ], [ 5244915.703872175887227, 7517032.726988721638918 ], [ 5244952.611359513364732, 7517059.717265187762678 ], [ 5244958.803597227670252, 7517104.827541632577777 ], [ 5244934.907401753589511, 7517141.991288775578141 ], [ 5244983.705851571634412, 7517218.922467975877225 ], [ 5245007.29471395816654, 7517261.795349426567554 ], [ 5245053.703133396804333, 7517285.321019023656845 ], [ 5245122.509147277101874, 7517372.020479576662183 ], [ 5245116.109028095379472, 7517426.219097260385752 ], [ 5245127.30823611561209, 7517466.927530670538545 ], [ 5245139.732461433857679, 7517497.220486757345498 ], [ 5245162.838051020167768, 7517561.524723693728447 ], [ 5245209.673638165928423, 7517608.029860891401768 ], [ 5245283.453470399603248, 7517647.224853521212935 ], [ 5245356.169620770961046, 7517670.620645631104708 ], [ 5245390.395628429017961, 7517688.763903003185987 ], [ 5245406.787207924760878, 7517718.561512738466263 ], [ 5245432.933932737447321, 7517746.663726639002562 ], [ 5245458.038458216004074, 7517722.059503405354917 ], [ 5245487.012279176153243, 7517722.619255296885967 ], [ 5245489.537445767782629, 7517754.565391219221056 ], [ 5245502.811340663582087, 7517792.924340792000294 ], [ 5245518.809000371955335, 7517827.72665754146874 ], [ 5245508.20952916238457, 7517857.320917958393693 ], [ 5245521.310270451009274, 7517905.524524601176381 ], [ 5245509.81016196962446, 7517961.422509603202343 ], [ 5245512.612207139842212, 7518004.325566029176116 ], [ 5245549.908323523588479, 7518041.327833725139499 ], [ 5245546.274622890166938, 7518071.243761247955263 ], [ 5245562.146006393246353, 7518112.343347 ], [ 5245578.12176825106144, 7518158.71688768453896 ], [ 5245616.672133071348071, 7518204.643307374790311 ], [ 5245663.290699002332985, 7518165.300039818510413 ], [ 5245678.560872882604599, 7518176.2959173778072 ], [ 5245693.009446262381971, 7518183.536528743803501 ], [ 5245703.991314843297005, 7518205.905412390828133 ], [ 5245708.372721062973142, 7518236.702658008784056 ], [ 5245723.30854924954474, 7518268.78415016271174 ], [ 5245750.907739254646003, 7518283.219420745037496 ], [ 5245772.956977896392345, 7518305.44568838737905 ], [ 5245821.301088989712298, 7518352.679077303037047 ], [ 5245830.088153569027781, 7518415.769404820166528 ], [ 5245803.512657232582569, 7518493.020800746977329 ], [ 5245818.107537818141282, 7518521.117686896584928 ], [ 5245801.413621036335826, 7518568.320504855364561 ], [ 5245787.462319853715599, 7518617.696368487551808 ], [ 5245834.005247221328318, 7518631.221009595319629 ], [ 5245881.107941037043929, 7518629.41956496424973 ], [ 5245921.21261022798717, 7518646.027675529941916 ], [ 5245950.70818137563765, 7518644.317473534494638 ], [ 5245959.604953809641302, 7518637.825326068326831 ], [ 5245971.308042077347636, 7518629.082986371591687 ], [ 5245975.596170382574201, 7518617.698797995224595 ], [ 5245984.218807511031628, 7518597.201746758073568 ], [ 5245995.109774732962251, 7518581.42334015853703 ], [ 5246015.813999382779002, 7518569.523182547651231 ], [ 5246049.436358214356005, 7518546.943853390403092 ], [ 5246074.936777239665389, 7518542.670198110863566 ], [ 5246109.742283079773188, 7518551.758983558043838 ], [ 5246139.704379653558135, 7518522.421452911570668 ], [ 5246208.808048506267369, 7518518.418001680634916 ], [ 5246235.706517829559743, 7518530.824331689625978 ], [ 5246238.912003880366683, 7518551.720718295313418 ], [ 5246216.611054637469351, 7518584.926509415730834 ], [ 5246239.713785607367754, 7518598.224499735049903 ], [ 5246227.008288809098303, 7518620.970117827877402 ], [ 5246237.910106872208416, 7518654.423287181183696 ], [ 5246261.608548037707806, 7518678.617727813310921 ], [ 5246253.814337150193751, 7518714.917626032605767 ], [ 5246267.414551352150738, 7518741.921697582118213 ], [ 5246261.808003233745694, 7518797.926100726239383 ], [ 5246296.711485547944903, 7518891.42327672149986 ], [ 5246320.488625884056091, 7518930.889185245148838 ], [ 5246352.025871445424855, 7518964.900460256263614 ], [ 5246383.482684541493654, 7518995.144647238776088 ], [ 5246424.038154204376042, 7519028.978956055827439 ], [ 5246463.864543187431991, 7519063.578453587368131 ], [ 5246532.682559940963984, 7519080.281973943114281 ], [ 5246573.780882318504155, 7519103.55599525757134 ], [ 5246634.142134734429419, 7519036.083122361451387 ], [ 5246680.484442231245339, 7519020.093774158507586 ], [ 5246703.456129757687449, 7519039.96567665413022 ], [ 5246801.443526980467141, 7519085.462912905961275 ], [ 5246898.69530101120472, 7519056.402692096307874 ], [ 5246936.313946315087378, 7519070.022328828461468 ], [ 5246934.65572044160217, 7519124.224115764722228 ], [ 5247005.402881369926035, 7519124.314168820157647 ], [ 5247026.06227099429816, 7519141.21897835098207 ], [ 5247035.626111252233386, 7519168.142901241779327 ], [ 5247045.410523192025721, 7519196.626050555147231 ], [ 5247042.649047416634858, 7519218.45997878164053 ], [ 5247035.348916426301003, 7519267.564867360517383 ], [ 5246958.406377571634948, 7519245.817166872322559 ], [ 5246918.310154459439218, 7519257.019391395151615 ], [ 5246904.012307430617511, 7519289.023412931710482 ], [ 5246900.227027494460344, 7519322.222949335351586 ], [ 5246879.210947905667126, 7519340.424542512744665 ], [ 5246847.526931058615446, 7519358.67434501927346 ], [ 5246865.370586297474802, 7519423.083075101487339 ], [ 5246911.105525003746152, 7519402.525421938858926 ], [ 5246936.406558495946229, 7519393.421334841288626 ], [ 5246946.011318079195917, 7519370.624840242788196 ], [ 5246966.114432109519839, 7519363.620802816003561 ], [ 5247028.815145193599164, 7519375.02235718537122 ], [ 5247084.206155815161765, 7519354.919603882357478 ], [ 5247172.107137170620263, 7519394.125346996821463 ], [ 5247236.112541305832565, 7519385.322474257089198 ], [ 5247364.406772810034454, 7519408.021568741649389 ], [ 5247388.05357114225626, 7519444.274111952632666 ], [ 5247422.664471857249737, 7519443.587833773344755 ], [ 5247434.727625653147697, 7519482.50817705411464 ], [ 5247514.506790516898036, 7519537.923966659232974 ], [ 5247597.21329431142658, 7519598.623681721277535 ], [ 5247641.012461368925869, 7519659.225143125280738 ], [ 5247760.358343021012843, 7519811.141573688015342 ], [ 5247887.520469693467021, 7519847.764591487124562 ], [ 5247947.02693787869066, 7519926.412532604299486 ], [ 5247983.59178077057004, 7519985.932117964141071 ], [ 5248012.915844751521945, 7519968.216567920520902 ], [ 5248068.104976639151573, 7519997.800570589490235 ], [ 5248147.375661128200591, 7520048.178811786696315 ], [ 5248246.010235981084406, 7520003.627035334706306 ], [ 5248326.111601560376585, 7519969.624048749916255 ], [ 5248333.030421683564782, 7520036.944646934047341 ], [ 5248393.741345371119678, 7520062.094302449375391 ], [ 5248596.750652868300676, 7520053.52671697922051 ], [ 5248868.512693832628429, 7519946.316798650659621 ], [ 5248911.507478399202228, 7519928.324229080229998 ], [ 5248998.219347817823291, 7519882.839617747813463 ], [ 5249038.915996626019478, 7519805.221208060160279 ], [ 5249173.0856923032552, 7519783.699171679094434 ], [ 5249222.233913721516728, 7519795.52096894569695 ], [ 5249278.203053955920041, 7519809.471645690500736 ], [ 5249338.715806011110544, 7519824.823052546940744 ], [ 5249378.247326651588082, 7519882.784784950315952 ], [ 5249470.612260228954256, 7519862.920051978901029 ], [ 5249600.112008574418724, 7519882.622732735238969 ], [ 5249630.614527342841029, 7519906.824991811066866 ], [ 5249639.169999896548688, 7520022.931129362434149 ], [ 5249706.509840065613389, 7520001.118870599195361 ], [ 5249824.531100652180612, 7520072.698648372665048 ], [ 5249929.815442373044789, 7519977.819838847965002 ], [ 5249968.51030844822526, 7519974.224680755287409 ], [ 5250100.128529985435307, 7520008.940645115450025 ], [ 5250108.009502168744802, 7520011.018953233957291 ], [ 5250105.711851206608117, 7519951.016369918361306 ], [ 5249710.4090357106179, 7510018.017622953280807 ], [ 5249444.010899427346885, 7509983.317125681787729 ], [ 5249202.409291287884116, 7509862.82289609964937 ], [ 5249124.103950184769928, 7509853.515152240172029 ], [ 5249011.506368, 7509824.422717392444611 ], [ 5248895.412251897156239, 7509835.619498593732715 ], [ 5248755.712493969127536, 7509806.220365507528186 ], [ 5248629.805444906465709, 7509824.123946601524949 ], [ 5248530.811986286193132, 7509792.31483671721071 ], [ 5248421.406952082179487, 7509787.517403798177838 ], [ 5248388.810991534031928, 7509770.120692955330014 ], [ 5248333.904864893294871, 7509711.320575086399913 ], [ 5248289.503697180189192, 7509690.024087626487017 ], [ 5248158.005706393159926, 7509702.616265179589391 ], [ 5248091.102651242166758, 7509674.621372597292066 ], [ 5248004.310695188120008, 7509614.914884455502033 ], [ 5247969.003618294373155, 7509573.520806709304452 ], [ 5247875.004065664485097, 7509529.524226786568761 ], [ 5247828.803307008929551, 7509490.322332402691245 ], [ 5247676.210355883464217, 7509273.721171215176582 ], [ 5247637.503100913017988, 7509169.216171042993665 ], [ 5247535.609993777237833, 7508980.217203937470913 ], [ 5247477.706016771495342, 7508810.018095411360264 ], [ 5247489.203752668574452, 7508736.515905221924186 ], [ 5247479.904086727648973, 7508675.218310818076134 ], [ 5247463.310117041692138, 7508632.6138851987198 ], [ 5247425.504070080816746, 7508577.016758676618338 ], [ 5247415.110207281075418, 7508434.117729775607586 ], [ 5247397.403695244342089, 7508374.118941240012646 ], [ 5247383.607844292186201, 7508353.215378135442734 ], [ 5247335.20221746340394, 7508331.515506925061345 ], [ 5247286.807013389654458, 7508309.815331095829606 ], [ 5247232.511238290928304, 7508257.719031795859337 ], [ 5247219.006711723282933, 7508159.414578265510499 ], [ 5247181.60879172757268, 7508119.515815370716155 ], [ 5247170.810833994299173, 7508052.622879903763533 ], [ 5247134.903454140760005, 7508000.419597908854485 ], [ 5247115.505149126052856, 7507866.321344064548612 ], [ 5247098.906043746508658, 7507814.317966656759381 ], [ 5247010.503308984450996, 7507757.913899983279407 ], [ 5246922.901271247304976, 7507719.318798169493675 ], [ 5246866.701865796931088, 7507676.019104151055217 ], [ 5246680.407414827495813, 7507387.521011984907091 ], [ 5246604.310300054959953, 7507202.316355580464005 ], [ 5246586.10705257486552, 7507122.618601066991687 ], [ 5246542.7055674334988, 7507002.515171654522419 ], [ 5246559.106372355483472, 7506911.223925603553653 ], [ 5246512.301981702446938, 7506820.823257314041257 ], [ 5246510.701708878390491, 7506736.31529320590198 ], [ 5246494.60652949847281, 7506697.614721581339836 ], [ 5246455.410911805927753, 7506659.516872304491699 ], [ 5246410.106522670947015, 7506554.118236159905791 ], [ 5246329.70411869045347, 7506439.616660982370377 ], [ 5246292.907616084441543, 7506373.272704171016812 ], [ 5246198.306182776577771, 7506202.716149657964706 ], [ 5245737.605675969272852, 7505694.813306204974651 ], [ 5245695.801015728153288, 7505601.316389783285558 ], [ 5245601.001851606182754, 7505471.214867246337235 ], [ 5245496.20651928242296, 7505369.01424812246114 ], [ 5245469.599490642547607, 7505326.413159940391779 ], [ 5245450.607434405013919, 7505256.813253554515541 ], [ 5245448.203742167912424, 7505168.716386925429106 ], [ 5245492.000945990905166, 7505066.8146888371557 ], [ 5245490.204349619336426, 7505041.916781714186072 ], [ 5245461.108643305487931, 7504980.014908165670931 ], [ 5245485.105306001380086, 7504839.116349402815104 ], [ 5245486.805258137173951, 7504585.323362059891224 ], [ 5245502.706322859972715, 7504519.322625512257218 ], [ 5245564.900440246798098, 7504368.115695146843791 ], [ 5245647.705404339358211, 7504216.623332470655441 ], [ 5245708.306546675972641, 7504074.717776024714112 ], [ 5245680.056572770699859, 7503992.32063068356365 ], [ 5245651.806846821680665, 7503909.923454231582582 ], [ 5245635.706505409441888, 7503705.813259468413889 ], [ 5245537.849675662815571, 7503568.490513872355223 ], [ 5245535.281960248015821, 7503564.88509042467922 ], [ 5245532.69332242757082, 7503561.257834087125957 ], [ 5245526.60056812595576, 7503552.721185563132167 ], [ 5245481.807236162945628, 7503461.122901158407331 ] ] ] } }
]
}
