{
"type": "FeatureCollection",
"name": "3515129",
"crs": { "type": "name", "properties": { "name": "urn:ogc:def:crs:EPSG::5880" } },
"features": [
{ "type": "Feature", "properties": { "lv_id": "LOC_049886", "id": 288934.0, "CD_SETOR": "351512905000002", "SITUACAO": "Urbana", "CD_SIT": "1", "CD_TIPO": "0", "AREA_KM2": 0.29201615829231597, "CD_REGIAO": "3", "NM_REGIAO": "Sudeste", "CD_UF": "35", "NM_UF": "São Paulo", "CD_MUN": "3515129", "NM_MUN": "Emilianópolis", "CD_DIST": "351512905", "NM_DIST": "Emilianópolis", "CD_SUBDIST": "35151290500", "NM_SUBDIST": null, "CD_BAIRRO": null, "NM_BAIRRO": null, "CD_NU": null, "NM_NU": null, "CD_FCU": null, "NM_FCU": null, "CD_AGLOM": null, "NM_AGLOM": null, "CD_RGINT": "3505", "NM_RGINT": "Presidente Prudente", "CD_RGI": "350018", "NM_RGI": "Presidente Prudente", "CD_CONCURB": "3541406", "NM_CONCURB": "Presidente Prudente/SP", "mun_code_x": "3515129", "index_right": 80898, "dist_m": 0.0, "local_id": 542570, "ano": 2022, "cod_localidade_ibge": 3515129, "NR_ZONA": "165", "nr_cep": 19350000.0, "nm_localidade": "EMILIANÓPOLIS", "nm_locvot": "EMEF PROFESSORA HILDA FIORESE DORNELAS", "ds_endereco": "RUA DOMINGOS SALVADOR FIORESE, 418, CENTRO, EMILIANÓPOLIS", "ds_bairro": "CENTRO", "pred_long": -51.484581, "pred_lat": -21.833155, "pred_dist": 0.0, "tse_long": -51.48433866, "tse_lat": -21.83325766, "long": -51.48433866, "lat": -21.83325766, "ID_UNICO": "LOC_049886", "SG_UF": "SP", "CD_MUNICIPIO": "61387", "NR_LOCAL_VOTACAO": "1031", "QT_SECOES_AGREGADAS": 0, "QT_ELEITORES_TRANSFERIDOS": 4, "CIRO GOMES (PDT) (NÃO ELEITO) 1T": 28.0, "CONSTITUINTE EYMAEL (DC) (NÃO ELEITO) 1T": 0.0, "FELIPE D AVILA (NOVO) (NÃO ELEITO) 1T": 4.0, "JAIR BOLSONARO (PL) (2º TURNO) 1T": 1022.0, "LULA (PT) (2º TURNO) 1T": 990.0, "LÉO PÉRICLES (UP) (NÃO ELEITO) 1T": 0.0, "PADRE KELMON (PTB) (NÃO ELEITO) 1T": 1.0, "SIMONE TEBET (MDB) (NÃO ELEITO) 1T": 41.0, "SOFIA MANZANO (PCB) (NÃO ELEITO) 1T": 1.0, "SORAYA THRONICKE (UNIÃO) (NÃO ELEITO) 1T": 2.0, "VERA (PSTU) (NÃO ELEITO) 1T": 0.0, "Total_Votos_Validos 1T": 2089.0, "Votos_Brancos 1T": 29.0, "Votos_Nulos 1T": 26.0, "Abstenções 1T": 581.0, "Eleitores_Aptos 1T": 2725.0, "JAIR BOLSONARO (PL) (NÃO ELEITO) 2T": 1109.0, "LULA (PT) (ELEITO) 2T": 1043.0, "Total_Votos_Validos 2T": 2152.0, "Votos_Brancos 2T": 28.0, "Votos_Nulos 2T": 42.0, "Abstenções 2T": 503.0, "Eleitores_Aptos 2T": 2725.0, "mun_code_y": "3515129", "mun_code": "3515129" }, "geometry": { "type": "Polygon", "coordinates": [ [ [ 5266521.843251949176192, 7578283.035806860774755 ], [ 5266413.546995936892927, 7578068.633440630510449 ], [ 5266342.23719410598278, 7577951.040171404369175 ], [ 5266112.045412671752274, 7577962.034486195072532 ], [ 5266005.54065749142319, 7578003.132767992094159 ], [ 5265913.138137725181878, 7578065.442015634849668 ], [ 5265754.639990177936852, 7578138.831609832122922 ], [ 5265650.993774752132595, 7578296.694304361008108 ], [ 5265478.318534324876964, 7578298.182720399461687 ], [ 5265429.601249548606575, 7578269.75665261503309 ], [ 5265333.745123706758022, 7578217.023206749930978 ], [ 5265250.88292889110744, 7578174.192118702456355 ], [ 5265136.01830683182925, 7578110.912515329197049 ], [ 5265058.446152405813336, 7578069.111785556189716 ], [ 5264938.521114929579198, 7578055.63814103230834 ], [ 5264863.713486494496465, 7578059.35675342194736 ], [ 5264823.706571399234235, 7578072.182570569217205 ], [ 5264780.717875913716853, 7578086.587545957416296 ], [ 5264752.507430682890117, 7578087.135096537880599 ], [ 5264745.679637750610709, 7578045.839085908606648 ], [ 5264698.942732974886894, 7578041.862542703747749 ], [ 5264638.755038916133344, 7578023.445752993226051 ], [ 5264604.489758212119341, 7578003.02325193490833 ], [ 5264569.694114902988076, 7577974.329793842509389 ], [ 5264521.796475567854941, 7577949.656159475445747 ], [ 5264518.32745086401701, 7577906.419942490756512 ], [ 5264495.568039331585169, 7577882.934987002052367 ], [ 5264444.953023887239397, 7577887.512620724737644 ], [ 5264418.77560278493911, 7577856.769038518890738 ], [ 5264381.680163096636534, 7577865.023071741685271 ], [ 5264316.818461252376437, 7577857.622803254052997 ], [ 5264267.65050851367414, 7577806.235149722546339 ], [ 5264140.489335155114532, 7577689.928581207059324 ], [ 5258789.534393362700939, 7578550.139719353988767 ], [ 5258778.635775006376207, 7578551.835584865882993 ], [ 5258768.202016395516694, 7578553.512791766785085 ], [ 5258766.861806790344417, 7578553.734111480414867 ], [ 5256505.638121564872563, 7578917.24065662547946 ], [ 5256433.115767220035195, 7579033.48829166777432 ], [ 5256307.803812688216567, 7579052.510658854618669 ], [ 5256280.568474083207548, 7579012.9501728489995 ], [ 5256212.559451162815094, 7579030.261100080795586 ], [ 5256128.247355435974896, 7579028.89307764545083 ], [ 5256030.056869393214583, 7579010.469323376193643 ], [ 5256016.239328184165061, 7578958.024236035533249 ], [ 5255985.027480123564601, 7578939.807211371138692 ], [ 5255949.640444620512426, 7578938.991543515585363 ], [ 5255895.915945135988295, 7578962.632422474212945 ], [ 5255824.505485684610903, 7578927.87197682633996 ], [ 5255778.316148469224572, 7578952.12268497608602 ], [ 5255733.030575297772884, 7579022.298671275377274 ], [ 5255663.424432090483606, 7579003.313165046274662 ], [ 5255538.263970375061035, 7579029.863555116578937 ], [ 5255409.845380451530218, 7579082.067440258339047 ], [ 5255336.246418255381286, 7579127.93699967674911 ], [ 5255276.412894368171692, 7579147.185020556673408 ], [ 5255213.590446709655225, 7579205.648734445683658 ], [ 5255127.85788203869015, 7579247.234338617883623 ], [ 5255051.994168216362596, 7579293.149815403856337 ], [ 5254984.338826687075198, 7579335.8964689578861 ], [ 5254894.936360035091639, 7579382.07252071518451 ], [ 5254751.55935270152986, 7579439.098695360124111 ], [ 5254711.484777893871069, 7579467.747731739655137 ], [ 5254683.256679664365947, 7579447.962047077715397 ], [ 5254635.980680684559047, 7579454.903527854010463 ], [ 5254590.489930451847613, 7579484.902433613315225 ], [ 5254532.319614429958165, 7579580.450218595564365 ], [ 5254480.490977927111089, 7579585.225260923616588 ], [ 5254407.362508241087198, 7579539.957071010023355 ], [ 5254354.317531960085034, 7579559.8131143450737 ], [ 5254314.592857418581843, 7579606.531975071877241 ], [ 5254242.619661453180015, 7579697.555595885962248 ], [ 5254188.794679120182991, 7579793.508881979621947 ], [ 5254139.12896538618952, 7579832.129144877195358 ], [ 5254090.470119499601424, 7579845.131222198717296 ], [ 5254060.745488355867565, 7579826.13309807702899 ], [ 5254006.479333274997771, 7579744.342281138524413 ], [ 5253965.839193334802985, 7579705.9678027741611 ], [ 5253809.834269562736154, 7579884.845148166641593 ], [ 5253749.633596889674664, 7579922.845267402939498 ], [ 5253599.731545004993677, 7579987.445165567100048 ], [ 5253451.330633216537535, 7580030.839927084743977 ], [ 5253418.737302787601948, 7580077.043469068594277 ], [ 5253401.329421707428992, 7580131.638690173625946 ], [ 5253366.136038234457374, 7580178.836636930704117 ], [ 5253247.035281398333609, 7580203.043304014019668 ], [ 5253192.431141060777009, 7580237.538351210765541 ], [ 5253023.133145032450557, 7580237.339422447606921 ], [ 5252856.430032886564732, 7580301.544957738369703 ], [ 5252706.931318502873182, 7580328.84611517097801 ], [ 5252635.433944351971149, 7580337.34080077521503 ], [ 5252369.629038345068693, 7580328.637077189981937 ], [ 5252296.837882779538631, 7580338.347706781700253 ], [ 5252148.631767323240638, 7580379.443383334204555 ], [ 5252007.335779506713152, 7580451.537850687280297 ], [ 5251906.032578624784946, 7580454.139690369367599 ], [ 5251817.433675426989794, 7580472.343998642638326 ], [ 5251657.433365008793771, 7580487.543489711359143 ], [ 5251602.637364094145596, 7580503.638045651838183 ], [ 5251525.732871182262897, 7580544.242596641182899 ], [ 5251328.735794393345714, 7580562.339852599427104 ], [ 5251138.835195836611092, 7580656.738751604221761 ], [ 5251076.936894016340375, 7580665.041420867666602 ], [ 5250809.332258386537433, 7580751.640650213696063 ], [ 5250921.633290389552712, 7580937.646145328879356 ], [ 5250964.698819940909743, 7580981.30933566391468 ], [ 5250971.202409671619534, 7580987.911867808550596 ], [ 5250976.045683890581131, 7580992.811665005981922 ], [ 5251000.536071546375751, 7581017.638796029612422 ], [ 5251035.937271188013256, 7581036.142813697457314 ], [ 5251107.628565425053239, 7581044.94190470315516 ], [ 5251227.727384088560939, 7581025.746003431268036 ], [ 5251469.735967990010977, 7580939.744070759043097 ], [ 5251512.430464720353484, 7580938.238083957694471 ], [ 5251611.230502124875784, 7580973.947825550101697 ], [ 5251769.32940760627389, 7581112.742809917777777 ], [ 5251795.531681381165981, 7581180.343877464532852 ], [ 5251796.316597705706954, 7581192.057144587859511 ], [ 5251796.969761438667774, 7581201.977069826796651 ], [ 5251797.837199590168893, 7581214.985727984458208 ], [ 5251800.333516171202064, 7581252.539356164634228 ], [ 5251775.230743343010545, 7581391.738442044705153 ], [ 5251757.332223466597497, 7581441.938832552172244 ], [ 5251769.033767434768379, 7581489.543085432611406 ], [ 5251846.134581620804965, 7581546.042939158156514 ], [ 5252072.129220712929964, 7581662.847929669544101 ], [ 5252295.233252360485494, 7581799.944377783685923 ], [ 5252432.33609249163419, 7581920.447708154097199 ], [ 5252456.033291021361947, 7581934.147243430837989 ], [ 5252463.817552249878645, 7581938.645377157256007 ], [ 5252470.287124586291611, 7581942.38855248875916 ], [ 5252563.928851465694606, 7581996.539534458890557 ], [ 5252718.533553348854184, 7582126.438564401119947 ], [ 5252886.837168950587511, 7582336.2374530993402 ], [ 5252903.203192776069045, 7582372.628839310258627 ], [ 5252903.514042849652469, 7582373.322128064930439 ], [ 5252922.333997355774045, 7582415.138422378338873 ], [ 5252925.330534096807241, 7582489.246860018 ], [ 5252867.032515582628548, 7582787.938214761205018 ], [ 5252868.035916571505368, 7582848.545980680733919 ], [ 5252886.534832400269806, 7582907.246766774915159 ], [ 5252961.13566383253783, 7582995.146822297945619 ], [ 5252996.036943648010492, 7583060.547118736431003 ], [ 5253016.6365733044222, 7583164.244483068585396 ], [ 5253015.034224105067551, 7583536.745635757222772 ], [ 5253025.433692533522844, 7583622.539797239005566 ], [ 5253036.938527054153383, 7583671.144204335287213 ], [ 5253076.83723973762244, 7583759.44005970004946 ], [ 5253095.132967718876898, 7583853.443165048956871 ], [ 5253126.831897113472223, 7583906.547847707755864 ], [ 5253198.434574148617685, 7583988.942447111010551 ], [ 5253282.429788313806057, 7584162.042263682931662 ], [ 5253400.509461839683354, 7584372.880473154596984 ], [ 5253536.726384469307959, 7584489.224351620301604 ], [ 5253637.108299035578966, 7584698.148454613983631 ], [ 5253698.393006998114288, 7584831.022363496944308 ], [ 5253752.811835212633014, 7584920.338459802791476 ], [ 5253763.036345318891108, 7584981.896855818107724 ], [ 5253846.291395038366318, 7585083.831630352884531 ], [ 5254003.022616879083216, 7585171.539895689114928 ], [ 5254211.101033250801265, 7585268.402939807623625 ], [ 5254239.283186605200171, 7585288.002766605466604 ], [ 5254247.973167884163558, 7585294.048524013720453 ], [ 5254249.771906305104494, 7585295.305471705272794 ], [ 5254258.346580225974321, 7585301.253315842710435 ], [ 5254343.845353302545846, 7585360.724415227770805 ], [ 5254396.515985919162631, 7585438.019522916525602 ], [ 5254478.984895586036146, 7585576.505002581514418 ], [ 5254514.035790737718344, 7585626.639424024149776 ], [ 5254492.984084381721914, 7585716.315745618194342 ], [ 5254445.934918048791587, 7585786.645761180669069 ], [ 5254429.012145634740591, 7585851.241645611822605 ], [ 5254456.98642660677433, 7585896.634751076810062 ], [ 5254504.163296157494187, 7585961.992280209437013 ], [ 5254477.041394137777388, 7586095.831465821713209 ], [ 5254549.683320724405348, 7586309.816166891716421 ], [ 5254579.132188143208623, 7586553.239411380141973 ], [ 5254603.638422029092908, 7586609.349630522541702 ], [ 5254621.986218667589128, 7586661.257897827774286 ], [ 5254650.173523693345487, 7586717.952144437469542 ], [ 5254727.809615854173899, 7586763.128594942390919 ], [ 5254813.230929250828922, 7586821.723868823610246 ], [ 5254844.548869039863348, 7586883.998066055588424 ], [ 5254847.453485766425729, 7586994.660227976739407 ], [ 5254850.676619141362607, 7587044.305128643289208 ], [ 5254844.905912824906409, 7587115.58368694037199 ], [ 5254801.039375276304781, 7587283.139337232336402 ], [ 5254810.075369726866484, 7587356.143120302818716 ], [ 5254864.794550947844982, 7587558.044695946387947 ], [ 5254959.912979938089848, 7587708.70686718262732 ], [ 5254979.015410345979035, 7587742.980840351432562 ], [ 5254997.929569330066442, 7587806.262141685932875 ], [ 5255076.356484563089907, 7587853.30905806645751 ], [ 5255103.140003006905317, 7587908.041421501897275 ], [ 5255103.363084329292178, 7587965.381578164175153 ], [ 5255193.472220697440207, 7588032.733934871852398 ], [ 5255271.143061867915094, 7588079.614837681874633 ], [ 5255299.241569196805358, 7588131.787931896746159 ], [ 5255312.92333672940731, 7588148.470819260925055 ], [ 5255335.909458876587451, 7588159.696104739792645 ], [ 5255358.801305511966348, 7588156.614623262546957 ], [ 5255379.309968285262585, 7588146.799471506848931 ], [ 5255414.001608572900295, 7588179.826228694990277 ], [ 5255442.534455955028534, 7588224.843606758862734 ], [ 5255482.478905519470572, 7588266.807833817787468 ], [ 5255497.636054433882236, 7588301.343998061493039 ], [ 5255511.166264328174293, 7588416.502355501055717 ], [ 5255543.113790541887283, 7588521.690449269488454 ], [ 5255628.336701986379921, 7588569.745851885527372 ], [ 5255636.076401914469898, 7588658.463983000256121 ], [ 5255631.635855782777071, 7588720.31219270825386 ], [ 5255627.144086332060397, 7588769.914403434842825 ], [ 5255644.062395926564932, 7588807.813734224066138 ], [ 5255674.222129079513252, 7588839.992779858410358 ], [ 5255717.486575847491622, 7588849.507614156231284 ], [ 5255768.323763926513493, 7588851.342390296980739 ], [ 5255802.62864166777581, 7588864.602497104555368 ], [ 5255808.63365447986871, 7588892.734964346513152 ], [ 5255808.225712155923247, 7588920.227581556886435 ], [ 5255872.963379911147058, 7588998.811548667028546 ], [ 5255908.74457741342485, 7589058.364114977419376 ], [ 5255931.553140677511692, 7589099.7265440588817 ], [ 5255936.719346830621362, 7589132.948494826443493 ], [ 5255929.850888384506106, 7589167.161263502202928 ], [ 5255910.522386435419321, 7589198.414972989819944 ], [ 5255852.593338510021567, 7589247.931275135837495 ], [ 5255805.251775831915438, 7589270.689437432214618 ], [ 5255787.272226043976843, 7589284.786890105344355 ], [ 5255779.76069953199476, 7589304.701571067795157 ], [ 5255785.596001365222037, 7589324.16978725977242 ], [ 5255822.198279497213662, 7589349.063674276694655 ], [ 5255834.154898346401751, 7589371.614695370197296 ], [ 5255831.79490012023598, 7589387.667561816051602 ], [ 5255823.603612873703241, 7589401.951853915117681 ], [ 5255778.029640381224453, 7589438.236183907836676 ], [ 5255771.933501890860498, 7589454.171523196622729 ], [ 5255784.962367570027709, 7589485.54971607029438 ], [ 5255788.208852209150791, 7589517.117785898037255 ], [ 5255772.051000698469579, 7589537.769368704408407 ], [ 5255751.372364414855838, 7589557.750736525282264 ], [ 5255729.569472034461796, 7589577.938480010256171 ], [ 5255714.58520311769098, 7589600.832150083966553 ], [ 5255711.175160125829279, 7589619.151648899540305 ], [ 5255691.971732498146594, 7589637.602006332948804 ], [ 5255598.304693316109478, 7589716.438502300530672 ], [ 5255566.112411040812731, 7589754.525085645727813 ], [ 5255568.147258213721216, 7589791.210737388581038 ], [ 5255579.63441620580852, 7589830.338627939112484 ], [ 5255574.441140511073172, 7589853.596391857601702 ], [ 5255565.195690149441361, 7589871.854005529545248 ], [ 5255542.49726421572268, 7589913.712038981728256 ], [ 5255535.752018532715738, 7589944.71949358843267 ], [ 5255516.205764276906848, 7589965.059166952967644 ], [ 5255499.000978616066277, 7589970.099998463876545 ], [ 5255492.500892797484994, 7589954.975812008604407 ], [ 5255481.378141993656754, 7589944.458508194424212 ], [ 5255437.170592123642564, 7589983.545905644074082 ], [ 5255423.330110932700336, 7590016.57299034204334 ], [ 5255420.980311578139663, 7590060.488353008404374 ], [ 5255342.964866287074983, 7590140.901392409577966 ], [ 5255326.169671417213976, 7590196.2081433320418 ], [ 5255247.02314508985728, 7590267.40647379308939 ], [ 5255210.505756445229053, 7590314.627090143039823 ], [ 5255183.134200840257108, 7590339.258429821580648 ], [ 5255136.937920063734055, 7590362.749459523707628 ], [ 5255130.765211439691484, 7590384.326903166249394 ], [ 5255137.662757561542094, 7590400.386920724064112 ], [ 5255162.957549774087965, 7590404.41629515402019 ], [ 5255201.184841156005859, 7590396.890104687772691 ], [ 5255219.055936672724783, 7590406.335622917860746 ], [ 5255230.552357229404151, 7590426.644552102312446 ], [ 5255230.752692947164178, 7590446.967631416395307 ], [ 5255216.099957969039679, 7590467.405989572405815 ], [ 5255196.359179162420332, 7590477.574025506153703 ], [ 5255162.946246060542762, 7590462.037125101312995 ], [ 5255126.944604127667844, 7590468.375040945596993 ], [ 5255094.884701264090836, 7590503.266313994303346 ], [ 5255077.820712920278311, 7590529.495089616626501 ], [ 5255065.510208326391876, 7590559.948190977796912 ], [ 5255078.22307744063437, 7590594.911716890521348 ], [ 5255076.791166408918798, 7590627.707047821953893 ], [ 5255068.6076835161075, 7590661.374848874285817 ], [ 5255069.647678088396788, 7590695.438522575423121 ], [ 5255088.935787790454924, 7590710.691265845671296 ], [ 5255111.126809004694223, 7590719.857414187863469 ], [ 5255138.445943052880466, 7590711.984660279005766 ], [ 5255162.1135448589921, 7590700.235676266252995 ], [ 5255213.218081881292164, 7590658.190917925909162 ], [ 5255237.935455186292529, 7590661.664207837544382 ], [ 5255242.705778494477272, 7590694.149969208985567 ], [ 5255238.837472219020128, 7590725.942449868656695 ], [ 5255215.67938797082752, 7590775.443281089887023 ], [ 5255195.885167764499784, 7590802.380735918879509 ], [ 5255194.242674580775201, 7590814.842110183089972 ], [ 5255219.014788783155382, 7590840.524963887408376 ], [ 5255238.6478799181059, 7590847.55953112244606 ], [ 5255257.480562067590654, 7590864.071763088926673 ], [ 5255289.382649830542505, 7590889.24168306030333 ], [ 5255363.198545457795262, 7590902.503845941275358 ], [ 5255393.044626209884882, 7590918.108520228415728 ], [ 5255451.732178424485028, 7590936.931851405650377 ], [ 5255465.300293600186706, 7590965.143031160347164 ], [ 5255477.542706351727247, 7591006.852371204644442 ], [ 5255479.538344215601683, 7591032.04548473469913 ], [ 5255474.695561396889389, 7591053.97863695025444 ], [ 5255455.254947101697326, 7591099.16453002858907 ], [ 5255395.513064390048385, 7591181.4795997813344 ], [ 5255374.634649404324591, 7591210.507085293531418 ], [ 5255357.033073456026614, 7591234.195591058582067 ], [ 5255345.261260258033872, 7591257.580386568792164 ], [ 5255338.367899807170033, 7591280.687763696536422 ], [ 5255341.083899132907391, 7591304.362068323418498 ], [ 5255351.88124118372798, 7591327.497235619463027 ], [ 5255375.602814480662346, 7591376.737087702378631 ], [ 5255370.92802049126476, 7591397.548101634718478 ], [ 5255349.080728408880532, 7591435.246826857328415 ], [ 5255281.127789719961584, 7591510.754380350932479 ], [ 5255261.505560953170061, 7591552.418384987860918 ], [ 5255170.94681341946125, 7591649.964566780254245 ], [ 5255134.215797225944698, 7591715.818479347974062 ], [ 5255131.391587825492024, 7591783.281459730118513 ], [ 5255153.358670827932656, 7591829.55719162337482 ], [ 5255190.215580665506423, 7591857.82925434038043 ], [ 5255219.874895617365837, 7591893.408986240625381 ], [ 5255233.302445627748966, 7591971.80649328045547 ], [ 5255237.700782655738294, 7592013.39733724296093 ], [ 5255239.187317276373506, 7592027.460120030678809 ], [ 5255239.223649720661342, 7592027.792030517011881 ], [ 5255240.233620599843562, 7592037.27405238058418 ], [ 5255241.305383519269526, 7592047.38681966252625 ], [ 5255229.556353233754635, 7592166.938317760825157 ], [ 5255237.651393250562251, 7592235.324296062812209 ], [ 5255258.153854822739959, 7592283.130627288483083 ], [ 5255250.009467143565416, 7592476.902884382754564 ], [ 5255234.424562823958695, 7592534.384183847345412 ], [ 5255238.589882645756006, 7592593.800203992053866 ], [ 5255241.83708574809134, 7592644.951867798343301 ], [ 5255252.949961197562516, 7592674.864916572347283 ], [ 5255273.776811128482223, 7592700.821497080847621 ], [ 5255302.539619888179004, 7592709.295432142913342 ], [ 5255336.841193906031549, 7592699.837277207523584 ], [ 5255419.843702288344502, 7592704.763159279711545 ], [ 5255515.556280168704689, 7592711.946060317568481 ], [ 5255626.343894934281707, 7592655.049270464107394 ], [ 5255645.440995577722788, 7592682.141378739848733 ], [ 5255670.178035038523376, 7592730.034864019602537 ], [ 5255698.841203598305583, 7592772.401641057804227 ], [ 5255707.734705301001668, 7592803.868326151743531 ], [ 5255704.52004359383136, 7592832.547189405187964 ], [ 5255686.020882899872959, 7592848.724822564050555 ], [ 5255662.473983241245151, 7592837.131425902247429 ], [ 5255630.759268049150705, 7592831.719836654141545 ], [ 5255601.163221521303058, 7592857.905304198153317 ], [ 5255603.281691086478531, 7592889.491340816020966 ], [ 5255581.982199507765472, 7592916.264609817415476 ], [ 5255566.633445251733065, 7592939.90604498423636 ], [ 5255577.747062022797763, 7592969.818941107019782 ], [ 5255582.089804487302899, 7593002.04550894536078 ], [ 5255556.468469526618719, 7593075.669187816791236 ], [ 5255566.939263570122421, 7593188.437949985265732 ], [ 5255636.096700912341475, 7593262.420802561566234 ], [ 5255656.32566736638546, 7593335.079373102635145 ], [ 5255655.587343349121511, 7593375.012228542938828 ], [ 5255687.015517424792051, 7593404.522973308339715 ], [ 5255706.550714426673949, 7593402.637062337249517 ], [ 5255710.651251212693751, 7593381.469454063102603 ], [ 5255737.355296972207725, 7593361.370361311361194 ], [ 5255762.401141790673137, 7593372.186135237105191 ], [ 5255795.439228652045131, 7593446.102855186909437 ], [ 5255849.266873897984624, 7593505.312504764646292 ], [ 5255863.438106282614172, 7593626.146003672853112 ], [ 5255852.536188309080899, 7593713.122632626444101 ], [ 5255875.743555314838886, 7593764.243449155241251 ], [ 5255841.600057240575552, 7593808.977289321832359 ], [ 5255788.049631023779511, 7593841.65250014513731 ], [ 5255692.540730329230428, 7593866.441697339527309 ], [ 5255661.955921098589897, 7593897.574770519509912 ], [ 5255666.667836057022214, 7593946.431044468656182 ], [ 5255705.239502785727382, 7594033.803059936501086 ], [ 5255785.663327984511852, 7594106.807756919413805 ], [ 5255822.421319321729243, 7594178.393090449273586 ], [ 5255867.742322040721774, 7594225.724845003336668 ], [ 5255905.508898898027837, 7594271.681042559444904 ], [ 5255959.736694742925465, 7594419.847778562456369 ], [ 5255975.376883253455162, 7594498.531133715063334 ], [ 5256000.857919818721712, 7594531.927022974006832 ], [ 5256170.978884300217032, 7594612.229353026486933 ], [ 5256266.951172891072929, 7594632.970640082843602 ], [ 5256346.570842216722667, 7594663.803853992372751 ], [ 5256401.711968393996358, 7594674.790990395471454 ], [ 5256457.513370183296502, 7594680.480745713226497 ], [ 5256492.429989241063595, 7594695.62622097786516 ], [ 5256529.732488261535764, 7594718.247734289616346 ], [ 5256568.392159997485578, 7594732.568366270512342 ], [ 5256619.566606182605028, 7594732.324688648805022 ], [ 5256682.943534539081156, 7594757.44286479242146 ], [ 5256724.613619967363775, 7594794.302238651551306 ], [ 5256768.890555933117867, 7594826.586741343140602 ], [ 5256822.520458610728383, 7594836.84311087243259 ], [ 5256880.450245883315802, 7594836.479220688343048 ], [ 5256900.175036890432239, 7594844.375391924753785 ], [ 5256920.143652392551303, 7594904.247407414019108 ], [ 5256951.679147640243173, 7594978.19779640994966 ], [ 5256993.510769290849566, 7595039.891266066581011 ], [ 5257050.582148713991046, 7595111.093221228569746 ], [ 5257100.655591146089137, 7595171.124743545427918 ], [ 5257246.071412746794522, 7595218.774794903583825 ], [ 5257310.468502852134407, 7595240.870908952318132 ], [ 5257339.388522901572287, 7595296.797298619523644 ], [ 5257354.518910445272923, 7595339.434867946431041 ], [ 5257374.689895890653133, 7595409.843368012458086 ], [ 5257347.733096797019243, 7595455.551076639443636 ], [ 5257299.414375063031912, 7595564.188284120522439 ], [ 5257278.028228538110852, 7595625.610879600048065 ], [ 5257253.34461896494031, 7595689.846070749685168 ], [ 5257242.158173327334225, 7595734.313855679705739 ], [ 5257220.511542671360075, 7595725.384840382263064 ], [ 5257199.554697511717677, 7595731.063359703868628 ], [ 5257190.980953203514218, 7595754.57529771886766 ], [ 5257185.2855270113796, 7595810.425892475992441 ], [ 5257208.053872706368566, 7595858.936941308900714 ], [ 5257218.94075580406934, 7595906.042750443331897 ], [ 5257210.537439748644829, 7595951.141863546334207 ], [ 5257189.408319274894893, 7596023.488037196919322 ], [ 5257211.76165921241045, 7596089.32867674715817 ], [ 5257229.254429499618709, 7596137.946582915261388 ], [ 5257246.581485765054822, 7596177.523316181264818 ], [ 5257298.134408048354089, 7596236.02356911636889 ], [ 5257332.532081103883684, 7596302.391126572154462 ], [ 5257419.646144418977201, 7596370.749221617355943 ], [ 5257474.546398369595408, 7596524.831621669232845 ], [ 5257503.620769019238651, 7596588.29201996512711 ], [ 5257550.786406571045518, 7596614.48834550473839 ], [ 5257561.162223126739264, 7596645.165979489684105 ], [ 5257545.737534767016768, 7596703.467305699363351 ], [ 5257584.035999497398734, 7596738.118408458307385 ], [ 5257586.299612175673246, 7596777.238755060359836 ], [ 5257551.169643494300544, 7596828.386692071333528 ], [ 5257531.834763624705374, 7596918.382049010135233 ], [ 5257525.87638621404767, 7596999.085377611219883 ], [ 5257507.018412098288536, 7597053.074988544918597 ], [ 5257478.757753534242511, 7597091.887620179913938 ], [ 5257452.162096524611115, 7597156.419536089524627 ], [ 5257544.862843053415418, 7597124.496291587129235 ], [ 5257667.431873940862715, 7597081.07577854488045 ], [ 5257728.242433598265052, 7597063.052365638315678 ], [ 5257772.139911464415491, 7597046.14299687743187 ], [ 5257796.79914244543761, 7597038.276414167135954 ], [ 5257946.534614296630025, 7596978.889188442379236 ], [ 5258102.332540953531861, 7596922.01845042873174 ], [ 5258272.825877576135099, 7596904.409790904261172 ], [ 5258406.38304559700191, 7596864.918023005127907 ], [ 5258497.468413117341697, 7596827.373542660847306 ], [ 5258580.849340062588453, 7596780.565300574526191 ], [ 5258640.138878809288144, 7596753.064393803477287 ], [ 5258695.365190146490932, 7596729.020291795954108 ], [ 5258739.114914616569877, 7596714.615244375541806 ], [ 5258784.702524103224277, 7596698.673074676655233 ], [ 5258819.153740334324539, 7596689.715706440620124 ], [ 5258888.141405344009399, 7596677.086065661162138 ], [ 5258937.482183735817671, 7596660.306981751695275 ], [ 5258975.972029219381511, 7596627.177937055937946 ], [ 5259007.43548518884927, 7596580.629674915224314 ], [ 5259037.494355295784771, 7596500.96508446149528 ], [ 5259070.82189476583153, 7596434.037640884518623 ], [ 5259093.230543319135904, 7596386.904002277180552 ], [ 5259123.543012265115976, 7596325.54459869582206 ], [ 5259159.000858286395669, 7596285.459360441192985 ], [ 5259194.537897420115769, 7596255.403104396536946 ], [ 5259247.08685745485127, 7596209.942866947501898 ], [ 5259283.496801546774805, 7596185.890473073348403 ], [ 5259337.250649059191346, 7596163.762872859835625 ], [ 5259394.014759971760213, 7596141.575262538157403 ], [ 5259462.844741190783679, 7596120.655060219578445 ], [ 5259570.919983686879277, 7596105.759922314435244 ], [ 5259659.623269799165428, 7596139.434715889394283 ], [ 5259745.195023903623223, 7596127.99528681114316 ], [ 5259799.040087108500302, 7596071.960666653700173 ], [ 5259829.598259654827416, 7595978.730957936495543 ], [ 5259791.447651284746826, 7595913.193177379667759 ], [ 5259731.300508738495409, 7595838.291860854253173 ], [ 5259686.055913208052516, 7595794.725219585001469 ], [ 5259655.733041502535343, 7595744.100408118218184 ], [ 5259656.070789207704365, 7595683.834921233355999 ], [ 5259683.338397093117237, 7595615.529770519584417 ], [ 5259733.734738548286259, 7595575.389136105775833 ], [ 5259850.838823735713959, 7595492.149467807263136 ], [ 5259926.00496647041291, 7595439.104297142475843 ], [ 5259999.973841544240713, 7595372.888955345377326 ], [ 5260091.245760230347514, 7595251.341190281324089 ], [ 5260117.04511203058064, 7595199.850100921466947 ], [ 5260123.656963925808668, 7595114.422971368767321 ], [ 5260119.625417373143137, 7595061.775953699834645 ], [ 5260103.753307770006359, 7595019.152180027216673 ], [ 5260074.330135663039982, 7594976.792789958417416 ], [ 5260043.419325347989798, 7594935.211186047643423 ], [ 5259995.921080750413239, 7594891.693247996270657 ], [ 5259968.514653570950031, 7594836.488616282120347 ], [ 5259972.581448772922158, 7594774.655041554011405 ], [ 5260020.571554129943252, 7594687.857918884605169 ], [ 5260103.305283258669078, 7594607.922126212157309 ], [ 5260175.43648122344166, 7594524.434063993394375 ], [ 5260241.450465007685125, 7594435.780397260561585 ], [ 5260289.444886979646981, 7594310.578122642822564 ], [ 5260314.73052297718823, 7594217.454441171139479 ], [ 5260336.016755478456616, 7594150.752029798924923 ], [ 5260357.68334680236876, 7594103.63882870413363 ], [ 5260383.85974002070725, 7594056.441146362572908 ], [ 5260433.005103611387312, 7593990.715129570104182 ], [ 5260501.828667309135199, 7593930.631570186465979 ], [ 5260562.806400457397103, 7593893.296621174551547 ], [ 5260616.298840520903468, 7593857.612786626443267 ], [ 5260667.476774398237467, 7593818.962825171649456 ], [ 5260731.164780878461897, 7593765.755854674614966 ], [ 5260783.508031073957682, 7593709.751969574019313 ], [ 5260829.420273954048753, 7593671.209339305758476 ], [ 5260894.713441106490791, 7593623.240058072842658 ], [ 5260947.471868856810033, 7593588.331636649556458 ], [ 5260986.16256373655051, 7593565.733380453661084 ], [ 5261044.977288803085685, 7593532.964692328125238 ], [ 5261096.390876936726272, 7593506.356989167630672 ], [ 5261167.304297906346619, 7593476.360790317878127 ], [ 5261242.704586310312152, 7593445.526246909052134 ], [ 5261420.860055100172758, 7593318.54855704959482 ], [ 5261568.943623845465481, 7593231.340060044080019 ], [ 5261625.683319302275777, 7593209.132200598716736 ], [ 5261760.846557633951306, 7593193.699242757633328 ], [ 5261863.750722873024642, 7593183.425945920869708 ], [ 5261940.28564134426415, 7593172.142761597409844 ], [ 5262031.917416037991643, 7593162.839798741973937 ], [ 5262102.251536979340017, 7593141.892736602574587 ], [ 5262157.056622254662216, 7593096.383661281317472 ], [ 5262202.650929977186024, 7593041.271749981679022 ], [ 5262271.546746489591897, 7592925.64937481097877 ], [ 5262307.068444230593741, 7592876.565364591777325 ], [ 5262339.530073022469878, 7592842.793510226532817 ], [ 5262366.105670712888241, 7592816.666011716239154 ], [ 5262394.321186834946275, 7592796.541034284979105 ], [ 5262430.765488248318434, 7592774.740411918610334 ], [ 5262479.22424556594342, 7592751.201978273689747 ], [ 5262599.728642849251628, 7592717.23732877522707 ], [ 5262715.281033728271723, 7592699.923029931262136 ], [ 5262835.772184286266565, 7592665.203031773678958 ], [ 5262960.08738169260323, 7592595.00699963234365 ], [ 5263056.846105104312301, 7592557.948671016842127 ], [ 5263123.017285376787186, 7592576.024120882153511 ], [ 5263200.042277885600924, 7592622.439001521095634 ], [ 5263326.531053874641657, 7592669.990248593501747 ], [ 5263479.763152568601072, 7592694.134821067564189 ], [ 5263601.03258759342134, 7592660.903440540656447 ], [ 5263697.208082552999258, 7592537.021056348457932 ], [ 5263838.217997365631163, 7592434.865201693028212 ], [ 5263956.649632533080876, 7592416.042103806510568 ], [ 5264049.066175307147205, 7592442.071105923503637 ], [ 5264139.258102418854833, 7592474.96392316184938 ], [ 5264235.542584273964167, 7592511.513037687167525 ], [ 5264373.536738843657076, 7592564.574410054832697 ], [ 5264475.838008565828204, 7592562.584297652356327 ], [ 5264609.355262474156916, 7592501.244588688015938 ], [ 5264675.088924784213305, 7592475.872648391872644 ], [ 5264763.81356667727232, 7592471.888483068905771 ], [ 5264872.472238319925964, 7592487.103439200669527 ], [ 5264963.572064983658493, 7592489.097351727075875 ], [ 5265099.89337595552206, 7592494.741730717942119 ], [ 5265242.016066445969045, 7592488.972193131223321 ], [ 5265366.325686562806368, 7592457.183839288540184 ], [ 5265563.975274717435241, 7592365.975841199979186 ], [ 5265745.855750672519207, 7592237.419524880126119 ], [ 5265882.141920851543546, 7592163.220402020961046 ], [ 5266118.410103054717183, 7592084.064908171072602 ], [ 5266201.113232123665512, 7592080.205925804562867 ], [ 5266277.417192385531962, 7592095.29570662882179 ], [ 5266369.111979723908007, 7592128.162395615130663 ], [ 5266447.648052378557622, 7592142.449451400898397 ], [ 5266507.124865104444325, 7592143.564548814669251 ], [ 5266565.652236293070018, 7592134.885959886945784 ], [ 5266629.80866299662739, 7592105.774273950606585 ], [ 5266698.449118075892329, 7592075.0690355040133 ], [ 5266751.480057274922729, 7592054.455274812877178 ], [ 5266802.268830481916666, 7592034.643516056239605 ], [ 5266860.745566721074283, 7592022.960871287621558 ], [ 5266931.079224875196815, 7592002.013438107445836 ], [ 5266972.563057799823582, 7591976.404282459057868 ], [ 5266992.797938560135663, 7591963.907389510422945 ], [ 5267082.090671580284834, 7591911.707328787073493 ], [ 5267147.682056486606598, 7591878.80082106217742 ], [ 5267235.5876310672611, 7591871.823517818003893 ], [ 5267349.274926041252911, 7591874.135456981137395 ], [ 5267446.076124344021082, 7591898.619912719354033 ], [ 5267543.403272446244955, 7591950.206555161625147 ], [ 5267618.201530055142939, 7592004.497290791012347 ], [ 5267697.532603881321847, 7592059.454505397006869 ], [ 5267798.871424358338118, 7592123.763658998534083 ], [ 5267924.180071004666388, 7592182.35045824572444 ], [ 5268040.995104757137597, 7592229.795131696388125 ], [ 5268150.815976955927908, 7592266.07269249856472 ], [ 5268238.419459942728281, 7592281.695616789162159 ], [ 5268326.848935343325138, 7592262.655364023521543 ], [ 5268442.177926862612367, 7592194.891954746097326 ], [ 5268543.678893825039268, 7592151.500941716134548 ], [ 5268639.598735133185983, 7592130.049749008379877 ], [ 5268764.107766223140061, 7592108.804825448431075 ], [ 5268836.786728007718921, 7592131.491958625614643 ], [ 5268937.971032773144543, 7592187.528360185213387 ], [ 5269055.767683959566057, 7592247.009078491479158 ], [ 5269123.532055108807981, 7592248.706713443621993 ], [ 5269196.124421803280711, 7592189.304492477327585 ], [ 5269299.095435130409896, 7592143.622537817806005 ], [ 5269368.892899641767144, 7592133.978994755074382 ], [ 5269442.167845008894801, 7592148.373583076521754 ], [ 5269509.98826739564538, 7592191.501306265592575 ], [ 5269654.59289971832186, 7592120.153808861039579 ], [ 5269743.914085004478693, 7592069.456055946648121 ], [ 5269737.042264699935913, 7592025.146414536051452 ], [ 5269767.22974291164428, 7591990.664189304225147 ], [ 5269764.966484831646085, 7591951.541824830695987 ], [ 5269792.260071496479213, 7591884.731328647583723 ], [ 5269828.925995098426938, 7591835.054022675380111 ], [ 5269860.157241304405034, 7591808.512411292642355 ], [ 5269901.874616175889969, 7591786.615406043827534 ], [ 5269925.344466645270586, 7591793.690086724236608 ], [ 5269936.615258242934942, 7591792.712881579995155 ], [ 5269946.83573130145669, 7591776.701006116345525 ], [ 5269945.779446138069034, 7591741.692653549835086 ], [ 5269957.461989032104611, 7591703.809057127684355 ], [ 5269958.839124022983015, 7591701.424868658185005 ], [ 5269962.979934060946107, 7591694.216722230426967 ], [ 5269966.337002801708877, 7591688.385165525600314 ], [ 5269980.0364640802145, 7591664.577727874740958 ], [ 5270007.299734339118004, 7591634.677708853036165 ], [ 5270026.202229269780219, 7591600.407517118379474 ], [ 5270050.764060387387872, 7591586.381315594539046 ], [ 5270059.547320133075118, 7591549.599556622095406 ], [ 5270073.73304261546582, 7591490.269857885316014 ], [ 5270092.553876413963735, 7591434.641570252366364 ], [ 5270099.810777672566473, 7591399.381915796548128 ], [ 5270074.793916243128479, 7591350.900747537612915 ], [ 5270055.044647414237261, 7591263.912579847499728 ], [ 5270051.691729366779327, 7591207.483866969123483 ], [ 5270062.544826581142843, 7591146.259579384699464 ], [ 5270088.162485398352146, 7591070.442832368426025 ], [ 5270081.934980894438922, 7591020.846229461953044 ], [ 5270043.556801500730217, 7590982.422515382990241 ], [ 5270047.816345323808491, 7590968.783440319821239 ], [ 5270067.70976812299341, 7590947.30972590111196 ], [ 5270099.195200480520725, 7590882.666465410962701 ], [ 5270094.229945257306099, 7590859.417987825348973 ], [ 5270114.935433980077505, 7590821.725277066230774 ], [ 5270120.781389910727739, 7590792.995849180966616 ], [ 5270143.147654216736555, 7590770.338533585891128 ], [ 5270167.679602787829936, 7590708.09591100923717 ], [ 5270212.737238805741072, 7590664.294108843430877 ], [ 5270236.74522431474179, 7590612.701080523431301 ], [ 5270235.064377355389297, 7590573.845859745517373 ], [ 5270247.916670631617308, 7590538.569005858153105 ], [ 5270261.627283115871251, 7590469.005030559375882 ], [ 5270277.457074289210141, 7590431.793456934392452 ], [ 5270312.345283169299364, 7590407.006473943591118 ], [ 5270308.297552030533552, 7590353.604342484846711 ], [ 5270292.43453143723309, 7590311.741253923624754 ], [ 5270281.329688160680234, 7590204.987884069792926 ], [ 5270288.873031446710229, 7590128.012959974817932 ], [ 5270292.125555644743145, 7590082.379363959655166 ], [ 5270267.896510189399123, 7590055.355536518618464 ], [ 5270270.241946754977107, 7590031.939111957326531 ], [ 5270289.596340434625745, 7590010.496202479116619 ], [ 5270280.028951419517398, 7589982.437426151707768 ], [ 5270282.444009120576084, 7589941.728327726945281 ], [ 5270262.341259885579348, 7589924.411063048988581 ], [ 5270259.462962172925472, 7589892.448323732241988 ], [ 5270276.04192161001265, 7589876.339554173871875 ], [ 5270283.061227941885591, 7589847.922638094983995 ], [ 5270267.052738972008228, 7589779.692506628111005 ], [ 5270250.73095696605742, 7589713.72886410728097 ], [ 5270208.083207285962999, 7589649.019603226333857 ], [ 5270176.887304279953241, 7589554.344232272356749 ], [ 5270188.147858431562781, 7589495.340590106323361 ], [ 5270196.416844248771667, 7589439.280519541352987 ], [ 5270165.952323815785348, 7589359.091038039885461 ], [ 5270118.543576721101999, 7589300.89106934145093 ], [ 5270093.152786028571427, 7589252.793391423299909 ], [ 5270075.922703886404634, 7589237.688633646816015 ], [ 5270087.145614241249859, 7589150.143669037148356 ], [ 5270035.594765744172037, 7589117.95079799182713 ], [ 5270018.660713301971555, 7589117.904528332874179 ], [ 5270017.455797165632248, 7589075.372357726097107 ], [ 5270022.918228220194578, 7589046.649330465123057 ], [ 5270010.40606514364481, 7589022.408923879265785 ], [ 5270026.661534293554723, 7588968.231284886598587 ], [ 5269959.429829104803503, 7588896.854405308142304 ], [ 5269937.106586836278439, 7588832.510622786357999 ], [ 5269959.843274155631661, 7588762.77202233672142 ], [ 5269953.11745766736567, 7588707.541915956884623 ], [ 5269960.459209083579481, 7588697.608232352882624 ], [ 5269959.427586708217859, 7588683.692733778618276 ], [ 5269968.243089163675904, 7588672.215586721897125 ], [ 5269957.248459606431425, 7588623.907722512260079 ], [ 5269937.656532026827335, 7588589.578355293720961 ], [ 5269959.692744824104011, 7588561.66143334005028 ], [ 5269959.439065726473927, 7588548.486513832584023 ], [ 5269945.174182642251253, 7588530.68244334962219 ], [ 5269938.809438383206725, 7588532.31966033577919 ], [ 5269935.212514011189342, 7588541.048364711925387 ], [ 5269923.815133297815919, 7588535.621282873675227 ], [ 5269919.969259002245963, 7588514.925437644124031 ], [ 5269905.50098798237741, 7588502.833179701119661 ], [ 5269889.826180919073522, 7588470.754187638871372 ], [ 5269888.821580573916435, 7588460.883993472903967 ], [ 5269886.885284156538546, 7588441.785260826349258 ], [ 5269866.15187353733927, 7588433.545346790924668 ], [ 5269865.896629274822772, 7588411.702558476477861 ], [ 5269875.323112411424518, 7588402.110533907078207 ], [ 5269877.721368969418108, 7588370.801264341920614 ], [ 5269865.264710636809468, 7588349.197935818694532 ], [ 5269865.065961426123977, 7588333.760901173576713 ], [ 5269880.225755005143583, 7588305.982433702796698 ], [ 5269861.734468352049589, 7588264.529405983164907 ], [ 5269778.64535638410598, 7588170.86367517337203 ], [ 5269745.973385103046894, 7588077.34349948912859 ], [ 5269733.189365000464022, 7588058.383696822449565 ], [ 5269731.414612779393792, 7588038.428747200407088 ], [ 5269710.607403730973601, 7588019.659897176548839 ], [ 5269672.371057880111039, 7588007.592130159959197 ], [ 5269646.568913482129574, 7587957.627795352600515 ], [ 5269646.790593527257442, 7587872.131145881488919 ], [ 5269642.049082639627159, 7587837.572913045063615 ], [ 5269589.152565973810852, 7587771.949624690227211 ], [ 5269455.998200935311615, 7587580.954911796376109 ], [ 5269426.662027106620371, 7587523.146953313611448 ], [ 5269399.431331367231905, 7587496.937864921055734 ], [ 5269408.70937308575958, 7587431.982764243148267 ], [ 5269395.425175833515823, 7587406.624537792056799 ], [ 5269402.454398600384593, 7587381.255981530062854 ], [ 5269413.60668757557869, 7587355.053010473027825 ], [ 5269435.664413835853338, 7587347.475907393731177 ], [ 5269444.170327287167311, 7587359.358729476109147 ], [ 5269455.46061590500176, 7587378.720749799162149 ], [ 5269479.011111511848867, 7587370.730438850820065 ], [ 5269470.643087291158736, 7587346.796719815582037 ], [ 5269474.198160261847079, 7587316.59861121326685 ], [ 5269477.444379696622491, 7587290.163276238366961 ], [ 5269496.643314356915653, 7587290.92536586150527 ], [ 5269511.662276304326952, 7587269.545163832604885 ], [ 5269511.925125408917665, 7587244.678733591921628 ], [ 5269530.164547705091536, 7587214.953094916418195 ], [ 5269525.881188806146383, 7587187.913330553099513 ], [ 5269552.305075773969293, 7587173.090776266530156 ], [ 5269572.040542429313064, 7587181.746777640655637 ], [ 5269587.129266379401088, 7587164.510814195498824 ], [ 5269587.215991110540926, 7587149.434747206047177 ], [ 5269647.208390763960779, 7587080.4857396222651 ], [ 5269669.853221947327256, 7587042.793441649526358 ], [ 5269687.336076104082167, 7586976.89017273299396 ], [ 5269722.751108425669372, 7586878.439601803198457 ], [ 5269765.715910376049578, 7586827.734284400939941 ], [ 5269783.391755635850132, 7586769.010171830654144 ], [ 5269777.364060728810728, 7586749.548314269632101 ], [ 5269745.192501600831747, 7586700.83364125713706 ], [ 5269712.748392232693732, 7586696.571508573368192 ], [ 5269682.657650401815772, 7586658.362721830606461 ], [ 5269672.317099493928254, 7586591.145065666176379 ], [ 5269608.889287369325757, 7586483.53564334101975 ], [ 5269589.918717585504055, 7586397.664875155314803 ], [ 5269578.627584013156593, 7586301.08993554674089 ], [ 5269591.550860735587776, 7586230.419877554289997 ], [ 5269610.34486195165664, 7586103.231572762131691 ], [ 5269621.264170482754707, 7585939.088280045427382 ], [ 5269643.142329168505967, 7585881.235331287607551 ], [ 5269641.994641778990626, 7585805.371693147346377 ], [ 5269734.422952893190086, 7585740.672691499814391 ], [ 5269745.615149721503258, 7585696.766928168013692 ], [ 5269751.662798035889864, 7585687.453589013777673 ], [ 5269757.44837243668735, 7585678.543714153580368 ], [ 5269761.147376840002835, 7585672.839239466004074 ], [ 5269761.111490290611982, 7585603.441034220159054 ], [ 5269758.2971346154809, 7585536.084996178746223 ], [ 5269771.556102774105966, 7585386.311271666549146 ], [ 5269772.794375265017152, 7585333.562278267927468 ], [ 5269784.643236956559122, 7585174.434999634511769 ], [ 5269759.077779444865882, 7585111.997341005131602 ], [ 5269706.58402850292623, 7585044.096175640821457 ], [ 5269679.04803557228297, 7584951.941505229100585 ], [ 5269663.847182013094425, 7584906.74188993498683 ], [ 5269661.740598657168448, 7584868.392578564584255 ], [ 5269649.76897297333926, 7584850.87126552220434 ], [ 5269656.745303446426988, 7584777.242165676318109 ], [ 5269691.7208994589746, 7584666.649853555485606 ], [ 5269671.743376539088786, 7584602.543650878593326 ], [ 5269634.431052517145872, 7584468.533756660297513 ], [ 5269644.255962953902781, 7584373.807326583191752 ], [ 5269624.507001861929893, 7584364.775167921558022 ], [ 5269612.239084351807833, 7584333.381327833048999 ], [ 5269631.896922240033746, 7584318.683533854782581 ], [ 5269625.789493864402175, 7584295.077514953911304 ], [ 5269611.524339496158063, 7584277.661523042246699 ], [ 5269597.857115469872952, 7584271.142365247011185 ], [ 5269575.94140313565731, 7584266.669210867956281 ], [ 5269559.545243443921208, 7584255.319085717201233 ], [ 5269552.866967853158712, 7584240.756414655596018 ], [ 5269560.48794178199023, 7584226.672386564314365 ], [ 5269570.241796028800309, 7584224.977783761918545 ], [ 5269567.905596136115491, 7584193.83714853413403 ], [ 5269557.680230900645256, 7584159.693087791092694 ], [ 5269565.317860307171941, 7584145.985635407269001 ], [ 5269562.848626111634076, 7584135.109359005466104 ], [ 5269546.429519817233086, 7584123.005891782231629 ], [ 5269514.969376128166914, 7584111.190028447657824 ], [ 5269468.368888016790152, 7584113.973191131837666 ], [ 5269442.944383511319757, 7584103.174656979739666 ], [ 5269427.216390138491988, 7584087.290737794712186 ], [ 5269382.506215302273631, 7584091.172297794371843 ], [ 5269335.32455575466156, 7584063.837810369208455 ], [ 5269273.229658225551248, 7584034.5494170403108 ], [ 5269231.810405442491174, 7583984.693804167211056 ], [ 5269201.133575532585382, 7583945.752009735442698 ], [ 5269182.679798223078251, 7583944.789038619026542 ], [ 5269167.455385599285364, 7583936.045762442052364 ], [ 5269156.270474566146731, 7583941.167178835719824 ], [ 5269140.217846256680787, 7583957.477236783131957 ], [ 5269131.861090049147606, 7583972.704061083495617 ], [ 5269106.119465323165059, 7583984.134358802810311 ], [ 5269080.123962289653718, 7583992.166027452796698 ], [ 5269044.26013421267271, 7583976.111886559054255 ], [ 5269040.555928209796548, 7583970.466027028858662 ], [ 5269028.51894776429981, 7583960.028343004174531 ], [ 5269019.433417174965143, 7583957.200052650645375 ], [ 5269013.439266086556017, 7583958.631350498646498 ], [ 5269008.82239299826324, 7583963.242748223245144 ], [ 5269004.398056836798787, 7583958.429273431189358 ], [ 5269001.364908358082175, 7583937.398211085237563 ], [ 5268996.616497118026018, 7583915.830805007368326 ], [ 5268995.730380557477474, 7583899.474310901015997 ], [ 5269010.848801980726421, 7583873.758555961772799 ], [ 5269025.055129734799266, 7583839.955581834539771 ], [ 5269040.378522977232933, 7583825.165409030392766 ], [ 5269040.975299105979502, 7583798.032137125730515 ], [ 5269031.777773519046605, 7583789.175915305502713 ], [ 5269033.000901664607227, 7583774.64596258662641 ], [ 5269042.36591920722276, 7583762.793946927413344 ], [ 5269039.338033454492688, 7583752.49236548319459 ], [ 5269037.453650962561369, 7583742.548342142254114 ], [ 5269032.907922260463238, 7583731.152876379899681 ], [ 5269031.293153867125511, 7583715.739757934585214 ], [ 5269018.685315925627947, 7583696.588409572839737 ], [ 5269025.880158770829439, 7583689.106985055841506 ], [ 5269026.172526030801237, 7583665.381720710545778 ], [ 5269020.422180140390992, 7583640.816316680982709 ], [ 5269009.076657599769533, 7583608.841329295188189 ], [ 5268990.421229966916144, 7583616.737916047684848 ], [ 5268989.005179872736335, 7583563.468682635575533 ], [ 5268974.218016734346747, 7583548.133842226117849 ], [ 5268963.193912122398615, 7583513.138492675498128 ], [ 5268963.649438980035484, 7583478.858262913301587 ], [ 5268962.712264570407569, 7583459.476623490452766 ], [ 5268957.54668874014169, 7583435.854586523026228 ], [ 5268960.131154269911349, 7583423.56284655816853 ], [ 5268966.048078621737659, 7583408.377275921404362 ], [ 5268964.564777411520481, 7583390.334966546855867 ], [ 5268954.689249206334352, 7583376.214066652581096 ], [ 5268943.799915040843189, 7583357.776329815387726 ], [ 5268947.66860619187355, 7583343.767019029706717 ], [ 5268940.441589836031199, 7583340.142538011074066 ], [ 5268920.09141756221652, 7583338.280285773798823 ], [ 5268893.898241437971592, 7583316.764477936550975 ], [ 5268891.769875504076481, 7583303.998081487603486 ], [ 5268891.971954413689673, 7583295.138347691856325 ], [ 5268893.69618677161634, 7583287.017736291512847 ], [ 5268900.373794740065932, 7583281.983616375364363 ], [ 5268886.026750308461487, 7583260.234601007774472 ], [ 5268877.198166382499039, 7583232.163085604086518 ], [ 5268858.908696913160384, 7583210.857458096928895 ], [ 5268847.194721257314086, 7583179.077066933736205 ], [ 5268842.099752401933074, 7583168.821438756771386 ], [ 5268842.308521750383079, 7583150.551060274243355 ], [ 5268834.870116142556071, 7583145.422652928158641 ], [ 5268820.520223829895258, 7583142.494714789092541 ], [ 5268820.444212310016155, 7583133.085464740172029 ], [ 5268818.157895525917411, 7583117.694762733764946 ], [ 5268806.786912724375725, 7583103.787471448071301 ], [ 5268795.576474227011204, 7583069.360511209815741 ], [ 5268771.521699232980609, 7583022.558559650555253 ], [ 5268771.124198242090642, 7582992.249835016205907 ], [ 5268777.506177375093102, 7582981.955721849575639 ], [ 5268775.814406319521368, 7582972.385304050520062 ], [ 5268787.285236108116806, 7582962.182666094042361 ], [ 5268785.811641649343073, 7582944.705493347719312 ], [ 5268778.10736501775682, 7582925.648650802671909 ], [ 5268772.887113822624087, 7582899.378379211761057 ], [ 5268752.698278918862343, 7582838.38985538482666 ], [ 5268759.145073208957911, 7582782.904142029583454 ], [ 5268750.038849592208862, 7582745.094224881380796 ], [ 5268739.135899936780334, 7582721.524636331945658 ], [ 5268734.498414975591004, 7582696.696565802209079 ], [ 5268749.390067248605192, 7582649.01576373539865 ], [ 5268747.242764882743359, 7582635.119088150560856 ], [ 5268751.842910439707339, 7582620.343739814125001 ], [ 5268769.024422605521977, 7582594.404826257377863 ], [ 5268772.889442562125623, 7582561.186582081019878 ], [ 5268764.677961990237236, 7582545.153226867318153 ], [ 5268754.732982512563467, 7582536.686418210156262 ], [ 5268742.463058094494045, 7582525.243919640779495 ], [ 5268719.520341634750366, 7582525.320696322247386 ], [ 5268700.795121688395739, 7582510.617478080093861 ], [ 5268690.939684176817536, 7582487.839354800991714 ], [ 5268681.444027580320835, 7582444.704470295459032 ], [ 5268675.968394493684173, 7582414.315157080069184 ], [ 5268662.938397344201803, 7582382.933784211054444 ], [ 5268658.729287165217102, 7582366.943713976070285 ], [ 5268632.531609262339771, 7582348.12123953178525 ], [ 5268624.592608876526356, 7582346.393008330836892 ], [ 5268592.247078942134976, 7582327.818277769722044 ], [ 5268583.904207770712674, 7582324.212518267333508 ], [ 5268575.654258765280247, 7582325.504424152895808 ], [ 5268558.82953492552042, 7582311.888535876758397 ], [ 5268537.469878564588726, 7582277.665912337601185 ], [ 5268518.703688652254641, 7582241.493047352880239 ], [ 5268501.032699080184102, 7582203.428465157747269 ], [ 5268490.837126207537949, 7582182.529240120202303 ], [ 5268493.618092563934624, 7582151.22478973120451 ], [ 5268500.660196951590478, 7582139.622769873589277 ], [ 5268516.523019920103252, 7582129.312950193881989 ], [ 5268529.391877189278603, 7582114.364968808367848 ], [ 5268547.1602469291538, 7582099.334340529516339 ], [ 5268548.045077717863023, 7582055.536643577739596 ], [ 5268524.144637980498374, 7582038.016510425135493 ], [ 5268501.433390400372446, 7582030.928735026158392 ], [ 5268478.911729893647134, 7581995.218221328221262 ], [ 5268451.474871849641204, 7581977.668956838548183 ], [ 5268427.134031982161105, 7581925.418127736076713 ], [ 5268424.30324593000114, 7581896.103706319816411 ], [ 5268441.211286154575646, 7581875.434716667979956 ], [ 5268437.041887951083481, 7581854.422791397199035 ], [ 5268426.760205112397671, 7581829.013720517978072 ], [ 5268396.351698318496346, 7581813.033043294213712 ], [ 5268344.014716293662786, 7581792.212353206239641 ], [ 5268278.988995904102921, 7581776.149870286695659 ], [ 5268247.790646235458553, 7581758.685879429802299 ], [ 5268230.119538094848394, 7581740.195861533284187 ], [ 5268216.25930408667773, 7581723.902805332094431 ], [ 5268206.45847727637738, 7581723.336367087438703 ], [ 5268200.023579242639244, 7581701.61994360294193 ], [ 5268171.993202715180814, 7581692.371287760324776 ], [ 5268164.742715256288648, 7581667.653687842190266 ], [ 5268185.737906302325428, 7581625.069123599678278 ], [ 5268182.348793013952672, 7581605.551483321003616 ], [ 5268151.991690419614315, 7581592.584460434503853 ], [ 5268119.632518790662289, 7581554.046565309166908 ], [ 5268086.580031095072627, 7581518.535204792395234 ], [ 5268060.292900559492409, 7581521.305578606203198 ], [ 5268040.377160413190722, 7581542.035888714715838 ], [ 5268025.848974770866334, 7581530.265228632837534 ], [ 5268023.625930295325816, 7581493.40332511998713 ], [ 5268031.318573762662709, 7581468.855281496420503 ], [ 5268021.130884715355933, 7581442.225201146677136 ], [ 5268038.832725659012794, 7581415.280684914439917 ], [ 5268072.139457895420492, 7581395.28916373103857 ], [ 5268056.544836858287454, 7581388.335967924445868 ], [ 5268042.130682138726115, 7581361.222864788025618 ], [ 5268011.253550289198756, 7581360.324019796214998 ], [ 5267991.416264876723289, 7581346.392647556960583 ], [ 5267975.907930518500507, 7581361.761524369008839 ], [ 5267943.993075407110155, 7581326.23079518135637 ], [ 5267930.999563417397439, 7581315.941695497371256 ], [ 5267918.583774811588228, 7581296.975015505217016 ], [ 5267901.80280670337379, 7581285.253281569108367 ], [ 5267896.788304434157908, 7581298.151019969023764 ], [ 5267886.962395376525819, 7581296.077389629557729 ], [ 5267873.920573624782264, 7581283.527886917814612 ], [ 5267858.173543404787779, 7581266.889495695009828 ], [ 5267852.354987310245633, 7581238.755961084738374 ], [ 5267853.139317810535431, 7581228.223856948316097 ], [ 5267836.238261663354933, 7581222.877502481453121 ], [ 5267824.753765626810491, 7581212.551855864003301 ], [ 5267801.474886116571724, 7581215.271240002475679 ], [ 5267789.874875473789871, 7581199.305660529993474 ], [ 5267775.790617790073156, 7581190.542260067537427 ], [ 5267764.804106512106955, 7581167.405957194976509 ], [ 5267753.803505457937717, 7581163.101928523741663 ], [ 5267734.464616305194795, 7581136.359667032025754 ], [ 5267716.990436328575015, 7581127.66433456260711 ], [ 5267695.201524057425559, 7581129.216842722147703 ], [ 5267660.156558034941554, 7581107.30535951629281 ], [ 5267657.938881289213896, 7581090.39493809081614 ], [ 5267646.448438657447696, 7581079.703509292565286 ], [ 5267646.424553154036403, 7581040.155543372966349 ], [ 5267633.557361407205462, 7581017.061894102022052 ], [ 5267582.091506182216108, 7580982.657443331554532 ], [ 5267521.641233024187386, 7580950.698309776373208 ], [ 5267491.844767676666379, 7580927.922406895086169 ], [ 5267465.560483515262604, 7580911.11721770092845 ], [ 5267444.524141005240381, 7580893.44790446665138 ], [ 5267424.665078634396195, 7580878.773678492754698 ], [ 5267372.844838819466531, 7580826.296341616660357 ], [ 5267323.320263870991766, 7580775.6757010538131 ], [ 5267298.936283932998776, 7580759.957862849347293 ], [ 5267294.911494484171271, 7580746.846405791118741 ], [ 5267297.282185094431043, 7580732.873796412721276 ], [ 5267297.078274921514094, 7580703.493116701021791 ], [ 5267296.058854590170085, 7580689.577453108504415 ], [ 5267310.966131148859859, 7580682.133411725051701 ], [ 5267310.512195494957268, 7580658.797795262187719 ], [ 5267294.263886205852032, 7580616.551910258829594 ], [ 5267305.173708028160036, 7580577.928766344673932 ], [ 5267304.944621529430151, 7580547.052140767686069 ], [ 5267288.589435348287225, 7580518.751929800957441 ], [ 5267255.147093000821769, 7580508.440132332965732 ], [ 5267209.030977599322796, 7580471.716980885714293 ], [ 5267178.016826874576509, 7580444.07298175431788 ], [ 5267137.684081675484776, 7580421.129900304600596 ], [ 5267132.548003702424467, 7580389.227281135506928 ], [ 5267120.506771672517061, 7580360.455486655235291 ], [ 5267057.742635171860456, 7580275.440771526657045 ], [ 5266958.541748796589673, 7580168.536561431363225 ], [ 5266939.343301255255938, 7580131.538431033492088 ], [ 5266922.140158365480602, 7580041.535721763968468 ], [ 5266916.546393113210797, 7579884.334596152417362 ], [ 5266903.341657880693674, 7579849.641140731051564 ], [ 5266849.446154514327645, 7579811.839618689380586 ], [ 5266809.044830179773271, 7579756.331917015835643 ], [ 5266766.474803002551198, 7579655.936547306366265 ], [ 5266711.946978104300797, 7579527.333042308688164 ], [ 5266569.246134483255446, 7579307.234108107164502 ], [ 5266518.041526043787599, 7579199.135543907061219 ], [ 5266496.842722797766328, 7579111.737919083796442 ], [ 5266496.842901517637074, 7579020.438072873279452 ], [ 5266508.645650618709624, 7578949.335158159956336 ], [ 5266591.043390554375947, 7578690.83534942753613 ], [ 5266604.146270731464028, 7578578.333398764953017 ], [ 5266602.347601721994579, 7578485.234706353396177 ], [ 5266589.638609128072858, 7578417.136358047835529 ], [ 5266532.428062216378748, 7578303.984664106741548 ], [ 5266521.843251949176192, 7578283.035806860774755 ] ] ] } }
]
}
