{
"type": "FeatureCollection",
"name": "3523701",
"crs": { "type": "name", "properties": { "name": "urn:ogc:def:crs:EPSG::5880" } },
"features": [
{ "type": "Feature", "properties": { "lv_id": "LOC_052819", "id": 301669.0, "CD_SETOR": "352370105000002", "SITUACAO": "Urbana", "CD_SIT": "1", "CD_TIPO": "0", "AREA_KM2": 0.19684933283526901, "CD_REGIAO": "3", "NM_REGIAO": "Sudeste", "CD_UF": "35", "NM_UF": "São Paulo", "CD_MUN": "3523701", "NM_MUN": "Itirapuã", "CD_DIST": "352370105", "NM_DIST": "Itirapuã", "CD_SUBDIST": "35237010500", "NM_SUBDIST": null, "CD_BAIRRO": null, "NM_BAIRRO": null, "CD_NU": null, "NM_NU": null, "CD_FCU": null, "NM_FCU": null, "CD_AGLOM": null, "NM_AGLOM": null, "CD_RGINT": "3508", "NM_RGINT": "Ribeirão Preto", "CD_RGI": "350033", "NM_RGI": "Franca", "CD_CONCURB": "3516200", "NM_CONCURB": "Franca/SP", "mun_code_x": "3523701", "index_right": 84461, "dist_m": 0.0, "local_id": 572229, "ano": 2022, "cod_localidade_ibge": 3523701, "NR_ZONA": "46", "nr_cep": 14420000.0, "nm_localidade": "ITIRAPUÃ", "nm_locvot": "EE. PROF. HENRIQUE LESPINASSE", "ds_endereco": "R CEL. ANTONIO BELTRUDES, 4620, ITIRAPUÃ", "ds_bairro": "CENTRO", "pred_long": -47.220887, "pred_lat": -20.638415, "pred_dist": 0.022497945764882302, "tse_long": null, "tse_lat": null, "long": -47.220887, "lat": -20.638415, "ID_UNICO": "LOC_052819", "SG_UF": "SP", "CD_MUNICIPIO": "65757", "NR_LOCAL_VOTACAO": "1015", "QT_SECOES_AGREGADAS": 0, "QT_ELEITORES_TRANSFERIDOS": 4, "CIRO GOMES (PDT) (NÃO ELEITO) 1T": 46.0, "CONSTITUINTE EYMAEL (DC) (NÃO ELEITO) 1T": 0.0, "FELIPE D AVILA (NOVO) (NÃO ELEITO) 1T": 3.0, "JAIR BOLSONARO (PL) (2º TURNO) 1T": 904.0, "LULA (PT) (2º TURNO) 1T": 1124.0, "LÉO PÉRICLES (UP) (NÃO ELEITO) 1T": 0.0, "PADRE KELMON (PTB) (NÃO ELEITO) 1T": 0.0, "SIMONE TEBET (MDB) (NÃO ELEITO) 1T": 75.0, "SOFIA MANZANO (PCB) (NÃO ELEITO) 1T": 1.0, "SORAYA THRONICKE (UNIÃO) (NÃO ELEITO) 1T": 7.0, "VERA (PSTU) (NÃO ELEITO) 1T": 1.0, "Total_Votos_Validos 1T": 2161.0, "Votos_Brancos 1T": 43.0, "Votos_Nulos 1T": 54.0, "Abstenções 1T": 825.0, "Eleitores_Aptos 1T": 3083.0, "JAIR BOLSONARO (PL) (NÃO ELEITO) 2T": 1024.0, "LULA (PT) (ELEITO) 2T": 1201.0, "Total_Votos_Validos 2T": 2225.0, "Votos_Brancos 2T": 30.0, "Votos_Nulos 2T": 60.0, "Abstenções 2T": 768.0, "Eleitores_Aptos 2T": 3083.0, "mun_code_y": "3523701", "mun_code": "3523701" }, "geometry": { "type": "Polygon", "coordinates": [ [ [ 5706073.706881143152714, 7702047.2223114464432 ], [ 5706026.811550255864859, 7702078.07714850269258 ], [ 5705998.230587841011584, 7702096.606242287904024 ], [ 5705971.383389891125262, 7702114.940311568789184 ], [ 5705864.549003498628736, 7702173.290773466229439 ], [ 5705862.802579597570002, 7702222.809818658977747 ], [ 5705907.835040605627, 7702228.881131916306913 ], [ 5705929.235740039497614, 7702217.519608240574598 ], [ 5705960.492423729971051, 7702261.514831738546491 ], [ 5705991.771906455978751, 7702305.553695289418101 ], [ 5705998.597134149633348, 7702315.158296784386039 ], [ 5706057.562399310059845, 7702322.655050409957767 ], [ 5706123.497377470135689, 7702281.585083330050111 ], [ 5706143.108806143514812, 7702310.680133283138275 ], [ 5706140.743869514204562, 7702314.257324228994548 ], [ 5706010.657609506510198, 7702508.939808515831828 ], [ 5706032.779765510000288, 7702522.923569517210126 ], [ 5706035.662428532727063, 7702525.769011866301298 ], [ 5706082.422228544950485, 7702555.025206990540028 ], [ 5706127.016420778818429, 7702582.621241502463818 ], [ 5706147.975776831619442, 7702597.734885461628437 ], [ 5706277.777177434414625, 7702428.037147212773561 ], [ 5706375.475575874559581, 7702467.397971950471401 ], [ 5706415.533116023056209, 7702425.622752780094743 ], [ 5706461.375415716320276, 7702380.74060545116663 ], [ 5706542.800542331300676, 7702321.406525878235698 ], [ 5706548.875291158445179, 7702329.013180764392018 ], [ 5706550.329183669760823, 7702335.619740310125053 ], [ 5706581.481417504139245, 7702379.819495941512287 ], [ 5706619.300116460770369, 7702432.805318238213658 ], [ 5706656.92195768840611, 7702484.316498195752501 ], [ 5706694.272478712722659, 7702535.069695038720965 ], [ 5706732.242329861968756, 7702587.915389567613602 ], [ 5706770.204183324240148, 7702639.813720281235874 ], [ 5706907.606103939004242, 7702540.991509484127164 ], [ 5706923.31353276129812, 7702529.933303293772042 ], [ 5706926.542053954675794, 7702527.557474916800857 ], [ 5706962.786117134615779, 7702577.520395940169692 ], [ 5706971.293278702534735, 7702589.172967931255698 ], [ 5707072.225037096999586, 7702727.32384586520493 ], [ 5707095.317761194892228, 7702759.060467449016869 ], [ 5707113.23860542383045, 7702744.542576206848025 ], [ 5707117.466399021446705, 7702742.61555562261492 ], [ 5707285.948946562595665, 7702626.191393989138305 ], [ 5707261.986605455167592, 7702569.349413020536304 ], [ 5707252.292343115434051, 7702538.235081448219717 ], [ 5707230.714406068436801, 7702499.801491921767592 ], [ 5707209.540535249747336, 7702471.809144981205463 ], [ 5707167.332990257069468, 7702422.686596692539752 ], [ 5707270.042926787398756, 7702321.250993302091956 ], [ 5707072.158386914990842, 7702101.357417859137058 ], [ 5707068.887370266951621, 7702096.956274964846671 ], [ 5707043.396663996390998, 7702116.529045878909528 ], [ 5706999.060721485875547, 7702155.452584683895111 ], [ 5706876.304009285755455, 7701998.390523096546531 ], [ 5706756.036174426786602, 7701837.935329881496727 ], [ 5706722.163777149282396, 7701794.540874975733459 ], [ 5706702.676357268355787, 7701810.238959969952703 ], [ 5706685.276790685020387, 7701823.976747963577509 ], [ 5706674.884094574488699, 7701831.646600343286991 ], [ 5706644.381071591749787, 7701853.836315369233489 ], [ 5706577.961934232152998, 7701902.488678144291043 ], [ 5706507.877126907929778, 7701951.293678174726665 ], [ 5706458.669638775289059, 7701882.550173017196357 ], [ 5706376.51752401329577, 7701944.657561862841249 ], [ 5706309.28986338339746, 7701996.464031760580838 ], [ 5706254.289249809458852, 7702036.309684609994292 ], [ 5706244.213592562824488, 7702042.583440132439137 ], [ 5706215.156072407960892, 7702000.314148714765906 ], [ 5706127.228736087679863, 7702055.525372094474733 ], [ 5706123.822036149911582, 7702057.629751596599817 ], [ 5706104.268502667546272, 7702026.414022013545036 ], [ 5706073.706881143152714, 7702047.2223114464432 ] ] ] } },
{ "type": "Feature", "properties": { "lv_id": "LOC_052820", "id": 301671.0, "CD_SETOR": "352370105000004", "SITUACAO": "Urbana", "CD_SIT": "1", "CD_TIPO": "0", "AREA_KM2": 0.127870452581473, "CD_REGIAO": "3", "NM_REGIAO": "Sudeste", "CD_UF": "35", "NM_UF": "São Paulo", "CD_MUN": "3523701", "NM_MUN": "Itirapuã", "CD_DIST": "352370105", "NM_DIST": "Itirapuã", "CD_SUBDIST": "35237010500", "NM_SUBDIST": null, "CD_BAIRRO": null, "NM_BAIRRO": null, "CD_NU": null, "NM_NU": null, "CD_FCU": null, "NM_FCU": null, "CD_AGLOM": null, "NM_AGLOM": null, "CD_RGINT": "3508", "NM_RGINT": "Ribeirão Preto", "CD_RGI": "350033", "NM_RGI": "Franca", "CD_CONCURB": "3516200", "NM_CONCURB": "Franca/SP", "mun_code_x": "3523701", "index_right": 84460, "dist_m": 31.250400346597004, "local_id": 572228, "ano": 2022, "cod_localidade_ibge": 3523701, "NR_ZONA": "46", "nr_cep": 14420000.0, "nm_localidade": "ITIRAPUÃ", "nm_locvot": "EMEB. IRACEMA FREITAS FARIA", "ds_endereco": "RUA PIO AVELINO FIGUEIREDO, 5051, ITIRAPUÃ", "ds_bairro": "CENTRO", "pred_long": -47.2222289, "pred_lat": -20.6431269, "pred_dist": 0.046349055316348198, "tse_long": null, "tse_lat": null, "long": -47.2222289, "lat": -20.6431269, "ID_UNICO": "LOC_052820", "SG_UF": "SP", "CD_MUNICIPIO": "65757", "NR_LOCAL_VOTACAO": "1023", "QT_SECOES_AGREGADAS": 0, "QT_ELEITORES_TRANSFERIDOS": 6, "CIRO GOMES (PDT) (NÃO ELEITO) 1T": 16.0, "CONSTITUINTE EYMAEL (DC) (NÃO ELEITO) 1T": 0.0, "FELIPE D AVILA (NOVO) (NÃO ELEITO) 1T": 2.0, "JAIR BOLSONARO (PL) (2º TURNO) 1T": 632.0, "LULA (PT) (2º TURNO) 1T": 782.0, "LÉO PÉRICLES (UP) (NÃO ELEITO) 1T": 0.0, "PADRE KELMON (PTB) (NÃO ELEITO) 1T": 0.0, "SIMONE TEBET (MDB) (NÃO ELEITO) 1T": 59.0, "SOFIA MANZANO (PCB) (NÃO ELEITO) 1T": 0.0, "SORAYA THRONICKE (UNIÃO) (NÃO ELEITO) 1T": 7.0, "VERA (PSTU) (NÃO ELEITO) 1T": 0.0, "Total_Votos_Validos 1T": 1498.0, "Votos_Brancos 1T": 32.0, "Votos_Nulos 1T": 42.0, "Abstenções 1T": 433.0, "Eleitores_Aptos 1T": 2005.0, "JAIR BOLSONARO (PL) (NÃO ELEITO) 2T": 690.0, "LULA (PT) (ELEITO) 2T": 841.0, "Total_Votos_Validos 2T": 1531.0, "Votos_Brancos 2T": 23.0, "Votos_Nulos 2T": 45.0, "Abstenções 2T": 406.0, "Eleitores_Aptos 2T": 2005.0, "mun_code_y": "3523701", "mun_code": "3523701" }, "geometry": { "type": "Polygon", "coordinates": [ [ [ 5718473.706437872722745, 7697914.698597859591246 ], [ 5718438.402475534006953, 7697824.697904141619802 ], [ 5718475.205972937867045, 7697671.599677916616201 ], [ 5718614.900623326189816, 7697356.189431708306074 ], [ 5718668.102462467737496, 7697167.196230158209801 ], [ 5718585.895038493908942, 7696846.683122273534536 ], [ 5718585.219954192638397, 7696844.046514285728335 ], [ 5718553.402103891596198, 7696719.99593336507678 ], [ 5718358.307196046225727, 7696461.496694177389145 ], [ 5717982.602673242799938, 7696164.588630166836083 ], [ 5717559.596731514669955, 7695539.493415841832757 ], [ 5717286.599934966303408, 7695270.397582584992051 ], [ 5717226.702273602597415, 7695156.496971255168319 ], [ 5717281.500198604539037, 7694854.497116854414344 ], [ 5717260.396221976727247, 7694499.396219465881586 ], [ 5717196.301145160570741, 7694324.395848040468991 ], [ 5716975.793858750723302, 7694106.297990725375712 ], [ 5716486.194869889877737, 7694055.389396201819181 ], [ 5715781.993428312242031, 7693921.299897654913366 ], [ 5715594.600858620367944, 7693952.091272965073586 ], [ 5715020.597290473990142, 7694275.394603982567787 ], [ 5714854.696536152623594, 7694268.398983053863049 ], [ 5714611.991806647740304, 7694178.000397191382945 ], [ 5713939.994099519215524, 7694402.798389483243227 ], [ 5713631.090813486836851, 7694218.699853788129985 ], [ 5713459.698043938726187, 7694209.492751281708479 ], [ 5713360.592030056752264, 7694253.39360274747014 ], [ 5713174.599041363224387, 7694465.499221678823233 ], [ 5712856.68917668517679, 7694621.401208970695734 ], [ 5712622.696383265778422, 7694695.394200418144464 ], [ 5712349.694550824351609, 7694680.297618908807635 ], [ 5712001.989155858755112, 7694741.498336404561996 ], [ 5711855.492600264027715, 7694963.801552234217525 ], [ 5711767.692632867023349, 7694964.395175000652671 ], [ 5711660.595594526268542, 7694870.197826907038689 ], [ 5711415.988090605475008, 7694808.594772419892251 ], [ 5711379.48871501814574, 7694764.104941607452929 ], [ 5711179.687152756378055, 7694119.494065666571259 ], [ 5710935.489446133375168, 7693836.402208139188588 ], [ 5711285.694720123894513, 7693349.398641200736165 ], [ 5711284.686543075367808, 7693177.400516729801893 ], [ 5711200.787586175836623, 7693076.79546304885298 ], [ 5710681.993277943693101, 7692722.398822546005249 ], [ 5710486.190988473594189, 7692469.10232900083065 ], [ 5710337.59139362256974, 7692383.400025500915945 ], [ 5709983.68900993373245, 7692266.398454008623958 ], [ 5709751.683427037671208, 7692066.394688740372658 ], [ 5709625.483039028942585, 7691826.196386407129467 ], [ 5709478.490590419620275, 7691755.19614689797163 ], [ 5709478.5833950182423, 7691721.195565774105489 ], [ 5709417.487967759370804, 7691807.10470125824213 ], [ 5709391.986836860887706, 7691915.698964648880064 ], [ 5709375.281512454152107, 7691919.803242730908096 ], [ 5709358.58611898496747, 7691923.895933660678566 ], [ 5709314.290285166352987, 7691779.99639021512121 ], [ 5709250.381475654430687, 7691770.199485022574663 ], [ 5709218.989118645898998, 7691746.299906279891729 ], [ 5709180.386593065224588, 7691753.500290797092021 ], [ 5709072.490745356306434, 7691875.095626899972558 ], [ 5709029.884822244755924, 7691895.699130408465862 ], [ 5709011.489199398085475, 7691868.498084971681237 ], [ 5708982.588439154438674, 7691720.505313359200954 ], [ 5708955.287446621805429, 7691684.302001972682774 ], [ 5708927.690299032256007, 7691667.601324238814414 ], [ 5708882.588905645534396, 7691660.300886866636574 ], [ 5708851.888429272919893, 7691674.203603290952742 ], [ 5708820.38815934304148, 7691712.502570782788098 ], [ 5708738.281873882748187, 7691742.505709521472454 ], [ 5708682.483339944854379, 7691840.196554792113602 ], [ 5708576.482143636792898, 7691935.00366778485477 ], [ 5708555.287561646662652, 7691984.898997521027923 ], [ 5708554.783358871005476, 7692023.799891812726855 ], [ 5708579.78313404507935, 7692147.504562892019749 ], [ 5708572.082847962155938, 7692184.600798882544041 ], [ 5708532.681771862320602, 7692258.498060364276171 ], [ 5708438.288115200586617, 7692347.797507345676422 ], [ 5708394.982537446543574, 7692435.505699669010937 ], [ 5708393.28791712783277, 7692470.899675341323018 ], [ 5708415.08673497941345, 7692559.103947860188782 ], [ 5708404.687727670185268, 7692587.806021124124527 ], [ 5708339.389176702126861, 7692658.498257633298635 ], [ 5708322.283587900921702, 7692716.7058325400576 ], [ 5708345.883506111800671, 7692816.296456585638225 ], [ 5708345.787983239628375, 7692859.004328661598265 ], [ 5708311.383724120445549, 7692891.301967832259834 ], [ 5708283.582289006561041, 7692956.002101624384522 ], [ 5708252.881956717930734, 7692966.502069899812341 ], [ 5708231.88266433775425, 7692965.199197936803102 ], [ 5708217.888260004110634, 7692950.199872869066894 ], [ 5708211.683545647189021, 7692924.804925714619458 ], [ 5708218.089823668822646, 7692868.496800476685166 ], [ 5708207.682404582388699, 7692854.506329268217087 ], [ 5708172.987918294966221, 7692860.000552326440811 ], [ 5708013.081162890419364, 7693024.299027027562261 ], [ 5708007.689277539029717, 7693062.300903549417853 ], [ 5708051.989430986344814, 7693138.700013826601207 ], [ 5708052.282296434044838, 7693190.199603609740734 ], [ 5708030.083552812226117, 7693243.602883578278124 ], [ 5708019.988398810848594, 7693305.205629181116819 ], [ 5707977.086652114987373, 7693353.201035376638174 ], [ 5707952.980622237548232, 7693461.607739717699587 ], [ 5707929.889508466236293, 7693501.70189412496984 ], [ 5707902.984215162694454, 7693519.199570754542947 ], [ 5707815.38366980291903, 7693510.903249077498913 ], [ 5707783.68025681283325, 7693528.100424474105239 ], [ 5707703.484228777699172, 7693608.199462130665779 ], [ 5707699.086352223530412, 7693639.101434838026762 ], [ 5707707.790765932761133, 7693665.205351879820228 ], [ 5707785.388647823594511, 7693722.903008945286274 ], [ 5707777.381537413224578, 7693776.902614796534181 ], [ 5707757.082835433073342, 7693801.302898763678968 ], [ 5707688.682547532021999, 7693833.007220916450024 ], [ 5707643.385739898309112, 7693867.197899535298347 ], [ 5707608.082462998107076, 7693905.506887014955282 ], [ 5707581.183310374617577, 7694010.8068782761693 ], [ 5707559.289326937869191, 7694050.905462173745036 ], [ 5707539.384837433695793, 7694067.80732018314302 ], [ 5707477.289078327827156, 7694079.800821542739868 ], [ 5707458.688856006599963, 7694091.998435968533158 ], [ 5707415.481779104098678, 7694197.301777007989585 ], [ 5707389.285532631911337, 7694226.798748101107776 ], [ 5707318.287115763872862, 7694275.702062755823135 ], [ 5707270.581545903347433, 7694374.704188193194568 ], [ 5707165.088518735952675, 7694415.799048136919737 ], [ 5707169.585420123301446, 7694452.002575444057584 ], [ 5707271.785181316547096, 7694505.103577738627791 ], [ 5707317.084124407730997, 7694540.398766957223415 ], [ 5707329.282275890000165, 7694561.807239716872573 ], [ 5707332.584208709187806, 7694599.09787114802748 ], [ 5707317.282827225513756, 7694628.104089359752834 ], [ 5707263.485677946358919, 7694662.805327916517854 ], [ 5707095.290323885157704, 7694702.503322878852487 ], [ 5707069.580607651732862, 7694700.303176051005721 ], [ 5707012.485180947929621, 7694648.699583326466382 ], [ 5706978.089682491496205, 7694640.998797819018364 ], [ 5706918.981695081107318, 7694664.905645530670881 ], [ 5706839.68779438175261, 7694742.406301749870181 ], [ 5706806.183726266026497, 7694746.798385640606284 ], [ 5706783.882356586866081, 7694734.598865331150591 ], [ 5706737.088678231462836, 7694677.501076612621546 ], [ 5706618.9816286675632, 7694602.508355109021068 ], [ 5706552.083137894049287, 7694595.198571001179516 ], [ 5706453.482878806069493, 7694629.900570115074515 ], [ 5706378.785142795182765, 7694635.303729390725493 ], [ 5706221.087269018404186, 7694539.501190716400743 ], [ 5706198.187579327262938, 7694541.909513149410486 ], [ 5706154.587735320441425, 7694581.899239744991064 ], [ 5706129.583157803863287, 7694657.702267497777939 ], [ 5706087.382095526903868, 7694661.308695638552308 ], [ 5706009.181291153654456, 7694615.804280991666019 ], [ 5705952.679388233460486, 7694619.005615456029773 ], [ 5705924.284957860596478, 7694631.399125978350639 ], [ 5705872.478795735165477, 7694698.601003574207425 ], [ 5705780.48779556248337, 7694785.50130133330822 ], [ 5705781.487541541457176, 7694803.699600733816624 ], [ 5705834.483091602101922, 7694838.608925707638264 ], [ 5705854.587208824232221, 7694877.603863010182977 ], [ 5705852.087392373941839, 7695004.999324465170503 ], [ 5705902.681312902830541, 7695156.909024375490844 ], [ 5705917.689086785539985, 7695274.106271194294095 ], [ 5705892.784443914890289, 7695330.403962586075068 ], [ 5705864.084213087335229, 7695335.50699170678854 ], [ 5705774.58897718694061, 7695268.509329070337117 ], [ 5705719.979979277588427, 7695261.907864408567548 ], [ 5705700.782597749494016, 7695268.107118648476899 ], [ 5705624.48619769141078, 7695330.701269846409559 ], [ 5705570.309873273596168, 7695423.409120436757803 ], [ 5705562.485736276954412, 7695436.803140101954341 ], [ 5705556.548478469252586, 7695446.94073483441025 ], [ 5705528.681672556325793, 7695494.508837478235364 ], [ 5705503.784703159704804, 7695615.503591703251004 ], [ 5705468.282118775881827, 7695653.010847810655832 ], [ 5705395.986329023726285, 7695677.606853266246617 ], [ 5705387.986880552023649, 7695696.30386333912611 ], [ 5705379.98740690946579, 7695715.000864211469889 ], [ 5705396.686067715287209, 7695775.110117197968066 ], [ 5705490.283943609334528, 7695893.202289963141084 ], [ 5705502.586510628461838, 7695937.407175859436393 ], [ 5705502.280272212810814, 7695981.302993369288743 ], [ 5705481.386862764135003, 7696016.604944383725524 ], [ 5705413.187470755539834, 7696072.703900066204369 ], [ 5705346.287091401405632, 7696110.70889413356781 ], [ 5705268.385265077464283, 7696189.209613534621894 ], [ 5705239.281088022515178, 7696330.201717347837985 ], [ 5705200.582667646929622, 7696372.401172226294875 ], [ 5705176.879574749618769, 7696371.607597252354026 ], [ 5705072.482246855273843, 7696332.108432896435261 ], [ 5705016.979911153204739, 7696336.411327755078673 ], [ 5704968.586342390626669, 7696354.910850765183568 ], [ 5704916.186988031491637, 7696413.903434665873647 ], [ 5704894.579559556208551, 7696528.202215548604727 ], [ 5704870.586796665564179, 7696573.510169697925448 ], [ 5704861.886475441977382, 7696612.705373734235764 ], [ 5704863.48172799590975, 7696664.00214072316885 ], [ 5704832.086226650513709, 7696730.110839302651584 ], [ 5704813.480618791654706, 7696742.304167305119336 ], [ 5704777.080215913243592, 7696740.601758250035346 ], [ 5704724.980441432446241, 7696694.702395994216204 ], [ 5704694.678415582515299, 7696651.404976547695696 ], [ 5704675.782410005107522, 7696639.104897919110954 ], [ 5704638.683407460339367, 7696642.403863677754998 ], [ 5704483.383129129186273, 7696777.008663075044751 ], [ 5704417.286918542347848, 7696872.012525049969554 ], [ 5704401.381867177784443, 7696913.012771029025316 ], [ 5704409.887192596681416, 7696961.512303965166211 ], [ 5704476.079243275336921, 7696995.508472416549921 ], [ 5704489.786428774707019, 7697069.009803991764784 ], [ 5704524.535146160051227, 7697100.649866485968232 ], [ 5704636.282561205327511, 7697202.403321532532573 ], [ 5704636.183582855388522, 7697218.305816935375333 ], [ 5704597.386577940545976, 7697242.211421468295157 ], [ 5704402.981927500106394, 7697204.411066764965653 ], [ 5704334.579756615683436, 7697231.312467814423144 ], [ 5704327.980005281977355, 7697290.208429699763656 ], [ 5704362.07968348171562, 7697381.912539841607213 ], [ 5704366.279206817038357, 7697410.902796391397715 ], [ 5704357.780544001609087, 7697435.706715928390622 ], [ 5704338.386670709587634, 7697461.310646364465356 ], [ 5704298.687615936622024, 7697481.607195056974888 ], [ 5704277.787905771285295, 7697484.061924413777888 ], [ 5704256.88772735837847, 7697486.505497237667441 ], [ 5703330.083233498968184, 7700108.606441014446318 ], [ 5703325.398575001396239, 7700121.878581558354199 ], [ 5703316.55939058214426, 7700146.87344559840858 ], [ 5703307.304311506450176, 7700173.156530725769699 ], [ 5703210.984803195111454, 7700445.508003265596926 ], [ 5703201.187763128429651, 7700528.615258316509426 ], [ 5703160.084443377330899, 7700618.609490130096674 ], [ 5703148.289175839163363, 7700687.507237480953336 ], [ 5703106.288682658225298, 7700802.912408037111163 ], [ 5703073.986832900904119, 7701168.510159339755774 ], [ 5703055.084765928797424, 7701196.10784506611526 ], [ 5703009.782330550253391, 7701231.714635826647282 ], [ 5702926.585315115749836, 7701280.111132211983204 ], [ 5702976.084507696330547, 7701288.857288091443479 ], [ 5703025.584216816350818, 7701297.614446802064776 ], [ 5703206.184164657257497, 7701411.806034529581666 ], [ 5703249.989228405058384, 7701421.31222700048238 ], [ 5703303.787230115383863, 7701427.314794072881341 ], [ 5703420.589596956036985, 7701373.115559237077832 ], [ 5703459.086716540157795, 7701367.31194287724793 ], [ 5703494.791209642775357, 7701378.414123741909862 ], [ 5703573.287773026153445, 7701421.606263909488916 ], [ 5703701.68879968393594, 7701556.906314029358327 ], [ 5703904.686107758432627, 7701632.813528741709888 ], [ 5704135.089164257049561, 7701776.109785504639149 ], [ 5704322.883474037051201, 7701870.60682331584394 ], [ 5704397.885885776951909, 7701982.005343124270439 ], [ 5704443.786099206656218, 7702090.111040901392698 ], [ 5704473.688139230012894, 7702127.708815803751349 ], [ 5704617.491330526769161, 7702207.412546698004007 ], [ 5704659.68574114702642, 7702267.208626382052898 ], [ 5704702.389268578961492, 7702364.61080851778388 ], [ 5704767.693076567724347, 7702435.307146875187755 ], [ 5704868.284510192461312, 7702500.208376945927739 ], [ 5705065.386999195441604, 7702576.207920522429049 ], [ 5705224.992786600254476, 7702710.705450413748622 ], [ 5705223.391299906186759, 7702774.309958794154227 ], [ 5705234.092280478216708, 7702808.905338277108967 ], [ 5705258.490378001704812, 7702839.507460091263056 ], [ 5705366.088183986023068, 7702924.807832366786897 ], [ 5705391.092604462988675, 7702962.207808496430516 ], [ 5705464.885436250828207, 7703161.710516932420433 ], [ 5705471.291800528764725, 7703274.405120797455311 ], [ 5705493.490162912756205, 7703370.509985351935029 ], [ 5705509.886009912006557, 7703401.311708749271929 ], [ 5705564.288852111436427, 7703428.712801710702479 ], [ 5705777.393776970915496, 7703457.004319051280618 ], [ 5705901.588849933817983, 7703455.407212415710092 ], [ 5705993.795417140237987, 7703510.107707979157567 ], [ 5706116.495108307339251, 7703543.512860745191574 ], [ 5706183.487339850515127, 7703597.914841402322054 ], [ 5706238.092162035405636, 7703694.809724368155003 ], [ 5706249.839600953273475, 7703715.648228947073221 ], [ 5706265.392645671032369, 7703743.207082567736506 ], [ 5706303.695228192955256, 7703771.712725021876395 ], [ 5706538.189676214009523, 7703839.30891153588891 ], [ 5706573.390941768884659, 7703861.711123193614185 ], [ 5706616.798045146279037, 7703925.11231717467308 ], [ 5706741.19516182038933, 7704053.312585780397058 ], [ 5706775.388706279918551, 7704124.411990653723478 ], [ 5706867.797466778196394, 7704266.511784350499511 ], [ 5706889.493137691169977, 7704320.304961013607681 ], [ 5706898.68903262168169, 7704377.306615941226482 ], [ 5706983.596868856810033, 7704471.008203722536564 ], [ 5707074.191415020264685, 7704513.609248032793403 ], [ 5707223.098121501505375, 7704539.304572734981775 ], [ 5707415.889607405290008, 7704550.612612210214138 ], [ 5707617.19109008461237, 7704641.203600741922855 ], [ 5707759.892174554988742, 7704686.910934347659349 ], [ 5707920.391958150081336, 7704811.704222448170185 ], [ 5707953.497556749731302, 7704883.105263243429363 ], [ 5707973.994666792452335, 7704906.309686673805118 ], [ 5708076.200864671729505, 7704961.812635935842991 ], [ 5708148.096456187777221, 7705013.709249013103545 ], [ 5708162.794952913187444, 7705042.206588221713901 ], [ 5708184.098882355727255, 7705144.304812366142869 ], [ 5708202.497182471677661, 7705170.205846138298512 ], [ 5708294.095575865358114, 7705221.212194502353668 ], [ 5708370.396764682605863, 7705289.905185766518116 ], [ 5708489.098622630350292, 7705338.105869855731726 ], [ 5708547.795989752747118, 7705351.908763346262276 ], [ 5708994.598195733502507, 7705363.711525532416999 ], [ 5709041.001668892800808, 7705389.154497625306249 ], [ 5709087.395320649258792, 7705414.608952161855996 ], [ 5709153.896192770451307, 7705503.612052729353309 ], [ 5709290.096827869303524, 7705605.509770287200809 ], [ 5709366.897522850893438, 7705637.808767464011908 ], [ 5709500.700390603393316, 7705719.212202754803002 ], [ 5709984.000808958895504, 7705923.808929419144988 ], [ 5710217.998122126795352, 7706003.410669890232384 ], [ 5710306.200808863155544, 7706024.101491502486169 ], [ 5710868.20078279543668, 7706086.809912774711847 ], [ 5711213.997014939785004, 7706067.606334317475557 ], [ 5711450.605812400579453, 7706009.50173950754106 ], [ 5711593.403874305076897, 7705991.702295185998082 ], [ 5711866.307166163809597, 7705921.609194901771843 ], [ 5712053.50493798032403, 7705783.703028459101915 ], [ 5712172.706280265003443, 7705727.204527258872986 ], [ 5712245.703392883762717, 7705713.400634599849582 ], [ 5712375.202935645356774, 7705718.408558463677764 ], [ 5712490.103184415027499, 7705761.907176055014133 ], [ 5712605.004882846027613, 7705851.702066278085113 ], [ 5712767.206098795868456, 7705957.003841829486191 ], [ 5712863.405726517550647, 7705971.001907104626298 ], [ 5712912.899777729064226, 7705968.207701878622174 ], [ 5713108.707694379612803, 7705924.505049208179116 ], [ 5713192.400493234395981, 7705932.102699963375926 ], [ 5713244.308006774634123, 7705953.503251595422626 ], [ 5713347.000113996677101, 7706037.898634889163077 ], [ 5713425.308435320854187, 7706133.198968652635813 ], [ 5713523.307901085354388, 7706287.20445073209703 ], [ 5713545.404441177845001, 7706363.705376915633678 ], [ 5713553.010018742643297, 7706430.300802363082767 ], [ 5713516.803639585152268, 7706740.508424327708781 ], [ 5713529.008683073334396, 7706828.698841111734509 ], [ 5713552.009548319503665, 7706917.305001159198582 ], [ 5713667.801728541962802, 7707176.706757386215031 ], [ 5713688.001077621243894, 7707279.101683048531413 ], [ 5713710.108671965077519, 7707483.902633242309093 ], [ 5713743.60877847019583, 7707589.206187793985009 ], [ 5713771.606757368892431, 7707635.006745812483132 ], [ 5713793.608712921850383, 7707660.508674912154675 ], [ 5713908.703997713513672, 7707715.001051598228514 ], [ 5714446.411367926746607, 7707893.905617392621934 ], [ 5714604.812740223482251, 7707963.008337203413248 ], [ 5714738.904816465452313, 7708072.4071473646909 ], [ 5714849.605314519256353, 7708196.506119981408119 ], [ 5714878.912950112484396, 7708248.807819285430014 ], [ 5714900.407579401507974, 7708348.60708467848599 ], [ 5714893.504093637689948, 7708686.002360328100622 ], [ 5714824.309199808165431, 7709138.699326945468783 ], [ 5714805.205492809414864, 7709451.405743330717087 ], [ 5714695.008812179788947, 7709643.901379283517599 ], [ 5714680.514361060224473, 7709735.903789084404707 ], [ 5714687.006781071424484, 7709804.79962245374918 ], [ 5714709.205503271892667, 7709881.409108122810721 ], [ 5714742.105101412162185, 7709949.907831907272339 ], [ 5714782.612260643392801, 7709990.800300848670304 ], [ 5714782.691533725708723, 7709990.451288145035505 ], [ 5714793.606974674388766, 7709943.202912939712405 ], [ 5714878.812298091128469, 7709804.402148511260748 ], [ 5714948.712643078528345, 7709764.406307775527239 ], [ 5715003.411266308277845, 7709682.999578155577183 ], [ 5715046.805977389216423, 7709474.601525550708175 ], [ 5715177.414608016610146, 7709341.101068830117583 ], [ 5715369.704610312357545, 7708744.306576485745609 ], [ 5715459.624049643054605, 7708513.203636454418302 ], [ 5715470.905979169532657, 7708484.203784234821796 ], [ 5715508.743998536840081, 7708307.280673125758767 ], [ 5715580.213397545740008, 7707973.102713326923549 ], [ 5715603.864376718178391, 7707743.797503488138318 ], [ 5715619.707292062230408, 7707590.102515997365117 ], [ 5715685.806230827234685, 7707436.507218317128718 ], [ 5715687.512569991871715, 7707277.207866673357785 ], [ 5715743.503420516848564, 7707141.099259746260941 ], [ 5715855.71185056399554, 7707127.902232415042818 ], [ 5716376.408934111706913, 7707181.19934325478971 ], [ 5716485.306501721031964, 7707149.10262062586844 ], [ 5716564.708344014361501, 7707025.203688791021705 ], [ 5716631.606608062051237, 7706841.101665643975139 ], [ 5716698.706782229244709, 7706765.303826224990189 ], [ 5716728.708628518506885, 7706664.900457624346018 ], [ 5716699.606504392810166, 7706527.997495662420988 ], [ 5716551.303716264665127, 7706248.196125009097159 ], [ 5716380.503940332680941, 7705751.202694348990917 ], [ 5716354.911861862055957, 7705453.505832500755787 ], [ 5716399.112818374298513, 7705104.998275682330132 ], [ 5716541.610920185223222, 7704983.101738963276148 ], [ 5716593.205634453333914, 7704892.902697648853064 ], [ 5716603.30766012519598, 7704789.102017163299024 ], [ 5716585.606092231348157, 7704659.100042515434325 ], [ 5717106.608239645138383, 7704415.796144648455083 ], [ 5717346.412028001621366, 7704342.094558406621218 ], [ 5717866.411842998117208, 7703835.700758541934192 ], [ 5717975.613794011995196, 7703789.198767483234406 ], [ 5718066.808947767131031, 7703695.093866806477308 ], [ 5718085.408010341227055, 7703573.699135173112154 ], [ 5717994.70436274074018, 7703435.202606227248907 ], [ 5717864.604103859513998, 7703290.892947508022189 ], [ 5717722.408193071372807, 7702887.896532360464334 ], [ 5717694.587861208245158, 7702576.894747261889279 ], [ 5717661.30729746632278, 7702204.901668339036405 ], [ 5717604.405283938162029, 7701870.80003091134131 ], [ 5717574.501533907838166, 7701788.99875754583627 ], [ 5717660.303748404607177, 7701684.594145111739635 ], [ 5717996.406809410080314, 7701767.89561939612031 ], [ 5718080.40333507489413, 7701750.994812997989357 ], [ 5718207.408695192076266, 7701671.792225401848555 ], [ 5718450.70442751608789, 7701465.895866290666163 ], [ 5718715.410262553952634, 7701281.700898529961705 ], [ 5719023.605262100696564, 7701114.197816686704755 ], [ 5719132.403129105456173, 7701076.89890069887042 ], [ 5719187.707780071534216, 7701001.89265660289675 ], [ 5719183.605272738263011, 7700918.694119182415307 ], [ 5719041.506829367019236, 7700714.796184601262212 ], [ 5719060.410593922249973, 7700547.894055447541177 ], [ 5719158.310487126000226, 7700334.697905525565147 ], [ 5719216.403873542323709, 7700261.59056118875742 ], [ 5719252.706785806454718, 7700139.793749970383942 ], [ 5719250.90101030562073, 7700088.883105369284749 ], [ 5719249.110794819891453, 7700038.094470858573914 ], [ 5719245.306506559252739, 7699928.296460824087262 ], [ 5719220.508928693830967, 7699747.292916530743241 ], [ 5719237.60838339664042, 7699522.798473266884685 ], [ 5719117.50215115211904, 7699080.596434691920877 ], [ 5718843.510456976480782, 7698641.796093633398414 ], [ 5718729.910576985217631, 7698562.094930348917842 ], [ 5718651.50316611584276, 7698483.696066178381443 ], [ 5718489.500104010105133, 7698244.39321893081069 ], [ 5718462.608735462650657, 7698204.698065446689725 ], [ 5718446.199867179617286, 7698096.69749138969928 ], [ 5718473.706437872722745, 7697914.698597859591246 ] ], [ [ 5706685.276790685020387, 7701823.976747963577509 ], [ 5706702.676357268355787, 7701810.238959969952703 ], [ 5706722.163777149282396, 7701794.540874975733459 ], [ 5706756.036174426786602, 7701837.935329881496727 ], [ 5706876.304009285755455, 7701998.390523096546531 ], [ 5706999.060721485875547, 7702155.452584683895111 ], [ 5707043.396663996390998, 7702116.529045878909528 ], [ 5707068.887370266951621, 7702096.956274964846671 ], [ 5707072.158386914990842, 7702101.357417859137058 ], [ 5707270.042926787398756, 7702321.250993302091956 ], [ 5707167.332990257069468, 7702422.686596692539752 ], [ 5707209.540535249747336, 7702471.809144981205463 ], [ 5707230.714406068436801, 7702499.801491921767592 ], [ 5707252.292343115434051, 7702538.235081448219717 ], [ 5707261.986605455167592, 7702569.349413020536304 ], [ 5707285.948946562595665, 7702626.191393989138305 ], [ 5707117.466399021446705, 7702742.61555562261492 ], [ 5707113.23860542383045, 7702744.542576206848025 ], [ 5707095.317761194892228, 7702759.060467449016869 ], [ 5707072.225037096999586, 7702727.32384586520493 ], [ 5706971.293278702534735, 7702589.172967931255698 ], [ 5706962.786117134615779, 7702577.520395940169692 ], [ 5706926.542053954675794, 7702527.557474916800857 ], [ 5706923.31353276129812, 7702529.933303293772042 ], [ 5706907.606103939004242, 7702540.991509484127164 ], [ 5706770.204183324240148, 7702639.813720281235874 ], [ 5706732.242329861968756, 7702587.915389567613602 ], [ 5706694.272478712722659, 7702535.069695038720965 ], [ 5706656.92195768840611, 7702484.316498195752501 ], [ 5706619.300116460770369, 7702432.805318238213658 ], [ 5706581.481417504139245, 7702379.819495941512287 ], [ 5706550.329183669760823, 7702335.619740310125053 ], [ 5706548.875291158445179, 7702329.013180764392018 ], [ 5706542.800542331300676, 7702321.406525878235698 ], [ 5706461.375415716320276, 7702380.74060545116663 ], [ 5706415.533116023056209, 7702425.622752780094743 ], [ 5706375.475575874559581, 7702467.397971950471401 ], [ 5706277.777177434414625, 7702428.037147212773561 ], [ 5706147.975776831619442, 7702597.734885461628437 ], [ 5706127.016420778818429, 7702582.621241502463818 ], [ 5706082.422228544950485, 7702555.025206990540028 ], [ 5706035.662428532727063, 7702525.769011866301298 ], [ 5706032.779765510000288, 7702522.923569517210126 ], [ 5706010.657609506510198, 7702508.939808515831828 ], [ 5706140.743869514204562, 7702314.257324228994548 ], [ 5706143.108806143514812, 7702310.680133283138275 ], [ 5706123.497377470135689, 7702281.585083330050111 ], [ 5706057.562399310059845, 7702322.655050409957767 ], [ 5705998.597134149633348, 7702315.158296784386039 ], [ 5705991.771906455978751, 7702305.553695289418101 ], [ 5705960.492423729971051, 7702261.514831738546491 ], [ 5705929.235740039497614, 7702217.519608240574598 ], [ 5705907.835040605627, 7702228.881131916306913 ], [ 5705862.802579597570002, 7702222.809818658977747 ], [ 5705864.549003498628736, 7702173.290773466229439 ], [ 5705971.383389891125262, 7702114.940311568789184 ], [ 5705998.230587841011584, 7702096.606242287904024 ], [ 5706026.811550255864859, 7702078.07714850269258 ], [ 5706073.706881143152714, 7702047.2223114464432 ], [ 5706104.268502667546272, 7702026.414022013545036 ], [ 5706123.822036149911582, 7702057.629751596599817 ], [ 5706127.228736087679863, 7702055.525372094474733 ], [ 5706215.156072407960892, 7702000.314148714765906 ], [ 5706244.213592562824488, 7702042.583440132439137 ], [ 5706254.289249809458852, 7702036.309684609994292 ], [ 5706309.28986338339746, 7701996.464031760580838 ], [ 5706376.51752401329577, 7701944.657561862841249 ], [ 5706458.669638775289059, 7701882.550173017196357 ], [ 5706507.877126907929778, 7701951.293678174726665 ], [ 5706577.961934232152998, 7701902.488678144291043 ], [ 5706644.381071591749787, 7701853.836315369233489 ], [ 5706674.884094574488699, 7701831.646600343286991 ], [ 5706685.276790685020387, 7701823.976747963577509 ] ] ] } }
]
}
