{
"type": "FeatureCollection",
"name": "3528858",
"crs": { "type": "name", "properties": { "name": "urn:ogc:def:crs:EPSG::5880" } },
"features": [
{ "type": "Feature", "properties": { "lv_id": "LOC_050285", "id": 308016.0, "CD_SETOR": "352885805000002", "SITUACAO": "Urbana", "CD_SIT": "1", "CD_TIPO": "0", "AREA_KM2": 0.23979348884447099, "CD_REGIAO": "3", "NM_REGIAO": "Sudeste", "CD_UF": "35", "NM_UF": "São Paulo", "CD_MUN": "3528858", "NM_MUN": "Marapoama", "CD_DIST": "352885805", "NM_DIST": "Marapoama", "CD_SUBDIST": "35288580500", "NM_SUBDIST": null, "CD_BAIRRO": null, "NM_BAIRRO": null, "CD_NU": null, "NM_NU": null, "CD_FCU": null, "NM_FCU": null, "CD_AGLOM": null, "NM_AGLOM": null, "CD_RGINT": "3507", "NM_RGINT": "São José do Rio Preto", "CD_RGI": "350026", "NM_RGI": "Catanduva", "CD_CONCURB": "3511102", "NM_CONCURB": "Catanduva/SP", "mun_code_x": "3528858", "index_right": 81390, "dist_m": 110.48489132930567, "local_id": 546627, "ano": 2022, "cod_localidade_ibge": 3528858, "NR_ZONA": "79", "nr_cep": 15845000.0, "nm_localidade": "MARAPOAMA", "nm_locvot": "EE. BENTO SIQUEIRA", "ds_endereco": "RUA BOM JESUS, S/N", "ds_bairro": "CENTRO", "pred_long": -49.1323646, "pred_lat": -21.2588302, "pred_dist": 0.0, "tse_long": -49.1322313, "tse_lat": -21.2589695, "long": -49.1322313, "lat": -21.2589695, "ID_UNICO": "LOC_050285", "SG_UF": "SP", "CD_MUNICIPIO": "61867", "NR_LOCAL_VOTACAO": "1031", "QT_SECOES_AGREGADAS": 0, "QT_ELEITORES_TRANSFERIDOS": 8, "CIRO GOMES (PDT) (NÃO ELEITO) 1T": 8.0, "CONSTITUINTE EYMAEL (DC) (NÃO ELEITO) 1T": 0.0, "FELIPE D AVILA (NOVO) (NÃO ELEITO) 1T": 7.0, "JAIR BOLSONARO (PL) (2º TURNO) 1T": 867.0, "LULA (PT) (2º TURNO) 1T": 270.0, "LÉO PÉRICLES (UP) (NÃO ELEITO) 1T": 0.0, "PADRE KELMON (PTB) (NÃO ELEITO) 1T": 2.0, "SIMONE TEBET (MDB) (NÃO ELEITO) 1T": 45.0, "SOFIA MANZANO (PCB) (NÃO ELEITO) 1T": 0.0, "SORAYA THRONICKE (UNIÃO) (NÃO ELEITO) 1T": 1.0, "VERA (PSTU) (NÃO ELEITO) 1T": 0.0, "Total_Votos_Validos 1T": 1200.0, "Votos_Brancos 1T": 16.0, "Votos_Nulos 1T": 30.0, "Abstenções 1T": 330.0, "Eleitores_Aptos 1T": 1576.0, "JAIR BOLSONARO (PL) (NÃO ELEITO) 2T": 945.0, "LULA (PT) (ELEITO) 2T": 282.0, "Total_Votos_Validos 2T": 1227.0, "Votos_Brancos 2T": 21.0, "Votos_Nulos 2T": 43.0, "Abstenções 2T": 285.0, "Eleitores_Aptos 2T": 1576.0, "mun_code_y": "3528858", "mun_code": "3528858" }, "geometry": { "type": "Polygon", "coordinates": [ [ [ 5510343.69801436830312, 7639285.837341137230396 ], [ 5509811.198340171948075, 7639102.136012366041541 ], [ 5509376.791239054873586, 7638915.137287380173802 ], [ 5509303.096216322854161, 7638847.739495811983943 ], [ 5509262.792638662271202, 7638722.138687755912542 ], [ 5509247.995177134871483, 7638629.139211820438504 ], [ 5509239.091145722195506, 7638573.118069105781615 ], [ 5509236.691487858071923, 7638558.034674939699471 ], [ 5509190.189510674215853, 7638439.438847620040178 ], [ 5509188.591045029461384, 7638412.039685990661383 ], [ 5509220.495276018045843, 7638271.236339243128896 ], [ 5509232.39081784710288, 7638102.339213244616985 ], [ 5509214.092352870851755, 7638005.936986055225134 ], [ 5509188.188454139046371, 7637962.835401305928826 ], [ 5509104.994318419136107, 7637931.43893682397902 ], [ 5508965.691745144315064, 7637842.132351445965469 ], [ 5508664.694844055920839, 7637571.142471342347562 ], [ 5508451.193364568985999, 7637427.540583189576864 ], [ 5508236.387666768394411, 7637304.035830995067954 ], [ 5508141.791601843200624, 7637260.343417385593057 ], [ 5508004.487743783742189, 7637233.833913812413812 ], [ 5507927.691094464622438, 7637241.840094913728535 ], [ 5507781.286522903479636, 7637239.236836926080287 ], [ 5507527.888672791421413, 7637164.339513757266104 ], [ 5507408.288455983623862, 7637050.342411292716861 ], [ 5507246.392150464467704, 7636946.334684800356627 ], [ 5507177.991800263524055, 7636842.540223702788353 ], [ 5507072.494490885175765, 7636736.93920337036252 ], [ 5507021.888555396348238, 7636627.736939376220107 ], [ 5506987.490307658910751, 7636591.042141534388065 ], [ 5506766.691646314226091, 7636443.939332418143749 ], [ 5506643.586231526918709, 7636429.438062575645745 ], [ 5506541.88627686817199, 7636397.437839044257998 ], [ 5506442.792916843667626, 7636322.13991573639214 ], [ 5506396.991673982702196, 7636298.343283824622631 ], [ 5506342.286932085640728, 7636275.333270060829818 ], [ 5506214.392748424783349, 7636247.242395895533264 ], [ 5506124.291416670195758, 7636215.936879931017756 ], [ 5506035.890246051363647, 7636146.240477063693106 ], [ 5505936.683607419021428, 7636089.334958782419562 ], [ 5505821.592220325022936, 7636038.743049519136548 ], [ 5505771.584901690483093, 7636031.643703101202846 ], [ 5505689.789773140102625, 7636038.63945028744638 ], [ 5505409.586521042510867, 7636116.839368705637753 ], [ 5505206.390644012019038, 7636195.43423780798912 ], [ 5505122.883662852458656, 7636227.738026471808553 ], [ 5505020.490953533910215, 7636248.534124758094549 ], [ 5504939.39266409445554, 7636265.038646647706628 ], [ 5504879.625754967331886, 7636286.529520169831812 ], [ 5504813.985767032019794, 7636310.134878028184175 ], [ 5504447.685306080617011, 7636513.839862585067749 ], [ 5504378.686620117165148, 7636574.739081766456366 ], [ 5504273.683324595913291, 7636728.344859018921852 ], [ 5504210.385895609855652, 7636788.345027501694858 ], [ 5504142.988046471960843, 7636817.334994293749332 ], [ 5504053.184735503979027, 7636829.735406905412674 ], [ 5503966.1860471656546, 7636862.43962333817035 ], [ 5503743.388830928131938, 7637016.144829262979329 ], [ 5503634.282380080781877, 7637054.138837506994605 ], [ 5503510.587879665195942, 7637068.445493995212018 ], [ 5503443.685312928631902, 7637086.93819164391607 ], [ 5503124.789135741069913, 7637276.246661702170968 ], [ 5503079.786024857312441, 7637282.741373987868428 ], [ 5502959.389658452942967, 7637260.13933586049825 ], [ 5502900.891001983545721, 7637267.337146669626236 ], [ 5502691.686221903190017, 7637397.938694635406137 ], [ 5502575.99021156039089, 7637446.338717839680612 ], [ 5502391.084918178617954, 7637459.437279681675136 ], [ 5502196.283390521071851, 7637491.438470289111137 ], [ 5502113.884733750484884, 7637475.942765739746392 ], [ 5501988.188169820234179, 7637407.737971989437938 ], [ 5501938.086036464199424, 7637390.139899272471666 ], [ 5501725.88312360458076, 7637372.244102070108056 ], [ 5501681.479720810428262, 7637356.637455379590392 ], [ 5501634.386105507612228, 7637332.846037145704031 ], [ 5501506.081260719336569, 7637214.937828118912876 ], [ 5501444.887667688541114, 7637177.843995789065957 ], [ 5501340.980134218931198, 7637179.638103866949677 ], [ 5501260.586153404787183, 7637238.747650783509016 ], [ 5501205.479779778048396, 7637259.447210479527712 ], [ 5501132.080307227559388, 7637243.138185160234571 ], [ 5501114.880730703473091, 7637226.941762393340468 ], [ 5501091.384585149586201, 7637140.645909793674946 ], [ 5501046.488505172543228, 7637063.738969419151545 ], [ 5500987.684257504530251, 7636921.743643288500607 ], [ 5500882.886560399085283, 7636779.944997815415263 ], [ 5500846.083498813211918, 7636764.63737986702472 ], [ 5500742.882280089892447, 7636828.842709921300411 ], [ 5500609.178199592977762, 7636804.3433444974944 ], [ 5500558.982941243797541, 7636690.840868841856718 ], [ 5500488.983046037144959, 7636619.545800214633346 ], [ 5500447.882136216387153, 7636530.143822408281267 ], [ 5500399.083884133026004, 7636483.045525064691901 ], [ 5500324.587553233839571, 7636443.944375297985971 ], [ 5500263.278530604206026, 7636398.139531117863953 ], [ 5500195.284935212694108, 7636334.338256731629372 ], [ 5500133.883166246116161, 7636313.347913379780948 ], [ 5499940.077193835750222, 7636319.437986399978399 ], [ 5499820.47868355922401, 7636354.548702359199524 ], [ 5499666.386671112850308, 7636322.743331860750914 ], [ 5499635.182232669554651, 7636296.240000930614769 ], [ 5499612.581782874651253, 7636206.038809718564153 ], [ 5499548.577663172036409, 7636110.246279034763575 ], [ 5499476.18148170504719, 7636045.944043971598148 ], [ 5499457.979847100563347, 7635992.042841853573918 ], [ 5499420.47750028129667, 7635929.541813269257545 ], [ 5499420.277539344504476, 7635864.446275964379311 ], [ 5499411.178416541777551, 7635845.545832078903913 ], [ 5499390.07964947912842, 7635829.04513943195343 ], [ 5499316.982064735144377, 7635803.642737306654453 ], [ 5499303.978468566201627, 7635788.439323764294386 ], [ 5499279.88472559582442, 7635706.739536000415683 ], [ 5499259.382403485476971, 7635688.3427167031914 ], [ 5499206.877219649031758, 7635681.545175514183939 ], [ 5499075.177655941806734, 7635714.242765789851546 ], [ 5498924.379356702789664, 7635720.443507985211909 ], [ 5498897.680033224634826, 7635714.64670243114233 ], [ 5498804.280206496827304, 7635652.138741570524871 ], [ 5498780.480972776189446, 7635645.442209996283054 ], [ 5498556.479163506068289, 7635633.238408357836306 ], [ 5498369.976486976258457, 7635595.244308430701494 ], [ 5498294.481982095167041, 7635563.644307035021484 ], [ 5498249.58167440071702, 7635449.244541162624955 ], [ 5498232.381548766046762, 7635426.746139515191317 ], [ 5498158.279194287955761, 7635387.647719089873135 ], [ 5497898.879940048791468, 7635394.747622402384877 ], [ 5497785.274075934663415, 7635445.539620459079742 ], [ 5497742.577358706854284, 7635445.139209443703294 ], [ 5497616.17403067369014, 7635336.541488103568554 ], [ 5497580.281917246989906, 7635316.844766085967422 ], [ 5497505.778849583119154, 7635298.644959343597293 ], [ 5497406.079273009672761, 7635137.544951646588743 ], [ 5497361.577093258500099, 7635116.643167402595282 ], [ 5497298.682396271266043, 7635113.545081630349159 ], [ 5497261.274624357, 7635092.44952180981636 ], [ 5497240.381962324492633, 7635092.540458403527737 ], [ 5497166.278908802196383, 7635143.849125552922487 ], [ 5497127.574769973754883, 7635130.648214368149638 ], [ 5497069.182159481570125, 7635046.446250604465604 ], [ 5497001.98187224753201, 7635016.744876177981496 ], [ 5496962.783317669294775, 7634972.547844603657722 ], [ 5496911.373487943783402, 7634964.443822257220745 ], [ 5496840.576143781654537, 7634923.940252728760242 ], [ 5496786.978909436613321, 7634916.946799501776695 ], [ 5496728.982292424887419, 7634891.54261108674109 ], [ 5496694.082079405896366, 7634840.84798289462924 ], [ 5496620.879829091951251, 7634683.440461132675409 ], [ 5496529.373809553682804, 7634572.043845455162227 ], [ 5496395.776867997832596, 7634444.847765782848001 ], [ 5496387.372327109798789, 7634425.447744037955999 ], [ 5496386.578310593031347, 7634255.24110671877861 ], [ 5496349.074575860984623, 7634134.748633382841945 ], [ 5496284.581766316667199, 7634006.642609862610698 ], [ 5496234.173552480526268, 7633935.641218017786741 ], [ 5496194.271877255290747, 7633885.24260454531759 ], [ 5496136.772630536928773, 7633843.244772334583104 ], [ 5496001.576609862037003, 7633816.749565716832876 ], [ 5495906.275572469457984, 7633780.542842078953981 ], [ 5495734.278611947782338, 7633779.839669831097126 ], [ 5495514.972004158422351, 7633668.450171599164605 ], [ 5495372.574368980713189, 7633645.346469197422266 ], [ 5495319.871202848851681, 7633621.444966978393495 ], [ 5495161.37620500382036, 7633469.442731423303485 ], [ 5495112.470681468956172, 7633449.247766073793173 ], [ 5495090.576250146143138, 7633451.144548955373466 ], [ 5495014.575371752493083, 7633496.246033342555165 ], [ 5494801.878284922800958, 7633505.94439528696239 ], [ 5494728.777163095772266, 7633487.047771506942809 ], [ 5494665.371308356523514, 7633490.145361691713333 ], [ 5494606.670497104525566, 7633513.94390107691288 ], [ 5494542.972134605050087, 7633574.647553879767656 ], [ 5494468.879845997318625, 7633585.445236703380942 ], [ 5494363.974816777743399, 7633620.040593989193439 ], [ 5494440.723491359502077, 7633677.193563062697649 ], [ 5494517.472659266553819, 7633734.346279241144657 ], [ 5494606.375988006591797, 7633851.55071091838181 ], [ 5494712.078477087430656, 7633938.347521830350161 ], [ 5494800.678888021036983, 7634164.545466548763216 ], [ 5494860.371257903054357, 7634429.450616190209985 ], [ 5494909.779700073413551, 7634584.249025616794825 ], [ 5494956.1717365141958, 7634680.14090540073812 ], [ 5495021.980938333086669, 7634765.945147447288036 ], [ 5495066.978180857375264, 7634855.846067519858479 ], [ 5495135.579375146888196, 7634932.343674088828266 ], [ 5495178.572169047780335, 7635018.749781458638608 ], [ 5495261.574127752333879, 7635351.247150671668351 ], [ 5495296.07750151026994, 7635580.050276354886591 ], [ 5495318.180402451194823, 7635644.645429693162441 ], [ 5495360.779047332704067, 7635845.248825969174504 ], [ 5495494.573394378647208, 7636246.55058235488832 ], [ 5495532.68263965472579, 7636334.749132122844458 ], [ 5495596.877811477519572, 7636427.34623065777123 ], [ 5495612.074753325432539, 7636465.051426802761853 ], [ 5495661.574632301926613, 7636659.646249063313007 ], [ 5495733.676286710426211, 7636816.54636886715889 ], [ 5495766.880860902369022, 7636972.447167433798313 ], [ 5496050.375817288644612, 7637270.748876081779599 ], [ 5496164.679485663771629, 7637427.847177624702454 ], [ 5496210.277598404325545, 7637525.951581140980124 ], [ 5496244.383431733585894, 7637557.550276562571526 ], [ 5496280.17636120505631, 7637614.341683179140091 ], [ 5496329.383468089625239, 7637640.649214003235102 ], [ 5496346.58286701515317, 7637661.449506185017526 ], [ 5496371.575129104778171, 7637732.845795238390565 ], [ 5496449.979353663511574, 7637792.144899675622582 ], [ 5496553.381065662950277, 7637900.351363653317094 ], [ 5496600.77693991176784, 7637971.345859940163791 ], [ 5496624.683735989965498, 7638041.141715914011002 ], [ 5496689.18451727181673, 7638142.450114278122783 ], [ 5496716.977614636532962, 7638221.250151451677084 ], [ 5496763.080283595249057, 7638260.150927940383554 ], [ 5496833.98002652451396, 7638269.044150805100799 ], [ 5496887.780184094794095, 7638320.744272219017148 ], [ 5496984.877254107967019, 7638324.242033952847123 ], [ 5497026.381810558959842, 7638345.348719861358404 ], [ 5497098.783864830620587, 7638433.549995170906186 ], [ 5497166.684546039439738, 7638460.943965967744589 ], [ 5497280.885535061359406, 7638466.943129885941744 ], [ 5497463.278952070511878, 7638437.048187987878919 ], [ 5497517.080728362314403, 7638437.747068604454398 ], [ 5497601.782724725082517, 7638454.940140573307872 ], [ 5497733.276995308697224, 7638446.444112334400415 ], [ 5497849.979638069868088, 7638453.441127048805356 ], [ 5497973.382266539148986, 7638487.544750306755304 ], [ 5498004.379902270622551, 7638510.646636876277626 ], [ 5498139.185475351288915, 7638694.14735240675509 ], [ 5498190.980916918255389, 7638739.149878050200641 ], [ 5498314.685826411470771, 7638816.242642601951957 ], [ 5498412.880561434663832, 7638942.1446453910321 ], [ 5498443.28127468470484, 7638966.741988811641932 ], [ 5498476.185477172024548, 7638978.740799936465919 ], [ 5498573.182800443843007, 7638993.144483522512019 ], [ 5498597.980818597599864, 7639004.545357780531049 ], [ 5498637.084535692818463, 7639043.544338118284941 ], [ 5498779.77941432222724, 7639238.946801818907261 ], [ 5498866.681813661009073, 7639393.1471291705966 ], [ 5498946.179005041718483, 7639578.639918129891157 ], [ 5499010.085359607823193, 7639788.141130618751049 ], [ 5499041.384622127749026, 7639842.54430618789047 ], [ 5499265.782530201599002, 7640146.347733181901276 ], [ 5499606.582548684440553, 7640454.047123842872679 ], [ 5499945.884318446740508, 7640702.642084373161197 ], [ 5500000.690510908141732, 7640778.650444589555264 ], [ 5500106.381078712642193, 7640924.941970445215702 ], [ 5500199.182555000297725, 7641017.94711864925921 ], [ 5500272.380899392999709, 7641110.650052787736058 ], [ 5500349.185118501074612, 7641176.842013707384467 ], [ 5500651.817653374746442, 7641385.423473529517651 ], [ 5500684.784952033311129, 7641408.140033897012472 ], [ 5500714.682421553879976, 7641443.239599823951721 ], [ 5500849.182749453000724, 7641601.249608278274536 ], [ 5500897.784670654684305, 7641682.346216332167387 ], [ 5501009.890811804682016, 7641931.643088784068823 ], [ 5501049.089319279417396, 7642087.740849269554019 ], [ 5501105.984390795230865, 7642193.140593023039401 ], [ 5501130.587597179226577, 7642273.847879179753363 ], [ 5501133.883355105295777, 7642353.950406027957797 ], [ 5501152.387808415107429, 7642436.944086844101548 ], [ 5501184.482800887897611, 7642482.043373540043831 ], [ 5501213.492891223169863, 7642578.850078510120511 ], [ 5501265.291795170865953, 7642646.848397328518331 ], [ 5501311.587776410393417, 7642812.541052667424083 ], [ 5501390.190438129007816, 7642976.446750631555915 ], [ 5501437.891047266311944, 7643024.447066925466061 ], [ 5501448.986230261623859, 7643102.144774189218879 ], [ 5501483.98819197807461, 7643154.644330653361976 ], [ 5501494.585760097019374, 7643259.247327987104654 ], [ 5501542.68569116666913, 7643330.847538887523115 ], [ 5501578.785864354111254, 7643454.350001128390431 ], [ 5501639.592373228631914, 7643548.540695490315557 ], [ 5501706.284508585929871, 7643697.04284131154418 ], [ 5501729.590079857967794, 7643818.147340166382492 ], [ 5501794.987205372191966, 7643948.343784727156162 ], [ 5501857.090168979018927, 7644130.843346379697323 ], [ 5501894.490610480308533, 7644278.140668790787458 ], [ 5501907.789006439037621, 7644400.740103391930461 ], [ 5501906.390221166424453, 7644590.347421929240227 ], [ 5501952.693746571429074, 7644664.547092393040657 ], [ 5502127.890194674953818, 7644769.241949395276606 ], [ 5502312.792634762823582, 7644841.048052564263344 ], [ 5502478.193648338317871, 7644952.040030246600509 ], [ 5502741.590706958435476, 7645062.543426975607872 ], [ 5502870.292815718799829, 7645092.450719666667283 ], [ 5503025.88798008672893, 7645103.043650668114424 ], [ 5503159.795671656727791, 7645079.341618055477738 ], [ 5503264.989488922059536, 7645092.142661664634943 ], [ 5503508.98796730209142, 7645150.948479380458593 ], [ 5503720.887025510892272, 7645153.942338604480028 ], [ 5503834.790924223139882, 7645195.041711673140526 ], [ 5503885.495746063068509, 7645242.045826140791178 ], [ 5503913.394064768217504, 7645293.549644628539681 ], [ 5503911.596530201844871, 7645405.74649304151535 ], [ 5503894.187728917226195, 7645483.041658887639642 ], [ 5503843.595258821733296, 7645552.642542151734233 ], [ 5503751.995278988033533, 7645637.545809110626578 ], [ 5503693.687604629434645, 7645736.440098457969725 ], [ 5503695.696404471993446, 7645849.542118889279664 ], [ 5503735.291541719809175, 7645966.54804824758321 ], [ 5503788.896928193978965, 7646032.243120867758989 ], [ 5503872.194489596411586, 7646110.639981113374233 ], [ 5503977.487914526835084, 7646287.547336459159851 ], [ 5504091.893233341164887, 7646430.550330968573689 ], [ 5504209.696563108824193, 7646556.247429728507996 ], [ 5504237.395475423894823, 7646603.546042207628489 ], [ 5504308.894223841838539, 7646854.750535929575562 ], [ 5504313.89133872743696, 7647039.545038260519505 ], [ 5504345.096665408462286, 7647127.350449658930302 ], [ 5504356.993657377548516, 7647244.750339264050126 ], [ 5504320.593355514109135, 7647431.247736943885684 ], [ 5504322.099312262609601, 7647607.248507898300886 ], [ 5504310.190294312313199, 7647711.243861404247582 ], [ 5504227.697139681316912, 7647875.140663844533265 ], [ 5504201.493244297802448, 7648097.249339517205954 ], [ 5504183.989925942383707, 7648165.846397567540407 ], [ 5504145.595181779935956, 7648250.751402407884598 ], [ 5504077.295595243573189, 7648455.6477484786883 ], [ 5504119.298151675611734, 7648449.549463581293821 ], [ 5504159.297336725518107, 7648466.247457557357848 ], [ 5504304.590410625562072, 7648561.746996955014765 ], [ 5504366.993743300437927, 7648590.147787659429014 ], [ 5504560.493912599980831, 7648635.441939240321517 ], [ 5504615.596882686018944, 7648632.041026648133993 ], [ 5504655.698612753301859, 7648618.143553548492491 ], [ 5504785.097046257928014, 7648546.046808175742626 ], [ 5504829.790618127211928, 7648531.141228065825999 ], [ 5504895.700036469846964, 7648479.348155070096254 ], [ 5505007.190830406732857, 7648473.148714147508144 ], [ 5505062.993934034369886, 7648423.142877282574773 ], [ 5505110.397528752684593, 7648431.244122114032507 ], [ 5505156.792882312089205, 7648519.949938887730241 ], [ 5505197.092704396694899, 7648540.647965202108026 ], [ 5505224.09865587670356, 7648538.440909186378121 ], [ 5505266.70011751819402, 7648512.241725672036409 ], [ 5505316.193644762039185, 7648511.244147210381925 ], [ 5505371.193579040467739, 7648479.441187449730933 ], [ 5505392.895247954875231, 7648451.649947583675385 ], [ 5505404.396240623667836, 7648333.841502159833908 ], [ 5505458.494705842807889, 7648259.150680892169476 ], [ 5505470.593286955729127, 7648219.74203728698194 ], [ 5505486.891305937431753, 7647997.642901546321809 ], [ 5505511.093062601983547, 7647954.539710874669254 ], [ 5505609.5917704468593, 7647842.346681948751211 ], [ 5505666.597451069392264, 7647806.946733448654413 ], [ 5505701.700333209708333, 7647765.341468533501029 ], [ 5505710.700564607046545, 7647731.639309444464743 ], [ 5505730.100425644777715, 7647710.140828680247068 ], [ 5505820.494761722162366, 7647668.346364445984364 ], [ 5505937.598385943099856, 7647659.044200520962477 ], [ 5506062.69402973446995, 7647603.54616245161742 ], [ 5506166.896334033459425, 7647521.642734083347023 ], [ 5506188.798053302802145, 7647514.6458127386868 ], [ 5506267.898210822604597, 7647524.545826567336917 ], [ 5506361.192051861435175, 7647513.93971486762166 ], [ 5506396.097438737750053, 7647533.545037779025733 ], [ 5506452.595956092700362, 7647547.940493475645781 ], [ 5506514.899375539273024, 7647529.842395935207605 ], [ 5506546.700858045369387, 7647530.941011799499393 ], [ 5506620.995522923767567, 7647586.547989027574658 ], [ 5506638.893394844606519, 7647589.541532125324011 ], [ 5506705.795544668100774, 7647550.743212342262268 ], [ 5506785.001152937300503, 7647561.348828997462988 ], [ 5506857.096448125317693, 7647512.74423841573298 ], [ 5507048.299258787184954, 7647310.839133609086275 ], [ 5507069.195683721452951, 7647303.938568357378244 ], [ 5507212.899218233302236, 7647323.243326826021075 ], [ 5507330.002549055032432, 7647364.24780298769474 ], [ 5507436.297282162122428, 7647381.148762319236994 ], [ 5507513.396486979909241, 7647368.246260862797499 ], [ 5507609.601881648413837, 7647332.839838322252035 ], [ 5507721.79461735766381, 7647243.543570563197136 ], [ 5507747.199205151759088, 7647211.044104134663939 ], [ 5507750.198716756887734, 7647189.737692421302199 ], [ 5507732.699683578684926, 7647141.738495049998164 ], [ 5507773.101529095321894, 7647086.239683313295245 ], [ 5507741.793009733781219, 7647017.241974011994898 ], [ 5507743.594761301763356, 7646989.438371298834682 ], [ 5507762.693832936696708, 7646952.243957877159119 ], [ 5507778.395760318264365, 7646931.54538928437978 ], [ 5507864.5934919109568, 7646889.044829242862761 ], [ 5507925.392995843663812, 7646836.137970167212188 ], [ 5508038.292614935897291, 7646631.945777994580567 ], [ 5508065.300109467469156, 7646553.845424439758062 ], [ 5508149.196428847499192, 7646427.147032552398741 ], [ 5508186.592841053381562, 7646388.141518054530025 ], [ 5508232.70109177287668, 7646373.247605299577117 ], [ 5508350.498683196492493, 7646361.837575174868107 ], [ 5508444.395871971733868, 7646333.341235917061567 ], [ 5508499.899775039404631, 7646253.746930903755128 ], [ 5508583.301788118667901, 7646019.145277062430978 ], [ 5508597.498493268154562, 7645907.145829372107983 ], [ 5508612.900261747650802, 7645859.340307230129838 ], [ 5508635.202056073583663, 7645822.044940648600459 ], [ 5508730.195051578804851, 7645742.438236448913813 ], [ 5508810.996410558000207, 7645585.536717187613249 ], [ 5508824.297867501154542, 7645515.537013588473201 ], [ 5508872.79879545699805, 7645456.53787712007761 ], [ 5508879.699684953317046, 7645431.142720447853208 ], [ 5508872.099653673358262, 7645387.938425718806684 ], [ 5508889.702815738506615, 7645360.644911341369152 ], [ 5508886.393534089438617, 7645281.546952721662819 ], [ 5508901.097753277979791, 7645251.542765775695443 ], [ 5509128.102788343094289, 7645119.535913340747356 ], [ 5509209.901579404249787, 7644977.335339801385999 ], [ 5509249.994211512617767, 7644945.44349973462522 ], [ 5509285.698340279981494, 7644894.940273710526526 ], [ 5509345.495902319438756, 7644786.636705788783729 ], [ 5509378.894705947488546, 7644702.643876412883401 ], [ 5509427.49455962702632, 7644654.040556834079325 ], [ 5509446.393700817599893, 7644575.442320097237825 ], [ 5509507.894911681301892, 7644528.238741979002953 ], [ 5509518.793612954206765, 7644529.345329385250807 ], [ 5509554.495366505347192, 7644480.841473672538996 ], [ 5509575.995168600231409, 7644421.843066018074751 ], [ 5509598.100352912209928, 7644393.441741902381182 ], [ 5509631.693673519417644, 7644373.440836673602462 ], [ 5509711.201162087731063, 7644355.637762116268277 ], [ 5509927.800209561362863, 7644359.93820995464921 ], [ 5509982.500922451727092, 7644345.037618344649673 ], [ 5510030.896972724236548, 7644239.739978906698525 ], [ 5510124.20250301156193, 7644178.943554060533643 ], [ 5510203.29418526776135, 7644085.538085328415036 ], [ 5510245.803331887349486, 7644009.838209015317261 ], [ 5510414.594998942688107, 7643913.943855694495142 ], [ 5510496.796563010662794, 7643828.140910424292088 ], [ 5510738.900180287659168, 7643750.944357842206955 ], [ 5510777.395461097359657, 7643748.735595558770001 ], [ 5510849.502699338831007, 7643776.342025404796004 ], [ 5510889.198741501197219, 7643776.340498983860016 ], [ 5511017.898691487498581, 7643682.941763912327588 ], [ 5511187.195180431008339, 7643607.536792209371924 ], [ 5511277.8976129014045, 7643580.841480384580791 ], [ 5511475.903701240196824, 7643576.341167795471847 ], [ 5511562.901193388737738, 7643527.733224656432867 ], [ 5511786.40001863706857, 7643330.642581108957529 ], [ 5511957.401170692406595, 7643232.837238809093833 ], [ 5512136.499198766425252, 7643112.639350507408381 ], [ 5512163.902931993827224, 7643089.835580570623279 ], [ 5512198.294922394677997, 7643028.3394336681813 ], [ 5512215.200000060722232, 7642854.333190081641078 ], [ 5512335.605039967224002, 7642603.336877755820751 ], [ 5512345.494569022208452, 7642517.833313144743443 ], [ 5512373.799115980044007, 7642451.03637405205518 ], [ 5512414.695344892330468, 7642404.039081646129489 ], [ 5512490.098826697096229, 7642356.941908432170749 ], [ 5512553.003482520580292, 7642277.739212729968131 ], [ 5512744.203829668462276, 7642154.841442577540874 ], [ 5512783.704880646429956, 7642120.433437618426979 ], [ 5512791.198739896528423, 7642099.339351214468479 ], [ 5512828.704980664886534, 7641993.734273875132203 ], [ 5512827.901625772938132, 7641907.141373838298023 ], [ 5512810.10063259024173, 7641849.241215410642326 ], [ 5512745.704604138620198, 7641741.531322566792369 ], [ 5512487.701533718034625, 7641431.139850064180791 ], [ 5512458.599400280974805, 7641380.438632995821536 ], [ 5512415.297147846780717, 7641248.742305243387818 ], [ 5512374.095909265801311, 7641192.34007185138762 ], [ 5512345.80204176902771, 7641121.931813325732946 ], [ 5512256.00173281878233, 7641066.536458622664213 ], [ 5512095.895002538338304, 7641023.338405527174473 ], [ 5512068.296481162309647, 7641006.141079118475318 ], [ 5511945.694099589250982, 7640860.539626099169254 ], [ 5511810.993269667029381, 7640741.831691943109035 ], [ 5511784.003100772388279, 7640694.831503286957741 ], [ 5511760.797826357185841, 7640481.136308858171105 ], [ 5511727.595414864830673, 7640336.133199306204915 ], [ 5511687.500929108820856, 7640233.84240373596549 ], [ 5511620.700848183594644, 7640127.93985959328711 ], [ 5511050.596944446675479, 7639781.734236648306251 ], [ 5510610.796750740148127, 7639434.833134629763663 ], [ 5510570.843297786079347, 7639412.551622372120619 ], [ 5510343.69801436830312, 7639285.837341137230396 ] ] ] } }
]
}
