{
"type": "FeatureCollection",
"name": "3534807",
"crs": { "type": "name", "properties": { "name": "urn:ogc:def:crs:EPSG::5880" } },
"features": [
{ "type": "Feature", "properties": { "lv_id": "LOC_054099", "id": 315452.0, "CD_SETOR": "353480705000002", "SITUACAO": "Urbana", "CD_SIT": "1", "CD_TIPO": "0", "AREA_KM2": 0.23596605152427799, "CD_REGIAO": "3", "NM_REGIAO": "Sudeste", "CD_UF": "35", "NM_UF": "São Paulo", "CD_MUN": "3534807", "NM_MUN": "Ouro Verde", "CD_DIST": "353480705", "NM_DIST": "Ouro Verde", "CD_SUBDIST": "35348070500", "NM_SUBDIST": null, "CD_BAIRRO": "3534807002", "NM_BAIRRO": "Primavera", "CD_NU": null, "NM_NU": null, "CD_FCU": null, "NM_FCU": null, "CD_AGLOM": null, "NM_AGLOM": null, "CD_RGINT": "3505", "NM_RGINT": "Presidente Prudente", "CD_RGI": "350020", "NM_RGI": "Dracena", "CD_CONCURB": null, "NM_CONCURB": null, "mun_code_x": "3534807", "index_right": 86024, "dist_m": 189.05103917831389, "local_id": 585519, "ano": 2022, "cod_localidade_ibge": 3534807, "NR_ZONA": "149", "nr_cep": 17920000.0, "nm_localidade": "OURO VERDE", "nm_locvot": "EE FERDINANDO IENNY", "ds_endereco": "AV RIO DE JANEIRO, 792", "ds_bairro": "CENTRO", "pred_long": -51.702615, "pred_lat": -21.4853, "pred_dist": 0.0, "tse_long": -51.7023146, "tse_lat": -21.4855515, "long": -51.7023146, "lat": -21.4855515, "ID_UNICO": "LOC_054099", "SG_UF": "SP", "CD_MUNICIPIO": "67970", "NR_LOCAL_VOTACAO": "1015", "QT_SECOES_AGREGADAS": 0, "QT_ELEITORES_TRANSFERIDOS": 18, "CIRO GOMES (PDT) (NÃO ELEITO) 1T": 32.0, "CONSTITUINTE EYMAEL (DC) (NÃO ELEITO) 1T": 2.0, "FELIPE D AVILA (NOVO) (NÃO ELEITO) 1T": 8.0, "JAIR BOLSONARO (PL) (2º TURNO) 1T": 1437.0, "LULA (PT) (2º TURNO) 1T": 1367.0, "LÉO PÉRICLES (UP) (NÃO ELEITO) 1T": 1.0, "PADRE KELMON (PTB) (NÃO ELEITO) 1T": 4.0, "SIMONE TEBET (MDB) (NÃO ELEITO) 1T": 98.0, "SOFIA MANZANO (PCB) (NÃO ELEITO) 1T": 2.0, "SORAYA THRONICKE (UNIÃO) (NÃO ELEITO) 1T": 7.0, "VERA (PSTU) (NÃO ELEITO) 1T": 1.0, "Total_Votos_Validos 1T": 2959.0, "Votos_Brancos 1T": 51.0, "Votos_Nulos 1T": 65.0, "Abstenções 1T": 879.0, "Eleitores_Aptos 1T": 3954.0, "JAIR BOLSONARO (PL) (NÃO ELEITO) 2T": 1619.0, "LULA (PT) (ELEITO) 2T": 1379.0, "Total_Votos_Validos 2T": 2998.0, "Votos_Brancos 2T": 55.0, "Votos_Nulos 2T": 85.0, "Abstenções 2T": 816.0, "Eleitores_Aptos 2T": 3954.0, "mun_code_y": "3534807", "mun_code": "3534807" }, "geometry": { "type": "Polygon", "coordinates": [ [ [ 5236321.339009298942983, 7620857.726614370942116 ], [ 5236310.840843103826046, 7620721.980325167998672 ], [ 5236274.800281651318073, 7620303.593561492860317 ], [ 5236267.976817270740867, 7620227.244105408899486 ], [ 5236260.422388825565577, 7620141.98496722523123 ], [ 5236260.34663025662303, 7620141.764448756352067 ], [ 5236256.840165872126818, 7620102.422036553733051 ], [ 5236252.567419485189021, 7620054.591543354094028 ], [ 5236214.850053976289928, 7619626.333617554977536 ], [ 5236207.927330533973873, 7619561.642977239564061 ], [ 5236196.831372539512813, 7619428.221286419779062 ], [ 5236185.318504679948092, 7619287.525336941704154 ], [ 5236184.158933266066015, 7619271.252925030887127 ], [ 5236159.016486902721226, 7618954.842110904864967 ], [ 5236124.847661026753485, 7618529.646010810509324 ], [ 5236097.859027284197509, 7618185.370678285136819 ], [ 5236061.07702798396349, 7617724.464636513963342 ], [ 5236059.051303648389876, 7617697.112581506371498 ], [ 5236057.070446725934744, 7617674.968028394505382 ], [ 5236046.382979637943208, 7617555.303086990490556 ], [ 5236043.182878829538822, 7617523.447038354352117 ], [ 5236032.13691580761224, 7617391.985854838043451 ], [ 5236025.329564893618226, 7617319.536635624244809 ], [ 5236005.006846374832094, 7617082.706785008311272 ], [ 5236001.616682942956686, 7617054.864892644807696 ], [ 5235985.910481718368828, 7616868.852485066279769 ], [ 5235974.23643814586103, 7616730.541166540235281 ], [ 5235966.620325565338135, 7616628.915866186842322 ], [ 5235961.961206775158644, 7616554.562557034194469 ], [ 5235953.740894226357341, 7616432.113419529050589 ], [ 5235949.788854896090925, 7616360.774951281026006 ], [ 5235948.781691046431661, 7616343.58055214677006 ], [ 5235944.601687931455672, 7616267.97914619371295 ], [ 5235940.855048618279397, 7616195.806583980098367 ], [ 5235936.328208465129137, 7616119.15751819126308 ], [ 5235931.426316367462277, 7616028.872968230396509 ], [ 5235925.3912089522928, 7615951.104539724066854 ], [ 5235920.126360942609608, 7615865.058294743299484 ], [ 5235915.529841692186892, 7615784.343430797569454 ], [ 5235906.794722805730999, 7615610.983636908233166 ], [ 5235902.776609823107719, 7615522.33726033847779 ], [ 5235898.384850843809545, 7615456.368470506742597 ], [ 5235896.966129573993385, 7615420.19796871766448 ], [ 5235892.488243356347084, 7615364.657843634486198 ], [ 5235887.221761211752892, 7615260.039494996890426 ], [ 5235881.677655990235507, 7615167.636678259819746 ], [ 5235876.265010088682175, 7615082.113366251811385 ], [ 5235872.726244020275772, 7615049.752487959340215 ], [ 5235861.799405690282583, 7615019.427563265897334 ], [ 5235806.902457016520202, 7614890.23506795335561 ], [ 5235794.181652846746147, 7614868.302601620554924 ], [ 5235770.875673010013998, 7614806.067102892324328 ], [ 5235743.650417203083634, 7614745.019045527093112 ], [ 5235708.831637074239552, 7614661.952576018869877 ], [ 5235680.048634220845997, 7614587.829201967455447 ], [ 5235641.103528373874724, 7614501.664690645411611 ], [ 5235614.433716034516692, 7614447.390092901885509 ], [ 5235591.560361813753843, 7614404.806173449382186 ], [ 5235564.884215150028467, 7614350.077286802232265 ], [ 5235533.319007123820484, 7614271.927526284009218 ], [ 5235503.167401109822094, 7614196.926343416795135 ], [ 5235471.642255651764572, 7614121.490820279344916 ], [ 5235429.050469809211791, 7614034.470492701977491 ], [ 5235391.150814704596996, 7613957.332622684538364 ], [ 5235355.043957428075373, 7613878.794507735408843 ], [ 5235325.895627480000257, 7613814.261307507753372 ], [ 5235320.789585295133293, 7613802.955324874259531 ], [ 5235295.967112761922181, 7613750.91404565051198 ], [ 5235283.788880694657564, 7613724.884462272748351 ], [ 5235264.419136539101601, 7613704.389404136687517 ], [ 5235216.668998935259879, 7613668.494827119633555 ], [ 5235091.904992338269949, 7613580.34334067068994 ], [ 5234926.023483430966735, 7613459.878169476054609 ], [ 5234881.717940860427916, 7613428.531323577277362 ], [ 5234687.79882332123816, 7613269.632415175437927 ], [ 5234525.176121453754604, 7613139.18770707398653 ], [ 5234458.594151772558689, 7613080.981403565965593 ], [ 5234386.759693806990981, 7613018.418673180043697 ], [ 5234216.41901748906821, 7612871.162545830011368 ], [ 5234117.706740288063884, 7612780.798378095962107 ], [ 5234034.979768046177924, 7612712.663379060104489 ], [ 5233922.857754188589752, 7612620.331805726513267 ], [ 5233805.660718652419746, 7612515.795247152447701 ], [ 5233731.510785775259137, 7612449.651215921156108 ], [ 5233633.997228239662945, 7612359.455643223598599 ], [ 5233622.333026042208076, 7612348.665287038311362 ], [ 5233605.053235170431435, 7612332.049985077232122 ], [ 5233509.645745885558426, 7612240.560079542919993 ], [ 5233427.737903769128025, 7612164.964182324707508 ], [ 5233299.774752498604357, 7612043.947653176262975 ], [ 5233206.726486467756331, 7611951.347331799566746 ], [ 5233146.949098754674196, 7611898.911209564656019 ], [ 5233104.557993277907372, 7611856.163466696627438 ], [ 5233031.840086536481977, 7611787.658026795834303 ], [ 5232938.833689089864492, 7611697.759627301245928 ], [ 5232853.257007727399468, 7611619.499467479065061 ], [ 5232811.810398869216442, 7611578.222332592122257 ], [ 5232765.112623339518905, 7611534.073314226232469 ], [ 5232726.518676431849599, 7611472.953069180250168 ], [ 5232687.185670522972941, 7611405.09507792070508 ], [ 5232656.195315211080015, 7611349.760157285258174 ], [ 5232634.270669670775533, 7611308.976821508258581 ], [ 5232630.904772442765534, 7611311.873175925575197 ], [ 5232548.195388343185186, 7611384.194550415500998 ], [ 5232203.580743199214339, 7611677.529410300776362 ], [ 5232409.792021792382002, 7611981.62602586299181 ], [ 5232440.034612716175616, 7612054.081236500293016 ], [ 5232305.440180630423129, 7612170.574328833259642 ], [ 5232240.303394496440887, 7612379.778625036589801 ], [ 5232116.187623267993331, 7612548.177250565961003 ], [ 5232089.227827247232199, 7612704.773147135972977 ], [ 5232150.830121533945203, 7612955.547088893130422 ], [ 5232024.742479234002531, 7613171.698313862085342 ], [ 5231976.7443872038275, 7613366.747649375349283 ], [ 5229489.57399379555136, 7612982.38994871545583 ], [ 5229164.678578584454954, 7611709.926189546473324 ], [ 5229163.658082701265812, 7611705.896206202916801 ], [ 5229155.319276296533644, 7611707.299998702481389 ], [ 5229089.961756027303636, 7611718.256113288924098 ], [ 5228868.592267031781375, 7610904.547377284616232 ], [ 5228755.18220570217818, 7610991.621867252513766 ], [ 5228383.920455975458026, 7610373.193486199714243 ], [ 5228574.613953644409776, 7610262.96426544431597 ], [ 5228961.651155596598983, 7609678.758303936570883 ], [ 5228582.238197405822575, 7609693.151147343218327 ], [ 5228523.257514895871282, 7609235.721163052134216 ], [ 5228420.875967575237155, 7609194.777545943856239 ], [ 5228329.003899927251041, 7609230.42958302423358 ], [ 5228290.191171599552035, 7609324.93284485861659 ], [ 5228317.934626873582602, 7609417.008543173782527 ], [ 5228384.484668753109872, 7609473.330974010750651 ], [ 5228396.641052207909524, 7609577.007337890565395 ], [ 5228324.036585015244782, 7609616.807309547439218 ], [ 5228238.777075406163931, 7609585.70328791346401 ], [ 5228078.323137641884387, 7609425.963246993720531 ], [ 5228061.628390170633793, 7609412.758563678711653 ], [ 5227918.078238106332719, 7609344.526256885379553 ], [ 5227832.727284047752619, 7609301.664994658902287 ], [ 5227670.929557777009904, 7609288.294216329231858 ], [ 5227556.74823815561831, 7609279.202717756852508 ], [ 5227500.722572343423963, 7609267.561091382056475 ], [ 5227480.124635287560523, 7609266.865634671412408 ], [ 5227416.205009010620415, 7609249.163206294178963 ], [ 5227350.650683484040201, 7609244.780388562008739 ], [ 5227273.08307777531445, 7609260.95511232316494 ], [ 5227214.299089163541794, 7609315.170466331765056 ], [ 5227189.117530807852745, 7609355.19413688685745 ], [ 5227140.642458155751228, 7609417.120023397728801 ], [ 5227090.690836259163916, 7609461.005084566771984 ], [ 5227034.385145604610443, 7609467.737448243424296 ], [ 5226971.952377328649163, 7609449.735277372412384 ], [ 5226912.415698024444282, 7609405.708045166917145 ], [ 5226857.714481144212186, 7609378.521598631516099 ], [ 5226773.518535632640123, 7609396.958891121670604 ], [ 5226765.735631593503058, 7609467.264077640138566 ], [ 5226806.402581918984652, 7609527.469105517491698 ], [ 5226919.523109112866223, 7609598.710030219517648 ], [ 5226965.712793672457337, 7609653.163721578195691 ], [ 5226939.246795242652297, 7609744.031768646091223 ], [ 5226778.507748635485768, 7609720.021549850702286 ], [ 5226700.472025441937149, 7609653.749013032764196 ], [ 5226620.70580498687923, 7609614.625801858492196 ], [ 5226532.647818346507847, 7609614.068426802754402 ], [ 5226465.565744329243898, 7609646.989546780474484 ], [ 5226405.591094012372196, 7609697.838653655722737 ], [ 5226299.129199930466712, 7609679.56572016980499 ], [ 5226156.490685800090432, 7609657.467169368639588 ], [ 5226032.371289239265025, 7609659.850634187459946 ], [ 5225956.857983225025237, 7609724.555948430672288 ], [ 5225963.030325717292726, 7609810.277233898639679 ], [ 5225912.869007451459765, 7609901.608019154518843 ], [ 5225912.783844063989818, 7610014.553223468363285 ], [ 5225885.360838022083044, 7610114.473959816619754 ], [ 5225833.549000139348209, 7610237.451298104599118 ], [ 5225849.305391298606992, 7610352.357404429465532 ], [ 5225856.347603262402117, 7610483.241795929148793 ], [ 5225787.170947414822876, 7610525.230595839209855 ], [ 5225695.991083350963891, 7610479.547642930410802 ], [ 5225641.964810485951602, 7610487.373031320050359 ], [ 5225586.414700174704194, 7610533.613537881523371 ], [ 5225620.960924324579537, 7610686.562190150842071 ], [ 5225615.582984853535891, 7610758.948866125196218 ], [ 5225544.367301270365715, 7610812.278148399665952 ], [ 5225450.939716311171651, 7610766.63624466676265 ], [ 5225401.977049991488457, 7610686.255638133734465 ], [ 5225333.495462471619248, 7610646.912801790051162 ], [ 5225274.786469743587077, 7610645.79386992380023 ], [ 5225234.983188947662711, 7610689.475057259202003 ], [ 5225190.895399354398251, 7610744.540199814364314 ], [ 5225129.104894519783556, 7610818.013198127038777 ], [ 5225065.264720527455211, 7610844.090065266937017 ], [ 5224998.476830577477813, 7610834.085445648059249 ], [ 5224902.851223171688616, 7610791.88396860472858 ], [ 5224833.200313260778785, 7610809.032503582537174 ], [ 5224796.007990373298526, 7610870.737184120342135 ], [ 5224821.005377639085054, 7610938.023885548114777 ], [ 5224806.604981836862862, 7611010.591042255051434 ], [ 5224747.75870016682893, 7611061.417126582935452 ], [ 5224674.333626260980964, 7611117.044397270306945 ], [ 5224593.598192834295332, 7611144.573345798999071 ], [ 5224541.403591345064342, 7611130.895383786410093 ], [ 5224526.894012843258679, 7611080.360039545223117 ], [ 5224558.823482650332153, 7611022.164350938983262 ], [ 5224613.095411146990955, 7610984.954075913876295 ], [ 5224640.653184486553073, 7610950.531193006783724 ], [ 5224637.957781234756112, 7610869.271516288630664 ], [ 5224576.249176515266299, 7610829.798021301627159 ], [ 5224497.710819921456277, 7610796.298247134312987 ], [ 5224400.184255045838654, 7610772.19259313121438 ], [ 5224341.918137189932168, 7610806.66547573544085 ], [ 5224272.119268163107336, 7610865.365153516642749 ], [ 5224166.318966736085713, 7610851.068483945913613 ], [ 5224078.904313950799406, 7610735.473505473695695 ], [ 5224006.677675689570606, 7610735.734429294243455 ], [ 5223988.4084712266922, 7610783.523072639480233 ], [ 5223976.058510572649539, 7610845.877771404571831 ], [ 5223968.384413551539183, 7610916.045682355761528 ], [ 5223961.594055688939989, 7610973.780184119008482 ], [ 5223925.620499471202493, 7611039.986346732825041 ], [ 5223884.543271606788039, 7611075.792161449790001 ], [ 5223821.292263482697308, 7611073.622803681530058 ], [ 5223735.121788278222084, 7611016.26949477661401 ], [ 5223682.945495923049748, 7610981.414027400314808 ], [ 5223634.440043863840401, 7610983.471640324220061 ], [ 5223584.317658357322216, 7611018.327247578650713 ], [ 5223582.066307480446994, 7611077.095479837618768 ], [ 5223581.827648848295212, 7611123.40363937895745 ], [ 5223579.534711884334683, 7611179.923123836517334 ], [ 5223572.59187725186348, 7611229.759103666990995 ], [ 5223543.034014933742583, 7611277.758869215846062 ], [ 5223476.126035037450492, 7611319.705336691811681 ], [ 5223406.471506582573056, 7611336.858457013964653 ], [ 5223530.823585033416748, 7611763.868217941373587 ], [ 5223565.020807125605643, 7611969.965516904368997 ], [ 5223744.119668810628355, 7612449.069185668602586 ], [ 5223844.721501643769443, 7612627.863276852294803 ], [ 5223880.125847758725286, 7613073.866675285622478 ], [ 5223938.221013572067022, 7613213.870295528322458 ], [ 5224032.820501958020031, 7613332.159548925235868 ], [ 5224203.824687505140901, 7613450.961186064407229 ], [ 5224389.226225779391825, 7613807.368552329018712 ], [ 5224434.620667205192149, 7614134.063613302074373 ], [ 5224431.724892149679363, 7614285.063027748838067 ], [ 5224374.624932740814984, 7614746.966127205640078 ], [ 5224526.92624962516129, 7614956.064842199906707 ], [ 5224669.925709166564047, 7615088.970060150139034 ], [ 5224720.823341364040971, 7615249.160801829770207 ], [ 5224752.722696564160287, 7615469.06195127312094 ], [ 5224977.627304410561919, 7615721.96810419484973 ], [ 5225026.724822917021811, 7615911.069957979023457 ], [ 5225028.626393038779497, 7616081.969822916202247 ], [ 5225134.019365415908396, 7616181.367614825256169 ], [ 5225284.921062869951129, 7616239.365995257161558 ], [ 5225413.227533814497292, 7616367.263167896308005 ], [ 5225504.829255304299295, 7616567.361788844689727 ], [ 5225507.921678258106112, 7616792.16276315972209 ], [ 5225556.91963176894933, 7616977.265106745995581 ], [ 5225693.62885323073715, 7617126.16292601171881 ], [ 5225818.820488095283508, 7617180.161464482545853 ], [ 5225886.727391482330859, 7617199.41302936617285 ], [ 5226604.025111285038292, 7617402.769283082336187 ], [ 5226875.722812849096954, 7617456.070415684953332 ], [ 5227439.825863289646804, 7617654.071186605840921 ], [ 5227759.821606913581491, 7617689.371399574913085 ], [ 5227892.911228761076927, 7617718.4455442186445 ], [ 5227932.822686524130404, 7617727.168909725733101 ], [ 5228187.524332338944077, 7617839.061123804189265 ], [ 5228385.827538904733956, 7617987.469666542485356 ], [ 5228534.832114058546722, 7618140.262216135859489 ], [ 5228719.930402313359082, 7618619.466772936284542 ], [ 5228919.930703290738165, 7618927.263459796085954 ], [ 5229136.82980820722878, 7619010.269696740433574 ], [ 5229361.632775837555528, 7619031.464096991345286 ], [ 5229707.02669532597065, 7619157.26433967333287 ], [ 5229851.025799764320254, 7619170.467880796641111 ], [ 5230026.729941384866834, 7619223.464972781017423 ], [ 5230156.925006004050374, 7619237.260889710858464 ], [ 5230190.023884547874331, 7619401.361427780240774 ], [ 5230102.827249221503735, 7619508.266472352668643 ], [ 5229886.932132033631206, 7619541.361368429847062 ], [ 5229660.624753734096885, 7619619.267223881557584 ], [ 5229492.828497344627976, 7619727.466313734650612 ], [ 5229371.624460197985172, 7619946.364356565289199 ], [ 5229526.726060362532735, 7620314.162019998766482 ], [ 5229637.730633708648384, 7620442.365831654518843 ], [ 5229783.830644044093788, 7620525.471593484282494 ], [ 5229805.731256037950516, 7620710.563039757311344 ], [ 5229787.624045352451503, 7620860.265025493688881 ], [ 5229864.832935028709471, 7621034.167278699576855 ], [ 5230021.632825243286788, 7621122.261209653690457 ], [ 5230423.727465470321476, 7621412.371284033171833 ], [ 5230579.03371802251786, 7621450.363587941974401 ], [ 5230701.426727570593357, 7621543.872083419933915 ], [ 5230823.83129995316267, 7621637.368551824241877 ], [ 5231091.527293465100229, 7621958.065845124423504 ], [ 5231115.119946628808975, 7622020.114252629689872 ], [ 5231162.025549171492457, 7622143.461504675447941 ], [ 5231218.727530200965703, 7622467.563307358883321 ], [ 5231279.026598476804793, 7622626.565705518238246 ], [ 5231380.727899458259344, 7622770.572377502918243 ], [ 5231532.462347729131579, 7623059.089193526655436 ], [ 5231537.176028761081398, 7623187.48140536621213 ], [ 5231584.84651015792042, 7623319.00575290620327 ], [ 5231610.832168735563755, 7623492.569830138236284 ], [ 5231635.543175271712244, 7623608.033388081938028 ], [ 5231722.89440082013607, 7623701.072523037903011 ], [ 5231784.219705316238105, 7623739.023709582164884 ], [ 5231827.783360761590302, 7623803.423460327088833 ], [ 5231866.152674718759954, 7623906.901746651157737 ], [ 5231947.336154740303755, 7623975.074119688943028 ], [ 5231978.190729029476643, 7624060.376326322555542 ], [ 5232063.758539964444935, 7624160.342886433005333 ], [ 5232170.181612215936184, 7624294.970741430297494 ], [ 5232411.728702500462532, 7624376.869322178885341 ], [ 5232469.377906664274633, 7624475.616099741309881 ], [ 5232470.306542781181633, 7624583.186586705036461 ], [ 5232443.026788989081979, 7624703.649088459089398 ], [ 5232483.228917585685849, 7624844.98556712269783 ], [ 5232458.0058160610497, 7624942.603152288123965 ], [ 5232435.109931513667107, 7624984.838632429018617 ], [ 5232453.526516236364841, 7625033.053565373644233 ], [ 5232477.732149071991444, 7625059.134757244959474 ], [ 5232512.958365820348263, 7625130.179229380562901 ], [ 5232581.287816500291228, 7625186.942802483215928 ], [ 5232645.475835178047419, 7625212.916430164128542 ], [ 5232800.198381285183132, 7625335.336204935796559 ], [ 5232927.026277625001967, 7625444.724880745634437 ], [ 5232985.295669638551772, 7625540.74674653634429 ], [ 5233001.023659743368626, 7625595.792407622560859 ], [ 5232988.001492639072239, 7625623.149489199742675 ], [ 5232950.988047916442156, 7625635.149129525758326 ], [ 5232930.01484587136656, 7625629.277917981147766 ], [ 5232911.607275662943721, 7625612.189309612847865 ], [ 5232881.833401558920741, 7625615.763245986774564 ], [ 5232869.295611642301083, 7625642.935969449579716 ], [ 5232890.276432771235704, 7625677.539785378612578 ], [ 5232867.989105973392725, 7625751.391850482672453 ], [ 5232834.321512743830681, 7625820.376299573108554 ], [ 5232773.805083223618567, 7625848.9679663348943 ], [ 5232752.898771653883159, 7625894.08954559918493 ], [ 5232723.286254119127989, 7625975.547981381416321 ], [ 5232768.444848368875682, 7626182.511385753750801 ], [ 5232808.261444607749581, 7626375.467553338035941 ], [ 5232783.110588435083628, 7626624.437409773468971 ], [ 5232762.580140370875597, 7626819.676468024030328 ], [ 5232750.985251788049936, 7626980.846877158619463 ], [ 5232741.770751836709678, 7627088.894938610494137 ], [ 5232720.998585514724255, 7627153.671675686724484 ], [ 5232728.465173241682351, 7627206.664022592827678 ], [ 5232793.009205594658852, 7627289.532797504216433 ], [ 5232802.607478357851505, 7627407.383873875252903 ], [ 5232822.96478174906224, 7627468.557587431743741 ], [ 5232816.149280009791255, 7627613.824994465336204 ], [ 5232767.305529056116939, 7627691.314508287236094 ], [ 5232777.590379470959306, 7627722.437289264053106 ], [ 5232713.6622373489663, 7627832.653645772486925 ], [ 5232636.662418566644192, 7627938.048173574730754 ], [ 5232514.29033069871366, 7628149.347552984021604 ], [ 5232420.035430852323771, 7628238.122504957020283 ], [ 5232370.268696961924434, 7628320.964494375512004 ], [ 5232270.798107301816344, 7628491.167884247377515 ], [ 5232195.313845144584775, 7628693.018112368881702 ], [ 5232180.475190006196499, 7628902.899991435930133 ], [ 5232131.962743964977562, 7629049.924789316952229 ], [ 5232136.989000188186765, 7629078.807053101249039 ], [ 5232076.444447960704565, 7629129.667282219976187 ], [ 5232045.645283889956772, 7629201.411222562193871 ], [ 5231977.821644250303507, 7629255.233657049015164 ], [ 5231946.974888739176095, 7629309.869359247386456 ], [ 5231917.73587379232049, 7629330.364496680907905 ], [ 5231893.01969110313803, 7629513.260695658624172 ], [ 5231835.637266963720322, 7629641.418097184039652 ], [ 5231864.617488099262118, 7629740.266225395724177 ], [ 5231841.617431335151196, 7629747.486163837835193 ], [ 5231832.364133016206324, 7629794.533758956938982 ], [ 5231837.800047302618623, 7629813.625948588363826 ], [ 5231831.036805476993322, 7629991.091304738074541 ], [ 5231788.123274900950491, 7630078.885625495575368 ], [ 5231769.933065457269549, 7630249.167060324922204 ], [ 5231766.937620555050671, 7630424.074309807270765 ], [ 5231679.630543841049075, 7630575.372056476771832 ], [ 5231650.030989936552942, 7630725.969934109598398 ], [ 5231558.77046094276011, 7630864.181256456300616 ], [ 5231430.728558836504817, 7631058.074346251785755 ], [ 5231546.305308626964688, 7631246.331711435690522 ], [ 5231550.535727798938751, 7631392.170809030532837 ], [ 5231526.836758472956717, 7631556.867391681298614 ], [ 5231330.921792129054666, 7631782.827049843966961 ], [ 5231311.637179133482277, 7631805.073884395882487 ], [ 5231046.132597454823554, 7632187.866549536585808 ], [ 5231038.45669055916369, 7632195.078101482242346 ], [ 5230989.03341380879283, 7632241.475489412434399 ], [ 5230931.933679153211415, 7632295.07311341445893 ], [ 5231113.837724221870303, 7632512.067212247289717 ], [ 5231250.637301339767873, 7632611.070665423758328 ], [ 5231372.835685639642179, 7632504.069662138819695 ], [ 5231507.929813189432025, 7632477.075032569468021 ], [ 5231707.733216438442469, 7632370.176006782799959 ], [ 5231847.137189626693726, 7632377.965840397402644 ], [ 5232023.936235807836056, 7632116.071795505471528 ], [ 5232181.832886813208461, 7632084.070240989327431 ], [ 5232312.831032361835241, 7632167.269175998866558 ], [ 5232455.033762587234378, 7632164.874886220321059 ], [ 5232757.835515196435153, 7632061.965596199035645 ], [ 5232901.7385283857584, 7632064.673409767448902 ], [ 5233065.838471762835979, 7632043.067867545410991 ], [ 5233378.937541829422116, 7631936.165085149928927 ], [ 5233612.629985003732145, 7631972.872161103412509 ], [ 5233732.836497129872441, 7631915.665972365066409 ], [ 5233873.839427260681987, 7631889.07573857717216 ], [ 5234181.835697397589684, 7631929.871326759457588 ], [ 5234310.83998926077038, 7631873.775192603468895 ], [ 5234517.639351828023791, 7631825.965637097135186 ], [ 5234741.838177054189146, 7631793.172047473490238 ], [ 5234900.831784753128886, 7631814.7701854435727 ], [ 5235190.832107909023762, 7631761.873310267925262 ], [ 5235314.83357969392091, 7631720.168623414821923 ], [ 5235611.637785350903869, 7631555.668909898027778 ], [ 5235947.041215252131224, 7631471.074089196510613 ], [ 5236084.740484789945185, 7631458.872797424905002 ], [ 5236274.83362537343055, 7631406.073944487608969 ], [ 5236457.834897489286959, 7631309.173467807471752 ], [ 5236535.833456192165613, 7631162.967619363218546 ], [ 5236840.836864126846194, 7631103.871065718121827 ], [ 5236993.936814783141017, 7630910.971176925115287 ], [ 5237101.840370912104845, 7630804.971887395717204 ], [ 5237269.839355237782001, 7630682.77075851149857 ], [ 5237404.832830518484116, 7630686.066161861643195 ], [ 5237585.033929877914488, 7630583.064321458339691 ], [ 5237826.836133271455765, 7630393.868687862530351 ], [ 5238138.832666209898889, 7630244.86387023050338 ], [ 5238414.840720212087035, 7630025.770284928381443 ], [ 5238583.843162089586258, 7629954.168919475749135 ], [ 5238813.741487607359886, 7629945.965379212982953 ], [ 5238934.739183559082448, 7629908.873376808129251 ], [ 5239091.640576773323119, 7629831.870164506137371 ], [ 5239301.736364807933569, 7629778.871871162205935 ], [ 5239435.438224365003407, 7629701.86266206856817 ], [ 5239562.836766755208373, 7629535.563315188512206 ], [ 5239600.540554943494499, 7629379.969711381942034 ], [ 5239559.641493553295732, 7629164.963213628157973 ], [ 5239673.640497319400311, 7629048.869564905762672 ], [ 5239880.942520727403462, 7628644.769627129659057 ], [ 5240260.743817164562643, 7628194.967055134475231 ], [ 5240439.536341029219329, 7628067.869330640882254 ], [ 5240521.6409922093153, 7627940.770458552986383 ], [ 5240585.841612148098648, 7627779.561491496860981 ], [ 5240611.438805475831032, 7627619.665977651253343 ], [ 5240725.73668525647372, 7627497.762730956077576 ], [ 5241332.7439323104918, 7627309.66370403021574 ], [ 5241631.037826435640454, 7627159.466218739748001 ], [ 5241662.243800127878785, 7626920.163021484389901 ], [ 5241651.536844707094133, 7626811.568537397310138 ], [ 5241612.340694015845656, 7626695.36360327526927 ], [ 5241555.941461823880672, 7626587.969282707199454 ], [ 5241528.839606268331409, 7626508.363877331838012 ], [ 5241490.940411173738539, 7626325.861176763661206 ], [ 5241460.440908674150705, 7626228.963706923648715 ], [ 5241413.036233483813703, 7626144.163539785891771 ], [ 5241298.941557701677084, 7625988.967215400189161 ], [ 5241262.740315216593444, 7625895.467594450339675 ], [ 5241272.938221725635231, 7625814.964381949044764 ], [ 5241339.838874150067568, 7625602.968080664053559 ], [ 5241497.141275518573821, 7625013.465779764577746 ], [ 5241536.235379851423204, 7624812.863147415220737 ], [ 5241541.743089215829968, 7624658.360433595255017 ], [ 5241525.943320038728416, 7624566.264403283596039 ], [ 5241498.439298359677196, 7624483.861512985080481 ], [ 5241427.243514223024249, 7624347.864558527246118 ], [ 5241181.035375093109906, 7624003.665858283638954 ], [ 5241040.834548572078347, 7623698.459385575726628 ], [ 5240990.633607503958046, 7623622.366056126542389 ], [ 5240891.637810391373932, 7623506.860028348863125 ], [ 5240870.43835434038192, 7623447.368059339001775 ], [ 5240864.334596841596067, 7623278.46623224299401 ], [ 5240846.435109495185316, 7623197.560186974704266 ], [ 5240806.939585600048304, 7623086.966100374236703 ], [ 5240635.433595671318471, 7622755.560208315961063 ], [ 5240532.835017959587276, 7622494.462614038959146 ], [ 5240468.835145086981356, 7622268.862449604086578 ], [ 5240448.142191922292113, 7622080.463188661262393 ], [ 5240441.731993577443063, 7621903.266007763333619 ], [ 5240469.937234216369689, 7621728.059802672825754 ], [ 5240510.641904009506106, 7621636.067127615213394 ], [ 5240558.636074745096266, 7621583.460483480244875 ], [ 5240574.73348543420434, 7621537.466197786852717 ], [ 5240639.539396954700351, 7621197.266940953209996 ], [ 5240730.840070585720241, 7621043.961743487976491 ], [ 5240811.639565682969987, 7620933.863487462513149 ], [ 5240981.739275841042399, 7620762.862769206985831 ], [ 5241065.033292075619102, 7620632.568485122174025 ], [ 5241181.734007465653121, 7620354.358728842809796 ], [ 5241240.740172764286399, 7620125.765660116448998 ], [ 5241260.439765161834657, 7620111.066286643967032 ], [ 5242374.533485262654722, 7620121.264727187342942 ], [ 5242690.734332082793117, 7620161.566700635477901 ], [ 5242800.238390126265585, 7620208.164371713995934 ], [ 5242940.834414310753345, 7620251.3585269972682 ], [ 5242983.743524882942438, 7620241.96051250398159 ], [ 5243044.941556633450091, 7620157.763729338534176 ], [ 5243121.435018513351679, 7619976.161779191344976 ], [ 5243308.038357341662049, 7619605.658055835403502 ], [ 5243352.936176742427051, 7619301.76570344530046 ], [ 5243390.542247848585248, 7619158.257458264008164 ], [ 5243436.534170445986092, 7619073.566643759608269 ], [ 5243491.443478074856102, 7619003.059133365750313 ], [ 5243604.638231966644526, 7618889.563948155380785 ], [ 5243684.636037751100957, 7618778.56218970194459 ], [ 5243825.742433217354119, 7618459.865099392831326 ], [ 5243826.339848256669939, 7618370.858467102050781 ], [ 5243780.4348349198699, 7618138.256634961813688 ], [ 5243762.935616116970778, 7617956.058976925909519 ], [ 5243741.237995129078627, 7617882.459333539940417 ], [ 5243701.93694687448442, 7617831.665080840699375 ], [ 5243654.84311999566853, 7617736.760795686393976 ], [ 5243646.040457990020514, 7617655.863518631085753 ], [ 5243625.237669639289379, 7617588.655581038445234 ], [ 5243554.833255193196237, 7617484.959623543545604 ], [ 5243462.232753623276949, 7617390.762062327936292 ], [ 5243382.841801667585969, 7617273.658884759061038 ], [ 5243342.437687654979527, 7617230.659992852248251 ], [ 5243252.43743013497442, 7617155.560551942326128 ], [ 5243021.533440051600337, 7616990.865696703083813 ], [ 5242947.533824832178652, 7616950.26564253680408 ], [ 5242781.040130720473826, 7616947.058208326809108 ], [ 5242662.034689023159444, 7616922.558068168349564 ], [ 5242590.841477612033486, 7616890.757606346160173 ], [ 5242466.942021139897406, 7616794.764024382457137 ], [ 5242151.333430166356266, 7616286.455442735925317 ], [ 5242089.738506551831961, 7616104.46379260905087 ], [ 5242047.132472323253751, 7616037.15997264534235 ], [ 5242015.635483302175999, 7615954.064665565267205 ], [ 5241989.384244866669178, 7615747.230614472180605 ], [ 5241979.048500779084861, 7615750.277626063674688 ], [ 5241963.28550541959703, 7615754.824308030307293 ], [ 5241938.650825263001025, 7615761.941700184717774 ], [ 5241895.379525540396571, 7615778.901363458484411 ], [ 5241883.467535763978958, 7615783.933344764634967 ], [ 5241865.329099199734628, 7615792.449447880499065 ], [ 5241827.353897830471396, 7615809.540234044194221 ], [ 5241797.791455985046923, 7615821.086185857653618 ], [ 5241766.288226875476539, 7615833.10436590295285 ], [ 5241721.121950086206198, 7615851.543551657348871 ], [ 5241656.801401333883405, 7615877.793324144557118 ], [ 5241499.685752581804991, 7615941.909792405553162 ], [ 5241224.470367823727429, 7616054.218803659081459 ], [ 5240968.630249200388789, 7616158.465807998552918 ], [ 5240935.033464414998889, 7616173.305980782955885 ], [ 5240893.437759321182966, 7616190.215594810433686 ], [ 5240842.424433687701821, 7616212.030430790036917 ], [ 5240790.312658989802003, 7616234.537421943619847 ], [ 5240746.949471535161138, 7616252.448119887150824 ], [ 5240679.73453923035413, 7616279.357309270650148 ], [ 5240615.784995297901332, 7616306.394913660362363 ], [ 5240562.522783765569329, 7616328.918219125829637 ], [ 5240495.369704390875995, 7616355.847815996035933 ], [ 5240442.968611634336412, 7616379.864973407238722 ], [ 5240415.307541920803487, 7616423.97067844402045 ], [ 5240334.658705514855683, 7616557.959262225776911 ], [ 5240297.492716033011675, 7616619.991762567311525 ], [ 5240265.280348676256835, 7616673.739155627787113 ], [ 5240232.054704590700567, 7616726.947431840002537 ], [ 5240202.272578336298466, 7616776.225948043167591 ], [ 5240199.084187389351428, 7616782.002435559406877 ], [ 5240179.242138609290123, 7616815.486188156530261 ], [ 5240151.516985289752483, 7616862.362586077302694 ], [ 5240148.328720002435148, 7616868.150138791650534 ], [ 5240113.761779207736254, 7616928.780427975580096 ], [ 5240110.573484472930431, 7616934.567970314994454 ], [ 5240079.152460829354823, 7616988.668779299594462 ], [ 5240048.537405071780086, 7617043.333778642117977 ], [ 5240007.903197701089084, 7617112.708418039605021 ], [ 5239987.841557719744742, 7617147.513789686374366 ], [ 5239980.325407112948596, 7617160.513054468668997 ], [ 5239933.566728701815009, 7617243.154160615056753 ], [ 5239773.370765229687095, 7617523.840204447507858 ], [ 5239750.025722902268171, 7617563.702629273757339 ], [ 5239707.432387652806938, 7617637.415903074666858 ], [ 5239701.868361094966531, 7617647.227847337722778 ], [ 5239698.364202882163227, 7617652.698588627390563 ], [ 5239693.399257909506559, 7617660.983494659885764 ], [ 5239690.210473083890975, 7617666.759842694737017 ], [ 5239652.817206228151917, 7617731.30908764526248 ], [ 5239614.958548940718174, 7617796.640801208093762 ], [ 5239603.895053035579622, 7617815.742811498232186 ], [ 5239585.383777539245784, 7617846.911958247423172 ], [ 5239518.037609928287566, 7617965.682427175343037 ], [ 5239487.693312497809529, 7618017.915050568990409 ], [ 5239452.45141445286572, 7618076.713774343952537 ], [ 5239366.145343688316643, 7618230.858730541542172 ], [ 5239330.715759859420359, 7618293.150498988106847 ], [ 5239292.979551630094647, 7618360.651277689263225 ], [ 5239256.896570092067122, 7618424.348730565048754 ], [ 5239226.602822453714907, 7618479.427825769409537 ], [ 5239210.84304937813431, 7618508.272924298420548 ], [ 5239174.38993243034929, 7618572.917499881237745 ], [ 5239142.964226732030511, 7618625.065438351593912 ], [ 5239113.02019081171602, 7618680.726372878998518 ], [ 5238855.887431252747774, 7619130.425772313028574 ], [ 5238791.136153066530824, 7619244.654558064416051 ], [ 5238772.361214581876993, 7619277.156025284901261 ], [ 5238755.111811035312712, 7619309.81227111723274 ], [ 5238714.530196206644177, 7619375.857066517695785 ], [ 5238657.638534807600081, 7619475.064793726429343 ], [ 5238627.598699901252985, 7619524.464868573471904 ], [ 5238588.821062288247049, 7619591.346982378512621 ], [ 5238547.309281926602125, 7619661.183627057820559 ], [ 5238521.136782156303525, 7619714.28303509298712 ], [ 5238518.673227694816887, 7619723.627641887404025 ], [ 5238517.271134860813618, 7619748.758609886281192 ], [ 5238518.031671195290983, 7619792.673847245052457 ], [ 5238531.958024844527245, 7620192.394306629896164 ], [ 5238637.421416862867773, 7620188.547285979613662 ], [ 5238742.675346513278782, 7620185.256729807704687 ], [ 5238745.420052221976221, 7620182.33512905985117 ], [ 5238963.789016611874104, 7620179.658499674871564 ], [ 5238975.03683818038553, 7620463.109128841198981 ], [ 5238976.615171194076538, 7620466.831351218745112 ], [ 5238978.204029517248273, 7620470.564499629661441 ], [ 5238979.170755721628666, 7620498.874214081093669 ], [ 5238979.331409278325737, 7620769.124168290756643 ], [ 5238980.579237774014473, 7620812.987962448969483 ], [ 5238984.212920233607292, 7620916.046449214220047 ], [ 5238984.696130321361125, 7620919.297243615612388 ], [ 5238987.873710829764605, 7621028.678823291324079 ], [ 5238988.308175351470709, 7621040.57379736751318 ], [ 5238990.590651194564998, 7621148.295279793441296 ], [ 5238994.35125110950321, 7621252.23837607447058 ], [ 5238997.52898947801441, 7621360.234753392636776 ], [ 5238892.045271575450897, 7621364.626561729237437 ], [ 5238789.460961536504328, 7621368.143865490332246 ], [ 5238682.826505336910486, 7621371.11068364046514 ], [ 5238580.595085045322776, 7621374.665788921527565 ], [ 5238575.696626020595431, 7621267.869585783220828 ], [ 5238571.019979589618742, 7621161.358224296942353 ], [ 5238566.873473757877946, 7621054.251740667968988 ], [ 5238566.881464203819633, 7621040.710239812731743 ], [ 5238456.861296210438013, 7621043.049687137827277 ], [ 5238457.643962124362588, 7621056.801170885562897 ], [ 5238461.253472618758678, 7621163.383600334636867 ], [ 5238355.891415105201304, 7621166.096987901255488 ], [ 5238358.329466827213764, 7621272.707664135843515 ], [ 5238252.659742230549455, 7621275.690778138116002 ], [ 5238249.224192633293569, 7621170.26944394595921 ], [ 5238246.085908866487443, 7621059.690924525260925 ], [ 5238243.186233050189912, 7621047.854392971843481 ], [ 5238239.986232913099229, 7620945.066928392276168 ], [ 5238235.294093186967075, 7620838.068332647904754 ], [ 5238128.562780033797026, 7620841.964141815900803 ], [ 5238115.339531081728637, 7620842.734675381332636 ], [ 5238110.683039718307555, 7620734.58314545545727 ], [ 5238004.112106747925282, 7620737.356642372906208 ], [ 5237999.044181684032083, 7620627.959009177051485 ], [ 5237895.169214544817805, 7620630.780918223783374 ], [ 5237787.047090899199247, 7620632.323652886785567 ], [ 5237681.635013090446591, 7620634.922959226183593 ], [ 5237677.016545883379877, 7620532.001403180882335 ], [ 5237674.811867776326835, 7620467.884279552847147 ], [ 5237673.908345232717693, 7620443.729285646229982 ], [ 5237544.939740383066237, 7620511.277120562270284 ], [ 5237541.081190909259021, 7620513.173179043456912 ], [ 5237536.976891007274389, 7620515.272301963530481 ], [ 5237263.398865115828812, 7620636.298627617768943 ], [ 5237266.738425773568451, 7620752.569456139579415 ], [ 5237268.840279869735241, 7620755.973863083869219 ], [ 5237271.161854419857264, 7620836.688825712539256 ], [ 5237267.163428797386587, 7620836.824938353151083 ], [ 5236862.867717089131474, 7620849.964390913024545 ], [ 5236864.0818991959095, 7620971.352299673482776 ], [ 5237270.654420510865748, 7620959.908486931584775 ], [ 5237274.65320092253387, 7620959.794534038752317 ], [ 5237278.495882113464177, 7621092.746300391852856 ], [ 5236867.933357873000205, 7621098.751984054222703 ], [ 5236588.978162353858352, 7621105.884993969462812 ], [ 5236510.209428533911705, 7621107.112239366397262 ], [ 5236419.596422594040632, 7621108.456479522399604 ], [ 5236343.215049037709832, 7621110.645391508936882 ], [ 5236332.201316829770803, 7621012.759886691346765 ], [ 5236327.444817121140659, 7620927.493221715092659 ], [ 5236321.339009298942983, 7620857.726614370942116 ] ] ] } },
{ "type": "Feature", "properties": { "lv_id": "LOC_054100", "id": 315451.0, "CD_SETOR": "353480705000001", "SITUACAO": "Urbana", "CD_SIT": "1", "CD_TIPO": "0", "AREA_KM2": 0.12619186606855801, "CD_REGIAO": "3", "NM_REGIAO": "Sudeste", "CD_UF": "35", "NM_UF": "São Paulo", "CD_MUN": "3534807", "NM_MUN": "Ouro Verde", "CD_DIST": "353480705", "NM_DIST": "Ouro Verde", "CD_SUBDIST": "35348070500", "NM_SUBDIST": null, "CD_BAIRRO": "3534807003", "NM_BAIRRO": "Nova Esperança", "CD_NU": null, "NM_NU": null, "CD_FCU": null, "NM_FCU": null, "CD_AGLOM": null, "NM_AGLOM": null, "CD_RGINT": "3505", "NM_RGINT": "Presidente Prudente", "CD_RGI": "350020", "NM_RGI": "Dracena", "CD_CONCURB": null, "NM_CONCURB": null, "mun_code_x": "3534807", "index_right": 86025, "dist_m": 77.524329904795096, "local_id": 585520, "ano": 2022, "cod_localidade_ibge": 3534807, "NR_ZONA": "149", "nr_cep": 17920000.0, "nm_localidade": "OURO VERDE", "nm_locvot": "EMEFI JULIA ROSEIRA JERONIMO", "ds_endereco": "R ESPIRITO SANTO, 353", "ds_bairro": "CENTRO", "pred_long": -51.697094, "pred_lat": -21.490883, "pred_dist": 0.0, "tse_long": -51.6971241, "tse_lat": -21.4910289, "long": -51.6971241, "lat": -21.4910289, "ID_UNICO": "LOC_054100", "SG_UF": "SP", "CD_MUNICIPIO": "67970", "NR_LOCAL_VOTACAO": "1023", "QT_SECOES_AGREGADAS": 0, "QT_ELEITORES_TRANSFERIDOS": 20, "CIRO GOMES (PDT) (NÃO ELEITO) 1T": 20.0, "CONSTITUINTE EYMAEL (DC) (NÃO ELEITO) 1T": 0.0, "FELIPE D AVILA (NOVO) (NÃO ELEITO) 1T": 3.0, "JAIR BOLSONARO (PL) (2º TURNO) 1T": 640.0, "LULA (PT) (2º TURNO) 1T": 856.0, "LÉO PÉRICLES (UP) (NÃO ELEITO) 1T": 0.0, "PADRE KELMON (PTB) (NÃO ELEITO) 1T": 1.0, "SIMONE TEBET (MDB) (NÃO ELEITO) 1T": 39.0, "SOFIA MANZANO (PCB) (NÃO ELEITO) 1T": 0.0, "SORAYA THRONICKE (UNIÃO) (NÃO ELEITO) 1T": 8.0, "VERA (PSTU) (NÃO ELEITO) 1T": 1.0, "Total_Votos_Validos 1T": 1568.0, "Votos_Brancos 1T": 24.0, "Votos_Nulos 1T": 51.0, "Abstenções 1T": 550.0, "Eleitores_Aptos 1T": 2193.0, "JAIR BOLSONARO (PL) (NÃO ELEITO) 2T": 706.0, "LULA (PT) (ELEITO) 2T": 897.0, "Total_Votos_Validos 2T": 1603.0, "Votos_Brancos 2T": 20.0, "Votos_Nulos 2T": 52.0, "Abstenções 2T": 518.0, "Eleitores_Aptos 2T": 2193.0, "mun_code_y": "3534807", "mun_code": "3534807" }, "geometry": { "type": "Polygon", "coordinates": [ [ [ 5237341.485477280803025, 7609640.386396314948797 ], [ 5237273.552839416079223, 7609688.005723872222006 ], [ 5237190.524230879731476, 7609684.528978453949094 ], [ 5237068.878298236057162, 7609749.559562271460891 ], [ 5237026.015840565785766, 7609751.231418771669269 ], [ 5236986.629679994657636, 7609727.996576625853777 ], [ 5236916.425822477787733, 7609672.579967742785811 ], [ 5236897.504237355664372, 7609613.362236984074116 ], [ 5236893.867421176284552, 7609585.756622154265642 ], [ 5236861.376826167106628, 7609539.792086155153811 ], [ 5236835.331991856917739, 7609379.162722892127931 ], [ 5236709.45626176148653, 7609197.637585988268256 ], [ 5236610.678951715119183, 7609226.658276379108429 ], [ 5236533.922805746085942, 7609197.35550267342478 ], [ 5236498.062734446488321, 7609181.381609974429011 ], [ 5236472.104941378347576, 7609123.153325209394097 ], [ 5236460.209050788544118, 7609033.015036936849356 ], [ 5236423.339219122193754, 7608935.452955229207873 ], [ 5236349.970135909505188, 7608935.74233017116785 ], [ 5236314.824484607204795, 7608986.112563392147422 ], [ 5236313.958194683305919, 7609058.419777410104871 ], [ 5236343.330801715143025, 7609165.954362358897924 ], [ 5236344.058058271184564, 7609214.856631523929536 ], [ 5236317.088684151880443, 7609279.756393341347575 ], [ 5236250.500538438558578, 7609338.643420975655317 ], [ 5236190.004696723073721, 7609362.401772165670991 ], [ 5236074.87139570619911, 7609303.62881098408252 ], [ 5236003.817379378713667, 7609248.520398810505867 ], [ 5235969.798237128183246, 7609181.40043942257762 ], [ 5235924.440469906665385, 7609112.241233825683594 ], [ 5235870.032086163759232, 7609129.460020596161485 ], [ 5235835.438106778077781, 7609238.208177046850324 ], [ 5235815.151122839190066, 7609298.46577918343246 ], [ 5235760.904840194620192, 7609353.734829738736153 ], [ 5235689.947828514501452, 7609361.875583788380027 ], [ 5235630.46732715331018, 7609321.234765254892409 ], [ 5235610.034722072072327, 7609238.357492871582508 ], [ 5235584.087929455563426, 7609140.268667606636882 ], [ 5235517.707281444221735, 7609092.97991181910038 ], [ 5235419.0604233359918, 7609070.031277072615921 ], [ 5235380.63119641225785, 7609067.37899568490684 ], [ 5235328.81680270191282, 7609072.900564232841134 ], [ 5235284.049787472002208, 7609092.968483078293502 ], [ 5235250.594596641138196, 7609113.946041719987988 ], [ 5235244.326732366345823, 7609140.045187310315669 ], [ 5235274.447611171752214, 7609180.118536870926619 ], [ 5235298.2577722100541, 7609244.053228195756674 ], [ 5235321.935696712695062, 7609359.938679384998977 ], [ 5235330.396211487241089, 7609447.877768674865365 ], [ 5235317.790137147530913, 7609496.686264060437679 ], [ 5235273.595214390195906, 7609546.110931480303407 ], [ 5235202.490843010134995, 7609546.350661744363606 ], [ 5235165.208657514303923, 7609486.080807466991246 ], [ 5235161.905080812983215, 7609373.18914548214525 ], [ 5235153.521596241742373, 7609289.758999399840832 ], [ 5235103.070869033224881, 7609248.940348206087947 ], [ 5235024.024730283766985, 7609301.055639281868935 ], [ 5234993.024924435652792, 7609322.861110266298056 ], [ 5234955.021832623519003, 7609415.577534693293273 ], [ 5234924.871093557216227, 7609490.704316415823996 ], [ 5234932.923726660199463, 7609557.196100692264736 ], [ 5234939.734541011974216, 7609618.065646040253341 ], [ 5234954.412210293114185, 7609676.515649916604161 ], [ 5234894.695783594623208, 7609682.184000872075558 ], [ 5234830.78843605145812, 7609646.137055234983563 ], [ 5234750.908878234215081, 7609601.368873072788119 ], [ 5234654.398026104085147, 7609571.60257775336504 ], [ 5234551.829012026078999, 7609561.061086610890925 ], [ 5234456.131842294707894, 7609560.857481406070292 ], [ 5234302.500115133821964, 7609586.295088219456375 ], [ 5234210.430109894834459, 7609608.365818940103054 ], [ 5234145.796406357549131, 7609654.826061123982072 ], [ 5234027.255820627324283, 7609771.192759155295789 ], [ 5233958.580207553692162, 7609780.422777553088963 ], [ 5233929.175313730724156, 7609718.861615721136332 ], [ 5233975.539552466012537, 7609547.40633846167475 ], [ 5233955.435369360260665, 7609441.618406891822815 ], [ 5233863.328238725662231, 7609406.121271742507815 ], [ 5233794.145501287654042, 7609448.124995842576027 ], [ 5233784.760815256275237, 7609546.572829565033317 ], [ 5233827.424519538879395, 7609651.922849869355559 ], [ 5233806.854396359063685, 7609697.498657528311014 ], [ 5233770.939824190922081, 7609708.358159090392292 ], [ 5233710.361353448592126, 7609668.867952644824982 ], [ 5233632.044189684092999, 7609646.655218429863453 ], [ 5233500.078055609017611, 7609651.45932191144675 ], [ 5233395.219367903657258, 7609657.997485799714923 ], [ 5233297.485880543477833, 7609623.731024152599275 ], [ 5233262.527210851199925, 7609566.803638618439436 ], [ 5233277.79950887337327, 7609480.659906711429358 ], [ 5233229.126587672159076, 7609414.955265395343304 ], [ 5233175.331507811322808, 7609422.55946858227253 ], [ 5233125.580431146547198, 7609459.879851940087974 ], [ 5233070.542201036587358, 7609503.293521822430193 ], [ 5232994.365006272681057, 7609503.630144650116563 ], [ 5232942.194777553901076, 7609461.722022796981037 ], [ 5232923.467194716446102, 7609397.70032380707562 ], [ 5232942.849178129807115, 7609349.317349748685956 ], [ 5233038.132956037297845, 7609285.919326111674309 ], [ 5233038.524954709224403, 7609231.361544134095311 ], [ 5233024.239012585021555, 7609179.453809261322021 ], [ 5232988.083581713959575, 7609148.517335922457278 ], [ 5232850.825869221240282, 7609080.656975706107914 ], [ 5232778.131315392442048, 7609030.856108464300632 ], [ 5232640.327289782464504, 7608906.35573441721499 ], [ 5232563.130618525668979, 7608820.760783314704895 ], [ 5232513.886981606483459, 7608732.401971867308021 ], [ 5232442.948880277574062, 7608712.30492782779038 ], [ 5232371.055272980593145, 7608730.074166571721435 ], [ 5232318.876786703243852, 7608775.69357418268919 ], [ 5232269.39566917065531, 7608814.481236100196838 ], [ 5232215.151314717717469, 7608840.383648570626974 ], [ 5232145.719394048675895, 7608840.021031023934484 ], [ 5232102.493704224005342, 7608822.781073026359081 ], [ 5232069.68359562382102, 7608789.534097766503692 ], [ 5232077.559874426573515, 7608729.516742814332247 ], [ 5232104.214143117889762, 7608677.606150141917169 ], [ 5232211.773275235667825, 7608606.633931817486882 ], [ 5232214.169950735755265, 7608555.194542234763503 ], [ 5232142.742833661846817, 7608509.694578604772687 ], [ 5232005.026363216340542, 7608484.163996535353363 ], [ 5231863.097443689592183, 7608465.962039166130126 ], [ 5231799.529364421963692, 7608462.056453289464116 ], [ 5231719.715080293826759, 7608493.577482953667641 ], [ 5231701.138520712964237, 7608554.923006153665483 ], [ 5231743.267061521299183, 7608603.250783110037446 ], [ 5231821.822186842560768, 7608646.865845629945397 ], [ 5231879.502182428725064, 7608731.647678878158331 ], [ 5231863.148123591206968, 7608820.054449629038572 ], [ 5231798.746611555106938, 7608846.145853617228568 ], [ 5231750.507475117221475, 7608832.401128388009965 ], [ 5231703.476711009629071, 7608793.208045670762658 ], [ 5231669.453538322821259, 7608726.657292522490025 ], [ 5231618.223204983398318, 7608676.964217931032181 ], [ 5231515.228700304403901, 7608626.862410091795027 ], [ 5231460.52717643789947, 7608574.814218669198453 ], [ 5231444.89730313513428, 7608524.853044526651502 ], [ 5231435.985139862634242, 7608472.501612057909369 ], [ 5231400.206033357419074, 7608431.395406530238688 ], [ 5231360.54682697635144, 7608423.687464436516166 ], [ 5231324.711105838418007, 7608438.49644310772419 ], [ 5231275.477387673221529, 7608490.275337979197502 ], [ 5231248.47875361237675, 7608524.116237507201731 ], [ 5231208.722586396150291, 7608540.698734415695071 ], [ 5231167.918616565875709, 7608531.88755299616605 ], [ 5231154.811176748946309, 7608495.996047466993332 ], [ 5231158.855869399383664, 7608442.261927325278521 ], [ 5231146.954316119663417, 7608410.297936499118805 ], [ 5231103.006848042830825, 7608385.176257163286209 ], [ 5231051.581634558737278, 7608381.647648646496236 ], [ 5231004.973029994405806, 7608364.475675623863935 ], [ 5230947.177127636037767, 7608323.229950803332031 ], [ 5230891.434565437957644, 7608242.417872842401266 ], [ 5230811.429105409421027, 7608151.459658429957926 ], [ 5230766.062315564602613, 7608121.149487943388522 ], [ 5230717.19786602538079, 7608104.020186768844724 ], [ 5230639.207625337876379, 7608098.754351153969765 ], [ 5230539.293051899410784, 7608126.656793512403965 ], [ 5230464.186784455552697, 7608212.256518790498376 ], [ 5230393.867595317773521, 7608311.871157168410718 ], [ 5230334.150373937562108, 7608346.90955687686801 ], [ 5230252.936026598326862, 7608346.541265364736319 ], [ 5230189.638198557309806, 7608315.809855818748474 ], [ 5230166.603311412967741, 7608262.607250711880624 ], [ 5230151.659293327480555, 7608190.041562540456653 ], [ 5230136.75282278098166, 7608149.100146885961294 ], [ 5230120.339845668524504, 7608117.233317019417882 ], [ 5230075.330123769119382, 7608066.139620564877987 ], [ 5230001.424075593240559, 7608030.661380448378623 ], [ 5229959.316906571388245, 7608020.370038282126188 ], [ 5229893.894339584745467, 7608022.766507453285158 ], [ 5229820.196585599333048, 7608064.285371229052544 ], [ 5229805.141606518998742, 7608161.712444668635726 ], [ 5229835.321257054805756, 7608270.871526362374425 ], [ 5229907.067504089325666, 7608413.32274164352566 ], [ 5229844.322146518155932, 7608400.965269357897341 ], [ 5229817.56131037324667, 7608454.579398863017559 ], [ 5229712.448353476822376, 7608476.932494011707604 ], [ 5229666.135084751062095, 7608504.375096183270216 ], [ 5229574.512869006022811, 7608581.817186193540692 ], [ 5229486.538184531033039, 7608673.301512828096747 ], [ 5229422.696587385609746, 7608728.750373168848455 ], [ 5229392.689257861115038, 7608753.045641898177564 ], [ 5229251.214463555254042, 7608821.288921757601202 ], [ 5229187.169333986938, 7608865.437178883701563 ], [ 5229128.335734160616994, 7608946.210625157691538 ], [ 5229126.732244431041181, 7609038.857744647189975 ], [ 5229123.500495146028697, 7609046.826454309746623 ], [ 5229115.023619126528502, 7609093.065205360762775 ], [ 5229114.023641460575163, 7609140.748967574909329 ], [ 5229142.42988904658705, 7609223.76130591891706 ], [ 5229130.933426872827113, 7609315.496364088729024 ], [ 5229110.652617782354355, 7609375.753856206312776 ], [ 5229076.436836578883231, 7609415.942595806904137 ], [ 5229017.112262287177145, 7609441.938937925733626 ], [ 5228949.410703057423234, 7609443.244178014807403 ], [ 5228884.872273338958621, 7609433.190756556577981 ], [ 5228825.223502669483423, 7609418.856983868405223 ], [ 5228755.466966327279806, 7609395.026191940531135 ], [ 5228590.978615334257483, 7609294.286621532402933 ], [ 5228523.257514895871282, 7609235.721163052134216 ], [ 5228582.238197405822575, 7609693.151147343218327 ], [ 5228961.651155596598983, 7609678.758303936570883 ], [ 5228574.613953644409776, 7610262.96426544431597 ], [ 5228383.920455975458026, 7610373.193486199714243 ], [ 5228755.18220570217818, 7610991.621867252513766 ], [ 5228868.592267031781375, 7610904.547377284616232 ], [ 5229089.961756027303636, 7611718.256113288924098 ], [ 5229155.319276296533644, 7611707.299998702481389 ], [ 5229163.658082701265812, 7611705.896206202916801 ], [ 5229164.678578584454954, 7611709.926189546473324 ], [ 5229489.57399379555136, 7612982.38994871545583 ], [ 5231976.7443872038275, 7613366.747649375349283 ], [ 5232024.742479234002531, 7613171.698313862085342 ], [ 5232150.830121533945203, 7612955.547088893130422 ], [ 5232089.227827247232199, 7612704.773147135972977 ], [ 5232116.187623267993331, 7612548.177250565961003 ], [ 5232240.303394496440887, 7612379.778625036589801 ], [ 5232305.440180630423129, 7612170.574328833259642 ], [ 5232440.034612716175616, 7612054.081236500293016 ], [ 5232409.792021792382002, 7611981.62602586299181 ], [ 5232203.580743199214339, 7611677.529410300776362 ], [ 5232548.195388343185186, 7611384.194550415500998 ], [ 5232630.904772442765534, 7611311.873175925575197 ], [ 5232634.270669670775533, 7611308.976821508258581 ], [ 5232656.195315211080015, 7611349.760157285258174 ], [ 5232687.185670522972941, 7611405.09507792070508 ], [ 5232726.518676431849599, 7611472.953069180250168 ], [ 5232765.112623339518905, 7611534.073314226232469 ], [ 5232811.810398869216442, 7611578.222332592122257 ], [ 5232853.257007727399468, 7611619.499467479065061 ], [ 5232938.833689089864492, 7611697.759627301245928 ], [ 5233031.840086536481977, 7611787.658026795834303 ], [ 5233104.557993277907372, 7611856.163466696627438 ], [ 5233146.949098754674196, 7611898.911209564656019 ], [ 5233206.726486467756331, 7611951.347331799566746 ], [ 5233299.774752498604357, 7612043.947653176262975 ], [ 5233427.737903769128025, 7612164.964182324707508 ], [ 5233509.645745885558426, 7612240.560079542919993 ], [ 5233605.053235170431435, 7612332.049985077232122 ], [ 5233622.333026042208076, 7612348.665287038311362 ], [ 5233633.997228239662945, 7612359.455643223598599 ], [ 5233731.510785775259137, 7612449.651215921156108 ], [ 5233805.660718652419746, 7612515.795247152447701 ], [ 5233922.857754188589752, 7612620.331805726513267 ], [ 5234034.979768046177924, 7612712.663379060104489 ], [ 5234117.706740288063884, 7612780.798378095962107 ], [ 5234216.41901748906821, 7612871.162545830011368 ], [ 5234386.759693806990981, 7613018.418673180043697 ], [ 5234458.594151772558689, 7613080.981403565965593 ], [ 5234525.176121453754604, 7613139.18770707398653 ], [ 5234687.79882332123816, 7613269.632415175437927 ], [ 5234881.717940860427916, 7613428.531323577277362 ], [ 5234926.023483430966735, 7613459.878169476054609 ], [ 5235091.904992338269949, 7613580.34334067068994 ], [ 5235216.668998935259879, 7613668.494827119633555 ], [ 5235264.419136539101601, 7613704.389404136687517 ], [ 5235283.788880694657564, 7613724.884462272748351 ], [ 5235295.967112761922181, 7613750.91404565051198 ], [ 5235320.789585295133293, 7613802.955324874259531 ], [ 5235325.895627480000257, 7613814.261307507753372 ], [ 5235355.043957428075373, 7613878.794507735408843 ], [ 5235391.150814704596996, 7613957.332622684538364 ], [ 5235429.050469809211791, 7614034.470492701977491 ], [ 5235471.642255651764572, 7614121.490820279344916 ], [ 5235503.167401109822094, 7614196.926343416795135 ], [ 5235533.319007123820484, 7614271.927526284009218 ], [ 5235564.884215150028467, 7614350.077286802232265 ], [ 5235591.560361813753843, 7614404.806173449382186 ], [ 5235614.433716034516692, 7614447.390092901885509 ], [ 5235641.103528373874724, 7614501.664690645411611 ], [ 5235680.048634220845997, 7614587.829201967455447 ], [ 5235708.831637074239552, 7614661.952576018869877 ], [ 5235743.650417203083634, 7614745.019045527093112 ], [ 5235770.875673010013998, 7614806.067102892324328 ], [ 5235794.181652846746147, 7614868.302601620554924 ], [ 5235806.902457016520202, 7614890.23506795335561 ], [ 5235861.799405690282583, 7615019.427563265897334 ], [ 5235872.726244020275772, 7615049.752487959340215 ], [ 5235876.265010088682175, 7615082.113366251811385 ], [ 5235881.677655990235507, 7615167.636678259819746 ], [ 5235887.221761211752892, 7615260.039494996890426 ], [ 5235892.488243356347084, 7615364.657843634486198 ], [ 5235896.966129573993385, 7615420.19796871766448 ], [ 5235898.384850843809545, 7615456.368470506742597 ], [ 5235902.776609823107719, 7615522.33726033847779 ], [ 5235906.794722805730999, 7615610.983636908233166 ], [ 5235915.529841692186892, 7615784.343430797569454 ], [ 5235920.126360942609608, 7615865.058294743299484 ], [ 5235925.3912089522928, 7615951.104539724066854 ], [ 5235931.426316367462277, 7616028.872968230396509 ], [ 5235936.328208465129137, 7616119.15751819126308 ], [ 5235940.855048618279397, 7616195.806583980098367 ], [ 5235944.601687931455672, 7616267.97914619371295 ], [ 5235948.781691046431661, 7616343.58055214677006 ], [ 5235949.788854896090925, 7616360.774951281026006 ], [ 5235953.740894226357341, 7616432.113419529050589 ], [ 5235961.961206775158644, 7616554.562557034194469 ], [ 5235966.620325565338135, 7616628.915866186842322 ], [ 5235974.23643814586103, 7616730.541166540235281 ], [ 5235985.910481718368828, 7616868.852485066279769 ], [ 5236001.616682942956686, 7617054.864892644807696 ], [ 5236005.006846374832094, 7617082.706785008311272 ], [ 5236025.329564893618226, 7617319.536635624244809 ], [ 5236032.13691580761224, 7617391.985854838043451 ], [ 5236043.182878829538822, 7617523.447038354352117 ], [ 5236046.382979637943208, 7617555.303086990490556 ], [ 5236057.070446725934744, 7617674.968028394505382 ], [ 5236059.051303648389876, 7617697.112581506371498 ], [ 5236061.07702798396349, 7617724.464636513963342 ], [ 5236097.859027284197509, 7618185.370678285136819 ], [ 5236124.847661026753485, 7618529.646010810509324 ], [ 5236159.016486902721226, 7618954.842110904864967 ], [ 5236184.158933266066015, 7619271.252925030887127 ], [ 5236185.318504679948092, 7619287.525336941704154 ], [ 5236196.831372539512813, 7619428.221286419779062 ], [ 5236207.927330533973873, 7619561.642977239564061 ], [ 5236214.850053976289928, 7619626.333617554977536 ], [ 5236252.567419485189021, 7620054.591543354094028 ], [ 5236256.840165872126818, 7620102.422036553733051 ], [ 5236260.34663025662303, 7620141.764448756352067 ], [ 5236260.422388825565577, 7620141.98496722523123 ], [ 5236267.976817270740867, 7620227.244105408899486 ], [ 5236274.800281651318073, 7620303.593561492860317 ], [ 5236310.840843103826046, 7620721.980325167998672 ], [ 5236321.339009298942983, 7620857.726614370942116 ], [ 5236327.444817121140659, 7620927.493221715092659 ], [ 5236332.201316829770803, 7621012.759886691346765 ], [ 5236343.215049037709832, 7621110.645391508936882 ], [ 5236419.596422594040632, 7621108.456479522399604 ], [ 5236510.209428533911705, 7621107.112239366397262 ], [ 5236588.978162353858352, 7621105.884993969462812 ], [ 5236867.933357873000205, 7621098.751984054222703 ], [ 5237278.495882113464177, 7621092.746300391852856 ], [ 5237274.65320092253387, 7620959.794534038752317 ], [ 5237270.654420510865748, 7620959.908486931584775 ], [ 5236864.0818991959095, 7620971.352299673482776 ], [ 5236862.867717089131474, 7620849.964390913024545 ], [ 5237267.163428797386587, 7620836.824938353151083 ], [ 5237271.161854419857264, 7620836.688825712539256 ], [ 5237268.840279869735241, 7620755.973863083869219 ], [ 5237266.738425773568451, 7620752.569456139579415 ], [ 5237263.398865115828812, 7620636.298627617768943 ], [ 5237536.976891007274389, 7620515.272301963530481 ], [ 5237541.081190909259021, 7620513.173179043456912 ], [ 5237544.939740383066237, 7620511.277120562270284 ], [ 5237673.908345232717693, 7620443.729285646229982 ], [ 5237674.811867776326835, 7620467.884279552847147 ], [ 5237677.016545883379877, 7620532.001403180882335 ], [ 5237681.635013090446591, 7620634.922959226183593 ], [ 5237787.047090899199247, 7620632.323652886785567 ], [ 5237895.169214544817805, 7620630.780918223783374 ], [ 5237999.044181684032083, 7620627.959009177051485 ], [ 5238004.112106747925282, 7620737.356642372906208 ], [ 5238110.683039718307555, 7620734.58314545545727 ], [ 5238115.339531081728637, 7620842.734675381332636 ], [ 5238128.562780033797026, 7620841.964141815900803 ], [ 5238235.294093186967075, 7620838.068332647904754 ], [ 5238239.986232913099229, 7620945.066928392276168 ], [ 5238243.186233050189912, 7621047.854392971843481 ], [ 5238246.085908866487443, 7621059.690924525260925 ], [ 5238249.224192633293569, 7621170.26944394595921 ], [ 5238252.659742230549455, 7621275.690778138116002 ], [ 5238358.329466827213764, 7621272.707664135843515 ], [ 5238355.891415105201304, 7621166.096987901255488 ], [ 5238461.253472618758678, 7621163.383600334636867 ], [ 5238457.643962124362588, 7621056.801170885562897 ], [ 5238456.861296210438013, 7621043.049687137827277 ], [ 5238566.881464203819633, 7621040.710239812731743 ], [ 5238566.873473757877946, 7621054.251740667968988 ], [ 5238571.019979589618742, 7621161.358224296942353 ], [ 5238575.696626020595431, 7621267.869585783220828 ], [ 5238580.595085045322776, 7621374.665788921527565 ], [ 5238682.826505336910486, 7621371.11068364046514 ], [ 5238789.460961536504328, 7621368.143865490332246 ], [ 5238892.045271575450897, 7621364.626561729237437 ], [ 5238997.52898947801441, 7621360.234753392636776 ], [ 5238994.35125110950321, 7621252.23837607447058 ], [ 5238990.590651194564998, 7621148.295279793441296 ], [ 5238988.308175351470709, 7621040.57379736751318 ], [ 5238987.873710829764605, 7621028.678823291324079 ], [ 5238984.696130321361125, 7620919.297243615612388 ], [ 5238984.212920233607292, 7620916.046449214220047 ], [ 5238980.579237774014473, 7620812.987962448969483 ], [ 5238979.331409278325737, 7620769.124168290756643 ], [ 5238979.170755721628666, 7620498.874214081093669 ], [ 5238978.204029517248273, 7620470.564499629661441 ], [ 5238976.615171194076538, 7620466.831351218745112 ], [ 5238975.03683818038553, 7620463.109128841198981 ], [ 5238963.789016611874104, 7620179.658499674871564 ], [ 5238745.420052221976221, 7620182.33512905985117 ], [ 5238742.675346513278782, 7620185.256729807704687 ], [ 5238637.421416862867773, 7620188.547285979613662 ], [ 5238531.958024844527245, 7620192.394306629896164 ], [ 5238518.031671195290983, 7619792.673847245052457 ], [ 5238517.271134860813618, 7619748.758609886281192 ], [ 5238518.673227694816887, 7619723.627641887404025 ], [ 5238521.136782156303525, 7619714.28303509298712 ], [ 5238547.309281926602125, 7619661.183627057820559 ], [ 5238588.821062288247049, 7619591.346982378512621 ], [ 5238627.598699901252985, 7619524.464868573471904 ], [ 5238657.638534807600081, 7619475.064793726429343 ], [ 5238714.530196206644177, 7619375.857066517695785 ], [ 5238755.111811035312712, 7619309.81227111723274 ], [ 5238772.361214581876993, 7619277.156025284901261 ], [ 5238791.136153066530824, 7619244.654558064416051 ], [ 5238855.887431252747774, 7619130.425772313028574 ], [ 5239113.02019081171602, 7618680.726372878998518 ], [ 5239142.964226732030511, 7618625.065438351593912 ], [ 5239174.38993243034929, 7618572.917499881237745 ], [ 5239210.84304937813431, 7618508.272924298420548 ], [ 5239226.602822453714907, 7618479.427825769409537 ], [ 5239256.896570092067122, 7618424.348730565048754 ], [ 5239292.979551630094647, 7618360.651277689263225 ], [ 5239330.715759859420359, 7618293.150498988106847 ], [ 5239366.145343688316643, 7618230.858730541542172 ], [ 5239452.45141445286572, 7618076.713774343952537 ], [ 5239487.693312497809529, 7618017.915050568990409 ], [ 5239518.037609928287566, 7617965.682427175343037 ], [ 5239585.383777539245784, 7617846.911958247423172 ], [ 5239603.895053035579622, 7617815.742811498232186 ], [ 5239614.958548940718174, 7617796.640801208093762 ], [ 5239652.817206228151917, 7617731.30908764526248 ], [ 5239690.210473083890975, 7617666.759842694737017 ], [ 5239693.399257909506559, 7617660.983494659885764 ], [ 5239698.364202882163227, 7617652.698588627390563 ], [ 5239701.868361094966531, 7617647.227847337722778 ], [ 5239707.432387652806938, 7617637.415903074666858 ], [ 5239750.025722902268171, 7617563.702629273757339 ], [ 5239773.370765229687095, 7617523.840204447507858 ], [ 5239933.566728701815009, 7617243.154160615056753 ], [ 5239980.325407112948596, 7617160.513054468668997 ], [ 5239987.841557719744742, 7617147.513789686374366 ], [ 5240007.903197701089084, 7617112.708418039605021 ], [ 5240048.537405071780086, 7617043.333778642117977 ], [ 5240079.152460829354823, 7616988.668779299594462 ], [ 5240110.573484472930431, 7616934.567970314994454 ], [ 5240113.761779207736254, 7616928.780427975580096 ], [ 5240148.328720002435148, 7616868.150138791650534 ], [ 5240151.516985289752483, 7616862.362586077302694 ], [ 5240179.242138609290123, 7616815.486188156530261 ], [ 5240199.084187389351428, 7616782.002435559406877 ], [ 5240202.272578336298466, 7616776.225948043167591 ], [ 5240232.054704590700567, 7616726.947431840002537 ], [ 5240265.280348676256835, 7616673.739155627787113 ], [ 5240297.492716033011675, 7616619.991762567311525 ], [ 5240334.658705514855683, 7616557.959262225776911 ], [ 5240415.307541920803487, 7616423.97067844402045 ], [ 5240442.968611634336412, 7616379.864973407238722 ], [ 5240495.369704390875995, 7616355.847815996035933 ], [ 5240562.522783765569329, 7616328.918219125829637 ], [ 5240615.784995297901332, 7616306.394913660362363 ], [ 5240679.73453923035413, 7616279.357309270650148 ], [ 5240746.949471535161138, 7616252.448119887150824 ], [ 5240790.312658989802003, 7616234.537421943619847 ], [ 5240842.424433687701821, 7616212.030430790036917 ], [ 5240893.437759321182966, 7616190.215594810433686 ], [ 5240935.033464414998889, 7616173.305980782955885 ], [ 5240968.630249200388789, 7616158.465807998552918 ], [ 5241224.470367823727429, 7616054.218803659081459 ], [ 5241499.685752581804991, 7615941.909792405553162 ], [ 5241656.801401333883405, 7615877.793324144557118 ], [ 5241721.121950086206198, 7615851.543551657348871 ], [ 5241766.288226875476539, 7615833.10436590295285 ], [ 5241797.791455985046923, 7615821.086185857653618 ], [ 5241827.353897830471396, 7615809.540234044194221 ], [ 5241865.329099199734628, 7615792.449447880499065 ], [ 5241883.467535763978958, 7615783.933344764634967 ], [ 5241895.379525540396571, 7615778.901363458484411 ], [ 5241938.650825263001025, 7615761.941700184717774 ], [ 5241963.28550541959703, 7615754.824308030307293 ], [ 5241979.048500779084861, 7615750.277626063674688 ], [ 5241989.384244866669178, 7615747.230614472180605 ], [ 5241984.037576603703201, 7615704.956549376249313 ], [ 5241966.140486828051507, 7615631.963589588180184 ], [ 5241902.532647439278662, 7615511.161373472772539 ], [ 5241727.836685130372643, 7615239.659090471453965 ], [ 5241599.238881196826696, 7615074.958308820612729 ], [ 5241577.238398163579404, 7615033.664543976075947 ], [ 5241542.438455135561526, 7614876.260314573533833 ], [ 5241494.036755367182195, 7614752.858308332040906 ], [ 5241256.630189292132854, 7614331.05866904463619 ], [ 5241190.936641591601074, 7614262.158821851946414 ], [ 5241104.137384220957756, 7614223.560590287670493 ], [ 5241041.733222270384431, 7614179.954790364950895 ], [ 5240956.532324617728591, 7614054.662812892347574 ], [ 5240794.034724729135633, 7613899.760420851409435 ], [ 5240524.877928701229393, 7613735.629716562107205 ], [ 5240345.571779859252274, 7613451.042583727277815 ], [ 5240232.798957521095872, 7613221.647886550053954 ], [ 5240179.987367086112499, 7613117.047884404659271 ], [ 5240087.037827651947737, 7612905.963626055978239 ], [ 5240029.53762127738446, 7612857.960000146180391 ], [ 5239789.433251175098121, 7612839.165194787085056 ], [ 5239652.898342793807387, 7612848.461874291300774 ], [ 5239509.210492703132331, 7612801.5251150354743 ], [ 5239392.042269070632756, 7612725.282334456220269 ], [ 5239329.27051489148289, 7612631.03402607422322 ], [ 5239274.096565789543092, 7612608.38126958720386 ], [ 5239189.111711563542485, 7612591.378355901688337 ], [ 5239139.615234805271029, 7612570.868433577008545 ], [ 5239102.349759553559124, 7612511.713404689915478 ], [ 5239105.876680486835539, 7612342.779385013505816 ], [ 5238985.037756650708616, 7612222.550786800682545 ], [ 5238976.577733305282891, 7612193.343381609767675 ], [ 5238993.796974077820778, 7612149.51606073230505 ], [ 5238999.666689782403409, 7612073.72048919275403 ], [ 5239003.89399619679898, 7612029.021693226881325 ], [ 5239015.360123596154153, 7611954.140549131669104 ], [ 5239000.534034199081361, 7611883.937307516112924 ], [ 5239015.101306886412203, 7611819.83682170137763 ], [ 5239012.99235849454999, 7611769.04837601352483 ], [ 5238985.161167277023196, 7611701.242959434166551 ], [ 5238917.592673106119037, 7611591.849810291081667 ], [ 5238901.32863986119628, 7611509.134670376777649 ], [ 5238879.402732846327126, 7611425.971438907086849 ], [ 5238858.84294680133462, 7611384.011064175516367 ], [ 5238880.053465101867914, 7611287.299262248910964 ], [ 5238853.506360895000398, 7611194.90708206128329 ], [ 5238846.157799574546516, 7611077.009206414222717 ], [ 5238806.604237815365195, 7610957.471547696739435 ], [ 5238804.916726348921657, 7610928.130611319094896 ], [ 5238743.605639456771314, 7610880.179915975779295 ], [ 5238693.109028437174857, 7610762.987104928120971 ], [ 5238647.631987666711211, 7610761.731837842613459 ], [ 5238578.11582313850522, 7610668.745054889470339 ], [ 5238471.236131808720529, 7610540.340122741647065 ], [ 5238346.75429754704237, 7610435.997759440913796 ], [ 5238209.422237606719136, 7610309.304765534587204 ], [ 5238069.160211856476963, 7610206.401589790359139 ], [ 5237971.058689126744866, 7610123.564260812476277 ], [ 5237925.893780499696732, 7610064.003191819414496 ], [ 5237872.659251533448696, 7610054.870725695043802 ], [ 5237806.374237360432744, 7610041.464754913002253 ], [ 5237728.8992236899212, 7610004.5536152664572 ], [ 5237668.67958333902061, 7609925.511172087863088 ], [ 5237625.574041366577148, 7609826.369544609449804 ], [ 5237640.633121057413518, 7609616.963872708380222 ], [ 5237585.169805265963078, 7609604.062566197477281 ], [ 5237578.8814532244578, 7609599.013467131182551 ], [ 5237550.195419242605567, 7609575.932533716782928 ], [ 5237498.739607281051576, 7609570.717797993682325 ], [ 5237420.686646847054362, 7609591.426159110851586 ], [ 5237341.485477280803025, 7609640.386396314948797 ] ] ] } }
]
}
