{
"type": "FeatureCollection",
"name": "3543709",
"crs": { "type": "name", "properties": { "name": "urn:ogc:def:crs:EPSG::5880" } },
"features": [
{ "type": "Feature", "properties": { "lv_id": "LOC_054979", "id": 324196.0, "CD_SETOR": "354370905000001", "SITUACAO": "Urbana", "CD_SIT": "1", "CD_TIPO": "0", "AREA_KM2": 0.124330318089376, "CD_REGIAO": "3", "NM_REGIAO": "Sudeste", "CD_UF": "35", "NM_UF": "São Paulo", "CD_MUN": "3543709", "NM_MUN": "Rincão", "CD_DIST": "354370905", "NM_DIST": "Rincão", "CD_SUBDIST": "35437090500", "NM_SUBDIST": null, "CD_BAIRRO": null, "NM_BAIRRO": null, "CD_NU": null, "NM_NU": null, "CD_FCU": null, "NM_FCU": null, "CD_AGLOM": null, "NM_AGLOM": null, "CD_RGINT": "3509", "NM_RGINT": "Araraquara", "CD_RGI": "350036", "NM_RGI": "Araraquara", "CD_CONCURB": "3503208", "NM_CONCURB": "Araraquara/SP", "mun_code_x": "3543709", "index_right": 87086, "dist_m": 77.239848105279634, "local_id": 594397, "ano": 2022, "cod_localidade_ibge": 3543709, "NR_ZONA": "239", "nr_cep": 14830000.0, "nm_localidade": "RINCÃO", "nm_locvot": "EMEF DR JOSE SERVIDONI", "ds_endereco": "AV DIB TEDDE, 83", "ds_bairro": "JARDIM BELA VISTA", "pred_long": -48.0749321, "pred_lat": -21.5880929, "pred_dist": 0.030240109991485201, "tse_long": null, "tse_lat": null, "long": -48.0749321, "lat": -21.5880929, "ID_UNICO": "LOC_054979", "SG_UF": "SP", "CD_MUNICIPIO": "69752", "NR_LOCAL_VOTACAO": "1015", "QT_SECOES_AGREGADAS": 0, "QT_ELEITORES_TRANSFERIDOS": 2, "CIRO GOMES (PDT) (NÃO ELEITO) 1T": 30.0, "CONSTITUINTE EYMAEL (DC) (NÃO ELEITO) 1T": 2.0, "FELIPE D AVILA (NOVO) (NÃO ELEITO) 1T": 8.0, "JAIR BOLSONARO (PL) (2º TURNO) 1T": 918.0, "LULA (PT) (2º TURNO) 1T": 1123.0, "LÉO PÉRICLES (UP) (NÃO ELEITO) 1T": 0.0, "PADRE KELMON (PTB) (NÃO ELEITO) 1T": 0.0, "SIMONE TEBET (MDB) (NÃO ELEITO) 1T": 109.0, "SOFIA MANZANO (PCB) (NÃO ELEITO) 1T": 0.0, "SORAYA THRONICKE (UNIÃO) (NÃO ELEITO) 1T": 10.0, "VERA (PSTU) (NÃO ELEITO) 1T": 0.0, "Total_Votos_Validos 1T": 2200.0, "Votos_Brancos 1T": 73.0, "Votos_Nulos 1T": 109.0, "Abstenções 1T": 814.0, "Eleitores_Aptos 1T": 3196.0, "JAIR BOLSONARO (PL) (NÃO ELEITO) 2T": 1046.0, "LULA (PT) (ELEITO) 2T": 1172.0, "Total_Votos_Validos 2T": 2218.0, "Votos_Brancos 2T": 48.0, "Votos_Nulos 2T": 105.0, "Abstenções 2T": 825.0, "Eleitores_Aptos 2T": 3196.0, "mun_code_y": "3543709", "mun_code": "3543709" }, "geometry": { "type": "Polygon", "coordinates": [ [ [ 5613018.636261820793152, 7599887.065105400979519 ], [ 5613063.004580669105053, 7599978.284253116697073 ], [ 5613097.871646077372134, 7600047.990623236633837 ], [ 5613132.609479372389615, 7600115.108166839927435 ], [ 5613164.94017541129142, 7600180.235623609274626 ], [ 5613197.8885538559407, 7600247.977855643257499 ], [ 5613230.377582590095699, 7600312.89891741424799 ], [ 5613237.398779098875821, 7600326.947468417696655 ], [ 5613236.652564172632992, 7600339.766498310491443 ], [ 5613271.427720988169312, 7600413.572950772941113 ], [ 5613279.225092777982354, 7600429.773836798965931 ], [ 5613312.418897112831473, 7600498.775794954970479 ], [ 5613373.447205525822937, 7600501.718813929706812 ], [ 5613435.182200373150408, 7600504.71264006011188 ], [ 5613509.407045332714915, 7600508.299496366642416 ], [ 5613586.258138279430568, 7600511.997556056827307 ], [ 5613757.339714346453547, 7600512.296497136354446 ], [ 5613837.21661246009171, 7600512.438368542119861 ], [ 5613809.937367998063564, 7600541.262940138578415 ], [ 5613789.661613069474697, 7600567.850362800061703 ], [ 5613781.200023468583822, 7600583.802015668712556 ], [ 5613774.459463216364384, 7600600.589821013621986 ], [ 5613770.966209420002997, 7600636.278672335669398 ], [ 5613776.941901554353535, 7600671.606957308016717 ], [ 5613794.54121408239007, 7600746.34545402508229 ], [ 5613804.837529255077243, 7600767.471684541553259 ], [ 5613817.205988411791623, 7600781.494671227410436 ], [ 5613854.321307548321784, 7600810.19360058568418 ], [ 5613867.083082810975611, 7600824.201592331752181 ], [ 5613870.742481412366033, 7600822.592802301980555 ], [ 5613930.884751556441188, 7600796.201393358409405 ], [ 5613949.617614104412496, 7600781.906766250729561 ], [ 5613973.664284948259592, 7600771.083307582885027 ], [ 5613987.119251908734441, 7600756.989647033624351 ], [ 5613997.484657809138298, 7600751.58537776581943 ], [ 5614007.744364555925131, 7600743.402097902260721 ], [ 5614020.17948633339256, 7600737.918971337378025 ], [ 5614048.582746206782758, 7600719.025611084885895 ], [ 5614059.106556470505893, 7600715.062431766651571 ], [ 5614063.554159449413419, 7600715.104510368779302 ], [ 5614071.516718931496143, 7600715.190797463059425 ], [ 5614088.965626701712608, 7600715.372101567685604 ], [ 5614117.749329535290599, 7600706.483015313744545 ], [ 5614131.00827625952661, 7600706.311825503595173 ], [ 5614171.766756236553192, 7600696.187143677845597 ], [ 5614191.931416353210807, 7600686.847057985141873 ], [ 5614218.3689253218472, 7600684.39249206520617 ], [ 5614227.602332987822592, 7600681.925538211129606 ], [ 5614245.241250347346067, 7600677.023161305114627 ], [ 5614265.000636139884591, 7600673.375814748927951 ], [ 5614336.464121256023645, 7600650.391738111153245 ], [ 5614345.095593555830419, 7600644.363087175413966 ], [ 5614352.302522556856275, 7600641.750644295476377 ], [ 5614354.571992017328739, 7600640.929421005770564 ], [ 5614355.624783921055496, 7600640.544196787290275 ], [ 5614359.38117741048336, 7600634.133604215458035 ], [ 5614455.975613628514111, 7600698.269008064642549 ], [ 5614628.832888375967741, 7600765.285156182944775 ], [ 5614751.011205640621483, 7600821.64204338286072 ], [ 5614756.66562682390213, 7600824.254000891000032 ], [ 5614807.659894120879471, 7600869.554545875638723 ], [ 5614844.118579507805407, 7600922.868020858615637 ], [ 5614871.342287814244628, 7600981.598890706896782 ], [ 5614885.218896629288793, 7601036.285727743059397 ], [ 5614887.144949059933424, 7601086.864130372181535 ], [ 5614817.084398766048253, 7601736.409234806895256 ], [ 5614814.63317556399852, 7601808.428149245679379 ], [ 5614818.097120216116309, 7601874.655431780964136 ], [ 5614827.922586278989911, 7601934.562001284211874 ], [ 5614851.174644513055682, 7602000.034956214949489 ], [ 5614884.511802094057202, 7602070.689591180533171 ], [ 5615099.409269606694579, 7602410.680666998028755 ], [ 5615101.824403610080481, 7602414.496014530770481 ], [ 5615230.086220917291939, 7602624.859432552009821 ], [ 5615256.567743869498372, 7602676.015622448176146 ], [ 5615273.278843611478806, 7602727.811579635366797 ], [ 5615304.136130939237773, 7602864.486406804062426 ], [ 5615305.023774442262948, 7602868.471326367929578 ], [ 5615305.911841310560703, 7602872.467362163588405 ], [ 5615451.073979099281132, 7603540.193114280700684 ], [ 5615481.306677526794374, 7603632.941603444516659 ], [ 5615531.371954405680299, 7603731.757993218488991 ], [ 5615778.499406323768198, 7604171.068184623494744 ], [ 5615781.935307076200843, 7604177.182410086505115 ], [ 5615997.796615867875516, 7604567.199496963992715 ], [ 5616038.482566265389323, 7604644.186726486310363 ], [ 5616059.760626977309585, 7604690.353880001232028 ], [ 5616075.969867611303926, 7604744.96354073099792 ], [ 5616082.367198599502444, 7604805.146364096552134 ], [ 5616084.117471909150481, 7604871.785156507045031 ], [ 5616016.294383672066033, 7605984.440710137598217 ], [ 5616010.44195365998894, 7606058.928058195859194 ], [ 5615998.467847128398716, 7606116.126343671232462 ], [ 5615977.183373552747071, 7606164.04996089451015 ], [ 5615900.348989240825176, 7606289.289896230213344 ], [ 5615826.550125462003052, 7606413.422666517086327 ], [ 5615800.640392124652863, 7606526.200963865965605 ], [ 5615812.862979866564274, 7606651.007613692432642 ], [ 5615831.253344185650349, 7606755.35182308126241 ], [ 5615832.045749950222671, 7606759.830235982313752 ], [ 5615832.468789217993617, 7606762.229839121922851 ], [ 5615832.946988424286246, 7606765.261884789913893 ], [ 5615867.255381775088608, 7606982.271387724205852 ], [ 5615883.729795828461647, 7607055.596004243008792 ], [ 5615914.951047539710999, 7607119.753524757921696 ], [ 5616581.204393618740141, 7608226.018658680841327 ], [ 5617125.931778557598591, 7609149.988297753036022 ], [ 5617178.502594311721623, 7609266.522956570610404 ], [ 5617244.700958283618093, 7609439.202710611745715 ], [ 5617289.31086964905262, 7609426.435548303648829 ], [ 5617292.306372988037765, 7609425.586547458544374 ], [ 5617295.7938003372401, 7609424.58519252948463 ], [ 5617340.701366355642676, 7609411.739719827659428 ], [ 5617471.796764809638262, 7609346.043655710294843 ], [ 5617478.586631429381669, 7609340.819450857117772 ], [ 5617520.100133381783962, 7609308.843429282307625 ], [ 5617546.192979362793267, 7609272.746592624112964 ], [ 5617555.096907430328429, 7609228.84481512196362 ], [ 5617545.392395506612957, 7609189.137647969648242 ], [ 5617519.894613152369857, 7609143.14205722976476 ], [ 5617500.493775237351656, 7609130.345097234472632 ], [ 5617362.399531396105886, 7609039.740019699558616 ], [ 5617263.399329611100256, 7608952.441068733111024 ], [ 5617144.397592661902308, 7608820.739896016195416 ], [ 5617066.491925994865596, 7608688.840341487899423 ], [ 5617043.101203352212906, 7608533.943535124883056 ], [ 5617038.597900800406933, 7608430.938805060461164 ], [ 5617049.394956384785473, 7608298.439193604514003 ], [ 5617072.699589798226953, 7608180.736221365630627 ], [ 5617095.696209220215678, 7608117.839359967038035 ], [ 5617129.901146292686462, 7608060.938258796930313 ], [ 5617170.195772342383862, 7608017.742641057819128 ], [ 5617222.996662659570575, 7607994.742835497483611 ], [ 5617338.595279846340418, 7607986.345516583882272 ], [ 5617573.197470482438803, 7608041.736127739772201 ], [ 5617806.093293256126344, 7608071.639462637715042 ], [ 5618209.600023123435676, 7608090.845067135989666 ], [ 5618273.099188895896077, 7608103.135544458404183 ], [ 5618319.696883456781507, 7608130.344159923493862 ], [ 5618401.202724426984787, 7608200.938704644329846 ], [ 5618478.9017881648615, 7608242.143171450123191 ], [ 5618528.997959682717919, 7608256.136546454392374 ], [ 5618579.796099080704153, 7608240.445021035149693 ], [ 5618597.395254066213965, 7608142.237017147243023 ], [ 5618589.299205724149942, 7608096.935302603058517 ], [ 5618554.294494811445475, 7608046.138806572183967 ], [ 5618370.699480780400336, 7607926.344883412122726 ], [ 5618253.000826159492135, 7607814.239489041268826 ], [ 5618193.494127759709954, 7607695.445092739537358 ], [ 5618189.797186141833663, 7607630.63770495634526 ], [ 5618215.297004679217935, 7607562.843843657523394 ], [ 5618262.700528902933002, 7607494.134491834789515 ], [ 5618339.297579190693796, 7607438.937080534175038 ], [ 5618487.893668960779905, 7607372.435335043817759 ], [ 5618551.493302964605391, 7607332.039442114531994 ], [ 5618577.699411100707948, 7607298.540056427940726 ], [ 5618583.302498010918498, 7607265.539379492402077 ], [ 5618570.298342717811465, 7607227.739796737208962 ], [ 5618544.700832458212972, 7607180.53601455502212 ], [ 5618491.802065912634134, 7607135.434270003810525 ], [ 5618276.794875469058752, 7607093.137077496387064 ], [ 5618181.09626399166882, 7607038.738937493413687 ], [ 5618112.69434929266572, 7606965.539984339848161 ], [ 5618059.902000276371837, 7606891.94452269654721 ], [ 5618037.291859188117087, 7606850.437591820955276 ], [ 5618027.992144774645567, 7606806.440150246024132 ], [ 5618029.499720835126936, 7606759.836369385011494 ], [ 5618044.692351683974266, 7606726.536262551322579 ], [ 5618099.800265395082533, 7606687.535085752606392 ], [ 5618157.899754243902862, 7606664.439348534680903 ], [ 5618507.89511074218899, 7606580.735717106610537 ], [ 5618578.795341316610575, 7606547.540703071281314 ], [ 5618672.993102293461561, 7606465.838118800893426 ], [ 5618706.995940803550184, 7606399.041598081588745 ], [ 5618717.895939968526363, 7606334.042267540469766 ], [ 5618715.599616507999599, 7606270.43873621430248 ], [ 5618652.894623707979918, 7606049.835824805311859 ], [ 5618619.800518242642283, 7605791.037979064509273 ], [ 5618594.20121662132442, 7605724.240909181535244 ], [ 5618502.899730685167015, 7605598.138182077556849 ], [ 5618486.899092356674373, 7605513.940351599827409 ], [ 5618494.09430427569896, 7605465.136616250500083 ], [ 5618518.193950371816754, 7605430.336557922884822 ], [ 5618545.595472869463265, 7605417.642421249300241 ], [ 5618579.696144209243357, 7605416.937918692827225 ], [ 5618766.797232944518328, 7605509.935854209586978 ], [ 5618842.501606942154467, 7605536.638752314262092 ], [ 5618921.701145285740495, 7605542.232952700927854 ], [ 5618977.397930423729122, 7605535.3342619324103 ], [ 5619032.991752083413303, 7605514.634397240355611 ], [ 5619084.494960873387754, 7605474.541492031887174 ], [ 5619149.200812682509422, 7605392.338263770565391 ], [ 5619216.395447649993002, 7605333.741423031315207 ], [ 5619292.092611464671791, 7605294.434651423245668 ], [ 5619415.794865675270557, 7605278.336205909959972 ], [ 5619610.702376057393849, 7605298.137680096551776 ], [ 5619645.29855715110898, 7605325.534148661419749 ], [ 5619669.29744429141283, 7605366.941749713383615 ], [ 5619678.993616010993719, 7605421.433871486224234 ], [ 5619671.79935834929347, 7605492.638955008238554 ], [ 5619643.402056891471148, 7605598.435089008882642 ], [ 5619595.998475288972259, 7605722.839664340950549 ], [ 5619584.599307445809245, 7605787.136251444928348 ], [ 5619589.499567305669188, 7605856.641560370102525 ], [ 5619635.492427751421928, 7605978.332969192415476 ], [ 5619675.197758045978844, 7606017.835950124077499 ], [ 5619756.397647467441857, 7606060.434634087607265 ], [ 5619864.202911511994898, 7606092.538254115730524 ], [ 5619957.801860993728042, 7606096.941433776170015 ], [ 5620044.000007815659046, 7606080.541799355298281 ], [ 5620125.999739099293947, 7606042.236767865717411 ], [ 5620182.196933721192181, 7605993.432007942348719 ], [ 5620201.898282212205231, 7605950.2360700070858 ], [ 5620197.702846861444414, 7605853.738491182215512 ], [ 5620179.593840775080025, 7605807.540426835417747 ], [ 5620144.799766800366342, 7605759.333044067025185 ], [ 5619982.593472314998507, 7605610.439098408445716 ], [ 5619868.102101352065802, 7605415.63750765658915 ], [ 5619838.794426383450627, 7605343.639406394213438 ], [ 5619820.300247448496521, 7605265.437180945649743 ], [ 5619819.795205615460873, 7605182.436604185029864 ], [ 5619837.49888092558831, 7605084.141731284558773 ], [ 5619865.394045136868954, 7605017.541449069045484 ], [ 5619907.100660288706422, 7604970.239166926592588 ], [ 5619969.294547103345394, 7604931.134822984226048 ], [ 5620062.500742346048355, 7604900.035649379715323 ], [ 5620159.598660012707114, 7604884.740336462855339 ], [ 5620507.497148507274687, 7604871.935241682454944 ], [ 5620657.197499010711908, 7604830.23386500403285 ], [ 5620723.994114416651428, 7604789.835785279981792 ], [ 5620758.494891313835979, 7604746.637265999801457 ], [ 5620774.593387996777892, 7604706.639832496643066 ], [ 5620773.993085759691894, 7604621.036273445934057 ], [ 5620738.297503503039479, 7604535.033794788643718 ], [ 5620612.799936609342694, 7604336.139542667195201 ], [ 5620585.596424240618944, 7604245.034519108012319 ], [ 5620681.101968064904213, 7603972.83839450404048 ], [ 5620687.501985083334148, 7603916.235320739448071 ], [ 5620674.096440237946808, 7603851.6317338636145 ], [ 5620646.200194080360234, 7603793.530475084669888 ], [ 5620597.69373968616128, 7603741.832762748003006 ], [ 5620396.896561305038631, 7603605.140783004462719 ], [ 5620336.101046516560018, 7603543.538760285824537 ], [ 5620306.191597880795598, 7603489.934676404111087 ], [ 5620283.094584063626826, 7603360.740996977314353 ], [ 5620299.693350745365024, 7603202.533645918592811 ], [ 5620335.895908625796437, 7603077.640491867437959 ], [ 5620367.598190848715603, 7603012.138143276795745 ], [ 5620399.795781694352627, 7602982.232084952294827 ], [ 5620497.999799410812557, 7602955.833439042791724 ], [ 5620612.392652923241258, 7602979.334696248173714 ], [ 5620791.692847849801183, 7603075.132622089236975 ], [ 5620845.39405654836446, 7603082.630399058572948 ], [ 5620936.397532718256116, 7603072.237638602033257 ], [ 5620977.200356585904956, 7603045.639718837104738 ], [ 5621065.473865807056427, 7602986.865058284252882 ], [ 5621151.071405694819987, 7602940.740151001140475 ], [ 5621255.500010374933481, 7602920.443054610863328 ], [ 5621361.214732041582465, 7602895.319425564259291 ], [ 5621475.982794255949557, 7602890.265247147530317 ], [ 5621601.091248754411936, 7602873.51138468272984 ], [ 5621677.356858912855387, 7602829.512838708236814 ], [ 5621754.918177947402, 7602780.676451789215207 ], [ 5621763.577483125030994, 7602712.082777675241232 ], [ 5621751.719199324958026, 7602643.099538011476398 ], [ 5621728.999863809905946, 7602598.138022017665207 ], [ 5621711.297986111603677, 7602564.239220913499594 ], [ 5621631.398820577189326, 7602455.536743151023984 ], [ 5621467.497556786984205, 7602282.033209029585123 ], [ 5621372.467084269970655, 7602188.397912355139852 ], [ 5621353.689916526898742, 7602108.726036102510989 ], [ 5621369.075528581626713, 7602047.656105898320675 ], [ 5621405.599006889387965, 7602024.961849329993129 ], [ 5621434.710827447474003, 7602010.602567253634334 ], [ 5621472.201516205444932, 7602014.134878412820399 ], [ 5621535.10845466516912, 7602057.046944847330451 ], [ 5621592.511857625097036, 7602123.395550379529595 ], [ 5621645.097202771343291, 7602215.369962705299258 ], [ 5621710.777748530730605, 7602343.001599641516805 ], [ 5621837.00186020322144, 7602427.539758931845427 ], [ 5621928.543139782734215, 7602457.078124647028744 ], [ 5622010.673577178269625, 7602460.235883517190814 ], [ 5622088.211431723088026, 7602438.33032314106822 ], [ 5622170.965647166594863, 7602370.196573238819838 ], [ 5622223.514769705943763, 7602297.471079763956368 ], [ 5622219.30147357378155, 7602124.538162065669894 ], [ 5622175.622587539255619, 7602013.616817563772202 ], [ 5622136.110701175406575, 7601765.701892501674592 ], [ 5622168.896015923470259, 7601528.937488943338394 ], [ 5622225.879857307299972, 7601382.023154048249125 ], [ 5622317.168761878274381, 7601270.625875632278621 ], [ 5622377.856707330793142, 7601175.261288817971945 ], [ 5622384.479161386378109, 7601098.873163156211376 ], [ 5622367.268245266750455, 7601019.107369840145111 ], [ 5622317.896083281375468, 7600955.446531930938363 ], [ 5622211.266699082218111, 7600964.794722935184836 ], [ 5622019.646077878773212, 7601058.240641869604588 ], [ 5621906.07557094655931, 7601083.831166787073016 ], [ 5621750.228272464126348, 7601059.602637068368495 ], [ 5621641.884269905276597, 7601012.042357311584055 ], [ 5621488.651820531114936, 7600951.237274050712585 ], [ 5621295.38263825699687, 7600824.671814434230328 ], [ 5621208.139566168189049, 7600733.120502503588796 ], [ 5621190.567153811454773, 7600647.045286044478416 ], [ 5621231.93649553693831, 7600571.802831526845694 ], [ 5621288.685198576189578, 7600544.765683597885072 ], [ 5621357.498584822751582, 7600545.230709835886955 ], [ 5621439.249606842175126, 7600586.71375447884202 ], [ 5621626.975825228728354, 7600726.27219750918448 ], [ 5621722.835819160565734, 7600776.150536530651152 ], [ 5621794.710728622972965, 7600792.572913702577353 ], [ 5621883.426272300072014, 7600773.174220807850361 ], [ 5621932.978927184827626, 7600730.713880654424429 ], [ 5621960.484964862465858, 7600661.024804413318634 ], [ 5621913.625701959244907, 7600559.222818530164659 ], [ 5621859.653124239295721, 7600470.498971335589886 ], [ 5621824.817830505780876, 7600358.502337455749512 ], [ 5621830.991949241608381, 7600274.216247729957104 ], [ 5621852.56701713707298, 7600211.202410344034433 ], [ 5621901.033408123999834, 7600177.723900408484042 ], [ 5621965.958086386322975, 7600182.466586925089359 ], [ 5622034.126490285620093, 7600216.521312676370144 ], [ 5622112.276203924790025, 7600232.577060892246664 ], [ 5622175.105990416370332, 7600228.938237085938454 ], [ 5622228.626576841808856, 7600200.49633246101439 ], [ 5622267.66284016892314, 7600139.635304494760931 ], [ 5622261.006150034256279, 7600076.641564132645726 ], [ 5622210.207742122001946, 7600017.868344688788056 ], [ 5622142.610397123731673, 7599966.357026821002364 ], [ 5622053.121902735903859, 7599917.705769123509526 ], [ 5622002.263285285793245, 7599855.728070665150881 ], [ 5621978.766692331060767, 7599776.327706271782517 ], [ 5621996.795142090879381, 7599708.729482857510448 ], [ 5622047.82687087263912, 7599675.718790128827095 ], [ 5622104.612179064191878, 7599662.927240887656808 ], [ 5622223.878996073268354, 7599665.748352479189634 ], [ 5622298.729129342362285, 7599667.511730326339602 ], [ 5622397.837938916869462, 7599650.679616693407297 ], [ 5622444.822367594577372, 7599590.946788994595408 ], [ 5622424.190936733037233, 7599506.626035394147038 ], [ 5622361.972334993071854, 7599438.975777150131762 ], [ 5622317.123943580314517, 7599371.890335632488132 ], [ 5622254.180702599696815, 7599291.608846565708518 ], [ 5622167.029789433814585, 7599201.651747679337859 ], [ 5622119.315183879807591, 7599139.486623277887702 ], [ 5622099.115901650860906, 7599089.986776031553745 ], [ 5622095.377343138679862, 7599025.277211558073759 ], [ 5622117.418080576695502, 7598970.149083760567009 ], [ 5622165.861529344692826, 7598935.667353255674243 ], [ 5622235.359160044230521, 7598911.049390209838748 ], [ 5622335.788038815371692, 7598896.32528256252408 ], [ 5622610.113909114152193, 7598905.163820840418339 ], [ 5622694.541137804277241, 7598915.917788750492036 ], [ 5622419.197850921191275, 7598551.428608974441886 ], [ 5621527.476559110917151, 7597257.066990545019507 ], [ 5621523.810411217622459, 7597251.741938162595034 ], [ 5621495.690115751698613, 7597210.931883681565523 ], [ 5621126.492876376956701, 7596757.929968819022179 ], [ 5620597.384538787417114, 7596051.973828269168735 ], [ 5620590.318376515991986, 7596042.560299132019281 ], [ 5620430.886847072280943, 7595829.837539890781045 ], [ 5620332.286169870756567, 7595770.736594725400209 ], [ 5619982.789460570551455, 7595498.429460844025016 ], [ 5618245.18335778079927, 7594564.438697649165988 ], [ 5616277.626650797203183, 7594540.531882988288999 ], [ 5616276.186189872212708, 7594540.52031356934458 ], [ 5616097.384991621598601, 7594538.334764740429819 ], [ 5613289.585856176912785, 7594504.541903853416443 ], [ 5613303.784294973127544, 7594579.742927832528949 ], [ 5613287.280708496458828, 7594612.633428186178207 ], [ 5613343.978349957615137, 7594688.739897334948182 ], [ 5613374.28325438965112, 7594767.935096269473433 ], [ 5613358.175403900444508, 7595231.956705372780561 ], [ 5613352.799546483904123, 7595275.777318902313709 ], [ 5613352.570481222122908, 7595277.92341860383749 ], [ 5613352.356178784742951, 7595279.913105845451355 ], [ 5613318.789132482372224, 7595556.57899490185082 ], [ 5613314.031181406229734, 7595798.39331904053688 ], [ 5613405.518385298550129, 7596022.689023029990494 ], [ 5613526.081639052368701, 7596288.667720185592771 ], [ 5613595.561462852172554, 7596430.957824535667896 ], [ 5613658.435913437046111, 7596571.45158020965755 ], [ 5613731.569388293661177, 7596716.864073342643678 ], [ 5613836.194809236563742, 7596893.647917097434402 ], [ 5613898.481074942275882, 7597021.351051205769181 ], [ 5614117.078183200210333, 7597674.741544274613261 ], [ 5614133.463491622358561, 7597807.847475485876203 ], [ 5614117.088611667975783, 7598315.44306668266654 ], [ 5614120.327638403512537, 7598613.305697464384139 ], [ 5614120.442341440357268, 7598616.318142956122756 ], [ 5614120.453571392223239, 7598619.334534418769181 ], [ 5614120.12849260494113, 7598708.771694392897189 ], [ 5614082.044032899662852, 7598709.244321821257472 ], [ 5613515.675423715263605, 7598721.958525355905294 ], [ 5613511.457705488428473, 7598721.952223557978868 ], [ 5613507.212750581093132, 7598722.047146777622402 ], [ 5613495.005601218901575, 7598722.311806439422071 ], [ 5612649.322649857029319, 7599928.418028919026256 ], [ 5612841.096699968911707, 7599909.180721304379404 ], [ 5612845.447146370075643, 7599908.581111030653119 ], [ 5612911.602180899120867, 7599900.3207385269925 ], [ 5612976.89044866990298, 7599892.159846510738134 ], [ 5613018.636261820793152, 7599887.065105400979519 ] ] ] } },
{ "type": "Feature", "properties": { "lv_id": "LOC_054980", "id": 324199.0, "CD_SETOR": "354370905000004", "SITUACAO": "Urbana", "CD_SIT": "2", "CD_TIPO": "0", "AREA_KM2": 0.32767289580741099, "CD_REGIAO": "3", "NM_REGIAO": "Sudeste", "CD_UF": "35", "NM_UF": "São Paulo", "CD_MUN": "3543709", "NM_MUN": "Rincão", "CD_DIST": "354370905", "NM_DIST": "Rincão", "CD_SUBDIST": "35437090500", "NM_SUBDIST": null, "CD_BAIRRO": null, "NM_BAIRRO": null, "CD_NU": "3543709001", "NM_NU": "Peixe Vivo", "CD_FCU": null, "NM_FCU": null, "CD_AGLOM": null, "NM_AGLOM": null, "CD_RGINT": "3509", "NM_RGINT": "Araraquara", "CD_RGI": "350036", "NM_RGI": "Araraquara", "CD_CONCURB": "3503208", "NM_CONCURB": "Araraquara/SP", "mun_code_x": "3543709", "index_right": 87087, "dist_m": 299.43708397436473, "local_id": 594398, "ano": 2022, "cod_localidade_ibge": 3543709, "NR_ZONA": "239", "nr_cep": 14830000.0, "nm_localidade": "RINCÃO", "nm_locvot": "EE COMENDADOR PEDRO MORGANTI", "ds_endereco": "AL DOS ESTADOS, 51", "ds_bairro": "CENTRO", "pred_long": -48.079058, "pred_lat": -21.586179, "pred_dist": 0.080209066998208595, "tse_long": null, "tse_lat": null, "long": -48.079058, "lat": -21.586179, "ID_UNICO": "LOC_054980", "SG_UF": "SP", "CD_MUNICIPIO": "69752", "NR_LOCAL_VOTACAO": "1023", "QT_SECOES_AGREGADAS": 0, "QT_ELEITORES_TRANSFERIDOS": 2, "CIRO GOMES (PDT) (NÃO ELEITO) 1T": 39.0, "CONSTITUINTE EYMAEL (DC) (NÃO ELEITO) 1T": 0.0, "FELIPE D AVILA (NOVO) (NÃO ELEITO) 1T": 4.0, "JAIR BOLSONARO (PL) (2º TURNO) 1T": 1053.0, "LULA (PT) (2º TURNO) 1T": 1410.0, "LÉO PÉRICLES (UP) (NÃO ELEITO) 1T": 0.0, "PADRE KELMON (PTB) (NÃO ELEITO) 1T": 0.0, "SIMONE TEBET (MDB) (NÃO ELEITO) 1T": 91.0, "SOFIA MANZANO (PCB) (NÃO ELEITO) 1T": 0.0, "SORAYA THRONICKE (UNIÃO) (NÃO ELEITO) 1T": 10.0, "VERA (PSTU) (NÃO ELEITO) 1T": 1.0, "Total_Votos_Validos 1T": 2608.0, "Votos_Brancos 1T": 65.0, "Votos_Nulos 1T": 91.0, "Abstenções 1T": 870.0, "Eleitores_Aptos 1T": 3634.0, "JAIR BOLSONARO (PL) (NÃO ELEITO) 2T": 1221.0, "LULA (PT) (ELEITO) 2T": 1416.0, "Total_Votos_Validos 2T": 2637.0, "Votos_Brancos 2T": 58.0, "Votos_Nulos 2T": 95.0, "Abstenções 2T": 844.0, "Eleitores_Aptos 2T": 3634.0, "mun_code_y": "3543709", "mun_code": "3543709" }, "geometry": { "type": "Polygon", "coordinates": [ [ [ 5613132.609479372389615, 7600115.108166839927435 ], [ 5613097.871646077372134, 7600047.990623236633837 ], [ 5613063.004580669105053, 7599978.284253116697073 ], [ 5613018.636261820793152, 7599887.065105400979519 ], [ 5612976.89044866990298, 7599892.159846510738134 ], [ 5612911.602180899120867, 7599900.3207385269925 ], [ 5612845.447146370075643, 7599908.581111030653119 ], [ 5612841.096699968911707, 7599909.180721304379404 ], [ 5612649.322649857029319, 7599928.418028919026256 ], [ 5613495.005601218901575, 7598722.311806439422071 ], [ 5613507.212750581093132, 7598722.047146777622402 ], [ 5613511.457705488428473, 7598721.952223557978868 ], [ 5613515.675423715263605, 7598721.958525355905294 ], [ 5614082.044032899662852, 7598709.244321821257472 ], [ 5614120.12849260494113, 7598708.771694392897189 ], [ 5614120.453571392223239, 7598619.334534418769181 ], [ 5614120.442341440357268, 7598616.318142956122756 ], [ 5614120.327638403512537, 7598613.305697464384139 ], [ 5614117.088611667975783, 7598315.44306668266654 ], [ 5614133.463491622358561, 7597807.847475485876203 ], [ 5614117.078183200210333, 7597674.741544274613261 ], [ 5613898.481074942275882, 7597021.351051205769181 ], [ 5613836.194809236563742, 7596893.647917097434402 ], [ 5613731.569388293661177, 7596716.864073342643678 ], [ 5613658.435913437046111, 7596571.45158020965755 ], [ 5613595.561462852172554, 7596430.957824535667896 ], [ 5613526.081639052368701, 7596288.667720185592771 ], [ 5613405.518385298550129, 7596022.689023029990494 ], [ 5613314.031181406229734, 7595798.39331904053688 ], [ 5613318.789132482372224, 7595556.57899490185082 ], [ 5613352.356178784742951, 7595279.913105845451355 ], [ 5613352.570481222122908, 7595277.92341860383749 ], [ 5613352.799546483904123, 7595275.777318902313709 ], [ 5613358.175403900444508, 7595231.956705372780561 ], [ 5613374.28325438965112, 7594767.935096269473433 ], [ 5613343.978349957615137, 7594688.739897334948182 ], [ 5613287.280708496458828, 7594612.633428186178207 ], [ 5613237.285089926794171, 7594663.232611547224224 ], [ 5613233.685950325801969, 7594691.133327607065439 ], [ 5613260.081905362196267, 7594758.83354471065104 ], [ 5613261.485809358768165, 7594818.537012057378888 ], [ 5613121.280155751854181, 7595178.340769486501813 ], [ 5612999.981925462372601, 7595410.437654007226229 ], [ 5612975.076545914635062, 7595519.334239646792412 ], [ 5612982.882396831177175, 7595692.03931769169867 ], [ 5613042.279290629550815, 7595857.8353514932096 ], [ 5613108.580504558049142, 7595926.541876980103552 ], [ 5613435.081351914443076, 7596212.443539120256901 ], [ 5613481.280397106893361, 7596283.741623263806105 ], [ 5613505.787521005608141, 7596394.038935988210142 ], [ 5613506.487415244802833, 7596436.6370546258986 ], [ 5613555.085535725578666, 7596618.541349840350449 ], [ 5613665.587544487789273, 7596764.143063509836793 ], [ 5613829.883707878179848, 7596903.13949094992131 ], [ 5613870.686052486300468, 7596991.541919536888599 ], [ 5613822.88078937958926, 7597000.835215700790286 ], [ 5613790.488229126669466, 7597032.038536475040019 ], [ 5613763.684621879830956, 7597042.133569901809096 ], [ 5613643.483503371477127, 7597042.142404763028026 ], [ 5613595.18686356395483, 7596997.440721845254302 ], [ 5613529.18650933355093, 7596968.342123923823237 ], [ 5613457.885458586737514, 7596863.13499515876174 ], [ 5613412.385704056359828, 7596823.836797614581883 ], [ 5613382.081074584275484, 7596782.233802236616611 ], [ 5613309.279288727790117, 7596664.237314352765679 ], [ 5613286.577949653379619, 7596643.539877517148852 ], [ 5613215.185614767484367, 7596608.835173197090626 ], [ 5613202.280337227508426, 7596558.041751898825169 ], [ 5613131.477815112099051, 7596427.734779166057706 ], [ 5613091.08638450037688, 7596404.739185841754079 ], [ 5613058.477680832147598, 7596350.744839462451637 ], [ 5613026.88206107262522, 7596336.442016830667853 ], [ 5613013.387466987594962, 7596318.343547623604536 ], [ 5613004.38156440295279, 7596269.538934707641602 ], [ 5612885.377330096438527, 7596166.037570111453533 ], [ 5612883.078752981498837, 7596087.644658698700368 ], [ 5612820.378447851166129, 7596047.94363712798804 ], [ 5612812.583587712608278, 7596025.241965243592858 ], [ 5612812.986046064645052, 7596006.135297378525138 ], [ 5612844.479612271301448, 7595975.83635119907558 ], [ 5612840.786456962116063, 7595949.839182618074119 ], [ 5612794.376900082454085, 7595924.93526409752667 ], [ 5612775.380066528916359, 7595865.134534731507301 ], [ 5612732.178460388444364, 7595858.643021548166871 ], [ 5612714.176797607913613, 7595812.741597497835755 ], [ 5612652.178342778235674, 7595795.544650983996689 ], [ 5612652.476648921146989, 7595729.843667356297374 ], [ 5612642.580558801069856, 7595709.637691739946604 ], [ 5612602.276355960406363, 7595685.335806413553655 ], [ 5612589.079805544577539, 7595639.640960820019245 ], [ 5612559.784927477128804, 7595623.135018326342106 ], [ 5612535.583364550024271, 7595591.540515225380659 ], [ 5612438.884487255476415, 7595559.234081473201513 ], [ 5612336.884284654632211, 7595601.935357401147485 ], [ 5612268.378000484779477, 7595595.838680199347436 ], [ 5612226.678742758929729, 7595543.536911795847118 ], [ 5612222.38075140863657, 7595526.134457939304411 ], [ 5612234.078691806644201, 7595470.842354286462069 ], [ 5612202.478458420373499, 7595436.735196118243039 ], [ 5612166.078086446970701, 7595433.334319337271154 ], [ 5612081.983682052232325, 7595454.034881861880422 ], [ 5611964.277628597803414, 7595432.945148883387446 ], [ 5611943.084294212050736, 7595419.135639766231179 ], [ 5611931.878487383946776, 7595398.244671585038304 ], [ 5611931.180037151090801, 7595324.244679810479283 ], [ 5611903.776744570583105, 7595270.240764938294888 ], [ 5611901.783590220846236, 7595209.336552260443568 ], [ 5611854.779064429923892, 7595151.236286342144012 ], [ 5611830.680701094679534, 7595084.138061666861176 ], [ 5611709.283653855323792, 7595084.438362758606672 ], [ 5611684.078323080204427, 7595073.542030761018395 ], [ 5611657.882003374397755, 7595050.738984691910446 ], [ 5611618.976221143268049, 7594988.445282781496644 ], [ 5611593.57981926202774, 7594969.240715211257339 ], [ 5611516.77893259935081, 7594947.338512765243649 ], [ 5611470.874536508694291, 7594889.240399974398315 ], [ 5611435.380754286423326, 7594873.937380199320614 ], [ 5611209.682315463200212, 7594864.943376740440726 ], [ 5611197.28141058050096, 7594844.743337688036263 ], [ 5611196.577529399655759, 7594779.538430828601122 ], [ 5611181.373866776004434, 7594768.739922193810344 ], [ 5611032.076828162185848, 7594751.740548130124807 ], [ 5611007.477660357952118, 7594736.044923993758857 ], [ 5610979.676357580348849, 7594693.844095844775438 ], [ 5610980.582089231349528, 7594680.039823869243264 ], [ 5611012.58097892254591, 7594643.135417692363262 ], [ 5611013.482123862951994, 7594625.936154391616583 ], [ 5610947.178965314291418, 7594587.135794319212437 ], [ 5610874.581610880792141, 7594522.237043442204595 ], [ 5610783.78202969301492, 7594514.645238410681486 ], [ 5610686.483311038464308, 7594543.544355211779475 ], [ 5610616.580143728293478, 7594535.435932584106922 ], [ 5610558.876904687844217, 7594460.040994746610522 ], [ 5610501.574197978712618, 7594435.346157602965832 ], [ 5610483.675447950139642, 7594383.240207719616592 ], [ 5610392.381589645519853, 7594309.043022964149714 ], [ 5610317.882012791931629, 7594265.743369532749057 ], [ 5610303.281256306916475, 7594203.33796192612499 ], [ 5610254.774532532319427, 7594170.438581507652998 ], [ 5610206.081943670287728, 7594120.336859883740544 ], [ 5610129.279246634803712, 7594101.234987637959421 ], [ 5610030.874326039105654, 7594106.640669783577323 ], [ 5609983.679835686460137, 7594083.742614528164268 ], [ 5609959.079716905020177, 7594081.637517351657152 ], [ 5609901.27374831866473, 7594095.541901590302587 ], [ 5609774.27816809900105, 7594091.946070140227675 ], [ 5609635.672421166673303, 7594053.135875238105655 ], [ 5609417.976279669441283, 7594021.743605742231011 ], [ 5609378.481104581616819, 7593981.643589504994452 ], [ 5609341.474315880797803, 7593977.436796816065907 ], [ 5609311.979363762773573, 7594002.543302964419127 ], [ 5609246.274946647696197, 7594022.343860103748739 ], [ 5609157.275303182192147, 7594021.143083393573761 ], [ 5609145.876312862150371, 7594035.544998418539762 ], [ 5609159.671185626648366, 7594100.040004588663578 ], [ 5609151.975929378531873, 7594115.13635228946805 ], [ 5609121.379272720776498, 7594112.244381150230765 ], [ 5609078.079164665192366, 7594066.844821775332093 ], [ 5609065.175854051485658, 7594065.040858775377274 ], [ 5609028.474558904767036, 7594126.941555140540004 ], [ 5608989.378394955769181, 7594128.846237732097507 ], [ 5608931.175200178287923, 7594059.444481406360865 ], [ 5608871.879943700507283, 7594029.343955866992474 ], [ 5608733.876720054075122, 7594038.145699077285826 ], [ 5608663.176250129938126, 7594087.741963451728225 ], [ 5608621.071369995363057, 7594104.041078124195337 ], [ 5608588.474561555311084, 7594071.537001378834248 ], [ 5608553.674456925131381, 7594001.036535900086164 ], [ 5608536.578223343938589, 7593988.337715663947165 ], [ 5608514.174288185313344, 7593985.947007480077446 ], [ 5608472.670924514532089, 7594000.341827610507607 ], [ 5608338.18016997538507, 7594005.044549655169249 ], [ 5608332.770981222391129, 7593914.842144566588104 ], [ 5608228.1755958404392, 7593855.643824616447091 ], [ 5608187.878046941012144, 7593857.53657610155642 ], [ 5608052.971357820555568, 7593900.543984743766487 ], [ 5607961.077445027418435, 7593945.540249550715089 ], [ 5607870.271895890124142, 7593970.547819877043366 ], [ 5607830.975176984444261, 7594035.147478917613626 ], [ 5607790.379007212817669, 7594066.447495883330703 ], [ 5607679.371857614256442, 7594081.84372397698462 ], [ 5607590.274470502510667, 7594080.237359906546772 ], [ 5607564.069587442092597, 7594088.841802335344255 ], [ 5607507.772927253507078, 7594143.041057035326958 ], [ 5607328.069101355969906, 7594187.144863727502525 ], [ 5607219.87724194675684, 7594178.343887496739626 ], [ 5607151.677936654537916, 7594193.042394584044814 ], [ 5607082.768905037082732, 7594195.245127782225609 ], [ 5606891.576211426407099, 7594171.244927752763033 ], [ 5606837.27264204248786, 7594153.638644409365952 ], [ 5606721.376913961954415, 7594077.038113852962852 ], [ 5606584.074831545352936, 7593951.646288444288075 ], [ 5606497.77166423201561, 7593894.141167631372809 ], [ 5606200.87340609356761, 7593580.138744601048529 ], [ 5606048.868192455731332, 7593502.838776998221874 ], [ 5606011.471621597185731, 7593450.543900888413191 ], [ 5605953.067653656005859, 7593424.642092168331146 ], [ 5605850.571465259417892, 7593339.440431571565568 ], [ 5605779.874747235327959, 7593299.843621297739446 ], [ 5605700.069837622344494, 7593220.541960220783949 ], [ 5605569.271669948473573, 7593121.446957044303417 ], [ 5605481.666633224114776, 7593083.644397906959057 ], [ 5605410.37214469909668, 7593026.738718332722783 ], [ 5605309.469814454205334, 7592990.638835586607456 ], [ 5605155.871329808607697, 7592988.847344003617764 ], [ 5605108.266746995039284, 7592998.54373930208385 ], [ 5605073.766271435655653, 7593012.94424737431109 ], [ 5604991.471065115183592, 7593085.142836673185229 ], [ 5604838.96748657245189, 7593118.546041257679462 ], [ 5604507.665939682163298, 7593262.447217147797346 ], [ 5604338.365676240064204, 7593316.445081234909594 ], [ 5604055.270426018163562, 7593363.946504600346088 ], [ 5603900.174559438601136, 7593362.343298122286797 ], [ 5603763.973156568594277, 7593345.848444169387221 ], [ 5603435.570846083573997, 7593265.841827275231481 ], [ 5603343.467006785795093, 7593222.844398386776447 ], [ 5603299.366064167581499, 7593180.447650158777833 ], [ 5603277.967940713278949, 7593124.442883234471083 ], [ 5603891.474787911400199, 7598502.947769226506352 ], [ 5603909.677344647236168, 7598751.047542713582516 ], [ 5603897.815163724124432, 7598939.826653159223497 ], [ 5603889.869526425376534, 7599066.352241003885865 ], [ 5603905.277722205966711, 7599252.049517611041665 ], [ 5603940.47270764876157, 7599345.447867063805461 ], [ 5603988.471685852855444, 7599522.043054884299636 ], [ 5604038.078181159682572, 7599649.950142800807953 ], [ 5604061.956811095587909, 7599690.726295409724116 ], [ 5604065.388576801866293, 7599696.585670486092567 ], [ 5604072.274474340490997, 7599708.34810256306082 ], [ 5604182.079351351596415, 7599849.847202384844422 ], [ 5604375.271698301658034, 7600082.847839481197298 ], [ 5604504.078740585595369, 7600317.650990583002567 ], [ 5604623.176888421177864, 7600592.253027148544788 ], [ 5604689.97416430618614, 7600776.947752818465233 ], [ 5604783.972950310446322, 7600926.151330439373851 ], [ 5605000.677207684144378, 7601095.848899847827852 ], [ 5605225.581094155088067, 7601345.943616880103946 ], [ 5605262.981025530956686, 7601382.650095989927649 ], [ 5605342.281002215109766, 7601433.443888830021024 ], [ 5605403.077894863672554, 7601509.552766373381019 ], [ 5605529.273980028927326, 7601795.252056390978396 ], [ 5605645.983266266062856, 7602217.043915719725192 ], [ 5605716.081523967906833, 7602408.44922997802496 ], [ 5605814.575340593233705, 7602574.045151270925999 ], [ 5605862.679279848001897, 7602615.847822927869856 ], [ 5605929.974351206794381, 7602750.949088325724006 ], [ 5605984.277619747444987, 7603057.247228742577136 ], [ 5606032.882113066501915, 7603190.846848057582974 ], [ 5606101.678442825563252, 7603331.646445076912642 ], [ 5606107.079934244044125, 7603500.549870228394866 ], [ 5606146.28255092445761, 7603608.94706654921174 ], [ 5606169.280537489801645, 7603711.152154725976288 ], [ 5606253.676281889900565, 7603857.142839239910245 ], [ 5606314.383410367183387, 7603987.249521161429584 ], [ 5606501.08119395095855, 7604210.149367297068238 ], [ 5606598.281518252566457, 7604277.644174681976438 ], [ 5606653.185711932368577, 7604296.651346750557423 ], [ 5606778.88639257196337, 7604305.150510113686323 ], [ 5607021.278295523487031, 7604267.142989953048527 ], [ 5607108.483688820153475, 7604241.74701383523643 ], [ 5607170.584777500480413, 7604239.845572554506361 ], [ 5607209.682076476514339, 7604217.449267930351198 ], [ 5607237.685799054801464, 7604167.943806746974587 ], [ 5607268.477537613362074, 7604157.346641544252634 ], [ 5607310.178522787988186, 7604189.648771634325385 ], [ 5607336.284699827432632, 7604193.942616241052747 ], [ 5607345.579653824679554, 7604218.14738591760397 ], [ 5607403.678184660151601, 7604220.347039988264441 ], [ 5607417.178427455946803, 7604269.849660562351346 ], [ 5607468.787071143276989, 7604257.945738818496466 ], [ 5607498.08704971242696, 7604271.647147499024868 ], [ 5607962.888096955604851, 7604737.252181596122682 ], [ 5608067.287234673276544, 7604807.942640331573784 ], [ 5608135.384122604504228, 7604868.946835739538074 ], [ 5608315.981824669986963, 7604977.850780019536614 ], [ 5608454.5798180969432, 7605036.643609616905451 ], [ 5608568.065996856428683, 7605071.58199505135417 ], [ 5608581.584671324118972, 7605075.747592023573816 ], [ 5608629.479197394102812, 7605102.549374308437109 ], [ 5608710.086992346681654, 7605107.247501578181982 ], [ 5608798.387976450845599, 7605091.051725190132856 ], [ 5608847.887073342688382, 7605093.549108063802123 ], [ 5608938.282425796613097, 7605115.642300147563219 ], [ 5609075.880562961101532, 7605113.648342388682067 ], [ 5609200.285544540733099, 7605183.846297485753894 ], [ 5609319.789231490343809, 7605218.842671196907759 ], [ 5609345.884592048823833, 7605236.547350903972983 ], [ 5609489.489368901588023, 7605472.641570195555687 ], [ 5609591.288936782628298, 7605713.140447212383151 ], [ 5609622.081896155141294, 7605757.54949969612062 ], [ 5609641.288302782922983, 7605814.150281403213739 ], [ 5609713.790711561217904, 7605928.547709422186017 ], [ 5609738.78480507992208, 7605995.949975617229939 ], [ 5609717.18811591155827, 7606086.949815897271037 ], [ 5609676.680969799868762, 7606089.045986860990524 ], [ 5609569.883842576295137, 7606019.743295574560761 ], [ 5609519.986680430360138, 7605999.051725540310144 ], [ 5609438.486656215973198, 7605999.142908303067088 ], [ 5609380.49034630227834, 7606044.441206453368068 ], [ 5609364.788563404232264, 7606073.451127056032419 ], [ 5609338.287396742962301, 7606277.648924013599753 ], [ 5609347.386112260632217, 7606367.044804103672504 ], [ 5609487.690599638037384, 7606492.243938369676471 ], [ 5609532.681622100993991, 7606518.341547399759293 ], [ 5609620.483211172744632, 7606533.552018880844116 ], [ 5609660.984534611925483, 7606553.841288042254746 ], [ 5609736.883248744532466, 7606628.45094342995435 ], [ 5609852.883993760682642, 7606675.845401145517826 ], [ 5610003.28546065185219, 7606770.050085863098502 ], [ 5610103.98232133872807, 7606866.041003532707691 ], [ 5610143.985086908563972, 7606890.9455003477633 ], [ 5610430.486190903000534, 7607026.749891679733992 ], [ 5610604.085913646966219, 7607124.24914151802659 ], [ 5610667.385652147233486, 7607146.94815843179822 ], [ 5610731.487133771181107, 7607153.242467251606286 ], [ 5610901.690350951626897, 7607122.444926548749208 ], [ 5610970.190801857970655, 7607123.050894914194942 ], [ 5611107.885695472359657, 7607169.841214090585709 ], [ 5611421.485495565459132, 7607202.54302884824574 ], [ 5611529.591882367618382, 7607252.041170031763613 ], [ 5611577.18645950127393, 7607309.048605069518089 ], [ 5611660.488543266430497, 7607463.24146116618067 ], [ 5611900.287086897529662, 7607819.740057531744242 ], [ 5612017.688444926403463, 7607947.440441667102277 ], [ 5612204.488851396366954, 7608276.044240684248507 ], [ 5612167.295510380528867, 7608327.84474422596395 ], [ 5612160.285830687731504, 7608488.349529661238194 ], [ 5612163.094438096508384, 7608535.240886681713164 ], [ 5612198.586320359259844, 7608665.050405159592628 ], [ 5612202.687527366913855, 7608748.348890006542206 ], [ 5612161.390962613746524, 7608921.850232902914286 ], [ 5612133.19416983332485, 7608970.048207964748144 ], [ 5612074.890148527920246, 7609021.644731177948415 ], [ 5612249.492381617426872, 7609371.651132443919778 ], [ 5612303.990856508724391, 7609516.548794036731124 ], [ 5612402.588136130943894, 7609723.150362756103277 ], [ 5612711.289192961528897, 7610171.150260423310101 ], [ 5612869.993263479322195, 7610429.543303248472512 ], [ 5613108.193538936786354, 7610859.850637610070407 ], [ 5613363.591961628757417, 7611399.744587345048785 ], [ 5613612.291107232682407, 7612043.841520864516497 ], [ 5613824.152430077083409, 7612149.595713491551578 ], [ 5613845.293293142691255, 7612160.149363180622458 ], [ 5613965.697254246100783, 7612234.946970691904426 ], [ 5614024.293879656121135, 7612203.44986710883677 ], [ 5614100.996150776743889, 7612206.44317876920104 ], [ 5614168.59407608397305, 7612238.245534778572619 ], [ 5614206.896257687360048, 7612270.646018240600824 ], [ 5614228.299984651617706, 7612308.139737307094038 ], [ 5614227.293641993775964, 7612384.041995565406978 ], [ 5614116.195288108661771, 7612612.549205737188458 ], [ 5614109.898966899141669, 7612670.640278272330761 ], [ 5614119.098239600658417, 7612717.246093356050551 ], [ 5614141.701674731448293, 7612754.650021810084581 ], [ 5614181.399324119091034, 7612789.647386475466192 ], [ 5614217.099687738344073, 7612803.144586376845837 ], [ 5614273.000383215025067, 7612808.339893998578191 ], [ 5614321.594756605103612, 7612801.344157997518778 ], [ 5614401.992546033114195, 7612754.748668779619038 ], [ 5614416.29147014580667, 7612739.323220613412559 ], [ 5614439.927122112363577, 7612680.674611544236541 ], [ 5614420.388217329978943, 7612520.669742161408067 ], [ 5614394.26692898850888, 7612438.838208796456456 ], [ 5614392.450916166417301, 7612344.28537068888545 ], [ 5614427.679099801927805, 7612253.003422503359616 ], [ 5614459.337295955047011, 7612198.926138674840331 ], [ 5614491.511140141636133, 7612169.430865628644824 ], [ 5614537.341274539940059, 7612144.538308557122946 ], [ 5614619.651276106014848, 7612149.09761253464967 ], [ 5614683.857729197479784, 7612165.809243464842439 ], [ 5614791.800138248130679, 7612241.976319115608931 ], [ 5614870.880163889378309, 7612314.562623164616525 ], [ 5614979.340788298286498, 7612415.311209542676806 ], [ 5615086.974216314032674, 7612483.251159796491265 ], [ 5615256.119788239710033, 7612554.199101692065597 ], [ 5615438.749896692112088, 7612616.952511642128229 ], [ 5615548.691175056621432, 7612636.266412440687418 ], [ 5615649.125817149877548, 7612637.34997870400548 ], [ 5615720.262126852758229, 7612623.404245780780911 ], [ 5615739.636049306951463, 7612609.198261143639684 ], [ 5615747.403483409434557, 7612584.300965002737939 ], [ 5615751.34295045491308, 7612540.512986685149372 ], [ 5615744.166448636911809, 7612507.166322717443109 ], [ 5615703.912891549989581, 7612413.849109992384911 ], [ 5615665.717996305786073, 7612344.721925098448992 ], [ 5615627.414227542467415, 7612267.249718353152275 ], [ 5615622.640896263532341, 7612234.368406411260366 ], [ 5615633.95282868295908, 7612182.619194757193327 ], [ 5615637.525148158892989, 7612153.762380573898554 ], [ 5615673.535610604099929, 7612116.103216916322708 ], [ 5615738.352319451980293, 7612077.794625293463469 ], [ 5615836.284900264814496, 7612059.489722638390958 ], [ 5615926.02765005081892, 7612041.272839860990644 ], [ 5615974.525224952958524, 7612007.479676487855613 ], [ 5616010.530287125147879, 7611969.708338779397309 ], [ 5616034.252631534822285, 7611919.824376551434398 ], [ 5616037.096950724720955, 7611858.154663689434528 ], [ 5616035.893979144282639, 7611796.416179645806551 ], [ 5615973.028907711617649, 7611719.433166541159153 ], [ 5615918.292740604840219, 7611638.022090580314398 ], [ 5615855.280933802016079, 7611557.148226987570524 ], [ 5615810.514910536818206, 7611437.842354835942388 ], [ 5615809.016514503397048, 7611278.151422746479511 ], [ 5615831.117412170395255, 7611150.069403795525432 ], [ 5615882.398883734829724, 7611050.378155430778861 ], [ 5615943.416315934620798, 7610977.701718444004655 ], [ 5616076.42867380566895, 7610916.647023268043995 ], [ 5616207.139169464819133, 7610904.215571530163288 ], [ 5616366.558744600042701, 7610891.35837534815073 ], [ 5616554.48238926846534, 7610875.410607071593404 ], [ 5616705.471590620465577, 7610845.392996730282903 ], [ 5616761.003732842393219, 7610812.663997082039714 ], [ 5616749.799175935797393, 7610784.446910246275365 ], [ 5616860.296655647456646, 7610702.745231247507036 ], [ 5616932.399425692856312, 7610620.94673428684473 ], [ 5616972.40086223743856, 7610546.638446215540171 ], [ 5616989.100135310553014, 7610467.139518637210131 ], [ 5616989.001812420785427, 7610396.140151454135776 ], [ 5616969.197676237672567, 7610324.244070682674646 ], [ 5616940.956709302961826, 7610283.528777563944459 ], [ 5616886.400404245592654, 7610285.963748504407704 ], [ 5616693.179088205099106, 7610353.027805297635496 ], [ 5616639.499808031134307, 7610368.987789453007281 ], [ 5616585.820424543693662, 7610384.947572804987431 ], [ 5616457.268231983296573, 7610393.482711557298899 ], [ 5616381.724443496204913, 7610367.581466663628817 ], [ 5616300.401381686329842, 7610330.400185823440552 ], [ 5616241.852993559092283, 7610277.178381713107228 ], [ 5616173.337502338923514, 7610131.937295261770487 ], [ 5616163.255336053669453, 7610000.335863651707768 ], [ 5616186.609845085069537, 7609887.978637314401567 ], [ 5616253.134327964857221, 7609830.519122828729451 ], [ 5616270.666901763528585, 7609822.548808641731739 ], [ 5616271.100830771028996, 7609809.140039050020278 ], [ 5616276.536206414923072, 7609792.546244471333921 ], [ 5616290.56908177677542, 7609749.79798623546958 ], [ 5616304.601425189524889, 7609707.038579844869673 ], [ 5616334.492168598808348, 7609680.741246962919831 ], [ 5616355.099993084557354, 7609671.841020016930997 ], [ 5616375.69744009245187, 7609662.941155998967588 ], [ 5616676.696335499174893, 7609638.840833468362689 ], [ 5616688.565804607234895, 7609636.295707749202847 ], [ 5616853.593745340593159, 7609600.840152751654387 ], [ 5616979.27537193428725, 7609547.28940181620419 ], [ 5617208.901915681548417, 7609449.440615139901638 ], [ 5617244.700958283618093, 7609439.202710611745715 ], [ 5617178.502594311721623, 7609266.522956570610404 ], [ 5617125.931778557598591, 7609149.988297753036022 ], [ 5616581.204393618740141, 7608226.018658680841327 ], [ 5615914.951047539710999, 7607119.753524757921696 ], [ 5615883.729795828461647, 7607055.596004243008792 ], [ 5615867.255381775088608, 7606982.271387724205852 ], [ 5615832.946988424286246, 7606765.261884789913893 ], [ 5615832.468789217993617, 7606762.229839121922851 ], [ 5615832.045749950222671, 7606759.830235982313752 ], [ 5615831.253344185650349, 7606755.35182308126241 ], [ 5615812.862979866564274, 7606651.007613692432642 ], [ 5615800.640392124652863, 7606526.200963865965605 ], [ 5615826.550125462003052, 7606413.422666517086327 ], [ 5615900.348989240825176, 7606289.289896230213344 ], [ 5615977.183373552747071, 7606164.04996089451015 ], [ 5615998.467847128398716, 7606116.126343671232462 ], [ 5616010.44195365998894, 7606058.928058195859194 ], [ 5616016.294383672066033, 7605984.440710137598217 ], [ 5616084.117471909150481, 7604871.785156507045031 ], [ 5616082.367198599502444, 7604805.146364096552134 ], [ 5616075.969867611303926, 7604744.96354073099792 ], [ 5616059.760626977309585, 7604690.353880001232028 ], [ 5616038.482566265389323, 7604644.186726486310363 ], [ 5615997.796615867875516, 7604567.199496963992715 ], [ 5615781.935307076200843, 7604177.182410086505115 ], [ 5615778.499406323768198, 7604171.068184623494744 ], [ 5615531.371954405680299, 7603731.757993218488991 ], [ 5615481.306677526794374, 7603632.941603444516659 ], [ 5615451.073979099281132, 7603540.193114280700684 ], [ 5615305.911841310560703, 7602872.467362163588405 ], [ 5615305.023774442262948, 7602868.471326367929578 ], [ 5615304.136130939237773, 7602864.486406804062426 ], [ 5615273.278843611478806, 7602727.811579635366797 ], [ 5615256.567743869498372, 7602676.015622448176146 ], [ 5615230.086220917291939, 7602624.859432552009821 ], [ 5615101.824403610080481, 7602414.496014530770481 ], [ 5615099.409269606694579, 7602410.680666998028755 ], [ 5614884.511802094057202, 7602070.689591180533171 ], [ 5614851.174644513055682, 7602000.034956214949489 ], [ 5614827.922586278989911, 7601934.562001284211874 ], [ 5614818.097120216116309, 7601874.655431780964136 ], [ 5614814.63317556399852, 7601808.428149245679379 ], [ 5614817.084398766048253, 7601736.409234806895256 ], [ 5614887.144949059933424, 7601086.864130372181535 ], [ 5614885.218896629288793, 7601036.285727743059397 ], [ 5614871.342287814244628, 7600981.598890706896782 ], [ 5614844.118579507805407, 7600922.868020858615637 ], [ 5614807.659894120879471, 7600869.554545875638723 ], [ 5614756.66562682390213, 7600824.254000891000032 ], [ 5614751.011205640621483, 7600821.64204338286072 ], [ 5614628.832888375967741, 7600765.285156182944775 ], [ 5614455.975613628514111, 7600698.269008064642549 ], [ 5614359.38117741048336, 7600634.133604215458035 ], [ 5614355.624783921055496, 7600640.544196787290275 ], [ 5614354.571992017328739, 7600640.929421005770564 ], [ 5614352.302522556856275, 7600641.750644295476377 ], [ 5614345.095593555830419, 7600644.363087175413966 ], [ 5614336.464121256023645, 7600650.391738111153245 ], [ 5614265.000636139884591, 7600673.375814748927951 ], [ 5614245.241250347346067, 7600677.023161305114627 ], [ 5614227.602332987822592, 7600681.925538211129606 ], [ 5614218.3689253218472, 7600684.39249206520617 ], [ 5614191.931416353210807, 7600686.847057985141873 ], [ 5614171.766756236553192, 7600696.187143677845597 ], [ 5614131.00827625952661, 7600706.311825503595173 ], [ 5614117.749329535290599, 7600706.483015313744545 ], [ 5614088.965626701712608, 7600715.372101567685604 ], [ 5614071.516718931496143, 7600715.190797463059425 ], [ 5614063.554159449413419, 7600715.104510368779302 ], [ 5614059.106556470505893, 7600715.062431766651571 ], [ 5614048.582746206782758, 7600719.025611084885895 ], [ 5614020.17948633339256, 7600737.918971337378025 ], [ 5614007.744364555925131, 7600743.402097902260721 ], [ 5613997.484657809138298, 7600751.58537776581943 ], [ 5613987.119251908734441, 7600756.989647033624351 ], [ 5613973.664284948259592, 7600771.083307582885027 ], [ 5613949.617614104412496, 7600781.906766250729561 ], [ 5613930.884751556441188, 7600796.201393358409405 ], [ 5613870.742481412366033, 7600822.592802301980555 ], [ 5613867.083082810975611, 7600824.201592331752181 ], [ 5613854.321307548321784, 7600810.19360058568418 ], [ 5613817.205988411791623, 7600781.494671227410436 ], [ 5613804.837529255077243, 7600767.471684541553259 ], [ 5613794.54121408239007, 7600746.34545402508229 ], [ 5613776.941901554353535, 7600671.606957308016717 ], [ 5613770.966209420002997, 7600636.278672335669398 ], [ 5613774.459463216364384, 7600600.589821013621986 ], [ 5613781.200023468583822, 7600583.802015668712556 ], [ 5613789.661613069474697, 7600567.850362800061703 ], [ 5613809.937367998063564, 7600541.262940138578415 ], [ 5613837.21661246009171, 7600512.438368542119861 ], [ 5613757.339714346453547, 7600512.296497136354446 ], [ 5613586.258138279430568, 7600511.997556056827307 ], [ 5613509.407045332714915, 7600508.299496366642416 ], [ 5613435.182200373150408, 7600504.71264006011188 ], [ 5613373.447205525822937, 7600501.718813929706812 ], [ 5613312.418897112831473, 7600498.775794954970479 ], [ 5613279.225092777982354, 7600429.773836798965931 ], [ 5613271.427720988169312, 7600413.572950772941113 ], [ 5613236.652564172632992, 7600339.766498310491443 ], [ 5613237.398779098875821, 7600326.947468417696655 ], [ 5613230.377582590095699, 7600312.89891741424799 ], [ 5613197.8885538559407, 7600247.977855643257499 ], [ 5613164.94017541129142, 7600180.235623609274626 ], [ 5613132.609479372389615, 7600115.108166839927435 ] ] ] } },
{ "type": "Feature", "properties": { "lv_id": "LOC_054981", "id": 324201.0, "CD_SETOR": "354370905000016", "SITUACAO": "Rural", "CD_SIT": "8", "CD_TIPO": "0", "AREA_KM2": 43.592233863716842, "CD_REGIAO": "3", "NM_REGIAO": "Sudeste", "CD_UF": "35", "NM_UF": "São Paulo", "CD_MUN": "3543709", "NM_MUN": "Rincão", "CD_DIST": "354370905", "NM_DIST": "Rincão", "CD_SUBDIST": "35437090500", "NM_SUBDIST": null, "CD_BAIRRO": null, "NM_BAIRRO": null, "CD_NU": null, "NM_NU": null, "CD_FCU": null, "NM_FCU": null, "CD_AGLOM": "354370900001", "NM_AGLOM": "Taquaral", "CD_RGINT": "3509", "NM_RGINT": "Araraquara", "CD_RGI": "350036", "NM_RGI": "Araraquara", "CD_CONCURB": "3503208", "NM_CONCURB": "Araraquara/SP", "mun_code_x": "3543709", "index_right": 87088, "dist_m": 2156.7321688059737, "local_id": 594399, "ano": 2022, "cod_localidade_ibge": 3543709, "NR_ZONA": "239", "nr_cep": 14830000.0, "nm_localidade": "RINCÃO", "nm_locvot": "EMEF MARIA IGNES MENIN BIFFI", "ds_endereco": "R JOAO CANDIDO GONCALVES, S/N", "ds_bairro": "TAQUARAL", "pred_long": -47.910431, "pred_lat": -21.62278, "pred_dist": 0.020575873913645099, "tse_long": null, "tse_lat": null, "long": -47.910431, "lat": -21.62278, "ID_UNICO": "LOC_054981", "SG_UF": "SP", "CD_MUNICIPIO": "69752", "NR_LOCAL_VOTACAO": "1058", "QT_SECOES_AGREGADAS": 0, "QT_ELEITORES_TRANSFERIDOS": 0, "CIRO GOMES (PDT) (NÃO ELEITO) 1T": 6.0, "CONSTITUINTE EYMAEL (DC) (NÃO ELEITO) 1T": 0.0, "FELIPE D AVILA (NOVO) (NÃO ELEITO) 1T": 0.0, "JAIR BOLSONARO (PL) (2º TURNO) 1T": 278.0, "LULA (PT) (2º TURNO) 1T": 362.0, "LÉO PÉRICLES (UP) (NÃO ELEITO) 1T": 0.0, "PADRE KELMON (PTB) (NÃO ELEITO) 1T": 0.0, "SIMONE TEBET (MDB) (NÃO ELEITO) 1T": 7.0, "SOFIA MANZANO (PCB) (NÃO ELEITO) 1T": 0.0, "SORAYA THRONICKE (UNIÃO) (NÃO ELEITO) 1T": 1.0, "VERA (PSTU) (NÃO ELEITO) 1T": 1.0, "Total_Votos_Validos 1T": 655.0, "Votos_Brancos 1T": 19.0, "Votos_Nulos 1T": 31.0, "Abstenções 1T": 162.0, "Eleitores_Aptos 1T": 867.0, "JAIR BOLSONARO (PL) (NÃO ELEITO) 2T": 292.0, "LULA (PT) (ELEITO) 2T": 361.0, "Total_Votos_Validos 2T": 653.0, "Votos_Brancos 2T": 13.0, "Votos_Nulos 2T": 38.0, "Abstenções 2T": 163.0, "Eleitores_Aptos 2T": 867.0, "mun_code_y": "3543709", "mun_code": "3543709" }, "geometry": { "type": "Polygon", "coordinates": [ [ [ 5635303.909788821823895, 7596280.522097719833255 ], [ 5635334.605839401483536, 7596237.515249643474817 ], [ 5635371.011817049235106, 7596213.715876126661897 ], [ 5635416.504529326222837, 7596202.520365542732179 ], [ 5635485.508480585180223, 7596199.216256638988853 ], [ 5635650.207866946235299, 7596212.823429249227047 ], [ 5635640.013439498841763, 7596144.814804914407432 ], [ 5635620.404084352776408, 7596089.517320428043604 ], [ 5635545.206892660818994, 7595983.31702315621078 ], [ 5635474.806818622164428, 7595908.621486211195588 ], [ 5635237.503402886912227, 7595780.324501460418105 ], [ 5635164.408794486895204, 7595729.221308302134275 ], [ 5635118.910126283764839, 7595606.423844859004021 ], [ 5635090.308552919887006, 7595555.323460426181555 ], [ 5635048.910168958827853, 7595496.320324005559087 ], [ 5634952.510122371837497, 7595399.620263982564211 ], [ 5634887.508914944715798, 7595288.016320595517755 ], [ 5634798.407500898465514, 7595176.918136393651366 ], [ 5634732.703887114301324, 7595127.916748909279704 ], [ 5634648.308222970925272, 7595093.61774876434356 ], [ 5634610.805647014640272, 7595041.921846553683281 ], [ 5634571.608169195242226, 7594954.823754299432039 ], [ 5634535.606091269291937, 7594918.325316599570215 ], [ 5634401.505971644073725, 7594820.51664624735713 ], [ 5634382.109779475256801, 7594794.721892684698105 ], [ 5634322.911238667555153, 7594665.115088153630495 ], [ 5634314.503729652613401, 7594545.821322713047266 ], [ 5634270.306286224164069, 7594426.424991514533758 ], [ 5634271.409138275310397, 7594345.5213159667328 ], [ 5634304.402072614058852, 7594262.524211702868342 ], [ 5634306.609792875126004, 7594209.417465590871871 ], [ 5634299.407526686787605, 7594189.121867613866925 ], [ 5634258.005615484900773, 7594157.524859307333827 ], [ 5634241.804997340776026, 7594132.617523777298629 ], [ 5634200.903727390803397, 7594051.121551090851426 ], [ 5634153.20968422293663, 7593908.421659163199365 ], [ 5634151.11027689371258, 7593838.023371996358037 ], [ 5634116.004191817715764, 7593656.919284038245678 ], [ 5634118.904052831232548, 7593597.716115541756153 ], [ 5634052.908425243571401, 7593572.423698287457228 ], [ 5634006.910247448831797, 7593501.418784327805042 ], [ 5633934.501308446750045, 7593452.425136583857238 ], [ 5633915.104391978122294, 7593427.621610790491104 ], [ 5633903.1074284221977, 7593371.322615599259734 ], [ 5633911.30860482249409, 7593312.823707042261958 ], [ 5633902.908649515360594, 7593287.619810681790113 ], [ 5633823.20008830819279, 7593171.618144412524998 ], [ 5633753.505456382408738, 7593129.421605851501226 ], [ 5633727.201398145407438, 7593067.317107344046235 ], [ 5633662.901254500262439, 7593013.715793823823333 ], [ 5633558.106902022846043, 7592890.41777462605387 ], [ 5633513.602515038102865, 7592807.014869856648147 ], [ 5633499.104417885653675, 7592707.417270749807358 ], [ 5633478.300762399099767, 7592679.216930367052555 ], [ 5633416.608606702648103, 7592638.920317341573536 ], [ 5633395.60722311027348, 7592561.21667320933193 ], [ 5633348.8061856739223, 7592516.023151706904173 ], [ 5633305.804744064807892, 7592441.815059565007687 ], [ 5633265.202519100159407, 7592405.920670463703573 ], [ 5633235.405785761773586, 7592338.71994146052748 ], [ 5633153.000517125241458, 7592288.515446473844349 ], [ 5633058.999070178717375, 7592143.421048954129219 ], [ 5633010.500251580961049, 7592112.425688929855824 ], [ 5632984.901275442913175, 7592076.318282851949334 ], [ 5632875.801609159447253, 7591987.120050916448236 ], [ 5632832.406967794522643, 7591938.918586215004325 ], [ 5632760.40006251540035, 7591893.325590619817376 ], [ 5632720.601370892487466, 7591855.416705582290888 ], [ 5632668.701517649926245, 7591783.218076942488551 ], [ 5632608.602412448264658, 7591752.222508230246603 ], [ 5632570.502456655725837, 7591691.117174880579114 ], [ 5632472.602789366617799, 7591624.516606682911515 ], [ 5632346.403121493756771, 7591482.025487498380244 ], [ 5632277.502621340565383, 7591433.424780275672674 ], [ 5631993.200691193342209, 7591145.921892732381821 ], [ 5631929.601342190988362, 7591036.321227696724236 ], [ 5631876.204720249399543, 7590899.025015447288752 ], [ 5631799.299392575398088, 7590779.224350368604064 ], [ 5631724.204689213074744, 7590601.62439701333642 ], [ 5631560.098994793370366, 7590390.924538090825081 ], [ 5631517.502493549138308, 7590227.62460426799953 ], [ 5631446.203699171543121, 7590114.117585117928684 ], [ 5631254.094250979833305, 7589912.826336743310094 ], [ 5631175.995623842813075, 7589816.523974439129233 ], [ 5631114.902679677121341, 7589762.625347696244717 ], [ 5631048.095695133320987, 7589653.417742981575429 ], [ 5630975.499014927074313, 7589608.022503532469273 ], [ 5630944.693867788650095, 7589603.220899367704988 ], [ 5630864.495533565059304, 7589616.920509738847613 ], [ 5630747.296330096200109, 7589604.925933008082211 ], [ 5630621.298931043595076, 7589562.720369714312255 ], [ 5630458.99726414680481, 7589552.920089496299624 ], [ 5630342.300738267600536, 7589493.521347479894757 ], [ 5630134.898523472249508, 7589464.822857609018683 ], [ 5627952.194477337412536, 7591147.520719617605209 ], [ 5621238.99081289768219, 7594600.63433426618576 ], [ 5618245.18335778079927, 7594564.438697649165988 ], [ 5619982.789460570551455, 7595498.429460844025016 ], [ 5620332.286169870756567, 7595770.736594725400209 ], [ 5620430.886847072280943, 7595829.837539890781045 ], [ 5620590.318376515991986, 7596042.560299132019281 ], [ 5620597.384538787417114, 7596051.973828269168735 ], [ 5621126.492876376956701, 7596757.929968819022179 ], [ 5621495.690115751698613, 7597210.931883681565523 ], [ 5621523.810411217622459, 7597251.741938162595034 ], [ 5621527.476559110917151, 7597257.066990545019507 ], [ 5622419.197850921191275, 7598551.428608974441886 ], [ 5622694.541137804277241, 7598915.917788750492036 ], [ 5622797.634571641683578, 7598959.217647296376526 ], [ 5622853.843225286342204, 7599031.964187852106988 ], [ 5622884.339116181246936, 7599150.552152341231704 ], [ 5622866.225711920298636, 7599382.814740333706141 ], [ 5622794.721631802618504, 7599591.254565499722958 ], [ 5622773.693192395381629, 7599663.735899209976196 ], [ 5622768.06661257520318, 7599757.488773520104587 ], [ 5622801.079308642074466, 7599837.924203107133508 ], [ 5622870.791936074383557, 7599898.815295283682644 ], [ 5622942.186699620448053, 7599934.267118778079748 ], [ 5623017.854732098057866, 7599934.626517340540886 ], [ 5623078.955858384259045, 7599901.000284874811769 ], [ 5623125.011188993230462, 7599852.401462189853191 ], [ 5623156.580788154155016, 7599771.395068662241101 ], [ 5623091.194430992938578, 7599647.831983270123601 ], [ 5623007.100663559511304, 7599529.84662345610559 ], [ 5622965.916537285782397, 7599389.704611800611019 ], [ 5623002.861968426965177, 7599292.546807267703116 ], [ 5623064.621762730181217, 7599243.03974724560976 ], [ 5623134.5697634909302, 7599226.316786494106054 ], [ 5623195.909039615653455, 7599251.266806176863611 ], [ 5623256.007108330726624, 7599309.544034251943231 ], [ 5623313.330482022836804, 7599374.319397881627083 ], [ 5623372.529318494722247, 7599416.809859776869416 ], [ 5623432.212639381177723, 7599413.353785766288638 ], [ 5623494.323067375458777, 7599397.077411790378392 ], [ 5623558.103814519941807, 7599355.372858909890056 ], [ 5623646.498162778094411, 7599241.034366965293884 ], [ 5623760.318513017147779, 7599063.337615340016782 ], [ 5623826.882563418708742, 7599015.143831378780305 ], [ 5623896.709517389535904, 7599008.999178127385676 ], [ 5623989.356632452458143, 7599050.036172376945615 ], [ 5624129.482472514733672, 7599058.781569791957736 ], [ 5624261.583635438233614, 7599019.481171572580934 ], [ 5624384.213850192725658, 7598961.741002510301769 ], [ 5624490.129465606063604, 7598880.486454928293824 ], [ 5624613.899503010325134, 7598794.418905054219067 ], [ 5624715.128269672393799, 7598729.477513451129198 ], [ 5624771.552541384473443, 7598652.366581660695374 ], [ 5624848.494289244525135, 7598566.687585655599833 ], [ 5624927.022690026089549, 7598563.184291692450643 ], [ 5624984.839514588005841, 7598600.968650730326772 ], [ 5625031.548898515291512, 7598682.652263939380646 ], [ 5625080.961278739385307, 7598756.793249638751149 ], [ 5625114.411038579419255, 7598790.712993571534753 ], [ 5625179.621311623603106, 7598829.123101266101003 ], [ 5625253.299867463298142, 7598887.090283436700702 ], [ 5625321.623677665367723, 7598943.249825665727258 ], [ 5625396.214697872288525, 7599016.980908305384219 ], [ 5625460.148421527817845, 7599106.101352525874972 ], [ 5625595.215260122902691, 7599281.813363868743181 ], [ 5625713.795981539413333, 7599371.984795046970248 ], [ 5625819.688224948011339, 7599388.003210181370378 ], [ 5625913.435299465432763, 7599375.17575104907155 ], [ 5626017.953281536698341, 7599349.080025529488921 ], [ 5626045.351390846073627, 7599332.716676498763263 ], [ 5626061.359423848800361, 7599246.34787474386394 ], [ 5626047.705085987225175, 7599155.375143810175359 ], [ 5626018.61967898812145, 7599051.573874853551388 ], [ 5625992.473801310174167, 7598962.367078986018896 ], [ 5626013.368629101663828, 7598924.243404236622155 ], [ 5626111.152884319424629, 7598854.226099956780672 ], [ 5626190.958529421128333, 7598800.016451627016068 ], [ 5626259.295760887674987, 7598702.927614454180002 ], [ 5626282.50429470371455, 7598603.773915655910969 ], [ 5626307.690806390717626, 7598494.722482008859515 ], [ 5626370.314883042126894, 7598452.05786301754415 ], [ 5626473.765118950977921, 7598461.885611625388265 ], [ 5626556.690385867841542, 7598498.221060989424586 ], [ 5626638.335268013179302, 7598530.397122861817479 ], [ 5626722.077549549750984, 7598544.531075807288289 ], [ 5626788.700469963252544, 7598542.127815278246999 ], [ 5626983.80530571937561, 7598477.669059663079679 ], [ 5627123.368403879925609, 7598494.894570070318878 ], [ 5627210.246749807149172, 7598526.775259623304009 ], [ 5627236.40672816708684, 7598598.043291160836816 ], [ 5627217.622567848302424, 7598690.9036302883178 ], [ 5627163.338458627462387, 7598768.945055022835732 ], [ 5627079.112176241353154, 7598819.190381987951696 ], [ 5626915.538846624083817, 7598895.137856148183346 ], [ 5626796.250627025961876, 7598919.989190031774342 ], [ 5626751.031929173506796, 7598973.235156389884651 ], [ 5626741.891745042055845, 7599087.69854755140841 ], [ 5626771.332501785829663, 7599215.737309107556939 ], [ 5626831.103349282406271, 7599269.24109766073525 ], [ 5626889.786794612184167, 7599303.813620148226619 ], [ 5626970.030394475907087, 7599311.814808445051312 ], [ 5627034.298919630236924, 7599297.544412219896913 ], [ 5627108.967003525234759, 7599263.672724636271596 ], [ 5627213.642203944735229, 7599203.813153745606542 ], [ 5627371.539244745858014, 7599102.819518582895398 ], [ 5627453.554594790562987, 7599031.669933072291315 ], [ 5627532.462905958294868, 7599016.548569991253316 ], [ 5627613.873364613391459, 7599026.594195951707661 ], [ 5627679.816997952759266, 7599059.689877897500992 ], [ 5627722.244143263436854, 7599103.645076029933989 ], [ 5627734.877963211387396, 7599158.815853223204613 ], [ 5627704.604325680993497, 7599234.420560155063868 ], [ 5627602.09873204678297, 7599277.285436751320958 ], [ 5627467.797556583769619, 7599297.225316034629941 ], [ 5627383.216422881931067, 7599322.677206182852387 ], [ 5627322.381291727535427, 7599359.953354263678193 ], [ 5627262.583047097548842, 7599415.115752511657774 ], [ 5627231.436123253777623, 7599493.926174244843423 ], [ 5627221.946208563633263, 7599584.141669830307364 ], [ 5627241.637106570415199, 7599670.548987681977451 ], [ 5627276.294016399420798, 7599725.50832131318748 ], [ 5627324.892542774789035, 7599749.059448022395372 ], [ 5627376.950670449063182, 7599759.75990335829556 ], [ 5627426.814599142409861, 7599750.536475626751781 ], [ 5627486.904546578414738, 7599718.578353880904615 ], [ 5627582.601709483191371, 7599621.531130330637097 ], [ 5627688.081822411157191, 7599566.614655707031488 ], [ 5627781.644882947206497, 7599550.643573254346848 ], [ 5627877.200069308280945, 7599569.368431666865945 ], [ 5627974.083470770157874, 7599629.150986153632402 ], [ 5628011.930724487639964, 7599702.914435259997845 ], [ 5628015.367512754164636, 7599798.707473011687398 ], [ 5627975.075753959827125, 7599919.186794854700565 ], [ 5627869.541408313438296, 7600127.84558092430234 ], [ 5627774.344428562559187, 7600261.00703052803874 ], [ 5627687.223426399752498, 7600315.631011486053467 ], [ 5627612.478786379098892, 7600348.4493871005252 ], [ 5627569.164247171021998, 7600416.365399993956089 ], [ 5627563.746613290160894, 7600486.302266729995608 ], [ 5627601.979780727997422, 7600548.426852399483323 ], [ 5627656.84779058303684, 7600571.622394578531384 ], [ 5627731.198327360674739, 7600559.83082514628768 ], [ 5627794.86343470774591, 7600525.650894513353705 ], [ 5627898.052543471567333, 7600476.424695231020451 ], [ 5627972.173777424730361, 7600451.022862514480948 ], [ 5628041.106755928136408, 7600444.919059822335839 ], [ 5628110.00465065613389, 7600474.681776982732117 ], [ 5628184.066996078006923, 7600521.034460440278053 ], [ 5628247.040898307226598, 7600575.401913889683783 ], [ 5628336.783949761651456, 7600638.769673260860145 ], [ 5628506.687178636901081, 7600716.828391533344984 ], [ 5628663.965841640718281, 7600802.281756981275976 ], [ 5628729.448802054859698, 7600851.01619699690491 ], [ 5628780.67736953124404, 7600896.197541216388345 ], [ 5628875.109142635017633, 7601030.911999855190516 ], [ 5628945.420969625003636, 7601113.920626109465957 ], [ 5628991.93500386364758, 7601161.501453716307878 ], [ 5629041.518436162732542, 7601199.79835001565516 ], [ 5629085.264402400702238, 7601203.703971421346068 ], [ 5629116.626049923710525, 7601181.301642624661326 ], [ 5629126.032870792783797, 7601144.734550420194864 ], [ 5629079.73526706174016, 7601096.599939053878188 ], [ 5629020.765408683568239, 7601017.681239549070597 ], [ 5628973.954407845623791, 7600905.25052622333169 ], [ 5628983.115137625485659, 7600808.875665504485369 ], [ 5629027.004934278316796, 7600755.830838337540627 ], [ 5629118.04160805977881, 7600706.502587807364762 ], [ 5629169.904104797169566, 7600662.321368524804711 ], [ 5629223.127679771743715, 7600597.486844504252076 ], [ 5629248.829558180645108, 7600521.377419545315206 ], [ 5629237.378958768211305, 7600433.923826845362782 ], [ 5629172.88462046533823, 7600325.724827143363655 ], [ 5629114.842450466006994, 7600218.454302478581667 ], [ 5629090.401357848197222, 7600094.439156837761402 ], [ 5629110.380050657317042, 7599985.849451219663024 ], [ 5629143.758885208517313, 7599920.876061322167516 ], [ 5629189.977873438969254, 7599900.832485960796475 ], [ 5629253.528170565143228, 7599915.165441432967782 ], [ 5629339.432531140744686, 7599961.641000835224986 ], [ 5629446.923146203160286, 7600027.46129466034472 ], [ 5629525.593789679929614, 7600059.564809531904757 ], [ 5629605.457170506007969, 7600056.868528969585896 ], [ 5629667.273202472366393, 7600041.058113594539464 ], [ 5629729.650860199704766, 7599990.494759347289801 ], [ 5629760.944838412106037, 7599944.931605460122228 ], [ 5629798.59912530798465, 7599787.722961319610476 ], [ 5629832.089947308413684, 7599680.284193736501038 ], [ 5629887.932155817747116, 7599583.140213431790471 ], [ 5629981.011756028980017, 7599476.745380805805326 ], [ 5630094.077248408459127, 7599394.934335323050618 ], [ 5630172.492443785071373, 7599356.290487327612936 ], [ 5630241.220317087136209, 7599338.157742524519563 ], [ 5630295.943455968983471, 7599332.40936741605401 ], [ 5630347.232675920240581, 7599344.878942804411054 ], [ 5630423.046770568005741, 7599382.935577508993447 ], [ 5630482.089166629128158, 7599452.203666409477592 ], [ 5630521.229895266704261, 7599686.664259491488338 ], [ 5630584.675748557783663, 7599843.161757476627827 ], [ 5630644.563296256586909, 7600026.879827515222132 ], [ 5630731.037100568413734, 7600149.883105404675007 ], [ 5630834.071049843914807, 7600260.345598042011261 ], [ 5630940.076135140843689, 7600355.836860774084926 ], [ 5631002.636269164271653, 7600397.250799972563982 ], [ 5631059.401986239477992, 7600415.829854547977448 ], [ 5631124.727468825876713, 7600427.481445863842964 ], [ 5631196.476684081368148, 7600428.469610353931785 ], [ 5631275.085971850901842, 7600403.978041367605329 ], [ 5631316.386410553939641, 7600332.106731439009309 ], [ 5631320.248933713883162, 7600243.750982971861959 ], [ 5631277.767490824684501, 7600151.007751794531941 ], [ 5631187.957119509577751, 7600070.017423747107387 ], [ 5631105.232997098006308, 7599976.210833759978414 ], [ 5631070.147258279845119, 7599902.943466801196337 ], [ 5631089.180852854624391, 7599799.952166221104562 ], [ 5631140.969925535842776, 7599678.829983157105744 ], [ 5631163.862591587938368, 7599591.867098931223154 ], [ 5631197.458187588490546, 7599486.556693010032177 ], [ 5631277.403654044494033, 7599369.697844277136028 ], [ 5631352.215761289931834, 7599316.634519020095468 ], [ 5631482.743574583902955, 7599286.92109614238143 ], [ 5631587.43477526679635, 7599344.341965641826391 ], [ 5631659.87171477265656, 7599453.849690314382315 ], [ 5631659.456411326304078, 7599548.373865533620119 ], [ 5631632.184431339614093, 7599610.488186933100224 ], [ 5631550.794420162215829, 7599702.328385524451733 ], [ 5631498.097817949950695, 7599782.164182523265481 ], [ 5631472.627087942324579, 7599850.086920861154795 ], [ 5631458.406917346641421, 7599918.426214568316936 ], [ 5631479.382521057501435, 7600018.024910246953368 ], [ 5631518.330773824825883, 7600107.320649456232786 ], [ 5631586.498547182418406, 7600168.33417434990406 ], [ 5631666.006944917142391, 7600171.109441614709795 ], [ 5631720.739545121788979, 7600126.593591116368771 ], [ 5631738.210708608850837, 7600047.324869361706078 ], [ 5631724.11223606672138, 7599932.0225381962955 ], [ 5631713.175370385870337, 7599791.841843854635954 ], [ 5631725.405671980232, 7599698.112816576845944 ], [ 5631768.187480032444, 7599624.755752640776336 ], [ 5631826.303934430703521, 7599568.525168126448989 ], [ 5631884.009578423574567, 7599540.728546161204576 ], [ 5631952.612549259327352, 7599536.624168694019318 ], [ 5632020.007778611965477, 7599565.728911120444536 ], [ 5632081.103552490472794, 7599628.220336565747857 ], [ 5632135.903410000726581, 7599759.120221268385649 ], [ 5632193.299227250739932, 7599913.15854400396347 ], [ 5632299.509422061964869, 7600022.175774632021785 ], [ 5632461.408076886087656, 7600077.761070977896452 ], [ 5632631.707670100964606, 7600075.276322449557483 ], [ 5632755.84114183485508, 7599960.292974825948477 ], [ 5632809.489100459963083, 7599871.538939265534282 ], [ 5632916.207515873014927, 7599785.622587805613875 ], [ 5633028.431934061460197, 7599693.464426402002573 ], [ 5633092.867892163805664, 7599587.848399392329156 ], [ 5633107.059740507043898, 7599502.858516873791814 ], [ 5633065.207392902113497, 7599388.622659046202898 ], [ 5632990.346889771521091, 7599288.122340745292604 ], [ 5632967.443336610682309, 7599171.327015632763505 ], [ 5632966.460428594611585, 7599103.459063258953393 ], [ 5633024.654554665088654, 7599042.497777249664068 ], [ 5633118.808812238276005, 7599019.82257435657084 ], [ 5633183.139535710215569, 7599064.310334085486829 ], [ 5633233.053577681072056, 7599114.576164467260242 ], [ 5633278.672603271901608, 7599166.569770457223058 ], [ 5633324.872240196913481, 7599228.863530017435551 ], [ 5633367.329344236291945, 7599251.504469937644899 ], [ 5633413.255234522745013, 7599232.605470217764378 ], [ 5633432.222405608743429, 7599204.921944124624133 ], [ 5633415.285392130725086, 7599166.032825836911798 ], [ 5633379.499936187639832, 7599106.091593947261572 ], [ 5633340.019577314145863, 7599033.066089799627662 ], [ 5633334.28583253454417, 7598984.671919006854296 ], [ 5633369.727535118348897, 7598936.84170741122216 ], [ 5633519.167745253071189, 7598852.869322082027793 ], [ 5633615.440226620994508, 7598789.694866392761469 ], [ 5633717.238730828277767, 7598695.199296230450273 ], [ 5633776.580510313622653, 7598603.152747021988034 ], [ 5633787.672672407701612, 7598515.38742090202868 ], [ 5633734.948840624652803, 7598416.558163534849882 ], [ 5633661.911835726350546, 7598360.421833388507366 ], [ 5633556.959215535782278, 7598336.799569444730878 ], [ 5633466.955900116823614, 7598330.205904696136713 ], [ 5633447.269670083187521, 7598269.331329285167158 ], [ 5633462.80721443053335, 7598232.995966918766499 ], [ 5633509.773696600459516, 7598206.638285478577018 ], [ 5633626.25007339194417, 7598188.069406384602189 ], [ 5633792.43242899980396, 7598165.149360435083508 ], [ 5633900.818683587945998, 7598133.756152905523777 ], [ 5633968.986533360555768, 7598092.88721908070147 ], [ 5634048.897251473739743, 7598026.232053870335221 ], [ 5634142.953210375271738, 7597924.797949785366654 ], [ 5634228.457767387852073, 7597853.388740170747042 ], [ 5634335.914177416823804, 7597805.8030118746683 ], [ 5634440.860747836530209, 7597663.869186552241445 ], [ 5634476.909517435356975, 7597459.123856119811535 ], [ 5634440.350020085461438, 7597324.257411695085466 ], [ 5634377.578198878094554, 7597280.638310618698597 ], [ 5634280.011108753271401, 7597244.9603770095855 ], [ 5634127.745215009897947, 7597203.585741088725626 ], [ 5633962.279886709526181, 7597188.07553431391716 ], [ 5633748.473285530693829, 7597200.480804596096277 ], [ 5633573.756224184297025, 7597126.454804219305515 ], [ 5633509.716328890062869, 7597060.767044013366103 ], [ 5633430.068274966441095, 7596902.95269872341305 ], [ 5633434.626198939047754, 7596803.751892387866974 ], [ 5633471.714850725606084, 7596733.672024369239807 ], [ 5633551.726302657276392, 7596643.383112912997603 ], [ 5633606.687432176433504, 7596628.379558343440294 ], [ 5633682.052941784262657, 7596635.824501732364297 ], [ 5633763.518375596031547, 7596672.439309042878449 ], [ 5633895.904013983905315, 7596802.095042906701565 ], [ 5633974.231272760778666, 7596886.150152262300253 ], [ 5634062.761550865136087, 7596917.919939238578081 ], [ 5634173.287377134896815, 7596898.220058690756559 ], [ 5634306.765249416232109, 7596843.226327664218843 ], [ 5634352.408348991535604, 7596796.815917922183871 ], [ 5634388.511065267957747, 7596743.119632033631206 ], [ 5634394.710211290977895, 7596674.721690399572253 ], [ 5634363.308161371387541, 7596455.518254422582686 ], [ 5634372.907888639718294, 7596368.221716626547277 ], [ 5634401.909026374109089, 7596302.621998783200979 ], [ 5634447.103418916463852, 7596266.718775544315577 ], [ 5634533.404546115547419, 7596233.225749157369137 ], [ 5634586.610810139216483, 7596230.025054016150534 ], [ 5634637.607029378414154, 7596264.117612157016993 ], [ 5634659.010332841426134, 7596345.325497727841139 ], [ 5634656.406593692488968, 7596442.625529764220119 ], [ 5634577.303935196250677, 7596673.225086318328977 ], [ 5634595.610180517658591, 7596740.523499040864408 ], [ 5634653.711928807199001, 7596788.724340433254838 ], [ 5634726.213243664242327, 7596798.917088175192475 ], [ 5634793.408075062558055, 7596790.921681428328156 ], [ 5634869.41342795919627, 7596753.523843528702855 ], [ 5634949.312801904045045, 7596680.825702575035393 ], [ 5635061.309698558412492, 7596626.716540077701211 ], [ 5635141.107192504219711, 7596622.220110835507512 ], [ 5635218.309112996794283, 7596644.419390372931957 ], [ 5635250.611890470609069, 7596672.923103732988238 ], [ 5635239.910718677565455, 7596442.120791275054216 ], [ 5635270.404416784644127, 7596334.018859710544348 ], [ 5635303.909788821823895, 7596280.522097719833255 ] ] ] } }
]
}
