{
"type": "FeatureCollection",
"name": "3545100",
"crs": { "type": "name", "properties": { "name": "urn:ogc:def:crs:EPSG::5880" } },
"features": [
{ "type": "Feature", "properties": { "lv_id": "LOC_055068", "id": 325136.0, "CD_SETOR": "354510005000001", "SITUACAO": "Urbana", "CD_SIT": "1", "CD_TIPO": "0", "AREA_KM2": 0.14028118807863499, "CD_REGIAO": "3", "NM_REGIAO": "Sudeste", "CD_UF": "35", "NM_UF": "São Paulo", "CD_MUN": "3545100", "NM_MUN": "Salmourão", "CD_DIST": "354510005", "NM_DIST": "Salmourão", "CD_SUBDIST": "35451000500", "NM_SUBDIST": null, "CD_BAIRRO": null, "NM_BAIRRO": null, "CD_NU": null, "NM_NU": null, "CD_FCU": null, "NM_FCU": null, "CD_AGLOM": null, "NM_AGLOM": null, "CD_RGINT": "3505", "NM_RGINT": "Presidente Prudente", "CD_RGI": "350019", "NM_RGI": "Adamantina - Lucélia", "CD_CONCURB": null, "NM_CONCURB": null, "mun_code_x": "3545100", "index_right": 87208, "dist_m": 81.999108105088666, "local_id": 595388, "ano": 2022, "cod_localidade_ibge": 3545100, "NR_ZONA": "69", "nr_cep": 17720000.0, "nm_localidade": "SALMOURÃO", "nm_locvot": "EE HANS WIRTH", "ds_endereco": "R BARTOLOMEU BUENO, 420", "ds_bairro": "CENTRO", "pred_long": -50.858044, "pred_lat": -21.623676, "pred_dist": 0.034830602696752699, "tse_long": null, "tse_lat": null, "long": -50.858044, "lat": -21.623676, "ID_UNICO": "LOC_055068", "SG_UF": "SP", "CD_MUNICIPIO": "70033", "NR_LOCAL_VOTACAO": "1015", "QT_SECOES_AGREGADAS": 0, "QT_ELEITORES_TRANSFERIDOS": 6, "CIRO GOMES (PDT) (NÃO ELEITO) 1T": 31.0, "CONSTITUINTE EYMAEL (DC) (NÃO ELEITO) 1T": 0.0, "FELIPE D AVILA (NOVO) (NÃO ELEITO) 1T": 3.0, "JAIR BOLSONARO (PL) (2º TURNO) 1T": 1602.0, "LULA (PT) (2º TURNO) 1T": 1234.0, "LÉO PÉRICLES (UP) (NÃO ELEITO) 1T": 0.0, "PADRE KELMON (PTB) (NÃO ELEITO) 1T": 3.0, "SIMONE TEBET (MDB) (NÃO ELEITO) 1T": 110.0, "SOFIA MANZANO (PCB) (NÃO ELEITO) 1T": 0.0, "SORAYA THRONICKE (UNIÃO) (NÃO ELEITO) 1T": 6.0, "VERA (PSTU) (NÃO ELEITO) 1T": 0.0, "Total_Votos_Validos 1T": 2989.0, "Votos_Brancos 1T": 53.0, "Votos_Nulos 1T": 61.0, "Abstenções 1T": 940.0, "Eleitores_Aptos 1T": 4043.0, "JAIR BOLSONARO (PL) (NÃO ELEITO) 2T": 1746.0, "LULA (PT) (ELEITO) 2T": 1248.0, "Total_Votos_Validos 2T": 2994.0, "Votos_Brancos 2T": 49.0, "Votos_Nulos 2T": 90.0, "Abstenções 2T": 910.0, "Eleitores_Aptos 2T": 4043.0, "mun_code_y": "3545100", "mun_code": "3545100" }, "geometry": { "type": "Polygon", "coordinates": [ [ [ 5326807.351908719167113, 7603538.876399276778102 ], [ 5326716.146329767070711, 7603501.583389542996883 ], [ 5326651.774624982848763, 7603399.725840650498867 ], [ 5326608.810904121026397, 7603328.694511703215539 ], [ 5326567.991228763014078, 7603234.719955561682582 ], [ 5326523.011460517533123, 7603167.377854255959392 ], [ 5326448.145136036910117, 7603087.590105779469013 ], [ 5326354.576620223000646, 7603008.17055106908083 ], [ 5326288.794115209951997, 7602967.775958128273487 ], [ 5326164.065058276057243, 7602770.087443508207798 ], [ 5326087.499626256525517, 7602749.849630050361156 ], [ 5325926.993665936402977, 7602570.705970035865903 ], [ 5325805.668434447608888, 7602454.85260234773159 ], [ 5325607.194368297234178, 7602342.923231620341539 ], [ 5325505.197628105059266, 7602272.819333659484982 ], [ 5325208.393836733885109, 7602068.528695560991764 ], [ 5324981.991930190473795, 7601758.72657778672874 ], [ 5324932.296062008477747, 7601611.223881737329066 ], [ 5324934.293064754456282, 7601225.421144621446729 ], [ 5324892.080954084172845, 7600932.819353530183434 ], [ 5324884.39853357989341, 7600879.524417518638074 ], [ 5324829.2921959804371, 7600498.02564305998385 ], [ 5324848.595850234851241, 7600142.922660453245044 ], [ 5324811.298621212132275, 7599951.023014085367322 ], [ 5324664.092783828265965, 7599611.119590669870377 ], [ 5324659.499897688627243, 7599432.020997829735279 ], [ 5324719.200452592223883, 7599299.926994770765305 ], [ 5324727.39274172578007, 7599138.323594514280558 ], [ 5324695.396190861240029, 7598965.822807130403817 ], [ 5324811.599244901910424, 7598682.02569938916713 ], [ 5325039.291383096948266, 7598516.820764388889074 ], [ 5325131.698632808402181, 7598416.619914758950472 ], [ 5325214.696237906813622, 7598258.722686135210097 ], [ 5325198.793264592066407, 7598080.218256944790483 ], [ 5325185.494250340387225, 7597931.125433148816228 ], [ 5325191.19285053294152, 7597750.020741902291775 ], [ 5325219.092414223589003, 7597605.127325125038624 ], [ 5325153.991291514597833, 7597460.32264269888401 ], [ 5325005.494158762507141, 7597420.726727232336998 ], [ 5324877.1931082457304, 7597487.022734448313713 ], [ 5324540.999374125152826, 7597547.921385967172682 ], [ 5324482.290795145556331, 7597665.224796463735402 ], [ 5324320.390554156154394, 7598268.127780153416097 ], [ 5324176.196906675584614, 7598370.123637188225985 ], [ 5324005.298043857328594, 7598323.019219495356083 ], [ 5323874.492719484493136, 7598252.925590563565493 ], [ 5323784.89386894274503, 7598145.227885510772467 ], [ 5323672.093381492421031, 7598052.125513231381774 ], [ 5323587.497015220113099, 7597939.32491579093039 ], [ 5323439.791912078857422, 7597852.724852953106165 ], [ 5323139.189326172694564, 7597721.121485534124076 ], [ 5323024.496587449684739, 7597430.323415465652943 ], [ 5322856.289788846857846, 7597340.927197221666574 ], [ 5322767.088385623879731, 7597382.632066767662764 ], [ 5322685.19781881570816, 7597420.918023087084293 ], [ 5322567.194447891786695, 7597561.22848461009562 ], [ 5322439.187954058870673, 7597643.221806241199374 ], [ 5322310.197250445373356, 7597668.025263797491789 ], [ 5322003.28738509491086, 7597886.920178571715951 ], [ 5321889.800852425396442, 7598023.263509618118405 ], [ 5321672.986212586052716, 7598199.335638643242419 ], [ 5321659.587378249503672, 7598208.930062718689442 ], [ 5321627.826532968319952, 7598314.157903417944908 ], [ 5321580.007728145457804, 7598331.405938174575567 ], [ 5321530.46448496170342, 7598440.870917061343789 ], [ 5321486.160667588934302, 7598499.276919971220195 ], [ 5321496.812462026253343, 7598528.238587772473693 ], [ 5321462.303780081681907, 7598571.289647698402405 ], [ 5321432.485833189450204, 7598676.477845790795982 ], [ 5321326.678208117373288, 7598969.004668416455388 ], [ 5321300.813759423792362, 7599017.337869290262461 ], [ 5321239.597943638451397, 7599044.965763295069337 ], [ 5321202.150934324599802, 7599076.808430929668248 ], [ 5321154.400616874918342, 7599137.99878585524857 ], [ 5321113.750899688340724, 7599184.675686507485807 ], [ 5321013.679081724956632, 7599251.946331425569952 ], [ 5320967.525590944103897, 7599275.002571627497673 ], [ 5320954.466384714469314, 7599262.810828885994852 ], [ 5320913.113963919691741, 7599273.329181158915162 ], [ 5320859.528213339857757, 7599314.03190042078495 ], [ 5320847.046866038814187, 7599321.95484859123826 ], [ 5320810.130017014220357, 7599309.929283602163196 ], [ 5320770.22881745826453, 7599315.372801251709461 ], [ 5320715.850760854780674, 7599355.3034881465137 ], [ 5320662.147962477058172, 7599369.96003782376647 ], [ 5320637.618174182251096, 7599406.98773786611855 ], [ 5320598.09417268820107, 7599431.862013686448336 ], [ 5320565.472316846251488, 7599431.714986386708915 ], [ 5320548.258637261576951, 7599425.050517713651061 ], [ 5320487.008157208561897, 7599459.384567093104124 ], [ 5320423.254258304834366, 7599508.35012324154377 ], [ 5320353.019449704326689, 7599531.873839158564806 ], [ 5320314.110083281062543, 7599568.400485180318356 ], [ 5320227.576674267649651, 7599592.237638358958066 ], [ 5320184.165169266052544, 7599636.626948175020516 ], [ 5319903.164585271850228, 7599626.515038443729281 ], [ 5319876.052026829682291, 7599590.096289902925491 ], [ 5319819.205512877553701, 7599582.634886341169477 ], [ 5319764.802299221977592, 7599601.18323527649045 ], [ 5319578.023056368343532, 7599602.85043621622026 ], [ 5319553.522822964936495, 7599621.213113022968173 ], [ 5319516.413062344305217, 7599609.875976548530161 ], [ 5319534.763902290724218, 7599595.139781568199396 ], [ 5319419.203221384435892, 7599584.143719535320997 ], [ 5319380.786322097294033, 7599585.673049062490463 ], [ 5319295.964188672602177, 7599637.85807541012764 ], [ 5319312.56192709878087, 7599672.92320934869349 ], [ 5319360.939986585639417, 7599724.100264882668853 ], [ 5319329.167463846504688, 7599768.266470075584948 ], [ 5319170.801943072117865, 7599853.770817033946514 ], [ 5319142.35141465254128, 7599888.544910232536495 ], [ 5319089.645213323645294, 7599914.442056471481919 ], [ 5319053.774995746091008, 7599947.810959419235587 ], [ 5319028.796258809044957, 7600001.566176841035485 ], [ 5319002.719175953418016, 7600018.783752217888832 ], [ 5318973.614576636813581, 7600020.126973973587155 ], [ 5318949.80801859125495, 7600114.698329410515726 ], [ 5318908.897313174791634, 7600167.982353617437184 ], [ 5318839.850097416900098, 7600212.477073160000145 ], [ 5318854.276256495155394, 7600335.862572227604687 ], [ 5318865.216880723834038, 7600359.763227075338364 ], [ 5318846.186961611732841, 7600445.22431640420109 ], [ 5318828.887711525894701, 7600489.567507468163967 ], [ 5318823.375228728167713, 7600545.674653327092528 ], [ 5318803.719478053040802, 7600569.350946529768407 ], [ 5318738.232503899373114, 7600581.539552608504891 ], [ 5318620.480522532016039, 7600637.866167590022087 ], [ 5318580.153603116981685, 7600661.198082631453872 ], [ 5318567.053627247922122, 7600687.116966238245368 ], [ 5318572.844044728204608, 7600701.905258420854807 ], [ 5318537.515228463336825, 7600726.180245938710868 ], [ 5318587.057431790046394, 7600805.268835448659956 ], [ 5318598.177478559315205, 7600830.396925804205239 ], [ 5318614.701856822706759, 7600902.0122723383829 ], [ 5318697.103505601175129, 7600965.368421007879078 ], [ 5318719.696564063429832, 7601029.744447289034724 ], [ 5318713.126839488744736, 7601071.213223678991199 ], [ 5318737.079929249361157, 7601104.968706361949444 ], [ 5318762.603728936985135, 7601119.254611447453499 ], [ 5318782.066783905029297, 7601181.87416357267648 ], [ 5318816.581018303520977, 7601219.323244693689048 ], [ 5318917.195029529742897, 7601237.230754770338535 ], [ 5318964.633835881948471, 7601263.899918376468122 ], [ 5319014.080941106192768, 7601290.551271546632051 ], [ 5319022.778632452711463, 7601338.603213506750762 ], [ 5319051.945149919949472, 7601380.427219414152205 ], [ 5319038.3542659310624, 7601420.738236986100674 ], [ 5319041.081382317468524, 7601441.297929652035236 ], [ 5319059.861812246032059, 7601468.935046881437302 ], [ 5319058.222200061194599, 7601504.739648211747408 ], [ 5319067.575415617786348, 7601526.343185978010297 ], [ 5319075.088469546288252, 7601593.468981850892305 ], [ 5319067.799734034575522, 7601638.33429192379117 ], [ 5319051.412156142294407, 7601654.594042330980301 ], [ 5319032.081444537267089, 7601659.235830496065319 ], [ 5319010.324690759181976, 7601739.373004300519824 ], [ 5319006.726500937715173, 7601754.2256079306826 ], [ 5318965.196672130376101, 7601795.856104958802462 ], [ 5318950.769872259348631, 7601812.853005163371563 ], [ 5318945.724383987486362, 7601873.231047868728638 ], [ 5318957.471963908523321, 7601889.752887636423111 ], [ 5318991.59798333235085, 7601915.899116479791701 ], [ 5319045.758297239430249, 7601945.184923594817519 ], [ 5319049.321601385250688, 7601953.098032127134502 ], [ 5319068.597484709694982, 7601981.679001584649086 ], [ 5319103.236979925073683, 7602005.508411408402026 ], [ 5319095.087030904367566, 7602065.94818852096796 ], [ 5319117.813414543867111, 7602076.397192772477865 ], [ 5319117.929758501239121, 7602092.695223985239863 ], [ 5319103.715495878830552, 7602110.497492328286171 ], [ 5319078.727223427966237, 7602123.812010783702135 ], [ 5319076.372923717834055, 7602162.746680587530136 ], [ 5319082.523840480484068, 7602181.053947634063661 ], [ 5319097.181960547342896, 7602214.838453711941838 ], [ 5319098.071374433115125, 7602240.879157772287726 ], [ 5319071.208944307640195, 7602358.053951499983668 ], [ 5319087.409319328144193, 7602413.208983886055648 ], [ 5319147.444939949549735, 7602504.740744344890118 ], [ 5319171.724593561142683, 7602534.996554361656308 ], [ 5319141.114256422035396, 7602579.138274426572025 ], [ 5319141.062878206372261, 7602656.915170427411795 ], [ 5319115.366737358272076, 7602673.736594283953309 ], [ 5319054.312661756761372, 7602690.084207784384489 ], [ 5319017.987243053503335, 7602800.061409843154252 ], [ 5319041.839728183113039, 7602888.652200305834413 ], [ 5319053.082238363102078, 7602927.705138995312154 ], [ 5319060.695442565716803, 7602960.221248961985111 ], [ 5319083.446042870171368, 7602991.671896040439606 ], [ 5319078.363351301290095, 7603090.927452124655247 ], [ 5319094.893394588492811, 7603162.16562782600522 ], [ 5319062.756783090531826, 7603247.952928732149303 ], [ 5319034.054653910920024, 7603269.890114277601242 ], [ 5318911.726624021306634, 7603250.47156807500869 ], [ 5318888.053488308563828, 7603252.925824088044465 ], [ 5318871.044485367834568, 7603235.321660133078694 ], [ 5318828.868503131903708, 7603223.683102004230022 ], [ 5318792.338362483307719, 7603182.392452577129006 ], [ 5318730.164540552534163, 7603180.486663228832185 ], [ 5318719.44571871869266, 7603213.831858177669346 ], [ 5318740.611591756343842, 7603239.004915948025882 ], [ 5318724.232142889872193, 7603255.263854265213013 ], [ 5318694.630114945583045, 7603270.997491914778948 ], [ 5318688.084104086272418, 7603314.284059314057231 ], [ 5318667.453102258965373, 7603331.802552115172148 ], [ 5318652.881718964315951, 7603381.856895190663636 ], [ 5318661.609766893088818, 7603411.62320495583117 ], [ 5318618.011310334317386, 7603426.469631629064679 ], [ 5318621.552489425055683, 7603448.953693275339901 ], [ 5318605.080280212685466, 7603460.545996249653399 ], [ 5318599.221356545574963, 7603478.936053448356688 ], [ 5318590.180261934176087, 7603493.497037743218243 ], [ 5318601.648575226776302, 7603537.202899683266878 ], [ 5318574.650868007913232, 7603574.684807147830725 ], [ 5318552.505189873278141, 7603594.173581636510789 ], [ 5318566.952919581905007, 7603618.393246561288834 ], [ 5318604.35268568713218, 7603644.498022578656673 ], [ 5318594.681454072706401, 7603689.476394144818187 ], [ 5318577.011758680455387, 7603716.960114842280746 ], [ 5318589.914697598665953, 7603741.598469912074506 ], [ 5318576.551744095981121, 7603773.753891836851835 ], [ 5318521.954743403941393, 7603865.994236351922154 ], [ 5318529.021755051799119, 7603886.656496617011726 ], [ 5318546.674881350249052, 7603915.8691341932863 ], [ 5318542.647966524586082, 7603945.222727417945862 ], [ 5318491.021442516706884, 7603930.166388540528715 ], [ 5318480.358234895393252, 7603941.266461943276227 ], [ 5318509.932919084094465, 7603984.248012203723192 ], [ 5318504.533344160765409, 7604006.509888054803014 ], [ 5318475.609766800887883, 7603996.95858196914196 ], [ 5318467.266542044468224, 7604027.450985472649336 ], [ 5318554.043136647902429, 7604211.788401510566473 ], [ 5318561.8851517457515, 7604261.664822895079851 ], [ 5318604.252155561000109, 7604303.239827319048345 ], [ 5318612.579313664697111, 7604332.626025799661875 ], [ 5318633.654791250824928, 7604357.889876894652843 ], [ 5318657.184520044364035, 7604410.882023056969047 ], [ 5318652.241121525876224, 7604425.849709713831544 ], [ 5318616.290577463805676, 7604462.067206751555204 ], [ 5318612.392065193504095, 7604536.637492348439991 ], [ 5318630.909298351034522, 7604572.852105664089322 ], [ 5318618.499599053524435, 7604612.406827325001359 ], [ 5318598.441339640878141, 7604644.838837943971157 ], [ 5318583.045049637556076, 7604697.792190294712782 ], [ 5318592.446147410199046, 7604727.024087084457278 ], [ 5318587.120691482909024, 7604744.150471755303442 ], [ 5318594.754433482885361, 7604754.189762169495225 ], [ 5318607.093196707777679, 7604793.199073109775782 ], [ 5318574.768099047243595, 7604826.383909253403544 ], [ 5318555.759234141558409, 7604833.890102704055607 ], [ 5318449.893955822102726, 7604980.890379921533167 ], [ 5318430.267730958759785, 7605002.224945859052241 ], [ 5318428.986714798025787, 7605028.563433710485697 ], [ 5318441.820247213356197, 7605047.049209935590625 ], [ 5318469.890577091835439, 7605047.403123810887337 ], [ 5318468.381902107968926, 7605061.703950071707368 ], [ 5318444.122546572238207, 7605096.968703487887979 ], [ 5318440.502685737796128, 7605117.099513972178102 ], [ 5318402.234344381839037, 7605165.570556130260229 ], [ 5318428.151107196696103, 7605193.167393572628498 ], [ 5318456.825495968572795, 7605201.537533581256866 ], [ 5318431.148001703433692, 7605278.745014326646924 ], [ 5318458.87878499366343, 7605305.374511795118451 ], [ 5318521.641970015130937, 7605328.294784447178245 ], [ 5318561.649019699543715, 7605370.338296702131629 ], [ 5318591.356641543097794, 7605409.458583377301693 ], [ 5318600.638389650732279, 7605428.458125262521207 ], [ 5318613.767724643461406, 7605439.364484341815114 ], [ 5318625.135578072629869, 7605474.822525884956121 ], [ 5318620.523077334277332, 7605512.825629198923707 ], [ 5318600.944587531499565, 7605514.089075043797493 ], [ 5318578.983547207899392, 7605506.939066594466567 ], [ 5318576.386343470774591, 7605533.747165407054126 ], [ 5318573.172230267897248, 7605598.479266962967813 ], [ 5318491.196043121628463, 7605690.162312161177397 ], [ 5318484.041465643793344, 7605711.704738792032003 ], [ 5318512.582888621836901, 7605852.097873948514462 ], [ 5318548.127834532409906, 7605870.589035049080849 ], [ 5318579.278741860762239, 7605845.455958586186171 ], [ 5318603.536693702451885, 7605856.142190244048834 ], [ 5318587.610288673080504, 7605884.99925734475255 ], [ 5318555.197297153994441, 7605936.913994314149022 ], [ 5318528.499103586189449, 7605961.515372455120087 ], [ 5318519.496250807307661, 7606002.721093783155084 ], [ 5318502.782134898006916, 7606013.752131853252649 ], [ 5318476.935814858414233, 7606013.354046119377017 ], [ 5318448.298178807832301, 7606029.96550258807838 ], [ 5318420.821131116710603, 7606037.184133486822248 ], [ 5318354.579959853552282, 7606136.58295944519341 ], [ 5318326.178744924254715, 7606234.368602371774614 ], [ 5318337.080922033637762, 7606245.751716366037726 ], [ 5318288.601858615875244, 7606342.13772202283144 ], [ 5318270.082422250881791, 7606375.048505747690797 ], [ 5318274.170532800257206, 7606402.178955145180225 ], [ 5318282.945607817731798, 7606418.072821469046175 ], [ 5318271.638958755880594, 7606478.495829087682068 ], [ 5318246.719914561137557, 7606503.061376394703984 ], [ 5318219.599100263789296, 7606505.814909151755273 ], [ 5318241.513383576646447, 7606556.688517230562866 ], [ 5318231.13503058347851, 7606565.542602840811014 ], [ 5318168.720895625650883, 7606547.392849518917501 ], [ 5318065.692916953936219, 7606540.457010076381266 ], [ 5318050.364462457597256, 7606554.575952930375934 ], [ 5318051.624489136971533, 7606573.290633767843246 ], [ 5318069.538477298803627, 7606601.489791918545961 ], [ 5318070.603082403540611, 7606610.827462960034609 ], [ 5318059.207113262265921, 7606643.164772894233465 ], [ 5318062.38682887237519, 7606669.414992555975914 ], [ 5318105.665713040158153, 7606673.040144849568605 ], [ 5318115.308531575836241, 7606682.529980830848217 ], [ 5318118.66765099670738, 7606723.635252377018332 ], [ 5318138.743941923603415, 7606725.478650029748678 ], [ 5318142.578284420073032, 7606739.24137725494802 ], [ 5318126.596979769878089, 7606765.415377618744969 ], [ 5318156.986076657660306, 7606793.368120338767767 ], [ 5318152.91367626003921, 7606836.272351456806064 ], [ 5318169.560774146579206, 7606844.869823634624481 ], [ 5318211.016413271427155, 7606847.920906974002719 ], [ 5318244.226056762970984, 7606813.101186061277986 ], [ 5318240.314203320071101, 7606794.893506433814764 ], [ 5318247.575326758436859, 7606778.693893596529961 ], [ 5318262.26557684596628, 7606778.403673173859715 ], [ 5318274.934972167946398, 7606782.766188941895962 ], [ 5318294.945322653278708, 7606789.655984986573458 ], [ 5318325.567518871277571, 7606757.559508956968784 ], [ 5318343.322905447334051, 7606754.103856172412634 ], [ 5318384.717140422202647, 7606779.743010889738798 ], [ 5318378.025518152862787, 7606798.027181517332792 ], [ 5318365.352086316794157, 7606810.763326804153621 ], [ 5318375.999375644139946, 7606877.90461291000247 ], [ 5318514.899301074445248, 7606965.77453238889575 ], [ 5318566.280343188904226, 7606973.707081902772188 ], [ 5318612.942067793570459, 7607014.288783106952906 ], [ 5318627.375399058684707, 7607046.570410324260592 ], [ 5318637.415794609114528, 7607058.857548750936985 ], [ 5318645.894171155057847, 7607116.816046318039298 ], [ 5318623.34302213229239, 7607138.07522994466126 ], [ 5318595.595271500758827, 7607154.225513841956854 ], [ 5318613.032755266875029, 7607194.398245617747307 ], [ 5318604.489333543926477, 7607222.743174262344837 ], [ 5318574.00953755620867, 7607259.450128056108952 ], [ 5318606.320621167309582, 7607294.959911586716771 ], [ 5318613.835146764293313, 7607361.27605237532407 ], [ 5318668.819630046375096, 7607417.305864805355668 ], [ 5318640.382107501849532, 7607444.170242054387927 ], [ 5318692.092025722377002, 7607492.236663851886988 ], [ 5318752.384037133306265, 7607546.376068348065019 ], [ 5318778.051968529820442, 7607584.245834611356258 ], [ 5318834.606647674925625, 7607629.532653842121363 ], [ 5318818.255307572893798, 7607682.038902033120394 ], [ 5318830.251765453256667, 7607703.657127184793353 ], [ 5318822.548454966396093, 7607743.063018955290318 ], [ 5318818.604763048700988, 7607769.897723872214556 ], [ 5318791.458277551457286, 7607794.50796158798039 ], [ 5318776.377411512658, 7607820.664758741855621 ], [ 5318732.553053576499224, 7607812.139492027461529 ], [ 5318705.358111525885761, 7607830.640724405646324 ], [ 5318693.67443429492414, 7607828.509896980598569 ], [ 5318666.074375367723405, 7607848.527104634791613 ], [ 5318671.854911844246089, 7607875.313614174723625 ], [ 5318633.911342880688608, 7607917.523824163712561 ], [ 5318629.471710319630802, 7607964.882020730525255 ], [ 5318440.02562268730253, 7608004.220090590417385 ], [ 5318334.213676854036748, 7608015.181001879274845 ], [ 5318323.626351417973638, 7608043.931904366239905 ], [ 5318343.121997429989278, 7608061.399372267536819 ], [ 5318359.603168727830052, 7608061.528492794372141 ], [ 5318400.009901029989123, 7608124.079039322212338 ], [ 5318392.505333703011274, 7608150.540306717157364 ], [ 5318422.584807229228318, 7608208.83723489753902 ], [ 5318440.124467522837222, 7608241.05772096849978 ], [ 5318368.379308748990297, 7608325.073102172464132 ], [ 5318261.57011826056987, 7608406.852943582460284 ], [ 5318244.748815069906414, 7608412.075039056129754 ], [ 5318222.237081057392061, 7608445.962297987192869 ], [ 5318205.199799050576985, 7608486.438905023038387 ], [ 5318202.959162998013198, 7608517.242587933316827 ], [ 5318188.676207349635661, 7608530.908284015953541 ], [ 5318177.853927413001657, 7608570.364007480442524 ], [ 5318182.942819617688656, 7608582.605058569461107 ], [ 5318205.390176474116743, 7608589.014724265784025 ], [ 5318229.389663701876998, 7608609.520457784645259 ], [ 5318222.294463664293289, 7608634.188230235129595 ], [ 5318197.353496154770255, 7608634.214757617563009 ], [ 5318193.784934095107019, 7608657.038751060143113 ], [ 5318189.612622266635299, 7608671.835507171228528 ], [ 5318192.224087595008314, 7608691.854122536256909 ], [ 5318205.09315555728972, 7608712.568470844998956 ], [ 5318200.267862714827061, 7608739.420206217095256 ], [ 5318235.529961598105729, 7608766.401136131957173 ], [ 5318247.988813244737685, 7608778.918081807903945 ], [ 5318242.394640803337097, 7608798.821441745385528 ], [ 5318213.272542480379343, 7608813.212443494237959 ], [ 5318239.149841303937137, 7608838.582258792594075 ], [ 5318273.090390650555491, 7608820.093161664903164 ], [ 5318282.624719340354204, 7608829.274737926200032 ], [ 5318277.869907213374972, 7608859.69560812972486 ], [ 5318289.512270191684365, 7608874.923154726624489 ], [ 5318287.902521768584847, 7608895.180332926101983 ], [ 5318308.7153156157583, 7608918.465603708289564 ], [ 5318318.608630350790918, 7608916.440706666558981 ], [ 5318345.540211739018559, 7608950.604937747120857 ], [ 5318365.490929913707078, 7608945.420830716378987 ], [ 5318377.418816066347063, 7608963.037811821326613 ], [ 5318376.669479630887508, 7608993.823183628730476 ], [ 5318354.732330082915723, 7609011.199501225724816 ], [ 5318338.834662708453834, 7609018.643243773840368 ], [ 5318347.724968721158803, 7609040.323158188723028 ], [ 5318386.470485573634505, 7609063.221079712733626 ], [ 5318383.04264575522393, 7609093.172251902520657 ], [ 5318419.526769872754812, 7609114.318427835591137 ], [ 5318437.311066884547472, 7609112.19310761988163 ], [ 5318467.774057745933533, 7609167.81026503816247 ], [ 5318470.239709246903658, 7609202.989747785031796 ], [ 5318506.561350483447313, 7609262.061675699427724 ], [ 5318574.987147740088403, 7609321.8522430639714 ], [ 5318625.082233529537916, 7609332.483417369425297 ], [ 5318618.782936464995146, 7609375.420620860531926 ], [ 5318598.024743113666773, 7609407.931928228586912 ], [ 5318587.399076571688056, 7609411.701229274272919 ], [ 5318569.88956809323281, 7609450.845773093402386 ], [ 5318640.143982698209584, 7609467.332698257640004 ], [ 5318618.680153147317469, 7609509.227750881575048 ], [ 5318657.763852459378541, 7609572.2589808171615 ], [ 5318686.869539059698582, 7609556.980579484254122 ], [ 5318690.775647738948464, 7609597.942014636471868 ], [ 5318729.496162910945714, 7609619.487061553634703 ], [ 5318756.197998450137675, 7609664.477818934246898 ], [ 5318795.006991463713348, 7609690.489672336727381 ], [ 5318802.118059832602739, 7609735.845368512906134 ], [ 5318776.688566815108061, 7609756.850595068186522 ], [ 5318791.542513429187238, 7609787.782347814179957 ], [ 5318776.902522292919457, 7609831.660645745694637 ], [ 5318784.895858244039118, 7609859.279446600005031 ], [ 5318804.026296445168555, 7609881.211518451571465 ], [ 5318799.367219025269151, 7609916.98646567389369 ], [ 5318820.047216604463756, 7609972.785536579787731 ], [ 5318873.293890564702451, 7609961.942017370834947 ], [ 5318897.465866273269057, 7610014.112594097852707 ], [ 5318863.862971562892199, 7610027.251362469047308 ], [ 5318871.829468803480268, 7610070.804898930713534 ], [ 5318846.57699837256223, 7610090.309712274931371 ], [ 5318816.96709462441504, 7610090.595460800454021 ], [ 5318765.154391841962934, 7610037.174597594887018 ], [ 5318719.791284460574389, 7610040.720971299335361 ], [ 5318648.5663708075881, 7610135.759232627227902 ], [ 5318687.585600520484149, 7610265.245293518528342 ], [ 5318651.704889273270965, 7610298.942240990698338 ], [ 5318573.606455720961094, 7610268.338828491047025 ], [ 5318524.899041127413511, 7610283.54914821125567 ], [ 5318487.719057234935462, 7610342.242601092904806 ], [ 5318458.983028134331107, 7610423.07931037992239 ], [ 5318455.861066706478596, 7610492.721157889813185 ], [ 5318299.771816745400429, 7610483.23754271492362 ], [ 5318105.565049985423684, 7610530.68908086232841 ], [ 5318030.097746680490673, 7610535.835753487423062 ], [ 5317993.546809049323201, 7610681.814556499943137 ], [ 5318052.863207648508251, 7610847.482303989119828 ], [ 5318094.198389331810176, 7610996.927137551829219 ], [ 5318051.847934360615909, 7611094.663546426221728 ], [ 5317908.392747603356838, 7611205.734732815995812 ], [ 5317771.946983377449214, 7611249.847649864852428 ], [ 5317647.309134366922081, 7611254.928682772442698 ], [ 5317641.109362374991179, 7611210.442082419991493 ], [ 5317600.604662730358541, 7611201.514560448005795 ], [ 5317577.363833783194423, 7611231.300594445317984 ], [ 5317305.196404964663088, 7611141.936085663735867 ], [ 5317256.110111074522138, 7611158.0919786747545 ], [ 5317185.004243650473654, 7611212.979554304853082 ], [ 5317187.492606506682932, 7611295.893658436834812 ], [ 5317143.196334732696414, 7611389.828410886228085 ], [ 5317083.283492549322546, 7611528.933075888082385 ], [ 5317137.765317164361477, 7611628.689172583632171 ], [ 5317132.280685245990753, 7611668.038521083071828 ], [ 5317111.592405064962804, 7611681.22971879504621 ], [ 5317061.967956628650427, 7611717.564982263371348 ], [ 5316924.303785810247064, 7611925.379347738809884 ], [ 5316933.823401162400842, 7611932.189226711168885 ], [ 5316954.823451179079711, 7611938.030840778723359 ], [ 5316955.338254508562386, 7611947.90042222943157 ], [ 5316996.396850098855793, 7611979.705177946016192 ], [ 5317013.41489933244884, 7611992.211358970962465 ], [ 5317045.673701835796237, 7611994.228131457231939 ], [ 5317062.159819070249796, 7611979.101524814963341 ], [ 5317100.785910849459469, 7611987.246977472677827 ], [ 5317108.076960453763604, 7612007.184758702293038 ], [ 5317096.955214575864375, 7612027.48411794565618 ], [ 5317094.538504447788, 7612055.840068114921451 ], [ 5317104.577412902377546, 7612077.486938523128629 ], [ 5317105.078418435528874, 7612090.871797572821379 ], [ 5317126.994612272828817, 7612119.093658057972789 ], [ 5317134.994933740235865, 7612136.63351833820343 ], [ 5317135.170746524818242, 7612150.86747845262289 ], [ 5317163.316675272770226, 7612210.391294389031827 ], [ 5317186.209948315285146, 7612258.81903660017997 ], [ 5317199.991028978489339, 7612287.954624474048615 ], [ 5317203.304666227661073, 7612307.926158132962883 ], [ 5317217.224953575059772, 7612335.706229422241449 ], [ 5317236.396303279325366, 7612353.381474206224084 ], [ 5317257.268774315714836, 7612400.706762882880867 ], [ 5317299.267930636182427, 7612424.930265318602324 ], [ 5317305.401998972520232, 7612453.462028091773391 ], [ 5317312.654672066681087, 7612471.426802477799356 ], [ 5317304.507699619978666, 7612492.333140827715397 ], [ 5317314.381271895952523, 7612503.427098036743701 ], [ 5317353.130063677206635, 7612507.200927957892418 ], [ 5317377.943447425030172, 7612514.619359403848648 ], [ 5317382.605848706327379, 7612528.876064885407686 ], [ 5317397.49682695325464, 7612539.594181478023529 ], [ 5317400.159845402464271, 7612592.887894676998258 ], [ 5317455.166545014828444, 7612628.952878965064883 ], [ 5317482.992425606586039, 7612659.442286152392626 ], [ 5317491.647374601103365, 7612682.324863458052278 ], [ 5317539.830229190178216, 7612720.131564233452082 ], [ 5317547.289201057516038, 7612720.106906741857529 ], [ 5317571.66420045029372, 7612739.464797513559461 ], [ 5317595.083695962093771, 7612742.885288322344422 ], [ 5317600.840485878288746, 7612751.664971856400371 ], [ 5317625.786466863937676, 7612766.332279410213232 ], [ 5317643.959565424360335, 7612770.598785571753979 ], [ 5317659.646688943728805, 7612783.851386461406946 ], [ 5317675.521680413745344, 7612804.551667595282197 ], [ 5317711.370868123136461, 7612805.188328500837088 ], [ 5317725.428311022929847, 7612817.752185555174947 ], [ 5317732.898058677092195, 7612813.0035883160308 ], [ 5317739.53382181096822, 7612833.286773435771465 ], [ 5317764.740185523405671, 7612844.322880763560534 ], [ 5317806.625529944896698, 7612882.685265943408012 ], [ 5317826.994496972300112, 7612884.280445940792561 ], [ 5317851.581093073822558, 7612908.047013448551297 ], [ 5317873.298826511949301, 7612915.0045609716326 ], [ 5317882.584739753976464, 7612936.222437705844641 ], [ 5317901.613643674179912, 7612951.327389657497406 ], [ 5317894.079402606934309, 7612987.036121439188719 ], [ 5317972.489806179888546, 7613080.343187501654029 ], [ 5318001.711924623697996, 7613100.093069683760405 ], [ 5318017.896231050603092, 7613098.56587029248476 ], [ 5318052.866167899221182, 7613138.727172103710473 ], [ 5318091.852845436893404, 7613148.183155180886388 ], [ 5318154.350217320024967, 7613217.7631990974769 ], [ 5318208.997321328148246, 7613284.847548622637987 ], [ 5318220.221104375086725, 7613308.688374417833984 ], [ 5318246.354121497832239, 7613316.745025248266757 ], [ 5318330.690004905685782, 7613478.760030282661319 ], [ 5318362.966557880863547, 7613549.910660646855831 ], [ 5318494.324344536289573, 7613712.00777792930603 ], [ 5318622.580235750414431, 7613814.897556263953447 ], [ 5318945.12834167201072, 7613950.268373010680079 ], [ 5319161.197419966571033, 7613901.826521398499608 ], [ 5319491.804294977337122, 7613821.234194074757397 ], [ 5319645.196824250742793, 7613788.029177106916904 ], [ 5319776.09989371150732, 7613707.930514672771096 ], [ 5319899.001747597008944, 7613662.330332945100963 ], [ 5319993.192833365872502, 7613757.036101989448071 ], [ 5319911.819667425937951, 7613866.0954524371773 ], [ 5319881.195765191689134, 7613907.130550019443035 ], [ 5319684.300295726396143, 7614118.2270233547315 ], [ 5319605.198914183303714, 7614247.032342508435249 ], [ 5319452.2017259914428, 7614617.330839135684073 ], [ 5319438.39327775221318, 7614790.130001068115234 ], [ 5319660.302507502958179, 7615037.232518617063761 ], [ 5319704.998488527722657, 7615184.835614826530218 ], [ 5319935.093502002768219, 7615465.028443509712815 ], [ 5320128.400093298405409, 7615775.132317073643208 ], [ 5320394.203474616631866, 7615969.231913837604225 ], [ 5320710.297793413512409, 7616380.13412044942379 ], [ 5320802.194355100393295, 7616531.235831130295992 ], [ 5320810.901656339876354, 7616674.128780176863074 ], [ 5320748.295875824987888, 7616983.134541910141706 ], [ 5320754.19857585709542, 7617283.230916251428425 ], [ 5320790.899698552675545, 7617443.033640418201685 ], [ 5321038.200774885714054, 7617667.233851347118616 ], [ 5321134.656116160564125, 7617934.952622797340155 ], [ 5321164.868277090601623, 7618011.364108459092677 ], [ 5321168.104905353859067, 7618151.626787496730685 ], [ 5321133.508020025677979, 7618352.828845117241144 ], [ 5321179.692196680232882, 7618581.946995176374912 ], [ 5321162.199414826929569, 7618707.0299849556759 ], [ 5321316.101893276907504, 7618949.236735159531236 ], [ 5321405.003371726721525, 7619228.637289411388338 ], [ 5321447.734143584035337, 7619402.036812903359532 ], [ 5321562.60374746657908, 7619428.033734739758074 ], [ 5321716.305466569960117, 7619480.936333419755101 ], [ 5321757.099660605192184, 7619508.535586524754763 ], [ 5321783.601863007061183, 7619549.237094435840845 ], [ 5321778.902375333942473, 7619669.132631281390786 ], [ 5321791.799173985607922, 7619762.232236582785845 ], [ 5321817.599117422476411, 7619833.330710545182228 ], [ 5321843.314374268054962, 7619875.611337663605809 ], [ 5321915.545338386669755, 7619887.472165565937757 ], [ 5322028.609165599569678, 7619882.354080751538277 ], [ 5322184.101141745224595, 7619855.533929578028619 ], [ 5322389.206518838182092, 7619938.5352514795959 ], [ 5322469.374718260020018, 7619953.362872937694192 ], [ 5322624.410541853867471, 7619915.070712143555284 ], [ 5322885.787378889508545, 7619827.6644351426512 ], [ 5323174.692843248136342, 7619642.599707661196589 ], [ 5323313.881524990312755, 7619544.281887399032712 ], [ 5323437.824079108424485, 7619493.350242435932159 ], [ 5323593.299678340554237, 7619461.836551152169704 ], [ 5323696.788806066848338, 7619510.456897471100092 ], [ 5323816.200338619761169, 7619556.030647649429739 ], [ 5323890.106230840086937, 7619555.729087548330426 ], [ 5323957.903401792049408, 7619524.633421886712313 ], [ 5323993.198475115001202, 7619493.133861433714628 ], [ 5324118.305630836635828, 7619324.83029492944479 ], [ 5324271.998537573963404, 7619069.636850846931338 ], [ 5324316.638209947384894, 7618841.186813266947865 ], [ 5324334.835757683031261, 7618731.274629833176732 ], [ 5324404.199440865777433, 7618620.226849792525172 ], [ 5324467.499776438809931, 7618571.331832073628902 ], [ 5324548.398300610482693, 7618536.93205791618675 ], [ 5324610.460748425684869, 7618514.752380351535976 ], [ 5324683.889502816833556, 7618461.384104125201702 ], [ 5324713.509324287995696, 7618417.88695565611124 ], [ 5324728.106813580729067, 7618355.030110837891698 ], [ 5324724.403619445860386, 7618254.028038829565048 ], [ 5324646.443761114031076, 7618097.240007724612951 ], [ 5324592.102321956306696, 7618025.696353651583195 ], [ 5324550.301787455566227, 7617960.887306490913033 ], [ 5324530.069051451049745, 7617882.128471296280622 ], [ 5324520.435876835137606, 7617813.580855937674642 ], [ 5324572.719839907251298, 7617719.895388528704643 ], [ 5324632.275703004561365, 7617626.074937539175153 ], [ 5324687.360441501252353, 7617569.813607322052121 ], [ 5324824.2732441034168, 7617496.374760203994811 ], [ 5324859.502604660578072, 7617409.228870371356606 ], [ 5324865.515371308661997, 7617322.525014798156917 ], [ 5324835.233240456320345, 7617243.469050604850054 ], [ 5324687.913590301759541, 7617080.987458242103457 ], [ 5324527.665290626697242, 7617000.301648084074259 ], [ 5324403.966496407054365, 7616960.842731969431043 ], [ 5324170.848550863564014, 7616844.521552108228207 ], [ 5324028.810231021605432, 7616813.921549800783396 ], [ 5324000.009751495905221, 7616751.191279465332627 ], [ 5324009.799550506286323, 7616681.633853763341904 ], [ 5324053.521516312845051, 7616629.871190027333796 ], [ 5324079.092210036702454, 7616551.436969162896276 ], [ 5324100.799578136764467, 7616435.333181298337877 ], [ 5324031.986131440848112, 7616301.570056207478046 ], [ 5323994.605979803018272, 7616205.711528080515563 ], [ 5324019.2681216429919, 7616079.856890588998795 ], [ 5324074.407542771659791, 7615955.110451815649867 ], [ 5324129.125567524693906, 7615808.338313351385295 ], [ 5324205.99289312120527, 7615669.627164639532566 ], [ 5324303.21831807307899, 7615533.900509538128972 ], [ 5324444.399556105025113, 7615395.639071291312575 ], [ 5324690.329015233553946, 7615248.586744752712548 ], [ 5324842.987217549234629, 7615179.574585860595107 ], [ 5325061.750681003555655, 7615116.063076544553041 ], [ 5325260.506890313699841, 7615068.187217697501183 ], [ 5325500.481194773688912, 7614963.612097942270339 ], [ 5325627.379827864468098, 7614962.864834915846586 ], [ 5325770.179704318754375, 7614997.403555106371641 ], [ 5326188.24991312995553, 7614738.592925226315856 ], [ 5326304.154413348995149, 7614605.900544182397425 ], [ 5326455.084093782119453, 7614386.680198991671205 ], [ 5326572.713965524919331, 7614316.083392380736768 ], [ 5326670.677398421801627, 7614306.574545532464981 ], [ 5326827.428120515309274, 7614406.070894252508879 ], [ 5326886.512497128918767, 7614398.999034518375993 ], [ 5327059.636294445954263, 7614294.008335856720805 ], [ 5327180.030230137519538, 7614218.837354582734406 ], [ 5327348.178475133143365, 7614163.080541558563709 ], [ 5327541.44521923083812, 7614138.184658838436007 ], [ 5327833.414744082838297, 7614141.891659194603562 ], [ 5327961.565575138665736, 7614162.302732814103365 ], [ 5328306.908590830862522, 7614171.128468140028417 ], [ 5328429.101126262918115, 7614174.124568823724985 ], [ 5328526.602587088942528, 7614156.229998679831624 ], [ 5328658.700266304425895, 7614115.862831523641944 ], [ 5328917.988753355108202, 7614048.177355662919581 ], [ 5328995.769842281937599, 7613956.880347035825253 ], [ 5329082.163575893267989, 7613873.890956290997565 ], [ 5329415.562564344145358, 7613875.949059966020286 ], [ 5329524.035208905115724, 7613840.824156906455755 ], [ 5329828.332505646161735, 7613781.598110478371382 ], [ 5329904.482621459290385, 7613605.604422626085579 ], [ 5330045.444109428673983, 7613500.380209809169173 ], [ 5330062.391635672189295, 7613281.479678422212601 ], [ 5330111.59974432643503, 7613156.8361302530393 ], [ 5330043.638049735687673, 7612878.555009282194078 ], [ 5329901.94076244905591, 7612637.288852568715811 ], [ 5329844.292397264391184, 7612631.61265925783664 ], [ 5329749.438490188680589, 7612714.76942959241569 ], [ 5329670.086296672932804, 7612723.918794210068882 ], [ 5329487.606050948612392, 7612650.336151586845517 ], [ 5329450.76433364674449, 7612626.479773715138435 ], [ 5329442.451361461542547, 7612590.208962759003043 ], [ 5329454.70332533121109, 7612537.128343982622027 ], [ 5329482.15408768132329, 7612498.786251893267035 ], [ 5329586.594014901667833, 7612385.792956236749887 ], [ 5329694.130531593225896, 7612346.448153410106897 ], [ 5329793.882869575172663, 7612341.983087783679366 ], [ 5329843.474380589090288, 7612280.886879725381732 ], [ 5329842.490876208990812, 7612186.01306539401412 ], [ 5329794.826183336786926, 7612126.780889887362719 ], [ 5329722.591067777015269, 7612110.379326404072344 ], [ 5329544.89263520296663, 7612153.60714827850461 ], [ 5329431.678124357014894, 7612117.668867655098438 ], [ 5329287.768191728740931, 7612069.602756485342979 ], [ 5329155.134095484390855, 7611948.458397137932479 ], [ 5329134.346979272551835, 7611835.336133335717022 ], [ 5329154.155097589828074, 7611721.419681204482913 ], [ 5329264.770366742275655, 7611621.864586976356804 ], [ 5329404.511261955834925, 7611497.173077342100441 ], [ 5329516.747121411375701, 7611306.082410074770451 ], [ 5329595.60102432128042, 7611184.527525496669114 ], [ 5329675.508636357262731, 7611132.926048908382654 ], [ 5329818.324603092856705, 7611105.4230892136693 ], [ 5329876.121793369762599, 7611162.773246884346008 ], [ 5329888.01603317540139, 7611297.247155474498868 ], [ 5329877.69012585747987, 7611508.40523898229003 ], [ 5329915.283124619163573, 7611615.2842598836869 ], [ 5330016.074664188548923, 7611709.072364524006844 ], [ 5330097.743213107809424, 7611864.244031900539994 ], [ 5330207.263956537470222, 7612015.485868221148849 ], [ 5330331.554289227351546, 7612055.450795270502567 ], [ 5330425.932450488209724, 7612035.000336304306984 ], [ 5330485.113785690627992, 7611977.941686863079667 ], [ 5330487.651290766894817, 7611933.841496121138334 ], [ 5330470.746722409501672, 7611890.948724583722651 ], [ 5330434.32023797929287, 7611872.198445892892778 ], [ 5330357.159802970476449, 7611861.145974467508495 ], [ 5330308.329401777125895, 7611848.327105974778533 ], [ 5330301.969929411076009, 7611781.519899213686585 ], [ 5330412.471255408599973, 7611709.116966642439365 ], [ 5330466.946820012293756, 7611621.6245455481112 ], [ 5330467.909816027618945, 7611528.928240170702338 ], [ 5330307.608924391679466, 7610713.32374769821763 ], [ 5330342.308725425973535, 7610506.023602463304996 ], [ 5330440.10257457010448, 7610166.528354395180941 ], [ 5330415.403982659801841, 7610035.321613627485931 ], [ 5330340.206924730911851, 7609876.825784608721733 ], [ 5330323.804292919114232, 7609440.326899347826838 ], [ 5330279.906115030869842, 7609309.823838386684656 ], [ 5329887.508524122647941, 7608740.026669236831367 ], [ 5329820.606277516111732, 7608591.629198966547847 ], [ 5329742.403779359534383, 7608209.626001391559839 ], [ 5329715.307264019735157, 7607720.726554719731212 ], [ 5329728.507842222228646, 7607403.923873772844672 ], [ 5329634.10422729048878, 7606887.424037957563996 ], [ 5329455.704905201680958, 7606465.828881932422519 ], [ 5329330.601095102727413, 7606042.422385785728693 ], [ 5329219.191585181280971, 7605798.354760281741619 ], [ 5329199.004405708052218, 7605754.120537364855409 ], [ 5329093.19778679125011, 7605613.825737949460745 ], [ 5328878.299831074662507, 7605157.420535327866673 ], [ 5328515.301010582596064, 7604822.019721287302673 ], [ 5328448.195736380293965, 7604693.519063886255026 ], [ 5328358.304961025714874, 7604599.328547118231654 ], [ 5328077.303539481014013, 7604637.629065700806677 ], [ 5327953.195717309601605, 7604618.422935727983713 ], [ 5327786.198799438774586, 7604562.218754485249519 ], [ 5327720.418370927684009, 7604559.022749301046133 ], [ 5327704.040702804923058, 7604530.246274557895958 ], [ 5327660.762319603003561, 7604512.785411439836025 ], [ 5327630.103259022347629, 7604438.644160732626915 ], [ 5327614.400401399470866, 7604427.242233829572797 ], [ 5327608.085792226716876, 7604408.008513228967786 ], [ 5327614.576432927511632, 7604382.459241900593042 ], [ 5327613.180854349397123, 7604364.256511364132166 ], [ 5327566.370150621980429, 7604337.042089952155948 ], [ 5327549.881958885118365, 7604317.571863600052893 ], [ 5327525.865041261538863, 7604312.837545836344361 ], [ 5327468.939392192289233, 7604326.948576647788286 ], [ 5327451.577419528737664, 7604343.425985114648938 ], [ 5327410.800552217289805, 7604359.315182838588953 ], [ 5327360.770453271456063, 7604354.034168250858784 ], [ 5327314.668198196217418, 7604336.175278946757317 ], [ 5327266.344705640338361, 7604257.435912072658539 ], [ 5327247.407376108691096, 7604245.833325423300266 ], [ 5327245.397906419821084, 7604195.882876712828875 ], [ 5327226.238027323968709, 7604172.818296756595373 ], [ 5327209.391940819099545, 7604162.204476322978735 ], [ 5327177.452539429999888, 7604124.295873124152422 ], [ 5327149.608060990460217, 7604063.681475631892681 ], [ 5327099.302958178333938, 7604008.635923938825727 ], [ 5327051.320219842717052, 7603947.599111853167415 ], [ 5327022.113166333176196, 7603893.787948798388243 ], [ 5327007.921045168302953, 7603881.26809698343277 ], [ 5326971.947078307159245, 7603822.604168141260743 ], [ 5326953.781961863860488, 7603824.514764972031116 ], [ 5326916.499319542199373, 7603778.896353872492909 ], [ 5326918.073266065679491, 7603759.014275252819061 ], [ 5326889.43930889479816, 7603723.699601672589779 ], [ 5326857.300104839727283, 7603675.370580694638193 ], [ 5326825.265970109961927, 7603605.182117842137814 ], [ 5326820.406490705907345, 7603587.182891562581062 ], [ 5326807.351908719167113, 7603538.876399276778102 ] ] ] } }
]
}
