{
"type": "FeatureCollection",
"name": "3551306",
"crs": { "type": "name", "properties": { "name": "urn:ogc:def:crs:EPSG::5880" } },
"features": [
{ "type": "Feature", "properties": { "lv_id": "LOC_057303", "id": 364752.0, "CD_SETOR": "355130605000001", "SITUACAO": "Urbana", "CD_SIT": "1", "CD_TIPO": "0", "AREA_KM2": 0.151428135628459, "CD_REGIAO": "3", "NM_REGIAO": "Sudeste", "CD_UF": "35", "NM_UF": "São Paulo", "CD_MUN": "3551306", "NM_MUN": "Sebastianópolis do Sul", "CD_DIST": "355130605", "NM_DIST": "Sebastianópolis do Sul", "CD_SUBDIST": "35513060500", "NM_SUBDIST": null, "CD_BAIRRO": null, "NM_BAIRRO": null, "CD_NU": null, "NM_NU": null, "CD_FCU": null, "NM_FCU": null, "CD_AGLOM": null, "NM_AGLOM": null, "CD_RGINT": "3507", "NM_RGINT": "São José do Rio Preto", "CD_RGI": "350027", "NM_RGI": "Votuporanga", "CD_CONCURB": null, "NM_CONCURB": null, "mun_code_x": "3551306", "index_right": 90543, "dist_m": 214.93532630196708, "local_id": 623900, "ano": 2022, "cod_localidade_ibge": 3551306, "NR_ZONA": "77", "nr_cep": 15180000.0, "nm_localidade": "SEBASTIANÓPOLIS DO SUL", "nm_locvot": "EE GENTILA GUIZZI PINATTI", "ds_endereco": "R 7 DE SETEMBRO, 605", "ds_bairro": "CENTRO", "pred_long": -49.924118, "pred_lat": -20.656821, "pred_dist": 0.0, "tse_long": -49.9243988, "tse_lat": -20.6571368, "long": -49.9243988, "lat": -20.6571368, "ID_UNICO": "LOC_057303", "SG_UF": "SP", "CD_MUNICIPIO": "71277", "NR_LOCAL_VOTACAO": "1015", "QT_SECOES_AGREGADAS": 0, "QT_ELEITORES_TRANSFERIDOS": 2, "CIRO GOMES (PDT) (NÃO ELEITO) 1T": 33.0, "CONSTITUINTE EYMAEL (DC) (NÃO ELEITO) 1T": 0.0, "FELIPE D AVILA (NOVO) (NÃO ELEITO) 1T": 7.0, "JAIR BOLSONARO (PL) (2º TURNO) 1T": 1324.0, "LULA (PT) (2º TURNO) 1T": 745.0, "LÉO PÉRICLES (UP) (NÃO ELEITO) 1T": 0.0, "PADRE KELMON (PTB) (NÃO ELEITO) 1T": 0.0, "SIMONE TEBET (MDB) (NÃO ELEITO) 1T": 122.0, "SOFIA MANZANO (PCB) (NÃO ELEITO) 1T": 1.0, "SORAYA THRONICKE (UNIÃO) (NÃO ELEITO) 1T": 13.0, "VERA (PSTU) (NÃO ELEITO) 1T": 0.0, "Total_Votos_Validos 1T": 2245.0, "Votos_Brancos 1T": 61.0, "Votos_Nulos 1T": 74.0, "Abstenções 1T": 639.0, "Eleitores_Aptos 1T": 3019.0, "JAIR BOLSONARO (PL) (NÃO ELEITO) 2T": 1515.0, "LULA (PT) (ELEITO) 2T": 789.0, "Total_Votos_Validos 2T": 2304.0, "Votos_Brancos 2T": 45.0, "Votos_Nulos 2T": 82.0, "Abstenções 2T": 588.0, "Eleitores_Aptos 2T": 3019.0, "mun_code_y": "3551306", "mun_code": "3551306" }, "geometry": { "type": "Polygon", "coordinates": [ [ [ 5430434.892529086209834, 7716733.59924144949764 ], [ 5430443.921487261541188, 7716673.829476082697511 ], [ 5430532.230318615213037, 7716604.323727054521441 ], [ 5430644.667227167636156, 7716566.406767696142197 ], [ 5430686.002239149063826, 7716552.304455880075693 ], [ 5430739.192591316998005, 7716549.656272578984499 ], [ 5430811.563138320110738, 7716549.163039860315621 ], [ 5430912.278082182630897, 7716534.285792554728687 ], [ 5430935.043586889281869, 7716516.214089419692755 ], [ 5430932.395886635407805, 7716486.244280880317092 ], [ 5430961.038056039251387, 7716416.18560472689569 ], [ 5430986.434980068355799, 7716407.304519303143024 ], [ 5431047.614824165590107, 7716417.883640525862575 ], [ 5431049.356984381563962, 7716398.591706605628133 ], [ 5430986.956680917181075, 7716256.872949465177953 ], [ 5430966.274813261814415, 7716234.565019126050174 ], [ 5430934.917776952497661, 7716200.872928576543927 ], [ 5430928.484852802939713, 7716154.881785795092583 ], [ 5430947.510295952670276, 7716116.425103310495615 ], [ 5430979.729094352573156, 7716059.140501599758863 ], [ 5431034.951789472252131, 7716031.441872687079012 ], [ 5431092.130206946283579, 7716022.463763238862157 ], [ 5431122.838489768095315, 7716012.104307596571743 ], [ 5431164.454824562184513, 7715874.825575593858957 ], [ 5431200.365652155131102, 7715681.668831218034029 ], [ 5431196.467830561101437, 7715472.307031809352338 ], [ 5431256.146786652505398, 7715439.099255276843905 ], [ 5431351.582432806491852, 7715466.255505586043 ], [ 5431429.847098459489644, 7715490.66210675984621 ], [ 5431460.908377852290869, 7715521.741119915619493 ], [ 5431515.464736979454756, 7715529.888944152742624 ], [ 5431575.944963068701327, 7715488.01249391771853 ], [ 5431613.704120012931526, 7715417.053833482787013 ], [ 5431656.198805309832096, 7715365.033705838024616 ], [ 5431703.62430274579674, 7715322.811604629270732 ], [ 5431740.498722309246659, 7715322.494963111355901 ], [ 5431783.617099400609732, 7715304.869402643293142 ], [ 5431807.551181902177632, 7715261.102371719665825 ], [ 5431811.894349992275238, 7715219.487846531905234 ], [ 5431832.867905549705029, 7715183.555191937834024 ], [ 5431837.500004487112164, 7715137.726272532716393 ], [ 5431833.516023511067033, 7715060.214407191611826 ], [ 5431814.994510864838958, 7715024.043778113089502 ], [ 5431841.144479100592434, 7714998.546775346621871 ], [ 5431883.330337438732386, 7714989.391835453920066 ], [ 5432034.490014836192131, 7715068.218129059299827 ], [ 5432104.375891844742, 7715076.450766069814563 ], [ 5432216.078869616612792, 7715035.231409473344684 ], [ 5432265.808751994743943, 7715019.311892155557871 ], [ 5432284.888907372020185, 7715044.212233182042837 ], [ 5432332.414108854718506, 7715047.363616953603923 ], [ 5432390.302855424582958, 7715018.115160640329123 ], [ 5432413.096051994711161, 7714986.952666966244578 ], [ 5432403.455961595289409, 7714950.722551136277616 ], [ 5432394.944612114690244, 7714913.364728942513466 ], [ 5432466.383369578979909, 7714807.377654297277331 ], [ 5432444.227658888325095, 7714769.40196043625474 ], [ 5432406.747357100248337, 7714761.443828852847219 ], [ 5432395.439818404614925, 7714702.733566985465586 ], [ 5432492.918320627883077, 7714642.74836568813771 ], [ 5432657.193796343170106, 7714581.169704988598824 ], [ 5432722.09990900196135, 7714556.913457161746919 ], [ 5432849.634219525381923, 7714562.617295179516077 ], [ 5433047.025304730981588, 7714613.880283175036311 ], [ 5433106.025825034826994, 7714605.835656963288784 ], [ 5433170.480599561706185, 7714477.288966970518231 ], [ 5433241.701518365181983, 7714498.66987462900579 ], [ 5433242.840226216241717, 7714441.562039447948337 ], [ 5433281.866629732772708, 7714280.540236490778625 ], [ 5433334.551758654415607, 7714286.154129352420568 ], [ 5433415.401568897999823, 7714314.681107770651579 ], [ 5433507.870713550597429, 7714378.85428312420845 ], [ 5433629.256651752628386, 7714288.411984643898904 ], [ 5433721.303110247477889, 7714072.849641413427889 ], [ 5433697.057537022978067, 7713965.838692938908935 ], [ 5433728.544210256077349, 7713811.545747326686978 ], [ 5433878.459219074808061, 7713701.821588844060898 ], [ 5433960.296598370186985, 7713665.470630269497633 ], [ 5434027.964982844889164, 7713590.851808823645115 ], [ 5434049.310824820771813, 7713485.393373798578978 ], [ 5434026.264375932514668, 7713383.358227668330073 ], [ 5434081.556536191143095, 7713271.724348466843367 ], [ 5434225.190859217196703, 7713181.693601287901402 ], [ 5434358.99875452555716, 7713111.894344296306372 ], [ 5434434.573576406575739, 7713017.222406079992652 ], [ 5434466.852189359255135, 7712946.349699590355158 ], [ 5434390.5541753442958, 7712890.626305107027292 ], [ 5434369.453907898627222, 7712730.729089612141252 ], [ 5434371.944234703667462, 7712694.033032529056072 ], [ 5434403.921782623976469, 7712685.92020002193749 ], [ 5434419.097700179554522, 7712658.06808456685394 ], [ 5434381.450781590305269, 7712553.521200167015195 ], [ 5434418.351201405748725, 7712407.522594785317779 ], [ 5434419.000567156821489, 7712376.301918689161539 ], [ 5434431.434803670272231, 7712328.538773976266384 ], [ 5434461.935022871941328, 7712358.827552195638418 ], [ 5434491.073039057664573, 7712359.956398740410805 ], [ 5434534.474775511771441, 7712322.477478632703424 ], [ 5434638.201392214745283, 7712189.461230020038784 ], [ 5434697.364980511367321, 7712088.503027472645044 ], [ 5434714.890120889991522, 7712001.467643974348903 ], [ 5434608.150770488195121, 7711867.212368274107575 ], [ 5434544.850806054659188, 7711821.824777394533157 ], [ 5434430.658619647845626, 7711785.579414885491133 ], [ 5434364.872286908328533, 7711703.3452940126881 ], [ 5434205.812610484659672, 7711571.962009504437447 ], [ 5434151.187440183945, 7711527.749682309105992 ], [ 5434110.859986374154687, 7711455.618935535661876 ], [ 5434013.339312143623829, 7711371.666480954736471 ], [ 5433888.666646319441497, 7711180.400201173499227 ], [ 5433765.918065531179309, 7711062.581444531679153 ], [ 5433662.150684496387839, 7710979.220710096880794 ], [ 5433556.613689819350839, 7710820.143319613300264 ], [ 5433468.372561890631914, 7710708.310921669006348 ], [ 5433250.366727594286203, 7710647.920616645365953 ], [ 5432967.405249188654125, 7710549.571493097580969 ], [ 5432747.145728267729282, 7710406.512344785034657 ], [ 5432620.727900616824627, 7710283.309308627620339 ], [ 5432446.781352089717984, 7710117.44002896361053 ], [ 5432260.732570631429553, 7710055.623376863077283 ], [ 5432073.991383520886302, 7709969.879076628945768 ], [ 5431968.460280298255384, 7709801.282840699888766 ], [ 5431707.02070383168757, 7709780.858411508612335 ], [ 5431582.904336466453969, 7709762.645042003132403 ], [ 5431476.877072740346193, 7709637.350935768336058 ], [ 5431408.765926502645016, 7709467.965018305927515 ], [ 5431347.013454298488796, 7709406.156628035008907 ], [ 5431202.949486252851784, 7709335.989672165364027 ], [ 5430953.922884173691273, 7709137.83454529568553 ], [ 5430826.231659442186356, 7709005.142170436680317 ], [ 5430571.151417423039675, 7708875.181817453354597 ], [ 5430406.964972729794681, 7708723.768940530717373 ], [ 5430253.719021297059953, 7708531.905170602723956 ], [ 5430198.35805294290185, 7708470.308907996863127 ], [ 5430077.969713049009442, 7708446.5862593986094 ], [ 5430029.657955734990537, 7708420.763752427883446 ], [ 5429976.139494876377285, 7708448.465231336653233 ], [ 5429869.519005540758371, 7708409.07296253554523 ], [ 5429779.715284256264567, 7708316.871266154572368 ], [ 5429654.519185251556337, 7708131.639504874125123 ], [ 5429666.481400704942644, 7707894.248254629783332 ], [ 5429580.308868551626801, 7707637.472595355473459 ], [ 5429465.758591837249696, 7707560.573496686294675 ], [ 5429340.942177551798522, 7707396.177388485521078 ], [ 5429286.547150837257504, 7707254.123858092352748 ], [ 5429167.187325021252036, 7706994.527715399861336 ], [ 5429013.647708777338266, 7706521.424067363142967 ], [ 5428943.641522788442671, 7706160.319019941613078 ], [ 5428702.545421517454088, 7705932.428824290633202 ], [ 5428577.635521475225687, 7705790.843602791428566 ], [ 5428484.364205502904952, 7705663.928564334288239 ], [ 5428392.993948712944984, 7705603.742520570755005 ], [ 5428248.661632313393056, 7705508.16948411706835 ], [ 5427968.541325118392706, 7705171.128722082823515 ], [ 5427873.937077107839286, 7705160.850263291969895 ], [ 5427612.440297460183501, 7705056.021000424399972 ], [ 5427443.541429159231484, 7704893.222785286605358 ], [ 5427314.64376020245254, 7704734.22833170555532 ], [ 5427140.43842288851738, 7704380.32369008474052 ], [ 5427005.445425395853817, 7704207.119269227609038 ], [ 5426982.739158663898706, 7703956.127618396654725 ], [ 5427057.337308578193188, 7703818.822016305290163 ], [ 5427046.540590212680399, 7703628.422461541369557 ], [ 5426842.536911403760314, 7703570.926376898773015 ], [ 5426667.537215798161924, 7703629.419903591275215 ], [ 5426122.441265921108425, 7704034.526849142275751 ], [ 5426032.541838373057544, 7704257.125448520295322 ], [ 5426002.637602964416146, 7704479.119081049226224 ], [ 5425957.540710542351007, 7704645.420294342562556 ], [ 5425879.542526959441602, 7704757.119556974619627 ], [ 5425708.537687248550355, 7704844.924322466365993 ], [ 5425578.543523918837309, 7704887.028384472243488 ], [ 5425379.638457991182804, 7704915.228491257876158 ], [ 5425164.343719798140228, 7704878.129525470547378 ], [ 5424966.641876065172255, 7704816.221684927120805 ], [ 5424766.545459097251296, 7704794.130528287962079 ], [ 5424470.938170778565109, 7704809.224775472655892 ], [ 5423767.541180974803865, 7704710.220281635411084 ], [ 5423323.640622115693986, 7704747.130973866209388 ], [ 5423176.533340262249112, 7704789.322938797064126 ], [ 5422973.537943378090858, 7704888.121687670238316 ], [ 5422628.541001866571605, 7704994.324426321312785 ], [ 5422258.534286751411855, 7704990.230803417041898 ], [ 5422062.535593702457845, 7704927.227438894100487 ], [ 5421808.436896208673716, 7705298.128679154440761 ], [ 5421623.541657447814941, 7705447.123601362109184 ], [ 5421531.538098796270788, 7705679.226839058101177 ], [ 5421613.539309471845627, 7706050.430595713667572 ], [ 5421618.633529716171324, 7706270.131644917652011 ], [ 5421573.637764247134328, 7706447.130392448976636 ], [ 5421354.340436022728682, 7706817.226750418543816 ], [ 5421368.83792423736304, 7707073.630108224228024 ], [ 5421374.539924956858158, 7707173.223767466843128 ], [ 5421489.438033644109964, 7707462.729329889640212 ], [ 5421610.440215446054935, 7708138.429171359166503 ], [ 5421619.034204411320388, 7708284.633414233103395 ], [ 5421567.338868875056505, 7708509.834239558316767 ], [ 5421555.060979321599007, 7708563.415652336552739 ], [ 5421460.643536861985922, 7708975.533477804623544 ], [ 5421315.736867333762348, 7709118.324938837438822 ], [ 5421192.535981133580208, 7709145.333612527698278 ], [ 5420850.339517435058951, 7709180.432786563411355 ], [ 5420261.533293238840997, 7709205.526848829351366 ], [ 5420114.64017469342798, 7709247.333475770428777 ], [ 5419991.632392851635814, 7709309.53354400396347 ], [ 5419826.53433944657445, 7709428.526359841227531 ], [ 5419688.634142071008682, 7709560.32743120379746 ], [ 5419591.533915786072612, 7709734.333717787638307 ], [ 5419517.841878552921116, 7710014.728337181732059 ], [ 5419489.937268746085465, 7710202.433770216070116 ], [ 5419487.540230341255665, 7710347.231739602051675 ], [ 5419505.047717238776386, 7710428.251391418278217 ], [ 5419556.742499231360853, 7710667.335357449017465 ], [ 5419494.933930618688464, 7711070.13046277500689 ], [ 5419414.84270906727761, 7711252.535331571474671 ], [ 5419345.533576609566808, 7711484.427879325114191 ], [ 5419342.534195439890027, 7711620.627628668211401 ], [ 5419277.832900830544531, 7711812.627531831152737 ], [ 5419276.634974702261388, 7712008.637668957933784 ], [ 5419234.442386591807008, 7712164.530692163854837 ], [ 5419048.541448313742876, 7712509.237390335649252 ], [ 5418889.934265394695103, 7713214.736406608484685 ], [ 5418793.642659990116954, 7713421.729835785925388 ], [ 5418791.24081673938781, 7713572.33049204479903 ], [ 5418771.717388473451138, 7713761.311248403042555 ], [ 5418775.734511976130307, 7714450.433931909501553 ], [ 5418721.143154095858335, 7714624.23154366388917 ], [ 5418409.638957136310637, 7715215.835154056549072 ], [ 5418412.63926759082824, 7715371.839593302458525 ], [ 5418452.642865544185042, 7715551.836491292342544 ], [ 5418432.54212904907763, 7715717.833276184275746 ], [ 5418477.834605803713202, 7715978.73008631914854 ], [ 5418523.63583348505199, 7716102.836278697475791 ], [ 5418719.537615435197949, 7716421.637512914836407 ], [ 5418845.637574932537973, 7716695.934688743203878 ], [ 5418923.644718773663044, 7716935.936278173699975 ], [ 5418949.106581091880798, 7717021.210865309461951 ], [ 5419039.084029916673899, 7717068.66763155348599 ], [ 5419104.744231157004833, 7717213.836836200207472 ], [ 5419047.644785861484706, 7717360.837111869826913 ], [ 5419002.623809508047998, 7717588.769332905299962 ], [ 5419025.742140566930175, 7717836.151903491467237 ], [ 5418968.092500166036189, 7718335.066438671201468 ], [ 5418930.825821910984814, 7718569.409868868067861 ], [ 5418936.561922295950353, 7718639.255809295922518 ], [ 5418971.186913684941828, 7718704.860139306634665 ], [ 5418942.861877482384443, 7718739.608821108005941 ], [ 5418901.728944357484579, 7718764.173964011482894 ], [ 5418795.441938092000782, 7718839.056231155991554 ], [ 5418776.522204244509339, 7718900.431123164482415 ], [ 5418785.368721250444651, 7719017.84623871743679 ], [ 5418797.917194735258818, 7719095.00462481379509 ], [ 5418807.207825233228505, 7719115.67418209835887 ], [ 5418826.494859637692571, 7719154.754001408815384 ], [ 5418840.483380333520472, 7719188.736987145617604 ], [ 5418864.857430432923138, 7719221.775922399014235 ], [ 5418898.902192535810173, 7719316.317574094980955 ], [ 5418908.993419866077602, 7719344.925028342753649 ], [ 5418932.060689855366945, 7719383.756272244267166 ], [ 5418934.3417849233374, 7719421.324048621580005 ], [ 5418909.846599110402167, 7719476.976400070823729 ], [ 5418870.203518331982195, 7719540.104994176886976 ], [ 5418857.717207003384829, 7719566.716136235743761 ], [ 5418849.751644384115934, 7719590.552231768146157 ], [ 5418846.594983062706888, 7719610.607326352968812 ], [ 5418846.247198049910367, 7719630.371242243796587 ], [ 5418855.039377879351377, 7719623.162553288042545 ], [ 5418865.263074419461191, 7719619.026169620454311 ], [ 5418881.882890708744526, 7719620.503402922302485 ], [ 5418894.165801263414323, 7719623.752265511080623 ], [ 5418906.659918220713735, 7719627.106900870800018 ], [ 5418918.570487648248672, 7719623.705811745487154 ], [ 5418925.050341210328043, 7719615.77716563269496 ], [ 5418930.4800830995664, 7719603.32400082051754 ], [ 5418943.693234520033002, 7719576.583891741000116 ], [ 5418952.151216619648039, 7719564.278053842484951 ], [ 5418966.445901082828641, 7719556.045796729624271 ], [ 5418983.960071614012122, 7719555.725113664753735 ], [ 5418996.854287256486714, 7719562.621345464140177 ], [ 5419003.472146687097847, 7719573.001831476576626 ], [ 5419006.136861217208207, 7719588.030152797698975 ], [ 5419004.78012159280479, 7719604.933360412716866 ], [ 5418998.730061439797282, 7719621.841260528191924 ], [ 5418999.019213673658669, 7719637.816015864722431 ], [ 5419000.858659541234374, 7719648.98019315302372 ], [ 5419014.709763782098889, 7719660.847180508077145 ], [ 5419026.589447600767016, 7719664.660824303515255 ], [ 5419070.686494595371187, 7719663.795810339041054 ], [ 5419097.937182412482798, 7719677.663117865100503 ], [ 5419108.848719831556082, 7719680.279738206416368 ], [ 5419131.802394836209714, 7719680.601725608110428 ], [ 5419140.811157434247434, 7719673.720488359220326 ], [ 5419139.394810664467514, 7719654.332951053977013 ], [ 5419135.399125585332513, 7719644.553758589550853 ], [ 5419125.583059973083436, 7719631.36653196811676 ], [ 5419107.494572307914495, 7719612.612008625641465 ], [ 5419100.144260825589299, 7719602.138619657605886 ], [ 5419097.874145192094147, 7719590.430130726657808 ], [ 5419102.854415057227015, 7719572.438693373464048 ], [ 5419117.533184261061251, 7719562.865002475678921 ], [ 5419134.639009327627718, 7719558.669742420315742 ], [ 5419148.296497186645865, 7719558.443981905467808 ], [ 5419162.858921512961388, 7719561.081520197913051 ], [ 5419176.359493707306683, 7719567.185782284475863 ], [ 5419193.493882372044027, 7719581.080402702093124 ], [ 5419215.696806692518294, 7719601.731125816702843 ], [ 5419236.50408676173538, 7719616.53401187621057 ], [ 5419251.195049080066383, 7719624.384642040356994 ], [ 5419269.715391512028873, 7719631.030961631797254 ], [ 5419284.815475042909384, 7719634.321065980009735 ], [ 5419296.429326775483787, 7719635.810388686135411 ], [ 5419317.185809943825006, 7719635.853352593258023 ], [ 5419332.604424099437892, 7719635.140074544586241 ], [ 5419349.745821883901954, 7719632.386541656218469 ], [ 5419371.542585379444063, 7719623.857872491702437 ], [ 5419384.660467943176627, 7719614.43342412263155 ], [ 5419409.407458331435919, 7719585.965451401658356 ], [ 5419421.042020375840366, 7719567.143763678148389 ], [ 5419423.248307524248958, 7719555.102855766192079 ], [ 5419422.996713086031377, 7719544.898364435881376 ], [ 5419420.405465492047369, 7719532.864840181544423 ], [ 5419415.235387465916574, 7719526.222264619544148 ], [ 5419396.688063023611903, 7719514.249458555132151 ], [ 5419369.695366009138525, 7719498.15654544532299 ], [ 5419349.367914298549294, 7719485.894659944809973 ], [ 5419343.226954472251236, 7719477.944192761555314 ], [ 5419342.556388204917312, 7719459.204140851274133 ], [ 5419357.930308202281594, 7719431.300392027944326 ], [ 5419361.735657582990825, 7719420.662860358133912 ], [ 5419361.413631311617792, 7719399.139560220763087 ], [ 5419360.05167630314827, 7719381.970362439751625 ], [ 5419360.640078001655638, 7719363.532202492468059 ], [ 5419365.323022742755711, 7719354.648786821402609 ], [ 5419380.056758045218885, 7719338.858238676562905 ], [ 5419402.974435898475349, 7719337.737844276241958 ], [ 5419410.629355009645224, 7719347.870647896081209 ], [ 5419412.58152124658227, 7719359.365009374916553 ], [ 5419415.040874580852687, 7719374.509390107356012 ], [ 5419418.307057430967689, 7719384.306540744379163 ], [ 5419433.894098015502095, 7719403.122486655600369 ], [ 5419436.926906600594521, 7719416.143986225128174 ], [ 5419429.266761990264058, 7719439.640038035809994 ], [ 5419423.63719577062875, 7719452.431335005909204 ], [ 5419425.227436985820532, 7719461.936882072128356 ], [ 5419428.321025373414159, 7719468.963645905256271 ], [ 5419444.435693618841469, 7719475.33615873195231 ], [ 5419454.209098734892905, 7719474.09612162783742 ], [ 5419470.983205530792475, 7719464.914309753105044 ], [ 5419482.416735357604921, 7719454.865398150868714 ], [ 5419492.049641429446638, 7719422.552733661606908 ], [ 5419498.738470000214875, 7719401.966241290792823 ], [ 5419508.633616743609309, 7719384.519204368814826 ], [ 5419520.308636081404984, 7719371.578654883429408 ], [ 5419530.855659988708794, 7719367.877774707973003 ], [ 5419542.060909617692232, 7719365.492473121732473 ], [ 5419555.542879771441221, 7719362.385050915181637 ], [ 5419565.319217151030898, 7719357.03837869130075 ], [ 5419572.448671337217093, 7719350.092244781553745 ], [ 5419580.684175614267588, 7719333.019069457426667 ], [ 5419582.397265341132879, 7719309.447728761471808 ], [ 5419584.721016983501613, 7719302.176269325427711 ], [ 5419598.239013587124646, 7719292.075786545872688 ], [ 5419617.98559307679534, 7719293.475067477673292 ], [ 5419627.550164133310318, 7719296.45753768645227 ], [ 5419638.540917567908764, 7719302.290433285757899 ], [ 5419651.275786932557821, 7719315.405350973829627 ], [ 5419662.433490618132055, 7719328.00427177362144 ], [ 5419677.610029989853501, 7719334.399719676934183 ], [ 5419689.295116908848286, 7719334.555149283260107 ], [ 5419703.888259074650705, 7719325.759864661842585 ], [ 5419716.995208628475666, 7719307.456443417817354 ], [ 5419734.570911161601543, 7719280.052762718871236 ], [ 5419745.535202929750085, 7719267.906464839354157 ], [ 5419773.821937225759029, 7719243.456810304895043 ], [ 5419796.726195733994246, 7719233.346292523667216 ], [ 5419818.266789076849818, 7719231.371430106461048 ], [ 5419851.728242267854512, 7719230.65588522516191 ], [ 5419862.214491697028279, 7719232.949539836496115 ], [ 5419878.50162864010781, 7719246.309523712843657 ], [ 5419919.842322626151145, 7719277.474318427965045 ], [ 5419934.245477562770247, 7719282.112871775403619 ], [ 5419948.572132997214794, 7719279.42819011490792 ], [ 5419953.12860119715333, 7719269.65977905318141 ], [ 5419952.210347314365208, 7719253.58941095136106 ], [ 5419941.999617581255734, 7719220.212756132707 ], [ 5419941.610912565141916, 7719200.244774632155895 ], [ 5419946.688681414350867, 7719186.245990024879575 ], [ 5419958.239964472129941, 7719168.313704859465361 ], [ 5419963.015962510369718, 7719154.766313144937158 ], [ 5419962.821669861674309, 7719142.673572175204754 ], [ 5419959.409872977994382, 7719131.215267295017838 ], [ 5419959.79183198697865, 7719112.893036619760096 ], [ 5419968.416013518348336, 7719103.135082790628076 ], [ 5419978.285183751955628, 7719101.559369724243879 ], [ 5419993.782728606835008, 7719104.062057445757091 ], [ 5420009.132365736179054, 7719100.57510603684932 ], [ 5420023.727861458435655, 7719091.890401847660542 ], [ 5420048.614631312899292, 7719090.276458809152246 ], [ 5420053.220010573044419, 7719090.93954267911613 ], [ 5420064.767441426403821, 7719102.418735852465034 ], [ 5420069.092741103842854, 7719112.85557418782264 ], [ 5420071.067277872003615, 7719125.237289242446423 ], [ 5420071.258910425938666, 7719137.219123626127839 ], [ 5420069.338501699268818, 7719148.143290959298611 ], [ 5420063.876929584890604, 7719159.265965297818184 ], [ 5420053.088401412591338, 7719174.293839188292623 ], [ 5420048.833627784624696, 7719187.828387343324721 ], [ 5420048.292868249118328, 7719199.717331513762474 ], [ 5420051.743219007737935, 7719208.510998096317053 ], [ 5420068.343325255438685, 7719217.645596163347363 ], [ 5420078.242689996026456, 7719217.289945438504219 ], [ 5420090.750742190517485, 7719212.763301556929946 ], [ 5420105.055653369985521, 7719200.756118569523096 ], [ 5420123.760468995198607, 7719181.093057060614228 ], [ 5420138.030057898722589, 7719154.991379318758845 ], [ 5420145.877847600728273, 7719147.583236919716001 ], [ 5420156.202431241050363, 7719143.332480533048511 ], [ 5420168.905061340890825, 7719142.463521490804851 ], [ 5420182.638946953229606, 7719145.342612646520138 ], [ 5420207.698131177574396, 7719163.368877787142992 ], [ 5420226.703948100097477, 7719168.559309556148946 ], [ 5420235.391047541052103, 7719161.352342055179179 ], [ 5420239.780041341669858, 7719149.035254217684269 ], [ 5420240.65527914185077, 7719138.025901696644723 ], [ 5420236.908763675019145, 7719121.470489588566124 ], [ 5420232.833202462643385, 7719100.039786461740732 ], [ 5420233.563094150274992, 7719087.369223030284047 ], [ 5420244.496821363456547, 7719069.784899540245533 ], [ 5420250.80562583822757, 7719067.631135045550764 ], [ 5420275.599000822752714, 7719070.680616460740566 ], [ 5420286.172930975444615, 7719076.523421669378877 ], [ 5420295.710104888305068, 7719078.396326089277864 ], [ 5420305.282985800877213, 7719077.493665564805269 ], [ 5420315.335907617583871, 7719074.914321215823293 ], [ 5420321.285410187207162, 7719070.882634554058313 ], [ 5420330.649949785321951, 7719061.550090538337827 ], [ 5420338.338486352935433, 7719056.143540675751865 ], [ 5420350.541875625029206, 7719051.957165323197842 ], [ 5420368.812625800259411, 7719048.5086057363078 ], [ 5420391.024978507310152, 7719044.185616685077548 ], [ 5420404.586098928004503, 7719040.07660105638206 ], [ 5420413.750294444151223, 7719035.299430975690484 ], [ 5420424.505415244959295, 7719027.375256032682955 ], [ 5420432.391436265781522, 7719017.302304590120912 ], [ 5420440.965968507342041, 7719001.329989099875093 ], [ 5420445.837452285923064, 7718995.882082477211952 ], [ 5420453.040410945191979, 7718991.930315176025033 ], [ 5420473.870238675735891, 7718986.531530007719994 ], [ 5420503.790109772235155, 7718981.795701967552304 ], [ 5420517.721452884376049, 7718975.790635285899043 ], [ 5420537.942324621602893, 7718962.637714066542685 ], [ 5420557.400631558150053, 7718948.171784296631813 ], [ 5420569.88915085233748, 7718942.868295456282794 ], [ 5420586.659360650926828, 7718937.791793446987867 ], [ 5420631.434739713557065, 7718926.472758355550468 ], [ 5420645.911836638115346, 7718921.452948795631528 ], [ 5420657.141307925805449, 7718915.847588279284537 ], [ 5420666.884104018099606, 7718909.169143609702587 ], [ 5420673.162584261968732, 7718901.577559494413435 ], [ 5420680.052723513916135, 7718893.41589259263128 ], [ 5420696.732153589837253, 7718867.808803331106901 ], [ 5420709.37414862215519, 7718860.281639570370317 ], [ 5420734.795360688120127, 7718854.990795277059078 ], [ 5420781.202667794190347, 7718859.058196081779897 ], [ 5420828.20497727021575, 7718849.237266698852181 ], [ 5420849.786162058822811, 7718848.924798703752458 ], [ 5420880.238080034032464, 7718857.271635742858052 ], [ 5420890.792980710044503, 7718866.555180512368679 ], [ 5420900.445504568517208, 7718877.303913296200335 ], [ 5420904.62863115221262, 7718886.190326204523444 ], [ 5420905.597168760374188, 7718900.039824411273003 ], [ 5420904.061334084719419, 7718909.622821867465973 ], [ 5420900.959203048609197, 7718914.916083974763751 ], [ 5420890.385389761067927, 7718921.726248579099774 ], [ 5420880.738585447892547, 7718923.851956819184124 ], [ 5420866.878624452278018, 7718924.306193305179477 ], [ 5420836.508943820372224, 7718919.286908027715981 ], [ 5420816.869631215929985, 7718917.997427565976977 ], [ 5420799.166856134310365, 7718919.101704849861562 ], [ 5420779.113423989154398, 7718922.150957096368074 ], [ 5420770.456826853565872, 7718926.360849514603615 ], [ 5420759.556640471331775, 7718941.05912864767015 ], [ 5420759.754223821684718, 7718949.04535080306232 ], [ 5420759.94636650569737, 7718961.027264568023384 ], [ 5420764.18705803155899, 7718972.243016560561955 ], [ 5420780.62016764935106, 7718991.48097550868988 ], [ 5420857.061222698539495, 7719058.622600413858891 ], [ 5420869.906494424678385, 7719063.520936891436577 ], [ 5420887.754823889583349, 7719064.077829143032432 ], [ 5420903.246921959333122, 7719062.140335673466325 ], [ 5420913.0556032769382, 7719058.123827331699431 ], [ 5420925.4973548008129, 7719046.71689828671515 ], [ 5420943.345223112031817, 7719026.186035789549351 ], [ 5420958.532255250029266, 7718999.283752324059606 ], [ 5420973.406436117365956, 7718968.171651466749609 ], [ 5420975.024511015042663, 7718957.698700794950128 ], [ 5420974.478339466266334, 7718944.060709025710821 ], [ 5420967.957853814586997, 7718920.803766082972288 ], [ 5420958.856017241254449, 7718885.957029603421688 ], [ 5420957.623959023505449, 7718865.676751276478171 ], [ 5420958.471222032792866, 7718853.558075123466551 ], [ 5420960.997254916466773, 7718846.059307700023055 ], [ 5420973.457791869528592, 7718826.993666260503232 ], [ 5420980.888068567030132, 7718817.486606078222394 ], [ 5420988.318335858173668, 7718807.979541130363941 ], [ 5420995.767873148433864, 7718801.35768243484199 ], [ 5421004.512101116590202, 7718796.479552399367094 ], [ 5421021.26006933581084, 7718790.515216061845422 ], [ 5421044.316880384460092, 7718790.831856412813067 ], [ 5421050.836945671588182, 7718797.218604997731745 ], [ 5421052.639325795695186, 7718806.829911374486983 ], [ 5421051.323167553171515, 7718821.068998571485281 ], [ 5421032.107459145598114, 7718857.949183388613164 ], [ 5421027.79604465700686, 7718873.372352455742657 ], [ 5421027.941704292781651, 7718883.468656836077571 ], [ 5421031.584642353467643, 7718895.809065320529044 ], [ 5421042.61423809081316, 7718907.411526530981064 ], [ 5421058.783988132141531, 7718916.000939480960369 ], [ 5421077.296008755452931, 7718918.094994513317943 ], [ 5421103.013559740968049, 7718916.34787754714489 ], [ 5421121.401990071870387, 7718913.450480800122023 ], [ 5421131.399764456786215, 7718908.652216191403568 ], [ 5421141.095681972801685, 7718900.087826190516353 ], [ 5421150.728262709453702, 7718884.754717111587524 ], [ 5421155.418037679977715, 7718867.768283656798303 ], [ 5421159.783813245594501, 7718841.910817673429847 ], [ 5421163.107731917873025, 7718828.731827684678137 ], [ 5421168.491681265644729, 7718818.720439270138741 ], [ 5421172.211004553362727, 7718817.296400117687881 ], [ 5421187.519272283650935, 7718820.579602632671595 ], [ 5421198.743664093315601, 7718831.62220673263073 ], [ 5421212.337894588708878, 7718841.496183900162578 ], [ 5421221.175665684044361, 7718844.60677544772625 ], [ 5421241.286634471267462, 7718843.886300783604383 ], [ 5421254.350972911342978, 7718840.787748460657895 ], [ 5421272.725194164551795, 7718828.900460770353675 ], [ 5421289.044822948984802, 7718814.067396721802652 ], [ 5421310.362549293786287, 7718811.54110130853951 ], [ 5421321.375223724171519, 7718809.825217328965664 ], [ 5421331.021911556832492, 7718807.699239807203412 ], [ 5421341.110050462186337, 7718802.343645066022873 ], [ 5421353.452564474195242, 7718791.160744035616517 ], [ 5421384.623889467678964, 7718756.980267137289047 ], [ 5421418.383648781105876, 7718709.416883424855769 ], [ 5421445.053086895495653, 7718666.13582780584693 ], [ 5421455.573797035962343, 7718648.782637787051499 ], [ 5421459.029616104438901, 7718645.14528635982424 ], [ 5421467.400698183104396, 7718642.051950374618173 ], [ 5421493.180789342150092, 7718638.637774140574038 ], [ 5421508.211778023280203, 7718639.152831276878715 ], [ 5421539.774212213233113, 7718641.810514962300658 ], [ 5421581.693843138404191, 7718645.765024252235889 ], [ 5421601.111265294253826, 7718654.93929117359221 ], [ 5421620.378280580975115, 7718670.665615144185722 ], [ 5421628.498003374785185, 7718682.672920902259648 ], [ 5421629.233945143409073, 7718695.52936952188611 ], [ 5421627.490100981667638, 7718705.117681195028126 ], [ 5421616.991516072303057, 7718723.358365475200117 ], [ 5421604.046659029088914, 7718748.097083818167448 ], [ 5421600.838070917874575, 7718757.499751104041934 ], [ 5421600.155478051863611, 7718763.621071571484208 ], [ 5421600.334222735837102, 7718770.830910438671708 ], [ 5421604.27651291154325, 7718782.608906790614128 ], [ 5421607.261486527509987, 7718793.633732389658689 ], [ 5421610.096017748117447, 7718811.21063154283911 ], [ 5421609.942822497338057, 7718817.651784387417138 ], [ 5421606.63823517691344, 7718827.389798087999225 ], [ 5421598.857237922027707, 7718837.460843687877059 ], [ 5421590.900766425766051, 7718848.86810258962214 ], [ 5421588.246029559522867, 7718855.371312224306166 ], [ 5421587.431951155886054, 7718864.603577772155404 ], [ 5421589.16864066477865, 7718871.552787899971008 ], [ 5421593.829286981374025, 7718878.651437792927027 ], [ 5421602.85662414226681, 7718885.197800753638148 ], [ 5421629.7214296143502, 7718896.074139516800642 ], [ 5421648.006345327943563, 7718905.831454747356474 ], [ 5421665.644169836305082, 7718918.934476811438799 ], [ 5421678.232458799146116, 7718934.493545320816338 ], [ 5421685.836095257662237, 7718938.300479263067245 ], [ 5421691.884241185151041, 7718938.261395137757063 ], [ 5421703.809726526029408, 7718927.088565391488373 ], [ 5421713.050974895246327, 7718891.786741593852639 ], [ 5421719.909494442865252, 7718869.751720022410154 ], [ 5421732.448399187996984, 7718845.466933332383633 ], [ 5421741.595321027562022, 7718835.805869458243251 ], [ 5421754.042140745557845, 7718828.83762664347887 ], [ 5421765.411190168000758, 7718824.670847608707845 ], [ 5421777.674597900360823, 7718822.923621306195855 ], [ 5421790.837871278636158, 7718823.817788254469633 ], [ 5421810.743414459750056, 7718827.430309461429715 ], [ 5421820.327415397390723, 7718831.188024980947375 ], [ 5421829.220326678827405, 7718836.516738167032599 ], [ 5421838.149332472123206, 7718847.504997180774808 ], [ 5421839.390055694617331, 7718859.683002477511764 ], [ 5421831.310875232331455, 7718878.751697494648397 ], [ 5421830.028678053058684, 7718898.539585309103131 ], [ 5421830.921248448081315, 7718913.500959308817983 ], [ 5421827.77663822285831, 7718933.890018589794636 ], [ 5421819.32355129159987, 7718942.091046875342727 ], [ 5421785.166652873158455, 7718952.594855803065002 ], [ 5421774.280459044501185, 7718959.413384122774005 ], [ 5421762.203998064622283, 7718968.703200787305832 ], [ 5421750.547490624710917, 7718982.311155100353062 ], [ 5421743.065715949051082, 7718996.037477633915842 ], [ 5421739.259530782699585, 7719010.782473940402269 ], [ 5421739.104188987053931, 7719025.547861556522548 ], [ 5421746.24230454210192, 7719040.021272677928209 ], [ 5421766.971221844665706, 7719047.38708646222949 ], [ 5421787.589828923344612, 7719046.098472242243588 ], [ 5421800.028852144256234, 7719043.015035244636238 ], [ 5421811.480269864201546, 7719037.958296671509743 ], [ 5421834.437796170823276, 7719025.845631269738078 ], [ 5421848.758465183898807, 7719022.937428718432784 ], [ 5421855.741974307224154, 7719022.764086609706283 ], [ 5421872.465783724561334, 7719024.235778087750077 ], [ 5421892.176865216344595, 7719028.40802744217217 ], [ 5421902.929220302030444, 7719028.807043666020036 ], [ 5421916.059639567509294, 7719028.370092876255512 ], [ 5421926.726692822761834, 7719025.330546323210001 ], [ 5421938.748415006324649, 7719018.039769697934389 ], [ 5421954.733671702444553, 7719010.761566443368793 ], [ 5421966.454028739593923, 7719008.13979731593281 ], [ 5421978.651853214018047, 7719007.947928549721837 ], [ 5421988.493637639097869, 7719009.479390662163496 ], [ 5421999.301380346529186, 7719016.314349303022027 ], [ 5422002.033767597749829, 7719021.352011437527835 ], [ 5422000.88827573414892, 7719034.033235864713788 ], [ 5421988.856252819299698, 7719049.315543764270842 ], [ 5421978.861712143756449, 7719058.442840727046132 ], [ 5421965.139243292622268, 7719064.443997461348772 ], [ 5421944.153561573475599, 7719071.957333330065012 ], [ 5421940.719750178046525, 7719076.482151270844042 ], [ 5421940.295567892491817, 7719088.81248583830893 ], [ 5421949.312797838822007, 7719103.350189572200179 ], [ 5421958.050701256841421, 7719123.444288190454245 ], [ 5421954.126990023069084, 7719141.854923858307302 ], [ 5421944.794191520661116, 7719160.843797078356147 ], [ 5421942.353809599764645, 7719171.781323309987783 ], [ 5421941.024864902719855, 7719189.683577217161655 ], [ 5421935.995167131535709, 7719201.351314855739474 ], [ 5421922.155211182311177, 7719215.235558144748211 ], [ 5421900.448251547291875, 7719227.317257438786328 ], [ 5421883.108033378608525, 7719238.84658058732748 ], [ 5421869.301010427065194, 7719254.061817561276257 ], [ 5421855.601245755329728, 7719273.602950381115079 ], [ 5421840.058554319664836, 7719298.739255740307271 ], [ 5421831.669105840846896, 7719317.926587062887847 ], [ 5421828.962959414348006, 7719334.975068321451545 ], [ 5421830.354626948013902, 7719349.036139967851341 ], [ 5421835.462944022379816, 7719361.56211987324059 ], [ 5421848.814564366824925, 7719382.651660960167646 ], [ 5421856.887617382220924, 7719388.555707538500428 ], [ 5421873.035891719162464, 7719392.039557097479701 ], [ 5421892.601575149223208, 7719390.333075208589435 ], [ 5421912.740385981276631, 7719386.50355102494359 ], [ 5421931.150921317748725, 7719380.275139015167952 ], [ 5421947.515289716422558, 7719375.651345357298851 ], [ 5421961.136879832483828, 7719373.981340292841196 ], [ 5421974.997201922349632, 7719373.526278909295797 ], [ 5421986.512431032955647, 7719375.23821965046227 ], [ 5421998.20619224011898, 7719379.942430785857141 ], [ 5422007.963547568768263, 7719386.470537709072232 ], [ 5422012.084031843580306, 7719392.805618022568524 ], [ 5422012.449350375682116, 7719399.122936866246164 ], [ 5422010.52427611220628, 7719405.608107259497046 ], [ 5422002.940632421523333, 7719415.23046668805182 ], [ 5421988.132143406197429, 7719427.917898057028651 ], [ 5421977.295207748189569, 7719436.73308914899826 ], [ 5421968.043782529421151, 7719446.39682699367404 ], [ 5421957.23772019892931, 7719464.867293841205537 ], [ 5421946.239980988204479, 7719488.226029980927706 ], [ 5421941.459888694807887, 7719501.552389400079846 ], [ 5421946.187135816551745, 7719515.530677191913128 ], [ 5421966.236243300139904, 7719520.693469462916255 ], [ 5421981.883067207410932, 7719529.184207449667156 ], [ 5421989.034622645005584, 7719535.777023766189814 ], [ 5421989.589452622458339, 7719545.530302262865007 ], [ 5421986.202302915044129, 7719551.940767971798778 ], [ 5421983.567121640779078, 7719563.438069995492697 ], [ 5421985.235512912273407, 7719571.831835566088557 ], [ 5421996.023979949764907, 7719573.672826246358454 ], [ 5422014.415443745441735, 7719566.66790978051722 ], [ 5422031.216511517763138, 7719567.027745233848691 ], [ 5422042.040753896348178, 7719570.310679936781526 ], [ 5422053.78693715389818, 7719577.122377304360271 ], [ 5422067.659442650154233, 7719589.763710863888264 ], [ 5422086.234231585636735, 7719611.167434302158654 ], [ 5422101.283985747024417, 7719629.217999880202115 ], [ 5422111.456724512390792, 7719648.277567266486585 ], [ 5422116.340650668367743, 7719664.360749572515488 ], [ 5422118.311148314736784, 7719676.520653698593378 ], [ 5422118.468360919505358, 7719687.060740195214748 ], [ 5422116.625488405115902, 7719692.655965653248131 ], [ 5422113.317811374552548, 7719698.065581470727921 ], [ 5422108.391557067632675, 7719701.295596164651215 ], [ 5422094.70984101947397, 7719708.960584348067641 ], [ 5422090.554507665336132, 7719713.836292261257768 ], [ 5422087.513076890259981, 7719721.570066036656499 ], [ 5422087.669931123964489, 7719727.892563132569194 ], [ 5422089.634568179957569, 7719735.613039485178888 ], [ 5422098.8771270532161, 7719750.811088597401977 ], [ 5422116.036811403930187, 7719774.025781151838601 ], [ 5422122.154734749346972, 7719785.194797806441784 ], [ 5422126.750400811433792, 7719798.066449647769332 ], [ 5422129.129588992334902, 7719809.883239772170782 ], [ 5422129.762204521335661, 7719831.177490515634418 ], [ 5422130.795587358996272, 7719856.013450147584081 ], [ 5422133.692871549166739, 7719863.488792577758431 ], [ 5422139.130027466453612, 7719868.237329435534775 ], [ 5422146.82461738307029, 7719871.486954024061561 ], [ 5422156.633874948136508, 7719871.687356498092413 ], [ 5422166.684287036769092, 7719868.996041052974761 ], [ 5422178.111442280001938, 7719862.940851027145982 ], [ 5422187.275308164767921, 7719853.945137703791261 ], [ 5422196.485245863907039, 7719838.399895982816815 ], [ 5422202.792345569469035, 7719815.157468944787979 ], [ 5422203.44385761488229, 7719799.380786551162601 ], [ 5422200.553012389689684, 7719771.150262070819736 ], [ 5422195.991279523819685, 7719738.632642582990229 ], [ 5422195.839890972711146, 7719732.531981639564037 ], [ 5422198.472590681165457, 7719725.14129792060703 ], [ 5422205.708176014013588, 7719718.302242273464799 ], [ 5422213.684781120158732, 7719716.10633793566376 ], [ 5422230.441960112191737, 7719714.69126663915813 ], [ 5422244.752536651678383, 7719715.556734046898782 ], [ 5422266.540936616249382, 7719719.344167368486524 ], [ 5422284.733020942658186, 7719721.112100936472416 ], [ 5422300.458856050856411, 7719720.166536705568433 ], [ 5422311.9000104367733, 7719718.883432488888502 ], [ 5422323.801767740398645, 7719715.147106535732746 ], [ 5422335.519433748908341, 7719708.196644570678473 ], [ 5422351.897004002705216, 7719695.691914000548422 ], [ 5422377.282049409113824, 7719676.303995918482542 ], [ 5422391.015114262700081, 7719662.311060858890414 ], [ 5422402.126162972301245, 7719651.934929762966931 ], [ 5422409.224765102379024, 7719647.984902082011104 ], [ 5422422.28130039293319, 7719644.55276982486248 ], [ 5422438.925897586159408, 7719642.807305136695504 ], [ 5422465.450807981193066, 7719639.928379941731691 ], [ 5422485.55444251652807, 7719638.873838922940195 ], [ 5422497.881749846041203, 7719639.677382161840796 ], [ 5422510.305472591891885, 7719644.363166702911258 ], [ 5422523.711396276950836, 7719650.800370957702398 ], [ 5422535.650218158960342, 7719661.15867754817009 ], [ 5422541.194876797497272, 7719670.233033125288785 ], [ 5422545.873047211207449, 7719682.214662317186594 ], [ 5422547.951290998607874, 7719698.70050844270736 ], [ 5422549.576330573298037, 7719709.5371323665604 ], [ 5422553.197930244728923, 7719716.772455292753875 ], [ 5422560.316715702414513, 7719722.03402753919363 ], [ 5422572.556834770366549, 7719727.723255147226155 ], [ 5422582.964341480284929, 7719731.016247755847871 ], [ 5422591.399636305868626, 7719734.691227153874934 ], [ 5422596.403416108340025, 7719738.784469658508897 ], [ 5422602.46930305659771, 7719747.845860163681209 ], [ 5422607.204924015328288, 7719757.939226366579533 ], [ 5422613.295156667008996, 7719763.781299994327128 ], [ 5422620.347851880826056, 7719766.38073718175292 ], [ 5422631.237996466457844, 7719768.107849266380072 ], [ 5422641.518791015259922, 7719766.298421341925859 ], [ 5422649.530719110742211, 7719761.32667831517756 ], [ 5422657.2542609507218, 7719753.143387969583273 ], [ 5422670.25837279856205, 7719722.408815860748291 ], [ 5422684.45503915194422, 7719710.290911835618317 ], [ 5422709.227309728041291, 7719708.232128443196416 ], [ 5422717.958794619888067, 7719711.233743693679571 ], [ 5422730.127798627130687, 7719718.256518283858895 ], [ 5422735.770803717896342, 7719722.888782683759928 ], [ 5422742.43511154409498, 7719735.042983083054423 ], [ 5422743.026676690205932, 7719750.455908716656268 ], [ 5422737.631899847649038, 7719781.001356476917863 ], [ 5422726.493556464090943, 7719815.463268410414457 ], [ 5422725.582175171934068, 7719833.355341876856983 ], [ 5422735.609141667373478, 7719842.318219862878323 ], [ 5422746.449739204719663, 7719842.0486796842888 ], [ 5422754.332637898623943, 7719836.081185849383473 ], [ 5422761.532234449870884, 7719827.799883715808392 ], [ 5422769.708536513149738, 7719821.048153283074498 ], [ 5422785.130008836276829, 7719820.442697202786803 ], [ 5422798.394274760968983, 7719840.057798393070698 ], [ 5422789.801450171507895, 7719857.330674743279815 ], [ 5422766.246362342499197, 7719868.926621366292238 ], [ 5422734.39560332428664, 7719873.236952152103186 ], [ 5422736.24172239843756, 7719892.547733940184116 ], [ 5422766.492905189283192, 7719922.506554206833243 ], [ 5422750.583222130313516, 7719945.865997551009059 ], [ 5422739.294966195710003, 7719978.078521141782403 ], [ 5422744.913801864720881, 7720001.046971875242889 ], [ 5422755.610175865702331, 7720017.218674429692328 ], [ 5422741.851816680282354, 7720036.073894116096199 ], [ 5422782.630179340019822, 7720073.285045932978392 ], [ 5422786.142589657567441, 7720102.987480215728283 ], [ 5422767.431082802824676, 7720135.329076560214162 ], [ 5422770.784164073877037, 7720156.100762451067567 ], [ 5422801.903407917357981, 7720152.552293324843049 ], [ 5422805.097497793845832, 7720164.404322287067771 ], [ 5422793.782325839623809, 7720195.119165696203709 ], [ 5422776.365646988153458, 7720217.028780257329345 ], [ 5422758.136807803064585, 7720235.218190683983266 ], [ 5422710.876572762615979, 7720249.478756655007601 ], [ 5422673.286796956323087, 7720265.063779069110751 ], [ 5422652.898229620419443, 7720287.013788741081953 ], [ 5422645.241152061149478, 7720314.685208704322577 ], [ 5422623.247872798703611, 7720329.982350283302367 ], [ 5422605.865041733719409, 7720354.110672849230468 ], [ 5422606.283706695772707, 7720376.431438656523824 ], [ 5422602.266554075293243, 7720400.316398864611983 ], [ 5422551.962910111993551, 7720410.911673597060144 ], [ 5422554.557149450294673, 7720430.958574218675494 ], [ 5422569.116145049221814, 7720455.247679834254086 ], [ 5422587.439921396784484, 7720482.451061517000198 ], [ 5422607.190999711863697, 7720506.644439646042883 ], [ 5422638.023997958749533, 7720527.665589220821857 ], [ 5422645.979676669463515, 7720556.536154389381409 ], [ 5422650.133961011655629, 7720581.017191195860505 ], [ 5422670.439924653619528, 7720594.785887662321329 ], [ 5422688.95293381344527, 7720592.217003299854696 ], [ 5422710.991769805550575, 7720579.160705391317606 ], [ 5422724.999580816365778, 7720573.684817763976753 ], [ 5422741.122296376153827, 7720562.229481304064393 ], [ 5422756.68230209313333, 7720560.455347958020866 ], [ 5422770.247419499792159, 7720530.439411268569529 ], [ 5422766.135525372810662, 7720508.931850422173738 ], [ 5422767.101616635918617, 7720480.638657042756677 ], [ 5422786.20336585957557, 7720469.863933023996651 ], [ 5422809.205035016871989, 7720468.703867834061384 ], [ 5422843.451193324290216, 7720454.966493640094995 ], [ 5422878.351417167112231, 7720444.886553931981325 ], [ 5422910.665387058630586, 7720439.865410399623215 ], [ 5422943.590464513748884, 7720427.536939168348908 ], [ 5422978.753351023420691, 7720401.589712476357818 ], [ 5423028.629469718784094, 7720367.928845218382776 ], [ 5423066.073972141370177, 7720351.536410270258784 ], [ 5423088.894205936230719, 7720329.658512405119836 ], [ 5423103.075743597000837, 7720325.310030229389668 ], [ 5423175.053387267515063, 7720325.627938979305327 ], [ 5423189.319833170622587, 7720320.500332811847329 ], [ 5423205.201693098992109, 7720313.223689307458699 ], [ 5423221.793324093334377, 7720300.934781774878502 ], [ 5423234.873311762697995, 7720285.847490340471268 ], [ 5423240.958216106519103, 7720270.490316910669208 ], [ 5423243.997514808550477, 7720250.103364434093237 ], [ 5423245.899431833997369, 7720217.535732765682042 ], [ 5423245.787094256840646, 7720179.468692914582789 ], [ 5423253.065452630631626, 7720165.96864202991128 ], [ 5423262.819130059331656, 7720159.732365982607007 ], [ 5423292.706763261929154, 7720149.443202037364244 ], [ 5423309.767525956965983, 7720139.251310302875936 ], [ 5423319.227150925435126, 7720129.581597444601357 ], [ 5423322.078982576727867, 7720122.629167633131146 ], [ 5423322.393223078921437, 7720114.297028142958879 ], [ 5423319.846740677021444, 7720108.366914208978415 ], [ 5423315.915427587926388, 7720105.468028768897057 ], [ 5423298.912963109090924, 7720101.229671841487288 ], [ 5423278.099995587952435, 7720094.75534516852349 ], [ 5423259.664602589793503, 7720083.227228968404233 ], [ 5423251.154509211890399, 7720076.557625908404589 ], [ 5423249.521365351043642, 7720069.60585617646575 ], [ 5423252.998636736534536, 7720062.637873105704784 ], [ 5423258.622909059748054, 7720049.733933148905635 ], [ 5423262.288726654835045, 7720037.766666261479259 ], [ 5423261.108396787196398, 7720032.24650620482862 ], [ 5423254.669281418435276, 7720024.970404027029872 ], [ 5423228.638421428389847, 7720014.186290415935218 ], [ 5423145.848239810205996, 7719990.052976196631789 ], [ 5423132.526761171407998, 7719982.837123334407806 ], [ 5423121.879607111215591, 7719974.111834479495883 ], [ 5423115.722365936264396, 7719961.390140413306653 ], [ 5423114.949607782065868, 7719947.091577678918839 ], [ 5423114.041694631800056, 7719927.357836769893765 ], [ 5423110.990087143145502, 7719917.888580206781626 ], [ 5423103.009006381966174, 7719907.321094276383519 ], [ 5423094.075438730418682, 7719892.004711505025625 ], [ 5423093.156505450606346, 7719871.82728526275605 ], [ 5423099.39852272067219, 7719862.79270585346967 ], [ 5423114.858501682057977, 7719842.762636184692383 ], [ 5423136.114886992610991, 7719825.141074411571026 ], [ 5423151.244535565376282, 7719816.995182176120579 ], [ 5423166.051020750775933, 7719812.631001614034176 ], [ 5423200.747924103401601, 7719811.212434200569987 ], [ 5423214.980180757120252, 7719800.536025914363563 ], [ 5423213.59845325909555, 7719786.918552633374929 ], [ 5423166.415100116282701, 7719768.558619836345315 ], [ 5423156.687445791438222, 7719763.251199803315103 ], [ 5423150.089041272178292, 7719753.759235660545528 ], [ 5423154.483878141269088, 7719737.556197494268417 ], [ 5423163.757512712851167, 7719732.996740948408842 ], [ 5423182.829308814369142, 7719728.193393316119909 ], [ 5423192.019552892073989, 7719716.08862186409533 ], [ 5423188.321971383877099, 7719697.423220700584352 ], [ 5423181.232737137936056, 7719689.164385422132909 ], [ 5423168.648770759813488, 7719678.045568076893687 ], [ 5423152.63488429877907, 7719659.020783543586731 ], [ 5423154.069702572189271, 7719641.226552857086062 ], [ 5423164.897925800643861, 7719632.077768988907337 ], [ 5423177.707822047173977, 7719631.314946373924613 ], [ 5423204.307116965763271, 7719631.429750498384237 ], [ 5423233.049065143801272, 7719633.821979343891144 ], [ 5423265.845158508047462, 7719659.565599078312516 ], [ 5423303.102242645807564, 7719666.318546009249985 ], [ 5423332.952824641950428, 7719674.698728743940592 ], [ 5423345.845072310417891, 7719649.160546902567148 ], [ 5423334.168605969287455, 7719619.605833287350833 ], [ 5423351.450980414636433, 7719590.262314166873693 ], [ 5423388.53921133838594, 7719547.905715204775333 ], [ 5423419.148484744131565, 7719557.021559903398156 ], [ 5423442.371886966750026, 7719567.75311325956136 ], [ 5423455.512685952708125, 7719583.219833004288375 ], [ 5423472.936484180390835, 7719583.451763763092458 ], [ 5423489.875003480352461, 7719585.138651098124683 ], [ 5423508.857499361969531, 7719589.327400913462043 ], [ 5423528.156865178607404, 7719602.054562594741583 ], [ 5423546.329002117738128, 7719615.586730605922639 ], [ 5423560.554035775363445, 7719629.77218184620142 ], [ 5423578.886398545466363, 7719649.737829301506281 ], [ 5423584.585563374683261, 7719660.805953360162675 ], [ 5423585.734981591813266, 7719677.647992772050202 ], [ 5423585.095117513090372, 7719689.650995431467891 ], [ 5423582.501684434711933, 7719698.594914609566331 ], [ 5423577.104227161966264, 7719703.83499020896852 ], [ 5423562.188180419616401, 7719707.980313468724489 ], [ 5423544.336263827048242, 7719707.315147934481502 ], [ 5423517.544930744916201, 7719707.871577479876578 ], [ 5423502.361020661890507, 7719718.017041784711182 ], [ 5423500.594505582004786, 7719735.042696245014668 ], [ 5423506.241175230592489, 7719744.003315647132695 ], [ 5423522.35354988090694, 7719758.585762538015842 ], [ 5423557.185652835294604, 7719779.361328100785613 ], [ 5423574.136813879013062, 7719789.927159495651722 ], [ 5423589.692902215756476, 7719807.298203846439719 ], [ 5423598.125744425691664, 7719827.621495047584176 ], [ 5423598.970023908652365, 7719840.586441813036799 ], [ 5423590.067832702770829, 7719851.685376112349331 ], [ 5423585.277104809880257, 7719860.351057562977076 ], [ 5423585.468336438760161, 7719872.222359450533986 ], [ 5423613.432135379873216, 7719893.612942900508642 ], [ 5423616.071896593086421, 7719899.096739928238094 ], [ 5423616.866473303176463, 7719910.0650828583166 ], [ 5423615.064808936789632, 7719929.866422122344375 ], [ 5423612.839266859926283, 7719941.020999101921916 ], [ 5423612.131031228229403, 7719954.468590633012354 ], [ 5423612.956672660075128, 7719970.874732358381152 ], [ 5423618.678011184558272, 7719982.830244541168213 ], [ 5423629.651951294392347, 7719992.1020926553756 ], [ 5423639.758161642588675, 7719995.845989104360342 ], [ 5423654.71658977586776, 7719997.582132484763861 ], [ 5423729.889822667464614, 7720004.810277532786131 ], [ 5423775.738664133474231, 7720023.97911062464118 ], [ 5423783.840284242294729, 7720030.991645146161318 ], [ 5423789.670780537649989, 7720038.948712687008083 ], [ 5423789.765441461466253, 7720046.937742529436946 ], [ 5423785.940500962547958, 7720056.689332075417042 ], [ 5423739.088123094290495, 7720072.618812210857868 ], [ 5423731.340769818983972, 7720084.022006530314684 ], [ 5423733.159168159589171, 7720098.405579958111048 ], [ 5423762.865992822684348, 7720139.50907314941287 ], [ 5423763.7490293411538, 7720154.026949595659971 ], [ 5423766.458638924174011, 7720166.501461319625378 ], [ 5423770.604768831282854, 7720173.834567228332162 ], [ 5423777.180810245685279, 7720178.22133969143033 ], [ 5423781.558830576017499, 7720178.112236112356186 ], [ 5423790.566816066391766, 7720175.445933831855655 ], [ 5423795.86567790620029, 7720170.430251544341445 ], [ 5423808.16914657689631, 7720157.692571928724647 ], [ 5423811.367943869903684, 7720143.738908057101071 ], [ 5423817.011731717735529, 7720137.915480103343725 ], [ 5423832.743724159896374, 7720121.707080312073231 ], [ 5423848.918420718982816, 7720113.223738331347704 ], [ 5423867.039292626082897, 7720089.075346639379859 ], [ 5423887.577559752389789, 7720075.299877073615789 ], [ 5423900.674437344074249, 7720060.92184504121542 ], [ 5423915.882849745452404, 7720047.567776473239064 ], [ 5423937.95439662411809, 7720050.125279597938061 ], [ 5423949.629029319621623, 7720049.83420869614929 ], [ 5423961.454101968556643, 7720047.208552308380604 ], [ 5423970.36249627545476, 7720040.54891549423337 ], [ 5423981.02753599639982, 7720024.855138659477234 ], [ 5423989.721118915826082, 7720013.761172579601407 ], [ 5423998.475494594313204, 7720005.107503245584667 ], [ 5424009.795130986720324, 7719998.942671004682779 ], [ 5424035.5996951200068, 7720008.577023764140904 ], [ 5424048.68852813821286, 7720033.645549826323986 ], [ 5424068.270940317772329, 7720048.906935669481754 ], [ 5424093.081998692825437, 7720059.687018841505051 ], [ 5424104.595972114242613, 7720065.504406285472214 ], [ 5424126.477634183131158, 7720064.625662718899548 ], [ 5424139.507369301281869, 7720064.300664437934756 ], [ 5424154.501860340125859, 7720067.478391019627452 ], [ 5424179.007723568938673, 7720075.635468073189259 ], [ 5424200.097806335426867, 7720080.658957494422793 ], [ 5424219.552435860969126, 7720082.837430280633271 ], [ 5424230.957778468728065, 7720080.111063779331744 ], [ 5424244.271738500334322, 7720074.451275766827166 ], [ 5424261.897309130057693, 7720066.020088884979486 ], [ 5424280.364204414188862, 7720053.683162339031696 ], [ 5424307.835275012999773, 7720034.351004360243678 ], [ 5424321.803126137703657, 7720034.002453081309795 ], [ 5424330.75460840202868, 7720037.441816933453083 ], [ 5424340.831453594379127, 7720044.182860417291522 ], [ 5424357.523188532330096, 7720056.863393260166049 ], [ 5424373.03425517398864, 7720064.023766389116645 ], [ 5424390.780589627102017, 7720056.255371894687414 ], [ 5424413.832062211818993, 7720035.368439545854926 ], [ 5424422.617568356916308, 7720032.152361013926566 ], [ 5424434.462826900184155, 7720034.520514176227152 ], [ 5424452.242172051221132, 7720053.167408742010593 ], [ 5424466.640824273228645, 7720053.362950683571398 ], [ 5424488.450597651302814, 7720024.515438931062818 ], [ 5424513.355090479366481, 7720023.560724921524525 ], [ 5424524.567558261565864, 7720017.287201169878244 ], [ 5424534.003366542980075, 7720015.053756259381771 ], [ 5424547.04505858477205, 7720019.389826625585556 ], [ 5424562.674253900535405, 7720027.102051304653287 ], [ 5424572.182951563969254, 7720031.97028879635036 ], [ 5424585.136100640520453, 7720032.756783422082663 ], [ 5424599.106718226335943, 7720032.518928607925773 ], [ 5424613.833737128414214, 7720029.154381061904132 ], [ 5424624.955775843933225, 7720023.438006278127432 ], [ 5424639.209522677585483, 7720013.647679779678583 ], [ 5424656.344100951217115, 7720006.44921578001231 ], [ 5424670.618148660287261, 7720001.653020233847201 ], [ 5424684.056480354629457, 7720000.984413912519813 ], [ 5424707.925062705762684, 7720004.494990458711982 ], [ 5424715.004073793999851, 7720012.309652565978467 ], [ 5424719.253031340427697, 7720023.746769216842949 ], [ 5424719.980059347115457, 7720036.159797224216163 ], [ 5424717.165770193561912, 7720048.772270526736975 ], [ 5424708.157264313660562, 7720072.305747685953975 ], [ 5424715.39506090246141, 7720090.660758219659328 ], [ 5424727.474762003868818, 7720098.23952898196876 ], [ 5424743.293064461089671, 7720092.627764422446489 ], [ 5424750.598859925754368, 7720084.453797211870551 ], [ 5424777.824094967916608, 7720071.586712400428951 ], [ 5424815.045439346693456, 7720071.411615924909711 ], [ 5424840.613411885686219, 7720080.318229814991355 ], [ 5424857.107936683110893, 7720080.905057959258556 ], [ 5424870.387702198699117, 7720082.238151680678129 ], [ 5424886.477362103760242, 7720087.49677224829793 ], [ 5424907.127569059841335, 7720087.424752037972212 ], [ 5424923.373836929909885, 7720082.246085470542312 ], [ 5424940.659704627469182, 7720076.930428937077522 ], [ 5424959.166970098391175, 7720074.581041228026152 ], [ 5424972.627515338361263, 7720074.799607898108661 ], [ 5424984.434105096384883, 7720075.614466154947877 ], [ 5425002.443371638655663, 7720078.38315968029201 ], [ 5425024.036561557091773, 7720086.833899714984 ], [ 5425055.018832379952073, 7720103.707393786869943 ], [ 5425071.79495729599148, 7720111.390547493472695 ], [ 5425080.70889816340059, 7720117.4943343764171 ], [ 5425087.889586314558983, 7720125.195350887253881 ], [ 5425092.887871008366346, 7720137.390650833025575 ], [ 5425102.589027477428317, 7720154.13010195735842 ], [ 5425121.108910169452429, 7720168.984191727824509 ], [ 5425142.988335025496781, 7720180.535472621209919 ], [ 5425176.894662108272314, 7720185.015441304072738 ], [ 5425227.252396889030933, 7720192.524775857105851 ], [ 5425249.520072398707271, 7720198.738548928871751 ], [ 5425260.645305925048888, 7720205.674914509989321 ], [ 5425272.624955005012453, 7720217.584612837992609 ], [ 5425298.306464119814336, 7720239.363040890544653 ], [ 5425312.808970680460334, 7720247.879822060465813 ], [ 5425341.714222964830697, 7720260.92008414119482 ], [ 5425389.970306236296892, 7720276.140123715624213 ], [ 5425471.014207186177373, 7720296.977410768158734 ], [ 5425512.651212045922875, 7720301.929332451894879 ], [ 5425535.728554754517972, 7720298.79904733877629 ], [ 5425542.232302723452449, 7720287.758916601538658 ], [ 5425541.531286143697798, 7720272.237326573580503 ], [ 5425528.767425429075956, 7720262.345281489193439 ], [ 5425507.007364780642092, 7720247.239632237702608 ], [ 5425487.414171235635877, 7720231.191797990351915 ], [ 5425487.432919901795685, 7720219.425993352197111 ], [ 5425502.342319435440004, 7720210.839412055909634 ], [ 5425521.804462350904942, 7720209.131502481177449 ], [ 5425531.572397164069116, 7720207.666150827892125 ], [ 5425541.338009395636618, 7720197.765322111546993 ], [ 5425541.11772777326405, 7720184.784558870829642 ], [ 5425536.769507667981088, 7720173.571999407373369 ], [ 5425527.250971808098257, 7720164.153725739568472 ], [ 5425504.22906303871423, 7720148.635697401128709 ], [ 5425496.540850680321455, 7720141.502482943236828 ], [ 5425496.766901634633541, 7720125.513725682161748 ], [ 5425504.942323594354093, 7720118.760526447556913 ], [ 5425520.784211287274957, 7720109.928587395697832 ], [ 5425531.669806243851781, 7720103.107553320936859 ], [ 5425545.249377412721515, 7720087.228593593463302 ], [ 5425539.462856693193316, 7720072.722217101603746 ], [ 5425526.550945605151355, 7720052.73346680495888 ], [ 5425500.953024744987488, 7720025.958560925908387 ], [ 5425484.571992485783994, 7720009.053435268811882 ], [ 5425480.576986624859273, 7719995.279180834069848 ], [ 5425481.845392760820687, 7719979.264340682886541 ], [ 5425489.620881429873407, 7719964.862571550533175 ], [ 5425493.777400458231568, 7719947.554524790495634 ], [ 5425495.212648671120405, 7719929.8705975394696 ], [ 5425493.280187572352588, 7719915.156782390549779 ], [ 5425491.579998970031738, 7719897.21833517216146 ], [ 5425494.578344599343836, 7719887.819824851118028 ], [ 5425483.199616244062781, 7719866.571776847355068 ], [ 5425477.611723383888602, 7719855.83421896211803 ], [ 5425475.344372013583779, 7719840.240835318341851 ], [ 5425477.963430049829185, 7719828.187967661768198 ], [ 5425490.564207882620394, 7719814.886362180113792 ], [ 5425499.684302172623575, 7719812.549244424328208 ], [ 5425517.815875932574272, 7719811.873489130288363 ], [ 5425534.789752586744726, 7719810.782713748514652 ], [ 5425556.365885077044368, 7719797.700385259464383 ], [ 5425603.259895218536258, 7719791.864848501980305 ], [ 5425608.252508114092052, 7719782.971349338069558 ], [ 5425600.245299153029919, 7719763.081883776001632 ], [ 5425582.372957780957222, 7719749.100050151348114 ], [ 5425564.699210132472217, 7719738.887025522068143 ], [ 5425490.387344696559012, 7719741.07991006039083 ], [ 5425475.900158531032503, 7719737.335692293010652 ], [ 5425450.800059605389833, 7719713.767173535190523 ], [ 5425446.581147538498044, 7719703.550328636541963 ], [ 5425445.888155933469534, 7719667.494699193164706 ], [ 5425439.020595314912498, 7719651.461466912180185 ], [ 5425428.995476300828159, 7719634.286317482590675 ], [ 5425425.898209962062538, 7719623.042461363598704 ], [ 5425425.249888218007982, 7719609.628442344255745 ], [ 5425426.750060759484768, 7719598.713515245355666 ], [ 5425433.828989121131599, 7719585.661094216629863 ], [ 5425441.570544924587011, 7719578.252767512574792 ], [ 5425460.355439243838191, 7719570.346076462417841 ], [ 5425475.743359092622995, 7719568.407051262445748 ], [ 5425497.176895372569561, 7719566.31669903639704 ], [ 5425509.248714354820549, 7719565.237596478313208 ], [ 5425514.157657982781529, 7719561.340936616063118 ], [ 5425526.938888493925333, 7719546.924798280932009 ], [ 5425534.514727772213519, 7719545.403241906315088 ], [ 5425554.827446869574487, 7719556.882123892195523 ], [ 5425576.337925288826227, 7719574.546664438210428 ], [ 5425587.349181771278381, 7719576.934869134798646 ], [ 5425601.066563305445015, 7719574.926555773243308 ], [ 5425609.351416171528399, 7719568.392488140612841 ], [ 5425619.17359275277704, 7719556.603208810091019 ], [ 5425624.830698166973889, 7719540.922415183857083 ], [ 5425626.6323306793347, 7719529.555918799713254 ], [ 5425626.281445012427866, 7719511.361684530042112 ], [ 5425624.051228399388492, 7719501.428060294128954 ], [ 5425617.105490895919502, 7719490.613551139831543 ], [ 5425605.051063249818981, 7719475.709170792251825 ], [ 5425597.528673522174358, 7719462.689215278252959 ], [ 5425595.138739266432822, 7719450.53971023671329 ], [ 5425606.718942035920918, 7719438.151440455578268 ], [ 5425616.456778566353023, 7719448.00809109210968 ], [ 5425625.765035979449749, 7719461.53829687461257 ], [ 5425641.044282118789852, 7719463.597606033086777 ], [ 5425651.338804263621569, 7719454.016344368457794 ], [ 5425655.6161143258214, 7719429.046572400256991 ], [ 5425658.2564986217767, 7719397.01416358910501 ], [ 5425656.124945693649352, 7719386.856082536280155 ], [ 5425652.067229446955025, 7719374.74833944439888 ], [ 5425654.245641919784248, 7719357.60070354025811 ], [ 5425662.142709203064442, 7719348.07945269625634 ], [ 5425676.1950897378847, 7719338.626045184209943 ], [ 5425697.023870687931776, 7719333.22069893963635 ], [ 5425722.565347678028047, 7719328.58525069616735 ], [ 5425734.01032682415098, 7719323.303872279822826 ], [ 5425744.839742607437074, 7719314.264099192805588 ], [ 5425776.497296254150569, 7719270.627387794665992 ], [ 5425787.235251833684742, 7719249.602485442534089 ], [ 5425797.013926505111158, 7719240.256000948138535 ], [ 5425806.112940263003111, 7719232.924432024359703 ], [ 5425827.50327995698899, 7719216.627380062825978 ], [ 5425836.225699422881007, 7719206.752354326657951 ], [ 5425856.665290507487953, 7719194.141886327415705 ], [ 5425867.019115668721497, 7719191.107617171481252 ], [ 5425877.862074335105717, 7719190.946940002962947 ], [ 5425894.040164338424802, 7719199.75412037037313 ], [ 5425896.892989881336689, 7719217.885724617168307 ], [ 5425904.640675756148994, 7719231.565899179317057 ], [ 5425921.145558719523251, 7719232.595264228060842 ], [ 5425940.843070760369301, 7719215.341516418382525 ], [ 5425961.178502257913351, 7719194.408932201564312 ], [ 5425977.889168268069625, 7719186.997494475916028 ], [ 5425996.113185887224972, 7719185.874799080193043 ], [ 5426015.430867225863039, 7719190.94036952406168 ], [ 5426054.310665651224554, 7719219.157450382597744 ], [ 5426090.551497786305845, 7719237.784083183854818 ], [ 5426095.123543264344335, 7719270.412904466502368 ], [ 5426083.003041881136596, 7719298.68738161586225 ], [ 5426084.324468958191574, 7719322.296120656654239 ], [ 5426095.742816830985248, 7719328.447596006095409 ], [ 5426113.586246026679873, 7719320.452674245461822 ], [ 5426137.597387867048383, 7719325.511484576389194 ], [ 5426143.459340170957148, 7719343.012692656368017 ], [ 5426148.594857977703214, 7719361.075986174866557 ], [ 5426164.654802198521793, 7719352.24886570032686 ], [ 5426181.126563520170748, 7719335.297683312557638 ], [ 5426192.005743838846684, 7719336.578850008547306 ], [ 5426199.122705937363207, 7719358.377382817678154 ], [ 5426207.14858463127166, 7719383.149986890144646 ], [ 5426225.852230993099511, 7719396.99936462379992 ], [ 5426238.91758394613862, 7719398.114700561389327 ], [ 5426259.316832489334047, 7719396.38225195556879 ], [ 5426269.826380576938391, 7719391.234943274408579 ], [ 5426279.549305609427392, 7719379.669648118317127 ], [ 5426293.612478736788034, 7719345.685521170496941 ], [ 5426308.074530850164592, 7719348.430695310235023 ], [ 5426319.461021098308265, 7719357.468709614127874 ], [ 5426335.653415518812835, 7719375.154790263622999 ], [ 5426349.966852095909417, 7719392.77699267771095 ], [ 5426382.906317460350692, 7719429.46714043430984 ], [ 5426394.344302504323423, 7719436.394925639033318 ], [ 5426414.706139980815351, 7719445.651749572716653 ], [ 5426442.093393849208951, 7719456.397247083485126 ], [ 5426461.575565407052636, 7719468.006989726796746 ], [ 5426473.020515915937722, 7719471.049728957936168 ], [ 5426498.584369344636798, 7719475.625164737924933 ], [ 5426576.040357152931392, 7719486.557196580804884 ], [ 5426612.344798896461725, 7719503.516426882706583 ], [ 5426660.4400764843449, 7719508.19217811152339 ], [ 5426695.096369131468236, 7719525.969591435045004 ], [ 5426714.351942930370569, 7719524.376324928365648 ], [ 5426727.483802551403642, 7719511.504215266555548 ], [ 5426744.621279155835509, 7719508.632131773978472 ], [ 5426756.960118546150625, 7719518.200994344428182 ], [ 5426760.475203417241573, 7719529.434298273175955 ], [ 5426764.028396573849022, 7719562.976746032014489 ], [ 5426773.894968734122813, 7719577.935452172532678 ], [ 5426787.760991896502674, 7719577.69835958071053 ], [ 5426800.39242746680975, 7719561.508887755684555 ], [ 5426803.235632392577827, 7719550.115960067138076 ], [ 5426803.175209782086313, 7719526.919401099905372 ], [ 5426806.258752308785915, 7719512.634551737457514 ], [ 5426814.717949721030891, 7719496.438807243481278 ], [ 5426829.937178455293179, 7719483.625187215395272 ], [ 5426851.285730277188122, 7719482.312191624194384 ], [ 5426867.959181520156562, 7719485.889374859631062 ], [ 5426876.456575583666563, 7719492.002758122980595 ], [ 5426893.088861306197941, 7719510.565373515710235 ], [ 5426912.095721640624106, 7719511.531025009229779 ], [ 5426923.089847452007234, 7719496.603497182950377 ], [ 5426933.019338773563504, 7719480.814728990197182 ], [ 5426944.327672196552157, 7719470.097127674147487 ], [ 5426960.581091117113829, 7719465.249090803787112 ], [ 5426971.785489550791681, 7719462.858762007206678 ], [ 5426982.835871763527393, 7719466.799055861309171 ], [ 5426986.996988718397915, 7719479.248169904574752 ], [ 5426992.938023176975548, 7719495.293241105973721 ], [ 5427008.258035258390009, 7719503.122133539989591 ], [ 5427028.963786250911653, 7719484.509706892073154 ], [ 5427040.664791760966182, 7719460.351662175729871 ], [ 5427048.001008993014693, 7719449.28977282717824 ], [ 5427056.304744938388467, 7719443.531377365812659 ], [ 5427086.361556079238653, 7719440.112377796322107 ], [ 5427117.620629316195846, 7719438.883036432787776 ], [ 5427163.158580955117941, 7719441.401701785624027 ], [ 5427182.279154121875763, 7719438.590316941030324 ], [ 5427189.024901143275201, 7719433.092989595606923 ], [ 5427190.426417489536107, 7719418.295287781395018 ], [ 5427188.487163797952235, 7719382.603272553533316 ], [ 5427197.895603524520993, 7719375.152088647708297 ], [ 5427212.62992581538856, 7719372.117893381044269 ], [ 5427221.696628274396062, 7719367.672177688218653 ], [ 5427231.532654759474099, 7719352.32949597761035 ], [ 5427240.278282843530178, 7719347.558848137967288 ], [ 5427257.449426800012589, 7719354.342024836689234 ], [ 5427271.579944545403123, 7719364.642496578395367 ], [ 5427288.853711268864572, 7719367.205210883170366 ], [ 5427297.631124773062766, 7719359.547830428928137 ], [ 5427298.524789077229798, 7719336.993124946951866 ], [ 5427298.279095742851496, 7719318.906909265555441 ], [ 5427300.089565001428127, 7719312.090626652352512 ], [ 5427307.771666751243174, 7719302.351837448775768 ], [ 5427318.158247289247811, 7719292.323063774034381 ], [ 5427326.543747876770794, 7719285.67447616904974 ], [ 5427351.546883787028491, 7719280.38405392318964 ], [ 5427377.689874504692852, 7719278.949806893244386 ], [ 5427391.110856160521507, 7719277.613400783389807 ], [ 5427402.188543028198183, 7719274.33796751126647 ], [ 5427418.706961438991129, 7719267.595828341320157 ], [ 5427440.150504255667329, 7719257.621922548860312 ], [ 5427452.404805129393935, 7719247.21308983117342 ], [ 5427462.433964252471924, 7719235.41724797245115 ], [ 5427471.352186623960733, 7719216.767551649361849 ], [ 5427467.946838323026896, 7719172.56558174174279 ], [ 5427486.213208751752973, 7719181.429904354736209 ], [ 5427500.266778425313532, 7719184.517348155379295 ], [ 5427516.901074881665409, 7719186.540903394110501 ], [ 5427534.288384179584682, 7719185.326601715758443 ], [ 5427552.586975090205669, 7719178.872518418356776 ], [ 5427564.347861866466701, 7719169.58595675881952 ], [ 5427571.181932955980301, 7719159.313352379947901 ], [ 5427571.935341760516167, 7719143.64387159049511 ], [ 5427572.289611882530153, 7719124.543534129858017 ], [ 5427584.662955208681524, 7719110.579680720344186 ], [ 5427603.067406085319817, 7719108.340734429657459 ], [ 5427628.944830308668315, 7719108.799671681597829 ], [ 5427646.557250900194049, 7719108.245555305853486 ], [ 5427655.316571810282767, 7719104.029284477233887 ], [ 5427673.228390485048294, 7719078.049338875338435 ], [ 5427696.929399081505835, 7719062.468386044725776 ], [ 5427705.444986836053431, 7719052.708372706547379 ], [ 5427705.982441540807486, 7719032.604417786002159 ], [ 5427682.381069638766348, 7719010.665960535407066 ], [ 5427679.786748114041984, 7718998.743585063144565 ], [ 5427680.423597354441881, 7718986.739902622997761 ], [ 5427688.270891915075481, 7718979.438638098537922 ], [ 5427698.528416842222214, 7718976.738583818078041 ], [ 5427737.646816859953105, 7718972.868218772113323 ], [ 5427797.684756461530924, 7718979.681912993080914 ], [ 5427830.425512520596385, 7718975.194881168194115 ], [ 5427865.665337385609746, 7718945.670528180897236 ], [ 5427910.234473219141364, 7718930.451813640072942 ], [ 5427909.334988595917821, 7718886.408594550564885 ], [ 5427917.815032180398703, 7718871.099467622116208 ], [ 5427937.711036000400782, 7718861.829721543937922 ], [ 5427957.586522579193115, 7718855.890380977652967 ], [ 5427972.702729699201882, 7718855.620726218447089 ], [ 5427986.715102381072938, 7718877.800300966948271 ], [ 5427999.59592785872519, 7718884.024760773405433 ], [ 5428012.27298342064023, 7718882.151542827486992 ], [ 5428028.921055885031819, 7718872.297495896928012 ], [ 5428032.825071038678288, 7718861.654427018016577 ], [ 5428043.384961424395442, 7718829.532232405617833 ], [ 5428060.656474218703806, 7718803.01283344719559 ], [ 5428077.889780065976083, 7718783.265208188444376 ], [ 5428087.767423042096198, 7718777.91051509231329 ], [ 5428098.184836169704795, 7718777.426104178652167 ], [ 5428114.646672318689525, 7718780.896325428970158 ], [ 5428123.807795687578619, 7718792.653266005218029 ], [ 5428133.44819475710392, 7718802.733168226666749 ], [ 5428148.459217540919781, 7718806.572904909960926 ], [ 5428168.016292497515678, 7718800.419318739324808 ], [ 5428181.517737462185323, 7718789.867382323369384 ], [ 5428191.995598628185689, 7718783.498522900044918 ], [ 5428202.771283550187945, 7718780.674072997644544 ], [ 5428219.085118577815592, 7718778.26505668181926 ], [ 5428231.795589671470225, 7718777.722784388810396 ], [ 5428247.050359757617116, 7718774.674440991133451 ], [ 5428259.240557597950101, 7718770.038345796987414 ], [ 5428271.614944515749812, 7718760.291707055643201 ], [ 5428297.163799518719316, 7718727.014516593888402 ], [ 5428307.15009349770844, 7718713.554105499759316 ], [ 5428314.500969986431301, 7718707.263962202705443 ], [ 5428327.722218264825642, 7718702.157826740294695 ], [ 5428360.919195988215506, 7718695.105195607990026 ], [ 5428402.90774464700371, 7718689.273838655091822 ], [ 5428418.882791464217007, 7718689.981088990345597 ], [ 5428425.433603288605809, 7718697.474792437627912 ], [ 5428418.294305860064924, 7718716.302415842190385 ], [ 5428413.955218643881381, 7718734.504451830871403 ], [ 5428442.499352493323386, 7718737.336777727119625 ], [ 5428455.706617414020002, 7718731.675903836265206 ], [ 5428467.663944230414927, 7718721.939609456807375 ], [ 5428477.76748204883188, 7718713.13802782073617 ], [ 5428486.655765706673265, 7718709.916976688429713 ], [ 5428498.295937400311232, 7718708.29150171764195 ], [ 5428523.773024456575513, 7718721.856827900744975 ], [ 5428550.957391210831702, 7718720.394337672740221 ], [ 5428553.772017025388777, 7718703.784652467817068 ], [ 5428551.948233172297478, 7718681.076048020273447 ], [ 5428552.767706859856844, 7718668.068612162023783 ], [ 5428565.657001273706555, 7718645.654946891590953 ], [ 5428573.320437555201352, 7718639.356784004718065 ], [ 5428590.321759327314794, 7718635.265066094696522 ], [ 5428599.63291197270155, 7718644.687062066048384 ], [ 5428590.709172851406038, 7718671.32967425417155 ], [ 5428594.20306443888694, 7718681.675376468338072 ], [ 5428603.120477923192084, 7718687.888360984623432 ], [ 5428626.083276554010808, 7718680.316315976902843 ], [ 5428643.298228955827653, 7718664.009365960024297 ], [ 5428690.114285293035209, 7718601.446406474336982 ], [ 5428716.843383406288922, 7718577.795442634262145 ], [ 5428739.012052102945745, 7718567.690278983674943 ], [ 5428759.863382139243186, 7718567.386173057369888 ], [ 5428775.891480043530464, 7718570.200700831599534 ], [ 5428799.963296830654144, 7718581.803110019303858 ], [ 5428810.709898962639272, 7718598.514681844040751 ], [ 5428811.272108290344477, 7718620.811171324923635 ], [ 5428802.024270516820252, 7718634.586331531405449 ], [ 5428797.453486762940884, 7718643.58153672888875 ], [ 5428800.6208307268098, 7718653.380469738505781 ], [ 5428819.108559546992183, 7718654.467934671789408 ], [ 5428829.202010835520923, 7718653.54724145680666 ], [ 5428840.355269318446517, 7718649.158846316859126 ], [ 5428850.499189903028309, 7718633.696070684120059 ], [ 5428856.36069140676409, 7718605.576538175344467 ], [ 5428851.799288445152342, 7718577.720044689252973 ], [ 5428850.686447001993656, 7718562.541341934353113 ], [ 5428862.306995131075382, 7718543.600326357409358 ], [ 5428871.507801007479429, 7718540.371154690161347 ], [ 5428883.091154305264354, 7718540.633795537054539 ], [ 5428900.677083915099502, 7718543.186890248209238 ], [ 5428914.685674606822431, 7718544.498281789012253 ], [ 5428932.024690262973309, 7718541.396651889197528 ], [ 5428944.141784147359431, 7718533.875878600403666 ], [ 5428955.797881162725389, 7718520.483806163072586 ], [ 5428969.353840351104736, 7718499.717851657420397 ], [ 5428988.083365233615041, 7718469.053386216051877 ], [ 5428997.395299629308283, 7718457.829424415715039 ], [ 5429014.529233134351671, 7718450.736914661712945 ], [ 5429027.143615471199155, 7718450.529419930651784 ], [ 5429040.319771256297827, 7718460.186617333441973 ], [ 5429054.754403145983815, 7718474.251980280503631 ], [ 5429066.455940372310579, 7718475.066498326137662 ], [ 5429090.946747804060578, 7718474.337069060653448 ], [ 5429159.685397611930966, 7718462.278228309005499 ], [ 5429209.058686506934464, 7718459.810175141319633 ], [ 5429227.568016119301319, 7718465.891570499166846 ], [ 5429247.028161717578769, 7718480.717849992215633 ], [ 5429263.000269977375865, 7718481.313356995582581 ], [ 5429293.894689342007041, 7718457.445062635466456 ], [ 5429329.749551815912127, 7718415.247506504878402 ], [ 5429351.114809349179268, 7718385.736881716176867 ], [ 5429375.929961618036032, 7718381.335848143324256 ], [ 5429399.973959314636886, 7718391.828158477321267 ], [ 5429401.574254730716348, 7718409.769588784314692 ], [ 5429400.379420135170221, 7718432.665619984269142 ], [ 5429401.29831971321255, 7718448.404285470023751 ], [ 5429405.813149745576084, 7718453.729152918793261 ], [ 5429421.94269388820976, 7718456.429514734074473 ], [ 5429435.176848446950316, 7718455.984058570116758 ], [ 5429457.189139248803258, 7718452.097757197916508 ], [ 5429470.004146783612669, 7718447.444893622770905 ], [ 5429477.033381043933332, 7718440.829270105808973 ], [ 5429479.497328286059201, 7718426.892079315148294 ], [ 5429477.257012560963631, 7718412.518794395029545 ], [ 5429471.179886544123292, 7718399.019482353702188 ], [ 5429457.84662956930697, 7718383.15058524440974 ], [ 5429449.499502683058381, 7718366.489665357396007 ], [ 5429446.903933028690517, 7718354.567345183342695 ], [ 5429453.81546219997108, 7718343.292729189619422 ], [ 5429470.137123169377446, 7718341.215200105682015 ], [ 5429479.097306529991329, 7718344.984695030376315 ], [ 5429493.33386205881834, 7718347.066823426634073 ], [ 5429505.486985834315419, 7718340.987653518095613 ], [ 5429513.412721403874457, 7718328.577373085543513 ], [ 5429518.676723741926253, 7718314.014385590329766 ], [ 5429541.094507026486099, 7718309.673686076886952 ], [ 5429559.496243002824485, 7718319.753415080718696 ], [ 5429569.9385756412521, 7718320.266409393399954 ], [ 5429591.500118799507618, 7718315.05929489992559 ], [ 5429600.098783021792769, 7718304.518935875967145 ], [ 5429599.838670027442276, 7718290.095578847452998 ], [ 5429585.987020640634, 7718274.350878641009331 ], [ 5429558.540535213425756, 7718261.280873954296112 ], [ 5429521.684570979326963, 7718255.552671205252409 ], [ 5429507.868893824517727, 7718245.356987184844911 ], [ 5429503.648236864246428, 7718231.033764353953302 ], [ 5429506.514987993054092, 7718216.531375477090478 ], [ 5429515.159020410850644, 7718203.658924099057913 ], [ 5429533.509020203724504, 7718199.3100396823138 ], [ 5429598.098567011766136, 7718196.456001264043152 ], [ 5429611.446195213124156, 7718188.126531342044473 ], [ 5429616.920779502019286, 7718177.776142193004489 ], [ 5429617.491117404773831, 7718167.327764178626239 ], [ 5429610.730223673395813, 7718147.40781010966748 ], [ 5429612.870074504055083, 7718133.034760761074722 ], [ 5429636.008007891476154, 7718066.404913933947682 ], [ 5429647.129817483015358, 7718060.795669285580516 ], [ 5429662.02896879054606, 7718056.089880883693695 ], [ 5429674.426699665375054, 7718051.447342801839113 ], [ 5429679.327286447398365, 7718034.895452732220292 ], [ 5429677.401759819127619, 7718024.732186782173812 ], [ 5429673.35627625323832, 7718004.965570935979486 ], [ 5429673.41663752682507, 7717994.974077289924026 ], [ 5429682.650283916853368, 7717972.429606560617685 ], [ 5429715.529894070699811, 7717940.518036313354969 ], [ 5429725.692091543227434, 7717925.831014756113291 ], [ 5429719.473289252258837, 7717894.353408064693213 ], [ 5429720.13604505173862, 7717887.565660495311022 ], [ 5429723.58810138143599, 7717875.601366389542818 ], [ 5429730.963749234564602, 7717866.201808763667941 ], [ 5429742.956103110685945, 7717857.906450977548957 ], [ 5429768.678004833869636, 7717848.15373913012445 ], [ 5429785.110249892808497, 7717824.894242841750383 ], [ 5429801.614862800575793, 7717809.03657872416079 ], [ 5429834.731052095070481, 7717792.691959796473384 ], [ 5429876.711062814109027, 7717764.767657715827227 ], [ 5429881.376272903755307, 7717765.315594895742834 ], [ 5429910.00544130243361, 7717785.991845293901861 ], [ 5429951.115826479159296, 7717785.128950830549002 ], [ 5429983.680419783107936, 7717781.618475815281272 ], [ 5430010.933237968944013, 7717749.526671306230128 ], [ 5430045.504902730695903, 7717729.714828261174262 ], [ 5430053.399645922705531, 7717706.216015206649899 ], [ 5430069.447448911145329, 7717670.256343324668705 ], [ 5430063.126913311891258, 7717617.05857384763658 ], [ 5430059.52315959148109, 7717606.937799885869026 ], [ 5430065.513731751590967, 7717600.514608344063163 ], [ 5430093.899131669662893, 7717585.177134800702333 ], [ 5430119.017992869019508, 7717570.987926540896297 ], [ 5430136.904750087298453, 7717558.669029366225004 ], [ 5430149.397919045761228, 7717545.454400999471545 ], [ 5430152.001319837756455, 7717527.994714668020606 ], [ 5430147.301788520999253, 7717511.252782223746181 ], [ 5430139.596636944450438, 7717489.070252696983516 ], [ 5430133.71070559322834, 7717475.310975579544902 ], [ 5430158.313046827912331, 7717454.319326465018094 ], [ 5430177.762660317122936, 7717472.441477607004344 ], [ 5430220.932714742608368, 7717496.534010055474937 ], [ 5430252.841628056019545, 7717509.167876664549112 ], [ 5430281.758963306434453, 7717513.208340398967266 ], [ 5430298.548638139851391, 7717526.76905660238117 ], [ 5430307.153882858343422, 7717542.890326204709709 ], [ 5430312.404050712473691, 7717558.719193430617452 ], [ 5430324.163260668516159, 7717582.841396038420498 ], [ 5430353.311809512786567, 7717593.125244097784162 ], [ 5430390.601621841080487, 7717579.781622678041458 ], [ 5430407.253585509955883, 7717571.423118175007403 ], [ 5430400.904409060254693, 7717548.851069264113903 ], [ 5430409.885679135099053, 7717531.21857188269496 ], [ 5430436.738635670393705, 7717523.334124402143061 ], [ 5430464.160325170494616, 7717518.96503983810544 ], [ 5430471.985286713577807, 7717500.151890063658357 ], [ 5430480.029274920001626, 7717461.575040368363261 ], [ 5430466.237483944743872, 7717425.971448200754821 ], [ 5430464.804846820421517, 7717387.934491152875125 ], [ 5430468.115023211576045, 7717351.042729112319648 ], [ 5430521.07004112098366, 7717327.888750059530139 ], [ 5430538.307573372498155, 7717314.664468470029533 ], [ 5430560.488637881353498, 7717289.926138391718268 ], [ 5430559.480986161157489, 7717272.380238335579634 ], [ 5430551.896744580939412, 7717259.518810655921698 ], [ 5430569.826243460178375, 7717246.443435193039477 ], [ 5430579.86584766022861, 7717235.199795441702008 ], [ 5430581.905758582986891, 7717225.15798762626946 ], [ 5430581.123517761938274, 7717210.74769563600421 ], [ 5430577.462454785592854, 7717197.964409338310361 ], [ 5430571.745095793157816, 7717186.343269462697208 ], [ 5430559.797254902310669, 7717171.661070784553885 ], [ 5430542.519717599265277, 7717154.483271788805723 ], [ 5430517.265040452592075, 7717134.865879253484309 ], [ 5430519.8103505410254, 7717071.086833575740457 ], [ 5430541.658445010893047, 7717020.460382640361786 ], [ 5430555.42437765840441, 7716994.947425819933414 ], [ 5430556.859731364995241, 7716965.162771511822939 ], [ 5430553.925350385718048, 7716943.192384357564151 ], [ 5430541.59629949182272, 7716927.86496701464057 ], [ 5430528.578624214977026, 7716891.531427015550435 ], [ 5430520.858146581798792, 7716869.171792971901596 ], [ 5430512.260265646502376, 7716852.106949809938669 ], [ 5430498.110505969263613, 7716838.179896308109164 ], [ 5430476.498868715018034, 7716837.207122761756182 ], [ 5430463.868989675305784, 7716828.935859506949782 ], [ 5430440.657384401187301, 7716787.033197501674294 ], [ 5430434.16493786778301, 7716772.390279954299331 ], [ 5430434.892529086209834, 7716733.59924144949764 ] ] ] } }
]
}
