{
"type": "FeatureCollection",
"name": "3555307",
"crs": { "type": "name", "properties": { "name": "urn:ogc:def:crs:EPSG::5880" } },
"features": [
{ "type": "Feature", "properties": { "lv_id": "LOC_057865", "id": 370511.0, "CD_SETOR": "355530705000001", "SITUACAO": "Urbana", "CD_SIT": "1", "CD_TIPO": "0", "AREA_KM2": 0.221512391036289, "CD_REGIAO": "3", "NM_REGIAO": "Sudeste", "CD_UF": "35", "NM_UF": "São Paulo", "CD_MUN": "3555307", "NM_MUN": "Turmalina", "CD_DIST": "355530705", "NM_DIST": "Turmalina", "CD_SUBDIST": "35553070500", "NM_SUBDIST": null, "CD_BAIRRO": null, "NM_BAIRRO": null, "CD_NU": null, "NM_NU": null, "CD_FCU": null, "NM_FCU": null, "CD_AGLOM": null, "NM_AGLOM": null, "CD_RGINT": "3507", "NM_RGINT": "São José do Rio Preto", "CD_RGI": "350028", "NM_RGI": "Jales", "CD_CONCURB": null, "NM_CONCURB": null, "mun_code_x": "3555307", "index_right": 91253, "dist_m": 0.0, "local_id": 629641, "ano": 2022, "cod_localidade_ibge": 3555307, "NR_ZONA": "233", "nr_cep": 1000000.0, "nm_localidade": "TURMALINA", "nm_locvot": "EEPSG JERONYMO TRAZZI", "ds_endereco": "R VITORIO MIOTTO, S/N", "ds_bairro": "CENTRO", "pred_long": -50.4774221, "pred_lat": -20.0523415, "pred_dist": 0.0, "tse_long": -50.4765992, "tse_lat": -20.0527153, "long": -50.4765992, "lat": -20.0527153, "ID_UNICO": "LOC_057865", "SG_UF": "SP", "CD_MUNICIPIO": "72079", "NR_LOCAL_VOTACAO": "1015", "QT_SECOES_AGREGADAS": 0, "QT_ELEITORES_TRANSFERIDOS": 4, "CIRO GOMES (PDT) (NÃO ELEITO) 1T": 12.0, "CONSTITUINTE EYMAEL (DC) (NÃO ELEITO) 1T": 0.0, "FELIPE D AVILA (NOVO) (NÃO ELEITO) 1T": 0.0, "JAIR BOLSONARO (PL) (2º TURNO) 1T": 436.0, "LULA (PT) (2º TURNO) 1T": 544.0, "LÉO PÉRICLES (UP) (NÃO ELEITO) 1T": 0.0, "PADRE KELMON (PTB) (NÃO ELEITO) 1T": 0.0, "SIMONE TEBET (MDB) (NÃO ELEITO) 1T": 63.0, "SOFIA MANZANO (PCB) (NÃO ELEITO) 1T": 0.0, "SORAYA THRONICKE (UNIÃO) (NÃO ELEITO) 1T": 0.0, "VERA (PSTU) (NÃO ELEITO) 1T": 0.0, "Total_Votos_Validos 1T": 1055.0, "Votos_Brancos 1T": 11.0, "Votos_Nulos 1T": 43.0, "Abstenções 1T": 345.0, "Eleitores_Aptos 1T": 1454.0, "JAIR BOLSONARO (PL) (NÃO ELEITO) 2T": 471.0, "LULA (PT) (ELEITO) 2T": 567.0, "Total_Votos_Validos 2T": 1038.0, "Votos_Brancos 2T": 15.0, "Votos_Nulos 2T": 49.0, "Abstenções 2T": 352.0, "Eleitores_Aptos 2T": 1454.0, "mun_code_y": "3555307", "mun_code": "3555307" }, "geometry": { "type": "Polygon", "coordinates": [ [ [ 5373542.027874266728759, 7784975.004255109466612 ], [ 5373524.7556814244017, 7784912.047822847962379 ], [ 5373502.497277894988656, 7784889.738891748711467 ], [ 5373486.221528243273497, 7784860.802613259293139 ], [ 5373496.121845783665776, 7784812.995942034758627 ], [ 5373511.060924204066396, 7784780.122701725922525 ], [ 5373491.929536836221814, 7784751.280540199950337 ], [ 5373525.022827673703432, 7784722.002638535574079 ], [ 5373581.626934163272381, 7784701.596550182439387 ], [ 5373610.126095676794648, 7784659.605026300996542 ], [ 5373629.928486344404519, 7784594.605304900556803 ], [ 5373656.428953491151333, 7784579.199473414570093 ], [ 5373725.227379018440843, 7784599.096541592851281 ], [ 5373758.224619626067579, 7784556.498574601486325 ], [ 5373776.198668694123626, 7784579.153619622811675 ], [ 5373782.686868019402027, 7784625.258060362190008 ], [ 5373843.123527083545923, 7784584.803623991087079 ], [ 5373868.121223856694996, 7784548.498763459734619 ], [ 5373896.024630310945213, 7784539.995145602151752 ], [ 5373908.022782390937209, 7784545.995220698416233 ], [ 5373918.226105259731412, 7784594.005933068692684 ], [ 5373909.225378477945924, 7784676.101650718599558 ], [ 5373926.525165053084493, 7784684.295832119882107 ], [ 5373963.027751785703003, 7784649.997188882902265 ], [ 5373988.626141327433288, 7784569.200114019215107 ], [ 5373948.399375610984862, 7784522.561814857646823 ], [ 5373904.728327981196344, 7784434.146552421152592 ], [ 5373877.87950484175235, 7784381.122248807922006 ], [ 5373861.023555111140013, 7784351.499843279831111 ], [ 5373827.124257624149323, 7784308.996921742334962 ], [ 5373815.535909068770707, 7784289.799632664769888 ], [ 5373815.118741031736135, 7784266.293368733488023 ], [ 5373806.402899007312953, 7784231.583598783239722 ], [ 5373826.418819195590913, 7784197.303850972093642 ], [ 5373840.989015222527087, 7784174.198976950719953 ], [ 5373816.821917739696801, 7784135.004740538075566 ], [ 5373763.325247016735375, 7784095.803594505414367 ], [ 5373753.419028555974364, 7783989.996965995058417 ], [ 5373742.11983482632786, 7783970.604944296181202 ], [ 5373670.221069955267012, 7783922.500843199901283 ], [ 5373664.522061877883971, 7783892.795824103057384 ], [ 5373725.927705718204379, 7783838.499988220632076 ], [ 5373714.227624199353158, 7783811.096963305957615 ], [ 5373767.820625210180879, 7783702.605295091867447 ], [ 5373763.820027467794716, 7783680.894713655114174 ], [ 5373705.719847363419831, 7783665.795017476193607 ], [ 5373692.22271119710058, 7783652.295379130169749 ], [ 5373689.121701863594353, 7783639.394889939576387 ], [ 5373710.723808375187218, 7783595.098498547449708 ], [ 5373674.025330626405776, 7783573.929815586656332 ], [ 5373664.723605403676629, 7783534.795732174068689 ], [ 5373662.819957692176104, 7783465.599749564193189 ], [ 5373708.093104576691985, 7783487.373106861487031 ], [ 5373732.320519676432014, 7783470.994823842309415 ], [ 5373808.298650917597115, 7783478.28131655510515 ], [ 5373808.925516615621746, 7783403.596152402460575 ], [ 5373865.824167941696942, 7783355.995325768366456 ], [ 5373870.825770167633891, 7783340.703568521887064 ], [ 5373841.025905542075634, 7783285.202338073402643 ], [ 5373839.719520003534853, 7783188.096923876553774 ], [ 5373832.120454549789429, 7783171.399093998596072 ], [ 5373805.028240944258869, 7783160.896088572219014 ], [ 5373767.823911695741117, 7783173.902088634669781 ], [ 5373752.022787906229496, 7783151.001255247741938 ], [ 5373703.424311798065901, 7783137.196616996079683 ], [ 5373695.820274011231959, 7783117.803491055034101 ], [ 5373732.917935074307024, 7783099.797384798526764 ], [ 5373703.618886172771454, 7783081.998381071723998 ], [ 5373703.121442930772901, 7783062.09874356072396 ], [ 5373735.228282446041703, 7783048.602602633647621 ], [ 5373728.02145476732403, 7783033.604565436020494 ], [ 5373702.422350217588246, 7783018.499674219638109 ], [ 5373696.618327959440649, 7782998.60229673050344 ], [ 5373704.020672122016549, 7782988.894150696694851 ], [ 5373742.218688362278044, 7782985.694592460989952 ], [ 5373785.818797759711742, 7782888.795900482684374 ], [ 5373781.426231964491308, 7782832.99666528403759 ], [ 5373818.524247361347079, 7782780.194394614547491 ], [ 5373792.627959752455354, 7782774.701760170981288 ], [ 5373788.520335027016699, 7782725.396395896561444 ], [ 5373819.224669356830418, 7782703.100602582097054 ], [ 5373826.722439468838274, 7782728.796245655976236 ], [ 5373852.223944766446948, 7782746.698191566392779 ], [ 5373857.518693063408136, 7782769.701099768280983 ], [ 5373840.220055987127125, 7782824.299418264999986 ], [ 5373853.727728562429547, 7782833.894224643707275 ], [ 5373871.021962778642774, 7782810.498010400682688 ], [ 5373887.521252470090985, 7782756.704238351434469 ], [ 5373934.528051356784999, 7782786.703359050676227 ], [ 5373952.227250322699547, 7782771.99459248688072 ], [ 5373948.822937667369843, 7782754.697041871026158 ], [ 5373914.925810455344617, 7782717.596530878916383 ], [ 5373889.453571487218142, 7782676.533770015463233 ], [ 5373876.927076005376875, 7782625.100904972292483 ], [ 5373879.926378211937845, 7782603.296402830630541 ], [ 5373912.425673087127507, 7782579.298259856179357 ], [ 5373909.224591238424182, 7782520.500862283632159 ], [ 5373887.223929098807275, 7782493.994503838010132 ], [ 5373844.618108562193811, 7782495.602653693407774 ], [ 5373830.725415666587651, 7782549.895401464775205 ], [ 5373802.923642673529685, 7782563.499696751125157 ], [ 5373792.527257568202913, 7782528.504197158850729 ], [ 5373784.888917478732765, 7782487.870529916137457 ], [ 5373731.92657485883683, 7782405.299828794784844 ], [ 5373701.324597860686481, 7782409.302548937499523 ], [ 5373683.526394916698337, 7782368.796903537586331 ], [ 5373570.619612720794976, 7782307.60347911529243 ], [ 5373549.017791338264942, 7782282.097704248502851 ], [ 5373526.222267492674291, 7782221.699595846235752 ], [ 5373526.619088366627693, 7782148.494685928337276 ], [ 5373505.422367048449814, 7782113.99569983035326 ], [ 5373512.520962931215763, 7782054.701491778716445 ], [ 5373493.720047054812312, 7781979.399223024025559 ], [ 5373510.826353381387889, 7781942.796644123271108 ], [ 5373509.219503534957767, 7781917.496667571365833 ], [ 5373486.423425136134028, 7781843.799234302714467 ], [ 5373483.419909355230629, 7781795.202465013600886 ], [ 5373551.222583006136119, 7781676.60184033960104 ], [ 5373591.853780732490122, 7781607.518762170337141 ], [ 5373620.825348572805524, 7781550.197908312082291 ], [ 5373631.226695392280817, 7781529.999126533046365 ], [ 5373638.820873402990401, 7781472.890358649194241 ], [ 5373596.862137308344245, 7781435.529203522950411 ], [ 5373535.126532146707177, 7781422.859381946735084 ], [ 5373423.247162190265954, 7781413.510655196383595 ], [ 5373300.471219006925821, 7781382.464630424045026 ], [ 5373257.020371671766043, 7781365.898933244869113 ], [ 5373182.520364181138575, 7781397.102846628054976 ], [ 5373160.482758205384016, 7781384.972048383206129 ], [ 5373140.638317589648068, 7781361.813385725021362 ], [ 5373138.499875049106777, 7781332.664772407151759 ], [ 5373120.318448328413069, 7781311.910899115726352 ], [ 5373147.298322603106499, 7781281.420673446729779 ], [ 5373189.587815426290035, 7781247.420616548508406 ], [ 5373187.097469083964825, 7781198.81298971362412 ], [ 5373210.575567839667201, 7781153.800152231007814 ], [ 5373216.814132477156818, 7781050.710918067023158 ], [ 5373208.199813792482018, 7781021.678177364170551 ], [ 5373247.915028641931713, 7780934.202555645257235 ], [ 5373218.245565998367965, 7780904.742528103291988 ], [ 5373258.041191751137376, 7780866.724499847739935 ], [ 5373280.607600459828973, 7780861.462571511976421 ], [ 5373320.92745169159025, 7780762.626576105132699 ], [ 5373337.540544902905822, 7780741.241679822094738 ], [ 5373363.215161454863846, 7780728.62582940980792 ], [ 5373359.219860168173909, 7780682.601399518549442 ], [ 5373372.622016482055187, 7780662.294323187321424 ], [ 5373393.866039304062724, 7780676.9928327659145 ], [ 5373407.217409366741776, 7780699.457782158628106 ], [ 5373425.610653330571949, 7780686.963898015208542 ], [ 5373444.174452961422503, 7780638.794276271946728 ], [ 5373402.935027246363461, 7780551.148499471135437 ], [ 5373399.291755532845855, 7780528.50969903729856 ], [ 5373407.459321859292686, 7780487.017497814260423 ], [ 5373365.073534858413041, 7780470.740285813808441 ], [ 5373380.006285117007792, 7780446.152252437546849 ], [ 5373373.953247128985822, 7780424.363498989492655 ], [ 5373386.617064606398344, 7780393.002244792878628 ], [ 5373394.626360815949738, 7780358.323939349502325 ], [ 5373377.226786417886615, 7780335.934310281649232 ], [ 5373381.517207744531333, 7780268.20337597001344 ], [ 5373405.921429659239948, 7780221.08483711630106 ], [ 5373436.500755405053496, 7780210.804306937381625 ], [ 5373444.246573876589537, 7780146.615564026869833 ], [ 5373477.775145901367068, 7780120.066464716568589 ], [ 5373458.525092527270317, 7780069.797687560319901 ], [ 5373432.522449524141848, 7780034.114913361147046 ], [ 5373433.816003007814288, 7780016.262346321716905 ], [ 5373482.258136565797031, 7780008.905819680541754 ], [ 5373491.587086250074208, 7779966.944996615871787 ], [ 5373528.979298844002187, 7779951.305487906560302 ], [ 5373538.016873983666301, 7779913.843126419000328 ], [ 5373558.635860038921237, 7779889.965287990868092 ], [ 5373542.799098850227892, 7779864.30359597876668 ], [ 5373565.180899627506733, 7779848.49641212169081 ], [ 5373547.346040405333042, 7779801.780247140675783 ], [ 5373575.791809152811766, 7779763.160221294499934 ], [ 5373602.681304865516722, 7779773.223285103216767 ], [ 5373603.95397169701755, 7779710.769800908863544 ], [ 5373619.784613491035998, 7779688.591354180127382 ], [ 5373613.655421538278461, 7779662.7556674759835 ], [ 5373631.272782847285271, 7779652.707068646326661 ], [ 5373687.111955576576293, 7779651.702842550352216 ], [ 5373692.059303287416697, 7779611.887414842844009 ], [ 5373729.171400076709688, 7779604.738752251490951 ], [ 5373746.916512347757816, 7779556.574785800650716 ], [ 5373737.454501714557409, 7779525.120072163641453 ], [ 5373747.78428288269788, 7779514.395121308974922 ], [ 5373778.040750244632363, 7779531.695629637688398 ], [ 5373756.568736690096557, 7779507.751804918050766 ], [ 5373759.206499963067472, 7779474.463463094085455 ], [ 5373792.228443516418338, 7779464.950651314109564 ], [ 5373812.248284082859755, 7779453.242113249376416 ], [ 5373797.29302791878581, 7779431.621516637504101 ], [ 5373830.380390742793679, 7779426.155841624364257 ], [ 5373821.723013306967914, 7779373.09868255071342 ], [ 5373826.916800389997661, 7779351.701885485090315 ], [ 5373824.375105436891317, 7779339.510505495592952 ], [ 5373848.662607875652611, 7779339.479424120858312 ], [ 5373857.870211388915777, 7779334.036029858514667 ], [ 5373854.800334928557277, 7779321.123860419727862 ], [ 5373831.270018726587296, 7779317.89986970089376 ], [ 5373820.962821271270514, 7779307.138974254019558 ], [ 5373822.84856120403856, 7779299.400733441114426 ], [ 5373840.441278647631407, 7779287.732908530160785 ], [ 5373838.65390405151993, 7779278.032226426526904 ], [ 5373819.800858825445175, 7779264.991550602950156 ], [ 5373831.29862651694566, 7779229.106785215437412 ], [ 5373814.525218909606338, 7779218.872336244210601 ], [ 5373793.067577417939901, 7779241.149176478385925 ], [ 5373778.388881967402995, 7779234.91854851692915 ], [ 5373778.616865202784538, 7779202.480313547886908 ], [ 5373757.181648687459528, 7779203.271192466840148 ], [ 5373746.959245787933469, 7779220.482781511731446 ], [ 5373752.838040300644934, 7779232.136975966393948 ], [ 5373744.520594688132405, 7779242.020327871665359 ], [ 5373729.076219251379371, 7779238.645606221631169 ], [ 5373692.755109285004437, 7779176.462907964363694 ], [ 5373695.075385849922895, 7779155.260669818148017 ], [ 5373708.085097970440984, 7779151.455375557765365 ], [ 5373708.631176779046655, 7779136.846484046429396 ], [ 5373703.027405663393438, 7779117.488480651751161 ], [ 5373703.17431824747473, 7779103.298527447506785 ], [ 5373710.891902392730117, 7779082.480086952447891 ], [ 5373714.530427258461714, 7779059.308545771986246 ], [ 5373721.883380458690226, 7779040.527743200771511 ], [ 5373711.806070867925882, 7779020.433439551852643 ], [ 5373747.767360673286021, 7778994.252832978963852 ], [ 5373751.794494066387415, 7778970.662554958835244 ], [ 5373771.180992098525167, 7778945.989710016176105 ], [ 5373738.783755667507648, 7778899.951065134257078 ], [ 5373761.454257404431701, 7778877.648292942903936 ], [ 5373749.836802908219397, 7778839.340394542552531 ], [ 5373759.365761746652424, 7778806.337299900129437 ], [ 5373757.856454024091363, 7778767.036888039670885 ], [ 5373778.266049155034125, 7778754.510180320590734 ], [ 5373783.388888821005821, 7778724.418643841519952 ], [ 5373780.842581163160503, 7778694.86818765848875 ], [ 5373785.023202129639685, 7778624.598909083753824 ], [ 5373787.319762906059623, 7778604.750357544049621 ], [ 5373801.36795206554234, 7778576.109610985964537 ], [ 5373803.675162085331976, 7778546.47756233625114 ], [ 5373812.341354009695351, 7778533.347747607156634 ], [ 5373782.875787815079093, 7778470.231264043599367 ], [ 5373789.73045795224607, 7778445.781842488795519 ], [ 5373783.948331667110324, 7778417.099202061071992 ], [ 5373739.489448585547507, 7778397.62912280112505 ], [ 5373726.754036142490804, 7778387.308406103402376 ], [ 5373725.239906193688512, 7778370.314361184835434 ], [ 5373731.970264217816293, 7778362.084314953535795 ], [ 5373758.074506849050522, 7778350.667021604254842 ], [ 5373748.657347932457924, 7778299.755826758220792 ], [ 5373704.966254341416061, 7778300.534616412594914 ], [ 5373701.082399381324649, 7778287.229449898004532 ], [ 5373710.853971523232758, 7778269.029123172163963 ], [ 5373727.955416890792549, 7778251.071394180878997 ], [ 5373743.171513399109244, 7778197.282000800594687 ], [ 5373743.731040455400944, 7778160.788017028942704 ], [ 5373760.653128281235695, 7778111.43223166745156 ], [ 5373771.306684954091907, 7778095.830722559243441 ], [ 5373796.510690094903111, 7778124.563899440690875 ], [ 5373812.624478331767023, 7778120.625445540994406 ], [ 5373827.140882559120655, 7778094.825250025838614 ], [ 5373826.006764238700271, 7778077.013340662233531 ], [ 5373828.819095044396818, 7778065.151152733713388 ], [ 5373861.910724921151996, 7778070.288937346078455 ], [ 5373882.358398612588644, 7778037.074263494461775 ], [ 5373913.769454526714981, 7778005.699247663840652 ], [ 5373900.412965540774167, 7777960.939746314659715 ], [ 5373892.356548998504877, 7777940.414137022569776 ], [ 5373912.422143518924713, 7777908.427695423364639 ], [ 5373914.194414990954101, 7777871.907681345939636 ], [ 5373930.894687456078827, 7777832.2841443028301 ], [ 5373915.803255895152688, 7777803.767423022538424 ], [ 5373915.875381018966436, 7777785.119964552111924 ], [ 5373955.787627157755196, 7777753.995474118739367 ], [ 5373984.397996696643531, 7777724.288498192094266 ], [ 5374030.180102670565248, 7777704.41873964201659 ], [ 5374038.442090736702085, 7777669.002077444456518 ], [ 5374056.765388337895274, 7777652.448585812933743 ], [ 5374079.302836917340755, 7777645.554884122684598 ], [ 5374123.426280159503222, 7777645.985747748985887 ], [ 5374144.252502802759409, 7777633.449392732232809 ], [ 5374173.617252711206675, 7777591.591004071757197 ], [ 5374198.417586375959218, 7777562.34227445628494 ], [ 5374222.94233488291502, 7777552.976610070094466 ], [ 5374227.518319730646908, 7777537.493737488053739 ], [ 5374288.057173274457455, 7777505.593761706724763 ], [ 5374294.525413299910724, 7777435.297018084675074 ], [ 5374321.154276142828166, 7777432.829824365675449 ], [ 5374345.203476626425982, 7777419.835884952917695 ], [ 5374353.859754918143153, 7777406.295409923419356 ], [ 5374343.116180239245296, 7777371.21907014772296 ], [ 5374373.039218126796186, 7777347.173397831618786 ], [ 5374378.043832722119987, 7777310.184548351913691 ], [ 5374425.64554753433913, 7777256.631771363317966 ], [ 5374415.626907743513584, 7777239.775537602603436 ], [ 5374433.78122681658715, 7777213.907650120556355 ], [ 5374431.849611673504114, 7777196.512069300748408 ], [ 5374443.05028607416898, 7777189.417029397562146 ], [ 5374465.239878716878593, 7777185.369758632034063 ], [ 5374479.648215218447149, 7777176.597568013705313 ], [ 5374490.732737363316119, 7777162.61670536454767 ], [ 5374479.84132597129792, 7777142.14096051082015 ], [ 5374473.023469905368984, 7777122.798046095296741 ], [ 5374472.518604154698551, 7777094.834262078627944 ], [ 5374474.379401774145663, 7777085.476903080940247 ], [ 5374469.255739940330386, 7777070.978257844224572 ], [ 5374471.090407936833799, 7777060.401313427835703 ], [ 5374478.934180322103202, 7777046.06840346287936 ], [ 5374481.216601661406457, 7777038.321469912305474 ], [ 5374472.454862437210977, 7777023.479305202141404 ], [ 5374475.367553176358342, 7777005.591654292307794 ], [ 5374499.731716646812856, 7776987.310713302344084 ], [ 5374490.793035510927439, 7776962.744461996480823 ], [ 5374501.538909455761313, 7776930.524093490093946 ], [ 5374517.892769701778889, 7776916.851718932390213 ], [ 5374512.659590538591146, 7776896.265794983133674 ], [ 5374503.483114856295288, 7776880.622809363529086 ], [ 5374522.200535948388278, 7776862.507223023101687 ], [ 5374533.384060959331691, 7776878.062800497747958 ], [ 5374534.652807660400867, 7776903.581028789281845 ], [ 5374566.065542210824788, 7776894.910008342005312 ], [ 5374574.435023315250874, 7776865.569036931730807 ], [ 5374595.012849395163357, 7776829.787881529890001 ], [ 5374619.311215316876769, 7776817.73086753860116 ], [ 5374649.501451201736927, 7776763.263771455734968 ], [ 5374636.324115756899118, 7776762.082214624620974 ], [ 5374623.146782285533845, 7776760.900648215785623 ], [ 5374615.834366794675589, 7776759.005404962226748 ], [ 5374585.621994432993233, 7776727.496884241700172 ], [ 5374490.279433383606374, 7776794.220042338594794 ], [ 5374256.117154764942825, 7776692.598038816824555 ], [ 5374162.730439076200128, 7776672.3366614645347 ], [ 5374020.982272244989872, 7776644.159072915092111 ], [ 5373791.123315935954452, 7776616.812499344348907 ], [ 5373633.51956248190254, 7776573.697414222173393 ], [ 5373565.497395041398704, 7776530.972437160089612 ], [ 5373535.426226232200861, 7776462.88874604459852 ], [ 5373461.220637507736683, 7776337.892345072701573 ], [ 5373417.002988036721945, 7776293.238159278407693 ], [ 5373414.39462795574218, 7776290.642915695905685 ], [ 5373411.603982246480882, 7776287.840819261036813 ], [ 5373352.114872123114765, 7776227.695698382332921 ], [ 5373214.543583, 7776162.652886539697647 ], [ 5373145.072115156799555, 7776149.440491387620568 ], [ 5373074.820708957500756, 7776138.895511500537395 ], [ 5372878.481093022972345, 7776147.792145649902523 ], [ 5372800.894532836042345, 7776162.20455570705235 ], [ 5372515.893923111259937, 7776273.150536883622408 ], [ 5372506.541898581199348, 7776277.642634445801377 ], [ 5372498.377283663488925, 7776280.412320429459214 ], [ 5372468.03395530488342, 7776296.044828217476606 ], [ 5372197.640907956287265, 7776384.666829288005829 ], [ 5371501.345258126035333, 7776612.944788407534361 ], [ 5371433.346238564699888, 7776629.143191944807768 ], [ 5371366.156942914240062, 7776624.859577003866434 ], [ 5371251.239868432283401, 7776522.739538378082216 ], [ 5371147.712061581201851, 7776370.097554432228208 ], [ 5371051.46572255063802, 7776242.978171152994037 ], [ 5371047.737850788980722, 7776238.886845789849758 ], [ 5371043.960751807317138, 7776234.940759913995862 ], [ 5370949.41862793173641, 7775992.396454086527228 ], [ 5370923.016098815016448, 7775810.296961164101958 ], [ 5370919.017024869099259, 7775599.792242689058185 ], [ 5370924.422165432944894, 7775534.579373173415661 ], [ 5370924.609653631225228, 7775527.642987362109125 ], [ 5370924.953159243799746, 7775520.170877875760198 ], [ 5370925.818399114534259, 7775513.619397129863501 ], [ 5370927.841919437050819, 7775500.521300135180354 ], [ 5370934.115801746957004, 7775384.101078506559134 ], [ 5370969.274436387233436, 7775257.306117258965969 ], [ 5370969.713603230193257, 7775253.847217371687293 ], [ 5370970.690331052988768, 7775250.576545636169612 ], [ 5370986.72061159927398, 7775191.593200476840138 ], [ 5371120.496892722323537, 7774857.29081432428211 ], [ 5371109.815829223953187, 7774782.492520023137331 ], [ 5371057.521066219545901, 7774722.599285701289773 ], [ 5370986.757923282682896, 7774707.821003811433911 ], [ 5370865.517904962413013, 7774697.997484909370542 ], [ 5370646.413841704837978, 7774715.996275134384632 ], [ 5370493.668471869081259, 7774785.291719223372638 ], [ 5370488.343672125600278, 7774787.767324688844383 ], [ 5370484.560499856248498, 7774789.433772322721779 ], [ 5370480.901870151981711, 7774791.053207706660032 ], [ 5370477.51418140437454, 7774792.622522856108844 ], [ 5370454.272427544929087, 7774803.17619764059782 ], [ 5370382.618283941410482, 7774846.990181189030409 ], [ 5370327.615925265476108, 7774946.896536214277148 ], [ 5370262.935878926888108, 7775023.626451510004699 ], [ 5370091.930272090248764, 7775181.783913012593985 ], [ 5370054.785556375049055, 7775231.918684566393495 ], [ 5370052.476590751670301, 7775235.02896037325263 ], [ 5370050.120506001636386, 7775238.384253149852157 ], [ 5369826.29299829620868, 7775544.534616956487298 ], [ 5369678.097303628921509, 7775681.505999940447509 ], [ 5369611.344390626996756, 7775754.505161622539163 ], [ 5369520.918719704262912, 7775809.892299799248576 ], [ 5369471.812346014194191, 7775816.499592246487737 ], [ 5369268.756323490291834, 7775797.037216141819954 ], [ 5369186.484084301628172, 7775809.569315921515226 ], [ 5369074.802666725590825, 7775855.797962561249733 ], [ 5368951.208774675615132, 7775936.927721565589309 ], [ 5368852.877444630488753, 7775984.71379611082375 ], [ 5368671.774313736706972, 7776031.862398654222488 ], [ 5368603.614213460125029, 7776019.093118981458247 ], [ 5368588.498409275896847, 7776006.313072321005166 ], [ 5368584.802204803563654, 7776003.196726338937879 ], [ 5368579.777264025062323, 7775999.088004387915134 ], [ 5368494.015422919765115, 7775927.094941034913063 ], [ 5368463.255285537801683, 7775914.656078526750207 ], [ 5368223.428624710068107, 7775947.49992910027504 ], [ 5368036.28251092787832, 7776023.207816895097494 ], [ 5367970.643878577277064, 7776041.70541794039309 ], [ 5367822.884489042684436, 7776005.987427919171751 ], [ 5367705.004190858453512, 7776043.2420693654567 ], [ 5367591.912853477522731, 7776024.693721584975719 ], [ 5367510.318863330408931, 7775986.504285335540771 ], [ 5367454.585473687388003, 7775969.576069865375757 ], [ 5367335.210542264394462, 7775990.998851372860372 ], [ 5367222.485967730171978, 7775983.886881052516401 ], [ 5367052.807500082999468, 7776006.299033092334867 ], [ 5366951.493933421559632, 7776007.98491745069623 ], [ 5366846.407573216594756, 7776000.898568346165121 ], [ 5366657.753525893203914, 7775953.69685921818018 ], [ 5366429.501738340593874, 7775930.483100583776832 ], [ 5366309.708216873928905, 7775930.479115448892117 ], [ 5366234.870570421218872, 7775943.417676048353314 ], [ 5366182.607774685136974, 7775974.194180606864393 ], [ 5366273.411611805669963, 7775808.093803158029914 ], [ 5366285.50889219623059, 7775730.899575642310083 ], [ 5366273.606640616431832, 7775626.303131869062781 ], [ 5366241.613657033070922, 7775538.498996919952333 ], [ 5366235.411244234070182, 7775481.198328452184796 ], [ 5366232.81279344856739, 7775174.700094992294908 ], [ 5366208.00683421548456, 7775067.901075605303049 ], [ 5366208.415441658347845, 7774994.101999302394688 ], [ 5366227.412213115021586, 7774881.292866661213338 ], [ 5366258.50700150988996, 7774774.695967091247439 ], [ 5366289.016187627799809, 7774681.099167300388217 ], [ 5366341.215109655633569, 7774577.197754429653287 ], [ 5366176.408353, 7774562.412080002948642 ], [ 5365995.461262753233314, 7774575.137161057442427 ], [ 5365554.932317921891809, 7774612.810296184383333 ], [ 5365140.605554399080575, 7774620.354604907333851 ], [ 5364712.525523563846946, 7774597.021527444943786 ], [ 5364708.251694299280643, 7774596.755945893935859 ], [ 5364704.345709732733667, 7774596.571403635665774 ], [ 5364472.506130088120699, 7774583.903009494766593 ], [ 5364277.904203187674284, 7774944.0023791519925 ], [ 5364216.314060496166348, 7775109.402763243764639 ], [ 5364222.710415694862604, 7775203.399325204081833 ], [ 5364250.910931549966335, 7775337.600785203278065 ], [ 5364170.405998300760984, 7775605.9988649263978 ], [ 5364177.305830550380051, 7775677.004165876656771 ], [ 5364213.704001126810908, 7775782.896614051423967 ], [ 5364222.81034079939127, 7775869.904681995511055 ], [ 5364218.708633011206985, 7775902.99729398265481 ], [ 5364173.404172424226999, 7775995.698775859549642 ], [ 5364173.808545716106892, 7776041.696096701547503 ], [ 5364192.710782185196877, 7776084.202095022425056 ], [ 5364185.013179573230445, 7776127.994917653501034 ], [ 5364163.612075018696487, 7776199.002635389566422 ], [ 5364103.40864622220397, 7776280.202440714463592 ], [ 5364082.21388198249042, 7776374.197407372295856 ], [ 5364087.506183785386384, 7776417.796913346275687 ], [ 5364127.212836779654026, 7776524.297201376408339 ], [ 5364146.805233653634787, 7776693.803701501339674 ], [ 5364174.40446762740612, 7776830.302655102685094 ], [ 5364297.112370969727635, 7777155.595851212739944 ], [ 5364403.807843624614179, 7777313.902856207452714 ], [ 5364449.81358091160655, 7777399.198569048196077 ], [ 5364596.212000130675733, 7777600.797085388563573 ], [ 5364733.212382309138775, 7777720.905072873458266 ], [ 5364808.410679345019162, 7777748.405167894437909 ], [ 5364817.208338502794504, 7777879.196506999433041 ], [ 5364797.410784797742963, 7777955.395358733832836 ], [ 5364798.610232930630445, 7778014.896324584260583 ], [ 5364752.213999549858272, 7778093.103160153143108 ], [ 5364707.614887800067663, 7778254.9990029707551 ], [ 5364637.612809989601374, 7778446.704945754259825 ], [ 5364642.405903980135918, 7778488.396185834892094 ], [ 5364623.212348281405866, 7778603.201085665263236 ], [ 5364656.106694005429745, 7778653.201248272322118 ], [ 5364612.514017852954566, 7778753.597473778761923 ], [ 5364641.115174310281873, 7778818.005820559337735 ], [ 5364608.212727013044059, 7779004.600660836324096 ], [ 5364632.909066936932504, 7779064.398965269327164 ], [ 5364638.311535407789052, 7779103.704004927538335 ], [ 5364618.611051367595792, 7779182.706174051389098 ], [ 5364619.913380661047995, 7779292.403030501678586 ], [ 5364606.111335795372725, 7779379.800080541521311 ], [ 5364527.614988449960947, 7779523.80128375440836 ], [ 5364413.514507909305394, 7779650.598389676772058 ], [ 5364371.213507795706391, 7779742.404012210667133 ], [ 5364222.605858344584703, 7779819.79780353512615 ], [ 5364150.014903198927641, 7779874.202176069840789 ], [ 5364105.205814923159778, 7779971.305048262700438 ], [ 5364100.507283975370228, 7780019.604356475174427 ], [ 5364108.709088975563645, 7780088.907719193026423 ], [ 5364171.815309166908264, 7780290.304631341248751 ], [ 5364239.208028947003186, 7780348.60473024379462 ], [ 5364287.112581074237823, 7780412.80044796410948 ], [ 5364321.312018974684179, 7780500.306416725739837 ], [ 5364309.612655960954726, 7780564.201380761340261 ], [ 5364282.408084819093347, 7780595.600770666263998 ], [ 5364378.209159221500158, 7780613.902770362794399 ], [ 5364489.31390811316669, 7780618.299008343368769 ], [ 5364597.916385884396732, 7780594.996872511692345 ], [ 5364811.812415176071227, 7780497.10772205516696 ], [ 5364896.314992839470506, 7780448.297363365069032 ], [ 5364978.710417503491044, 7780391.300869395025074 ], [ 5365087.615526329725981, 7780269.699580619111657 ], [ 5365188.610975145362318, 7780192.904221639037132 ], [ 5365282.816816810518503, 7780134.805355912074447 ], [ 5365363.815199735574424, 7780116.299822458066046 ], [ 5365424.807565282098949, 7780089.405395444482565 ], [ 5365621.316320509649813, 7779953.203771760687232 ], [ 5365914.11632714420557, 7779860.004644717089832 ], [ 5366203.310887707397342, 7779829.197281138971448 ], [ 5366292.714379452168941, 7779806.396226579323411 ], [ 5366485.218187505379319, 7779689.29965184815228 ], [ 5366527.614182487130165, 7779682.000553581863642 ], [ 5366576.615635938942432, 7779689.802348112687469 ], [ 5366702.81631272751838, 7779794.598533906042576 ], [ 5366831.817619625478983, 7779858.696759088896215 ], [ 5366901.009548645466566, 7779904.605618110857904 ], [ 5367061.610680974088609, 7780102.699627194553614 ], [ 5367126.716437907889485, 7780148.804508412256837 ], [ 5367317.715518310666084, 7780208.903664188459516 ], [ 5367410.219214665703475, 7780253.999913664534688 ], [ 5367494.918727890588343, 7780334.097720326855779 ], [ 5367539.01967641338706, 7780391.0019237883389 ], [ 5367687.814015828073025, 7780493.299696825444698 ], [ 5367733.818164880387485, 7780546.104140194132924 ], [ 5367763.910398664884269, 7780558.304509085603058 ], [ 5367813.119371518492699, 7780559.39981628395617 ], [ 5367844.514639676548541, 7780533.495818975381553 ], [ 5367921.417232668958604, 7780418.702114270068705 ], [ 5367985.213987526483834, 7780393.902183923870325 ], [ 5368076.713687808252871, 7780370.704274469986558 ], [ 5368184.416517577134073, 7780362.604222979396582 ], [ 5368278.615071305073798, 7780373.698694951832294 ], [ 5368347.415082602761686, 7780402.197512682527304 ], [ 5368663.717816979624331, 7780647.102896558120847 ], [ 5368846.211735973134637, 7780820.600008448585868 ], [ 5368946.113935022614896, 7780900.105870611034334 ], [ 5369070.918872532434762, 7780970.401549247093499 ], [ 5369368.41595905739814, 7781074.498350078240037 ], [ 5369758.515006677247584, 7781268.795317009091377 ], [ 5369856.813229314051569, 7781389.004107929766178 ], [ 5369900.822447133250535, 7781463.896773485466838 ], [ 5369927.41318017244339, 7781630.297491699457169 ], [ 5369929.719632218591869, 7781765.300627954304218 ], [ 5370292.02224506251514, 7782452.003949048928916 ], [ 5370410.42386120185256, 7782569.701121781952679 ], [ 5370474.419113900512457, 7782598.605910442769527 ], [ 5370537.819507685489953, 7782585.995754774659872 ], [ 5370597.121925695799291, 7782555.303833996877074 ], [ 5370615.02343971375376, 7782505.999547062441707 ], [ 5370671.514313922263682, 7782103.905030582100153 ], [ 5370711.718836891464889, 7782058.09925370849669 ], [ 5370730.418005542829633, 7782050.504879212006927 ], [ 5370768.324336028657854, 7782079.605699751526117 ], [ 5370795.718705510720611, 7782146.596571901813149 ], [ 5370839.321475459262729, 7782498.30196106992662 ], [ 5370874.520707322284579, 7782576.496644861996174 ], [ 5370977.61816290486604, 7782690.898941250517964 ], [ 5370998.820114778354764, 7782821.798472120426595 ], [ 5370962.824845837429166, 7783324.805971589870751 ], [ 5370982.521441832184792, 7783363.298826820217073 ], [ 5371117.121403126046062, 7783428.8960314495489 ], [ 5371267.315514672547579, 7783562.099139981903136 ], [ 5371495.21623764000833, 7783826.600733766332269 ], [ 5371689.422336316667497, 7784008.304733062162995 ], [ 5372288.320359678938985, 7784699.497348076663911 ], [ 5372344.08989960514009, 7784772.395905192941427 ], [ 5372355.824434184469283, 7784787.697558575309813 ], [ 5372535.421331210061908, 7784957.404849998652935 ], [ 5372669.625517588108778, 7785111.504150709137321 ], [ 5372960.819340175949037, 7785354.206586412154138 ], [ 5373041.826681525446475, 7785410.605846427381039 ], [ 5373139.020466146990657, 7785447.904024850577116 ], [ 5373252.427219111472368, 7785464.403181686997414 ], [ 5373280.525875427760184, 7785332.099134177900851 ], [ 5373337.322623730637133, 7785279.301553779281676 ], [ 5373339.923457982949913, 7785256.396702589467168 ], [ 5373319.72331621684134, 7785203.396547043696046 ], [ 5373319.121450135484338, 7785175.102608284913003 ], [ 5373335.127509963698685, 7785120.999055225402117 ], [ 5373347.423578354530036, 7785103.600194938480854 ], [ 5373388.827320151031017, 7785087.999723367393017 ], [ 5373436.820396257564425, 7785117.403286658227444 ], [ 5373471.320422842167318, 7785116.801798487082124 ], [ 5373485.834116878919303, 7785107.696784047409892 ], [ 5373488.520099638961256, 7785106.020154407247901 ], [ 5373515.822499694302678, 7785088.900552704930305 ], [ 5373529.325267502106726, 7785062.302735770121217 ], [ 5373542.027874266728759, 7784975.004255109466612 ] ] ] } },
{ "type": "Feature", "properties": { "lv_id": "LOC_057867", "id": 370518.0, "CD_SETOR": "355530710000001", "SITUACAO": "Urbana", "CD_SIT": "1", "CD_TIPO": "0", "AREA_KM2": 0.081676352785317999, "CD_REGIAO": "3", "NM_REGIAO": "Sudeste", "CD_UF": "35", "NM_UF": "São Paulo", "CD_MUN": "3555307", "NM_MUN": "Turmalina", "CD_DIST": "355530710", "NM_DIST": "Fátima Paulista", "CD_SUBDIST": "35553071000", "NM_SUBDIST": null, "CD_BAIRRO": null, "NM_BAIRRO": null, "CD_NU": null, "NM_NU": null, "CD_FCU": null, "NM_FCU": null, "CD_AGLOM": null, "NM_AGLOM": null, "CD_RGINT": "3507", "NM_RGINT": "São José do Rio Preto", "CD_RGI": "350028", "NM_RGI": "Jales", "CD_CONCURB": null, "NM_CONCURB": null, "mun_code_x": "3555307", "index_right": 91255, "dist_m": 2689.8767076502909, "local_id": 629643, "ano": 2022, "cod_localidade_ibge": 3555307, "NR_ZONA": "233", "nr_cep": 15757000.0, "nm_localidade": "TURMALINA", "nm_locvot": "CENTRO DE CONVIVÊNCIA DO IDOSO - CCI", "ds_endereco": "RUA BRASIL, 350 - FÁTIMA PAULISTA", "ds_bairro": "FATIMA PAULISTA", "pred_long": -50.46942, "pred_lat": -20.079223, "pred_dist": 0.0, "tse_long": -50.4595784, "tse_lat": -20.1043544, "long": -50.4595784, "lat": -20.1043544, "ID_UNICO": "LOC_057867", "SG_UF": "SP", "CD_MUNICIPIO": "72079", "NR_LOCAL_VOTACAO": "1953", "QT_SECOES_AGREGADAS": 0, "QT_ELEITORES_TRANSFERIDOS": 8, "CIRO GOMES (PDT) (NÃO ELEITO) 1T": 3.0, "CONSTITUINTE EYMAEL (DC) (NÃO ELEITO) 1T": 0.0, "FELIPE D AVILA (NOVO) (NÃO ELEITO) 1T": 2.0, "JAIR BOLSONARO (PL) (2º TURNO) 1T": 113.0, "LULA (PT) (2º TURNO) 1T": 113.0, "LÉO PÉRICLES (UP) (NÃO ELEITO) 1T": 0.0, "PADRE KELMON (PTB) (NÃO ELEITO) 1T": 0.0, "SIMONE TEBET (MDB) (NÃO ELEITO) 1T": 19.0, "SOFIA MANZANO (PCB) (NÃO ELEITO) 1T": 0.0, "SORAYA THRONICKE (UNIÃO) (NÃO ELEITO) 1T": 1.0, "VERA (PSTU) (NÃO ELEITO) 1T": 0.0, "Total_Votos_Validos 1T": 251.0, "Votos_Brancos 1T": 5.0, "Votos_Nulos 1T": 5.0, "Abstenções 1T": 90.0, "Eleitores_Aptos 1T": 351.0, "JAIR BOLSONARO (PL) (NÃO ELEITO) 2T": 137.0, "LULA (PT) (ELEITO) 2T": 127.0, "Total_Votos_Validos 2T": 264.0, "Votos_Brancos 2T": 11.0, "Votos_Nulos 2T": 8.0, "Abstenções 2T": 68.0, "Eleitores_Aptos 2T": 351.0, "mun_code_y": "3555307", "mun_code": "3555307" }, "geometry": { "type": "Polygon", "coordinates": [ [ [ 5372298.011406256817281, 7766377.79039866104722 ], [ 5372280.710901315324008, 7766371.694289646111429 ], [ 5372186.961153713054955, 7766338.240750869736075 ], [ 5372093.211763861589134, 7766304.78676615934819 ], [ 5372017.008271489292383, 7766297.688701428472996 ], [ 5371724.111942333169281, 7766311.188158791512251 ], [ 5371487.309288498945534, 7766301.388337168842554 ], [ 5371381.117962460964918, 7766283.592504388652742 ], [ 5371289.316942498087883, 7766236.49409943446517 ], [ 5371184.510073387995362, 7766164.494264863431454 ], [ 5371025.712833484634757, 7766083.486571723595262 ], [ 5370975.011425119824708, 7766103.69164246506989 ], [ 5370935.014397671446204, 7766132.08685693051666 ], [ 5370784.807022504508495, 7766307.694829196669161 ], [ 5370403.515435385517776, 7766303.791079711169004 ], [ 5369931.813498741015792, 7766246.189280508086085 ], [ 5369552.513148536905646, 7766235.991282502189279 ], [ 5369410.008733465336263, 7766249.192355666309595 ], [ 5369270.112583174370229, 7766283.788310293108225 ], [ 5369136.914419507607818, 7766337.396251980215311 ], [ 5368862.913183880969882, 7766500.295261257328093 ], [ 5368596.612160420976579, 7766673.496299395337701 ], [ 5368402.711132826283574, 7766775.191748367622495 ], [ 5368228.705671010538936, 7766820.99382542911917 ], [ 5368062.507195410318673, 7766819.688903030008078 ], [ 5367908.411938173696399, 7766775.589883166365325 ], [ 5367865.205545078031719, 7766746.49042908474803 ], [ 5367812.013656328432262, 7766782.687756377272308 ], [ 5367768.405827287584543, 7766834.48764137737453 ], [ 5367728.209311679005623, 7766906.690290870144963 ], [ 5367583.907015847042203, 7767238.895970497280359 ], [ 5367548.110119597055018, 7767297.694965474307537 ], [ 5367515.807017385028303, 7767393.188530702143908 ], [ 5367516.108235159888864, 7767422.297523010522127 ], [ 5367603.013188450597227, 7767641.79275822173804 ], [ 5367672.307894943282008, 7767883.987550553865731 ], [ 5367677.205816178582609, 7767930.690456989221275 ], [ 5367659.206729936413467, 7768021.689122742041945 ], [ 5367586.905893531627953, 7768116.896685777232051 ], [ 5367514.614388627000153, 7768212.092509250156581 ], [ 5367437.913326412439346, 7768361.496669117361307 ], [ 5367379.610977647826076, 7768515.092502659186721 ], [ 5367303.211400693282485, 7768637.292788308113813 ], [ 5367232.507174277678132, 7768695.396462056785822 ], [ 5367179.806008167564869, 7768724.991769708693027 ], [ 5367130.012547712773085, 7768732.298158013261855 ], [ 5367074.306494160555303, 7768756.288747005164623 ], [ 5367001.505203384906054, 7768764.09123595058918 ], [ 5366869.907040990889072, 7768827.89190031401813 ], [ 5366834.212205270305276, 7768859.58969992492348 ], [ 5366785.906050560064614, 7768927.090296489186585 ], [ 5366756.707905361428857, 7769059.194983344525099 ], [ 5366754.112154492177069, 7769229.891727612353861 ], [ 5366805.51416240260005, 7769394.692226426675916 ], [ 5366806.913366261869669, 7769464.594373747706413 ], [ 5366784.613104752264917, 7769603.995884863659739 ], [ 5366816.006084298714995, 7769710.089580630883574 ], [ 5366819.411682283505797, 7769945.788830377161503 ], [ 5366769.708942919038236, 7770045.993566753342748 ], [ 5366601.613565371371806, 7770199.490103770978749 ], [ 5366567.908393752761185, 7770281.189306462183595 ], [ 5366529.808900199830532, 7770317.594819020479918 ], [ 5366476.005157286301255, 7770453.199550863355398 ], [ 5366423.705267396755517, 7770504.200390039011836 ], [ 5366412.30717203207314, 7770526.689575787633657 ], [ 5366387.204578016884625, 7770632.097979689948261 ], [ 5366357.511746734380722, 7770697.296737276017666 ], [ 5366363.213265961036086, 7770748.097361092455685 ], [ 5366402.508196421898901, 7770783.894460467621684 ], [ 5366401.710729891434312, 7770818.094909120351076 ], [ 5366349.913852111436427, 7770892.099313853308558 ], [ 5366305.407416271045804, 7770995.996701124124229 ], [ 5366218.212178382091224, 7771088.291471777483821 ], [ 5366123.908939108252525, 7771144.000464875251055 ], [ 5366022.413738222792745, 7771183.999341054819524 ], [ 5365979.905534191988409, 7771225.29825056809932 ], [ 5366014.908441963605583, 7771424.295683017000556 ], [ 5366013.809925467707217, 7771553.799053393304348 ], [ 5366030.108060372062027, 7771606.195966667495668 ], [ 5366041.207612665370107, 7771736.796215573325753 ], [ 5366034.705472201108932, 7771816.19150912668556 ], [ 5366028.213888545520604, 7771895.597651530057192 ], [ 5365928.911953543312848, 7772019.898569932207465 ], [ 5365891.111425671726465, 7772114.691208296455443 ], [ 5365833.904870040714741, 7772171.992049749940634 ], [ 5365701.10830030683428, 7772251.497665569186211 ], [ 5365667.006216326728463, 7772293.295345151796937 ], [ 5365590.510791271924973, 7772469.898328640498221 ], [ 5365570.006414576433599, 7772616.500297034159303 ], [ 5365494.113302625715733, 7772884.392998547293246 ], [ 5365425.612857790663838, 7772989.498921863734722 ], [ 5365406.211002670228481, 7773014.583606624975801 ], [ 5365341.813822129741311, 7773097.897447533905506 ], [ 5365255.40635518822819, 7773318.094146865420043 ], [ 5365171.111661037430167, 7773573.393793778494 ], [ 5365143.805393748916686, 7773746.700072955340147 ], [ 5365041.910742391832173, 7773897.000373438932002 ], [ 5364982.562938508577645, 7774024.448992852121592 ], [ 5364923.214088404551148, 7774151.897259654477239 ], [ 5364898.713436584919691, 7774179.394616892561316 ], [ 5364774.760442091152072, 7774269.596093168482184 ], [ 5364650.806094609200954, 7774359.796485665254295 ], [ 5364481.210411053150892, 7774572.896243588067591 ], [ 5364472.506130088120699, 7774583.903009494766593 ], [ 5364704.345709732733667, 7774596.571403635665774 ], [ 5364708.251694299280643, 7774596.755945893935859 ], [ 5364712.525523563846946, 7774597.021527444943786 ], [ 5365140.605554399080575, 7774620.354604907333851 ], [ 5365554.932317921891809, 7774612.810296184383333 ], [ 5365995.461262753233314, 7774575.137161057442427 ], [ 5366176.408353, 7774562.412080002948642 ], [ 5366341.215109655633569, 7774577.197754429653287 ], [ 5366289.016187627799809, 7774681.099167300388217 ], [ 5366258.50700150988996, 7774774.695967091247439 ], [ 5366227.412213115021586, 7774881.292866661213338 ], [ 5366208.415441658347845, 7774994.101999302394688 ], [ 5366208.00683421548456, 7775067.901075605303049 ], [ 5366232.81279344856739, 7775174.700094992294908 ], [ 5366235.411244234070182, 7775481.198328452184796 ], [ 5366241.613657033070922, 7775538.498996919952333 ], [ 5366273.606640616431832, 7775626.303131869062781 ], [ 5366285.50889219623059, 7775730.899575642310083 ], [ 5366273.411611805669963, 7775808.093803158029914 ], [ 5366182.607774685136974, 7775974.194180606864393 ], [ 5366234.870570421218872, 7775943.417676048353314 ], [ 5366309.708216873928905, 7775930.479115448892117 ], [ 5366429.501738340593874, 7775930.483100583776832 ], [ 5366657.753525893203914, 7775953.69685921818018 ], [ 5366846.407573216594756, 7776000.898568346165121 ], [ 5366951.493933421559632, 7776007.98491745069623 ], [ 5367052.807500082999468, 7776006.299033092334867 ], [ 5367222.485967730171978, 7775983.886881052516401 ], [ 5367335.210542264394462, 7775990.998851372860372 ], [ 5367454.585473687388003, 7775969.576069865375757 ], [ 5367510.318863330408931, 7775986.504285335540771 ], [ 5367591.912853477522731, 7776024.693721584975719 ], [ 5367705.004190858453512, 7776043.2420693654567 ], [ 5367822.884489042684436, 7776005.987427919171751 ], [ 5367970.643878577277064, 7776041.70541794039309 ], [ 5368036.28251092787832, 7776023.207816895097494 ], [ 5368223.428624710068107, 7775947.49992910027504 ], [ 5368463.255285537801683, 7775914.656078526750207 ], [ 5368494.015422919765115, 7775927.094941034913063 ], [ 5368579.777264025062323, 7775999.088004387915134 ], [ 5368584.802204803563654, 7776003.196726338937879 ], [ 5368588.498409275896847, 7776006.313072321005166 ], [ 5368603.614213460125029, 7776019.093118981458247 ], [ 5368671.774313736706972, 7776031.862398654222488 ], [ 5368852.877444630488753, 7775984.71379611082375 ], [ 5368951.208774675615132, 7775936.927721565589309 ], [ 5369074.802666725590825, 7775855.797962561249733 ], [ 5369186.484084301628172, 7775809.569315921515226 ], [ 5369268.756323490291834, 7775797.037216141819954 ], [ 5369471.812346014194191, 7775816.499592246487737 ], [ 5369520.918719704262912, 7775809.892299799248576 ], [ 5369611.344390626996756, 7775754.505161622539163 ], [ 5369678.097303628921509, 7775681.505999940447509 ], [ 5369826.29299829620868, 7775544.534616956487298 ], [ 5370050.120506001636386, 7775238.384253149852157 ], [ 5370052.476590751670301, 7775235.02896037325263 ], [ 5370054.785556375049055, 7775231.918684566393495 ], [ 5370091.930272090248764, 7775181.783913012593985 ], [ 5370262.935878926888108, 7775023.626451510004699 ], [ 5370327.615925265476108, 7774946.896536214277148 ], [ 5370382.618283941410482, 7774846.990181189030409 ], [ 5370454.272427544929087, 7774803.17619764059782 ], [ 5370477.51418140437454, 7774792.622522856108844 ], [ 5370480.901870151981711, 7774791.053207706660032 ], [ 5370484.560499856248498, 7774789.433772322721779 ], [ 5370488.343672125600278, 7774787.767324688844383 ], [ 5370493.668471869081259, 7774785.291719223372638 ], [ 5370646.413841704837978, 7774715.996275134384632 ], [ 5370865.517904962413013, 7774697.997484909370542 ], [ 5370986.757923282682896, 7774707.821003811433911 ], [ 5371057.521066219545901, 7774722.599285701289773 ], [ 5371109.815829223953187, 7774782.492520023137331 ], [ 5371120.496892722323537, 7774857.29081432428211 ], [ 5370986.72061159927398, 7775191.593200476840138 ], [ 5370970.690331052988768, 7775250.576545636169612 ], [ 5370969.713603230193257, 7775253.847217371687293 ], [ 5370969.274436387233436, 7775257.306117258965969 ], [ 5370934.115801746957004, 7775384.101078506559134 ], [ 5370927.841919437050819, 7775500.521300135180354 ], [ 5370925.818399114534259, 7775513.619397129863501 ], [ 5370924.953159243799746, 7775520.170877875760198 ], [ 5370924.609653631225228, 7775527.642987362109125 ], [ 5370924.422165432944894, 7775534.579373173415661 ], [ 5370919.017024869099259, 7775599.792242689058185 ], [ 5370923.016098815016448, 7775810.296961164101958 ], [ 5370949.41862793173641, 7775992.396454086527228 ], [ 5371043.960751807317138, 7776234.940759913995862 ], [ 5371047.737850788980722, 7776238.886845789849758 ], [ 5371051.46572255063802, 7776242.978171152994037 ], [ 5371147.712061581201851, 7776370.097554432228208 ], [ 5371251.239868432283401, 7776522.739538378082216 ], [ 5371366.156942914240062, 7776624.859577003866434 ], [ 5371433.346238564699888, 7776629.143191944807768 ], [ 5371501.345258126035333, 7776612.944788407534361 ], [ 5372197.640907956287265, 7776384.666829288005829 ], [ 5372468.03395530488342, 7776296.044828217476606 ], [ 5372498.377283663488925, 7776280.412320429459214 ], [ 5372506.541898581199348, 7776277.642634445801377 ], [ 5372515.893923111259937, 7776273.150536883622408 ], [ 5372800.894532836042345, 7776162.20455570705235 ], [ 5372878.481093022972345, 7776147.792145649902523 ], [ 5373074.820708957500756, 7776138.895511500537395 ], [ 5373145.072115156799555, 7776149.440491387620568 ], [ 5373214.543583, 7776162.652886539697647 ], [ 5373352.114872123114765, 7776227.695698382332921 ], [ 5373411.603982246480882, 7776287.840819261036813 ], [ 5373414.39462795574218, 7776290.642915695905685 ], [ 5373417.002988036721945, 7776293.238159278407693 ], [ 5373461.220637507736683, 7776337.892345072701573 ], [ 5373535.426226232200861, 7776462.88874604459852 ], [ 5373565.497395041398704, 7776530.972437160089612 ], [ 5373633.51956248190254, 7776573.697414222173393 ], [ 5373791.123315935954452, 7776616.812499344348907 ], [ 5374020.982272244989872, 7776644.159072915092111 ], [ 5374162.730439076200128, 7776672.3366614645347 ], [ 5374256.117154764942825, 7776692.598038816824555 ], [ 5374490.279433383606374, 7776794.220042338594794 ], [ 5374585.621994432993233, 7776727.496884241700172 ], [ 5374615.834366794675589, 7776759.005404962226748 ], [ 5374633.95644592307508, 7776709.22294101305306 ], [ 5374641.744252343662083, 7776694.735807856544852 ], [ 5374646.344480526633561, 7776657.966140649281442 ], [ 5374637.405665538273752, 7776633.399949766695499 ], [ 5374662.699363939464092, 7776622.397418325766921 ], [ 5374697.735717599280179, 7776612.450363823212683 ], [ 5374719.791647795587778, 7776612.454169206321239 ], [ 5374718.545822244137526, 7776576.797076462768018 ], [ 5374710.932305797934532, 7776569.639518106356263 ], [ 5374693.217523745261133, 7776586.180979093536735 ], [ 5374687.306810075417161, 7776595.004109786823392 ], [ 5374680.20005046762526, 7776593.914227701723576 ], [ 5374677.393226619809866, 7776584.024679286405444 ], [ 5374681.964519336819649, 7776534.68806592002511 ], [ 5374688.201269415207207, 7776509.840710153803229 ], [ 5374684.9466138985008, 7776486.383840177208185 ], [ 5374682.907976183108985, 7776474.259361437521875 ], [ 5374683.618598672561347, 7776457.627905406989157 ], [ 5374694.285729761235416, 7776443.245329607278109 ], [ 5374708.608445812016726, 7776440.763963133096695 ], [ 5374705.962988418526947, 7776428.641411229968071 ], [ 5374698.227094272151589, 7776414.797847863286734 ], [ 5374699.72916023992002, 7776396.529935917817056 ], [ 5374720.763195073232055, 7776384.997470191679895 ], [ 5374739.358188914135098, 7776383.655645054765046 ], [ 5374747.005245462991297, 7776369.936803901568055 ], [ 5374737.648112989962101, 7776356.116951351985335 ], [ 5374738.090607809834182, 7776346.989609338343143 ], [ 5374736.913541682995856, 7776337.475512289442122 ], [ 5374782.856531701982021, 7776315.569603972136974 ], [ 5374788.564093619585037, 7776306.551110811531544 ], [ 5374775.227272877469659, 7776296.454950676299632 ], [ 5374774.248884777538478, 7776286.936588821932673 ], [ 5374780.609135785140097, 7776280.544052326120436 ], [ 5374801.0479536941275, 7776280.782044224441051 ], [ 5374804.493430162779987, 7776247.275964872911572 ], [ 5374800.584369670599699, 7776232.340913377702236 ], [ 5374785.46525950729847, 7776224.512568879872561 ], [ 5374788.70170490257442, 7776201.748306598514318 ], [ 5374826.095535616390407, 7776188.100866906344891 ], [ 5374850.811060308478773, 7776189.688983079046011 ], [ 5374850.10060796327889, 7776172.666480327025056 ], [ 5374838.667362018488348, 7776144.493460139259696 ], [ 5374840.76719178352505, 7776125.81334544532001 ], [ 5374857.710252679884434, 7776123.075896942988038 ], [ 5374871.744291364215314, 7776115.930687157437205 ], [ 5374870.865363971330225, 7776089.594273114576936 ], [ 5374884.77421145606786, 7776075.153005871921778 ], [ 5374917.076765484176576, 7776067.560080418363214 ], [ 5374934.99019212462008, 7776053.975627200677991 ], [ 5374955.022302709519863, 7776043.07436240836978 ], [ 5374978.659462408162653, 7775984.676053641363978 ], [ 5374984.010855002328753, 7775970.773397179320455 ], [ 5375006.095082338899374, 7775957.021626023575664 ], [ 5375022.987484500743449, 7775951.445439714938402 ], [ 5375034.478455025702715, 7775937.455262389965355 ], [ 5374989.9046571822837, 7775844.194525517523289 ], [ 5374978.690520029515028, 7775828.185137728229165 ], [ 5374994.102694932371378, 7775785.337312292307615 ], [ 5374987.062788725830615, 7775776.137696388177574 ], [ 5374959.410152673721313, 7775791.22922592703253 ], [ 5374953.590498746372759, 7775782.824224168434739 ], [ 5374994.897574733011425, 7775739.509001486003399 ], [ 5374998.065922799520195, 7775713.107805488631129 ], [ 5375019.658455995842814, 7775720.819046098738909 ], [ 5375035.280136651359499, 7775711.620727238245308 ], [ 5375051.78440114017576, 7775684.566985873505473 ], [ 5375063.525463411584496, 7775672.490347270853817 ], [ 5375082.648287384770811, 7775645.09190527908504 ], [ 5375086.87388735357672, 7775632.855028197169304 ], [ 5375108.944826264865696, 7775621.920765308663249 ], [ 5375131.913146926090121, 7775616.236042656935751 ], [ 5375147.51539861317724, 7775606.627596320584416 ], [ 5375150.928786183707416, 7775593.598406402394176 ], [ 5375139.734203653410077, 7775556.091764783486724 ], [ 5375141.980093633756042, 7775541.800952680408955 ], [ 5375157.988630725070834, 7775513.604096641764045 ], [ 5375160.41023821849376, 7775490.446727875620127 ], [ 5375164.780074839480221, 7775485.904792414046824 ], [ 5375173.688881926238537, 7775486.157027406617999 ], [ 5375188.349492391571403, 7775491.166268888860941 ], [ 5375205.317830916494131, 7775489.636882577091455 ], [ 5375221.821121802553535, 7775484.479187609627843 ], [ 5375220.871285835281014, 7775476.790427215397358 ], [ 5375211.76948116440326, 7775465.605319047346711 ], [ 5375206.73926143348217, 7775455.963270235806704 ], [ 5375208.860897665843368, 7775439.301345579326153 ], [ 5375225.102980824187398, 7775419.551732022315264 ], [ 5375247.129951169714332, 7775406.588273964822292 ], [ 5375262.48612015042454, 7775405.503888620063663 ], [ 5375277.879292699508369, 7775383.742558315396309 ], [ 5375282.378301961347461, 7775363.790533781051636 ], [ 5375287.276556964963675, 7775343.430597715079784 ], [ 5375290.255707577802241, 7775329.190525339916348 ], [ 5375281.237343769520521, 7775322.862111879512668 ], [ 5375268.375507267192006, 7775327.553378168493509 ], [ 5375253.324552781879902, 7775323.362355902791023 ], [ 5375251.34142058994621, 7775303.128180403262377 ], [ 5375259.39473754260689, 7775278.662812849506736 ], [ 5375255.943694749847054, 7775266.557607240043581 ], [ 5375220.447462289594114, 7775250.571237366646528 ], [ 5375210.904779684729874, 7775237.365725925192237 ], [ 5375225.670509601011872, 7775203.449607674963772 ], [ 5375253.255855137482285, 7775184.310176283121109 ], [ 5375266.661560370586812, 7775165.009677091613412 ], [ 5375283.717283734120429, 7775145.652867803350091 ], [ 5375322.384461297653615, 7775112.520499869249761 ], [ 5375350.483344399370253, 7775122.154499 ], [ 5375369.335776831023395, 7775112.89736108854413 ], [ 5375423.914816396310925, 7775041.775007767602801 ], [ 5375452.916620285250247, 7775011.656532255932689 ], [ 5375492.254460820928216, 7774948.925871808081865 ], [ 5375507.282398424111307, 7774929.190873800776899 ], [ 5375508.216785322874784, 7774913.77454499155283 ], [ 5375524.975499182939529, 7774900.092000160366297 ], [ 5375543.529506124556065, 7774896.919660650193691 ], [ 5375559.835214388556778, 7774903.523705991916358 ], [ 5375572.68945340719074, 7774898.011479392647743 ], [ 5375582.457098810002208, 7774878.378501249477267 ], [ 5375601.863455941900611, 7774854.522623553872108 ], [ 5375606.760862839408219, 7774812.266124797053635 ], [ 5375616.679961384274065, 7774801.137717038393021 ], [ 5375637.621576217934489, 7774772.789584619924426 ], [ 5375656.307659382000566, 7774731.511859121732414 ], [ 5375682.831579509191215, 7774698.595418505370617 ], [ 5375691.750102973543108, 7774676.95070200972259 ], [ 5375700.195865731686354, 7774628.960596090182662 ], [ 5375714.866024724207819, 7774612.072679297067225 ], [ 5375738.671306853182614, 7774593.335273187607527 ], [ 5375751.901372437365353, 7774578.56369568221271 ], [ 5375761.659738008864224, 7774558.520321110263467 ], [ 5375770.25708345323801, 7774519.045840607956052 ], [ 5375789.280885132029653, 7774496.406937661580741 ], [ 5375816.643072751350701, 7774487.398476336151361 ], [ 5375841.567518870346248, 7774500.738251082599163 ], [ 5375855.828340422362089, 7774506.154764586128294 ], [ 5375891.732840675860643, 7774499.835114918649197 ], [ 5375937.096365605480969, 7774501.852769404649734 ], [ 5375955.416082860901952, 7774484.908141534775496 ], [ 5375917.07008003257215, 7774445.857011975720525 ], [ 5375909.106158190406859, 7774430.188593347556889 ], [ 5375912.45745712146163, 7774414.320764977484941 ], [ 5375934.076565722003579, 7774400.965564453043044 ], [ 5375946.633511765860021, 7774379.242231272161007 ], [ 5375934.503817012533545, 7774357.163414622657001 ], [ 5375941.708238353021443, 7774330.275405185297132 ], [ 5375967.76378767285496, 7774294.129407182335854 ], [ 5375993.310891962610185, 7774274.211462906561792 ], [ 5376016.923479369841516, 7774259.193656297400594 ], [ 5376031.838497754186392, 7774233.792167050763965 ], [ 5376050.557694342918694, 7774194.132503250613809 ], [ 5376054.344445171765983, 7774134.872634578496218 ], [ 5376051.972385833971202, 7774092.75025143660605 ], [ 5376063.349179078824818, 7774073.082118280231953 ], [ 5376100.67252005636692, 7774054.973266649059951 ], [ 5376126.276760839857161, 7774038.703220448456705 ], [ 5376138.028202570043504, 7774017.008109178394079 ], [ 5376143.42515073530376, 7774001.905818063765764 ], [ 5376130.84569614008069, 7773977.407576764002442 ], [ 5376128.599238754250109, 7773942.581300492398441 ], [ 5376099.594038176350296, 7773905.392476430162787 ], [ 5376103.571264149621129, 7773788.968953976407647 ], [ 5376053.494951410219073, 7773749.727539693936706 ], [ 5376044.841320345178246, 7773741.372913003899157 ], [ 5376043.214172071777284, 7773718.291307680308819 ], [ 5376063.202398706227541, 7773704.54940808750689 ], [ 5376064.553181969560683, 7773667.227425475604832 ], [ 5376063.417763649486005, 7773649.004805198870599 ], [ 5376036.399962713941932, 7773609.354969915002584 ], [ 5376014.469473021104932, 7773605.290965279564261 ], [ 5376023.06695690844208, 7773565.405699810013175 ], [ 5376031.856507665477693, 7773536.863867240026593 ], [ 5376055.936519694514573, 7773480.483021940104663 ], [ 5376057.576128778979182, 7773436.665709120221436 ], [ 5376058.995647773146629, 7773380.695795542560518 ], [ 5376062.934703575447202, 7773351.836995392106473 ], [ 5376072.581705031916499, 7773325.716955630108714 ], [ 5376095.659743377007544, 7773281.115592037327588 ], [ 5376114.699499455280602, 7773236.989510949701071 ], [ 5376153.673730199225247, 7773198.989045038819313 ], [ 5376202.633089981973171, 7773175.803358035162091 ], [ 5376221.559827, 7773170.603063917718828 ], [ 5376237.773465081118047, 7773149.221880963072181 ], [ 5376260.517807714641094, 7773131.382464481517673 ], [ 5376274.583796905353665, 7773125.865470856428146 ], [ 5376294.842092659324408, 7773127.114368258044124 ], [ 5376316.880606031045318, 7773137.664708195254207 ], [ 5376327.393327540718019, 7773136.672446127980947 ], [ 5376336.521584251895547, 7773104.473572090268135 ], [ 5376347.671493618749082, 7773071.432391196489334 ], [ 5376365.299470222555101, 7773039.493727378547192 ], [ 5376395.825466251000762, 7773003.671542013064027 ], [ 5376417.993678003549576, 7772976.116156955249608 ], [ 5376438.532053435221314, 7772948.174402893520892 ], [ 5376458.401766676455736, 7772927.545926611870527 ], [ 5376481.90170438401401, 7772906.450793448835611 ], [ 5376512.782551140524447, 7772868.191386820748448 ], [ 5376530.912087806500494, 7772841.10015176050365 ], [ 5376543.195741586387157, 7772804.395902397111058 ], [ 5376561.43562843836844, 7772783.392030064016581 ], [ 5376583.746591955423355, 7772763.930796819739044 ], [ 5376616.799181343987584, 7772733.743941296823323 ], [ 5376633.638790916651487, 7772724.927638243883848 ], [ 5376643.641572554595768, 7772718.255679409950972 ], [ 5376659.632004162296653, 7772685.131739882752299 ], [ 5376687.729072737507522, 7772649.760617792606354 ], [ 5376708.243625806644559, 7772619.788965173996985 ], [ 5376720.968143469654024, 7772607.400928486138582 ], [ 5376768.983855432830751, 7772599.241829089820385 ], [ 5376791.446888066828251, 7772588.296043170616031 ], [ 5376811.409022474661469, 7772595.230032360181212 ], [ 5376820.111841234378517, 7772606.833314934745431 ], [ 5376835.857568675652146, 7772604.529572028666735 ], [ 5376854.112507032230496, 7772584.734052382409573 ], [ 5376860.297577736899257, 7772568.405191712081432 ], [ 5376862.587875842116773, 7772538.361367404460907 ], [ 5376869.273803353309631, 7772527.301734605804086 ], [ 5376889.489460935816169, 7772526.121475568041205 ], [ 5376915.999750642105937, 7772537.406260602176189 ], [ 5376927.976642834022641, 7772528.672565531916916 ], [ 5376942.297964564524591, 7772491.923769 ], [ 5376950.908174076117575, 7772453.257413998246193 ], [ 5376966.296625269576907, 7772453.789860131219029 ], [ 5376983.279577923007309, 7772453.07871775329113 ], [ 5376996.462423037737608, 7772443.520211316645145 ], [ 5377002.794931762851775, 7772418.535855697467923 ], [ 5377004.089920175261796, 7772394.725335730239749 ], [ 5377015.81263661198318, 7772371.820718843489885 ], [ 5377020.740524118766189, 7772351.059725617989898 ], [ 5377053.207238068804145, 7772335.460095333866775 ], [ 5377123.047848464921117, 7772326.095622921362519 ], [ 5377135.935041510500014, 7772322.222789661958814 ], [ 5377147.182671352289617, 7772295.257334593683481 ], [ 5377165.480987950228155, 7772277.501461188308895 ], [ 5377174.880671894177794, 7772259.893754500895739 ], [ 5377176.109995668753982, 7772238.380763525143266 ], [ 5377181.072870709002018, 7772221.667726490646601 ], [ 5377192.652317265979946, 7772212.953476805239916 ], [ 5377207.590503823012114, 7772211.055042745545506 ], [ 5377207.309681949205697, 7772195.653476489707828 ], [ 5377200.514388301409781, 7772177.941427552141249 ], [ 5377203.102245321497321, 7772164.108392492868006 ], [ 5377085.621589220128953, 7772086.195867992006242 ], [ 5377102.816922541707754, 7772048.885441584512591 ], [ 5377099.122247798368335, 7771989.287164445966482 ], [ 5377074.418266847729683, 7771937.187284606508911 ], [ 5377083.724728565663099, 7771908.988181132823229 ], [ 5377078.425290380604565, 7771875.791755195707083 ], [ 5377042.116853948682547, 7771826.394427483901381 ], [ 5376985.726292167790234, 7771567.093686035834253 ], [ 5376976.717241434380412, 7771476.495683047920465 ], [ 5376982.216810131445527, 7771369.48839205596596 ], [ 5376972.021895710378885, 7771344.495503876358271 ], [ 5376908.016965553164482, 7771271.393525125458837 ], [ 5376881.319363876245916, 7771226.691138458438218 ], [ 5376841.221216686069965, 7771191.585296315141022 ], [ 5376805.325183572247624, 7771098.285544361919165 ], [ 5376694.516773593612015, 7770943.489189455285668 ], [ 5376680.323178229853511, 7770892.193484973162413 ], [ 5376697.319844174198806, 7770771.693321002647281 ], [ 5376678.02270522993058, 7770721.395414130762219 ], [ 5376609.617178155109286, 7770666.191682080738246 ], [ 5376525.718957574106753, 7770543.092381556518376 ], [ 5376399.215465726330876, 7770292.395564239472151 ], [ 5376314.520086407661438, 7770186.495374463498592 ], [ 5376294.418682280927896, 7770139.087679445743561 ], [ 5376238.116517771966755, 7770060.593420343473554 ], [ 5376182.214775578118861, 7769896.489375949837267 ], [ 5376106.719840872101486, 7769812.586047010496259 ], [ 5376090.821029682643712, 7769757.788605099543929 ], [ 5376059.620377841405571, 7769708.291176232509315 ], [ 5376006.319473224692047, 7769585.594636131078005 ], [ 5375973.623924798332155, 7769449.386008718982339 ], [ 5375871.023153970949352, 7769284.094075921922922 ], [ 5375745.722666012123227, 7768929.488389639183879 ], [ 5375643.719802961684763, 7768770.383759547024965 ], [ 5375600.516756258904934, 7768665.194667711853981 ], [ 5375567.119065378792584, 7768616.98669299017638 ], [ 5375492.41419047024101, 7768552.887323127128184 ], [ 5375418.522877770476043, 7768439.686041349545121 ], [ 5375365.621944544836879, 7768323.591364652849734 ], [ 5375260.415123119018972, 7768146.085881169885397 ], [ 5375235.61712203733623, 7768074.187180511653423 ], [ 5375212.115202118642628, 7768040.085742774419487 ], [ 5375047.81622448656708, 7767887.891515530645847 ], [ 5374872.612687073647976, 7767616.288594027981162 ], [ 5374777.814866398461163, 7767569.19252323359251 ], [ 5374681.411680610850453, 7767496.08569523692131 ], [ 5374516.12083974480629, 7767396.986521495506167 ], [ 5374380.921004821546376, 7767268.886175127699971 ], [ 5374207.318077221512794, 7767222.18646496348083 ], [ 5373309.317276272922754, 7766844.987445115111768 ], [ 5373135.612997419200838, 7766717.18534336797893 ], [ 5373055.615258173085749, 7766701.986796339973807 ], [ 5373026.919387661851943, 7766662.892539156600833 ], [ 5372914.210806404240429, 7766644.191435799002647 ], [ 5372847.91286720149219, 7766618.293634469620883 ], [ 5372713.019211415201426, 7766550.984338259324431 ], [ 5372551.71154126804322, 7766439.694302270188928 ], [ 5372513.711696018464863, 7766423.593284796923399 ], [ 5372359.11686089169234, 7766399.58621534332633 ], [ 5372326.57765719294548, 7766387.971076463349164 ], [ 5372323.595773848704994, 7766386.914653066545725 ], [ 5372298.011406256817281, 7766377.79039866104722 ] ] ] } }
]
}
