{
"type": "FeatureCollection",
"name": "3556107",
"crs": { "type": "name", "properties": { "name": "urn:ogc:def:crs:EPSG::5880" } },
"features": [
{ "type": "Feature", "properties": { "lv_id": "LOC_057906", "id": 371108.0, "CD_SETOR": "355610705000002", "SITUACAO": "Urbana", "CD_SIT": "1", "CD_TIPO": "0", "AREA_KM2": 0.228376870955424, "CD_REGIAO": "3", "NM_REGIAO": "Sudeste", "CD_UF": "35", "NM_UF": "São Paulo", "CD_MUN": "3556107", "NM_MUN": "Valentim Gentil", "CD_DIST": "355610705", "NM_DIST": "Valentim Gentil", "CD_SUBDIST": "35561070500", "NM_SUBDIST": null, "CD_BAIRRO": null, "NM_BAIRRO": null, "CD_NU": null, "NM_NU": null, "CD_FCU": null, "NM_FCU": null, "CD_AGLOM": null, "NM_AGLOM": null, "CD_RGINT": "3507", "NM_RGINT": "São José do Rio Preto", "CD_RGI": "350027", "NM_RGI": "Votuporanga", "CD_CONCURB": null, "NM_CONCURB": null, "mun_code_x": "3556107", "index_right": 91300, "dist_m": 382.18045039832015, "local_id": 630038, "ano": 2022, "cod_localidade_ibge": 3556107, "NR_ZONA": "147", "nr_cep": 15520000.0, "nm_localidade": "VALENTIM GENTIL", "nm_locvot": "EE PROF CICERO USBERTI", "ds_endereco": "AV CAVALIN, 1165", "ds_bairro": "CENTRO", "pred_long": -50.082256, "pred_lat": -20.427013, "pred_dist": 0.0, "tse_long": -50.0821744, "tse_lat": -20.4269309, "long": -50.0821744, "lat": -20.4269309, "ID_UNICO": "LOC_057906", "SG_UF": "SP", "CD_MUNICIPIO": "72230", "NR_LOCAL_VOTACAO": "1015", "QT_SECOES_AGREGADAS": 0, "QT_ELEITORES_TRANSFERIDOS": 4, "CIRO GOMES (PDT) (NÃO ELEITO) 1T": 49.0, "CONSTITUINTE EYMAEL (DC) (NÃO ELEITO) 1T": 0.0, "FELIPE D AVILA (NOVO) (NÃO ELEITO) 1T": 11.0, "JAIR BOLSONARO (PL) (2º TURNO) 1T": 1965.0, "LULA (PT) (2º TURNO) 1T": 1295.0, "LÉO PÉRICLES (UP) (NÃO ELEITO) 1T": 1.0, "PADRE KELMON (PTB) (NÃO ELEITO) 1T": 0.0, "SIMONE TEBET (MDB) (NÃO ELEITO) 1T": 138.0, "SOFIA MANZANO (PCB) (NÃO ELEITO) 1T": 0.0, "SORAYA THRONICKE (UNIÃO) (NÃO ELEITO) 1T": 10.0, "VERA (PSTU) (NÃO ELEITO) 1T": 0.0, "Total_Votos_Validos 1T": 3469.0, "Votos_Brancos 1T": 86.0, "Votos_Nulos 1T": 102.0, "Abstenções 1T": 999.0, "Eleitores_Aptos 1T": 4656.0, "JAIR BOLSONARO (PL) (NÃO ELEITO) 2T": 2228.0, "LULA (PT) (ELEITO) 2T": 1326.0, "Total_Votos_Validos 2T": 3554.0, "Votos_Brancos 2T": 68.0, "Votos_Nulos 2T": 105.0, "Abstenções 2T": 929.0, "Eleitores_Aptos 2T": 4656.0, "mun_code_y": "3556107", "mun_code": "3556107" }, "geometry": { "type": "Polygon", "coordinates": [ [ [ 5408078.731361452490091, 7731591.246818440034986 ], [ 5407861.840694039128721, 7731207.653040196746588 ], [ 5407827.739156560972333, 7731169.350086885504425 ], [ 5407781.930345850065351, 7731145.153176013380289 ], [ 5407661.236323487013578, 7730978.948762319982052 ], [ 5407638.834894052706659, 7730863.154248240403831 ], [ 5407624.431578836403787, 7730834.645858485251665 ], [ 5407602.632132927887142, 7730807.146144416183233 ], [ 5407534.530779778026044, 7730767.545384373515844 ], [ 5407466.334853017702699, 7730669.654731564223766 ], [ 5407386.529629401862621, 7730617.549030312336981 ], [ 5407323.331556314602494, 7730601.045417400076985 ], [ 5407084.930713997222483, 7730575.744322869926691 ], [ 5406933.436882820911705, 7730509.853479750454426 ], [ 5406796.633059898391366, 7730424.447599857114255 ], [ 5406744.631696802563965, 7730411.348562400788069 ], [ 5406449.337055124342442, 7730375.054097820073366 ], [ 5406421.828773214481771, 7730379.04860535915941 ], [ 5406293.431018881499767, 7730455.751486661843956 ], [ 5406168.130424317903817, 7730452.449852988123894 ], [ 5406078.936329863965511, 7730436.74863154720515 ], [ 5405906.830201960168779, 7730380.250289157964289 ], [ 5405791.236878850497305, 7730323.35148448497057 ], [ 5405611.337654951028526, 7730252.354813728481531 ], [ 5405529.731044348329306, 7730197.455090889707208 ], [ 5405467.533660323359072, 7730138.954066567122936 ], [ 5405175.5334840901196, 7730187.150421933270991 ], [ 5405116.330323086120188, 7730186.246365780010819 ], [ 5405045.228742159903049, 7730144.755488822236657 ], [ 5404994.036371810361743, 7730140.154583570547402 ], [ 5404934.534143283963203, 7730169.350933529436588 ], [ 5404877.930965358391404, 7730171.147488975897431 ], [ 5404801.829281223937869, 7730144.554849833250046 ], [ 5404680.833294415846467, 7730136.04758501984179 ], [ 5404537.230479986406863, 7730071.848766918294132 ], [ 5404166.629734795540571, 7730035.846793929114938 ], [ 5403873.626083770766854, 7729914.845913713797927 ], [ 5403872.490228807553649, 7729914.473298406228423 ], [ 5403588.726989219896495, 7729821.345969015732408 ], [ 5403557.227157629095018, 7729795.048307163640857 ], [ 5403266.827601210214198, 7729351.549852671101689 ], [ 5403227.231767328456044, 7729304.049222065135837 ], [ 5403194.332199601456523, 7729285.152211813256145 ], [ 5403062.134639109484851, 7729252.254392945207655 ], [ 5402956.732677427120507, 7729195.354441270232201 ], [ 5402921.93419193290174, 7729158.747683271765709 ], [ 5402840.633211827836931, 7729022.849625115282834 ], [ 5402781.724854677915573, 7728836.855856770649552 ], [ 5402758.032326050102711, 7728808.753025172278285 ], [ 5402657.829139684326947, 7728748.256136558018625 ], [ 5402521.828290518373251, 7728611.750005140900612 ], [ 5402467.325474353507161, 7728579.346790408715606 ], [ 5402220.529626177623868, 7728501.253963539376855 ], [ 5401985.029670866206288, 7728449.456367790699005 ], [ 5401850.432060609571636, 7728339.455464805476367 ], [ 5401656.728179653175175, 7728252.249499670229852 ], [ 5401589.328398712910712, 7728169.149488880299032 ], [ 5401541.723605108447373, 7728136.648193212226033 ], [ 5401454.028416365385056, 7728049.054280633106828 ], [ 5401344.424460142850876, 7727871.452931759878993 ], [ 5401163.721743343397975, 7727665.352670925669372 ], [ 5401116.227535231038928, 7727589.950356930494308 ], [ 5401115.526359120383859, 7727504.149352120235562 ], [ 5401141.130378119647503, 7727451.251268874853849 ], [ 5401160.827302642166615, 7727346.351252358406782 ], [ 5401147.422427846118808, 7727273.653864907100797 ], [ 5401099.524789849296212, 7727210.355964191257954 ], [ 5401069.726982434280217, 7727152.247079455293715 ], [ 5401096.822480474598706, 7727088.251046746969223 ], [ 5401097.422673812136054, 7727020.550495246425271 ], [ 5400989.520146388560534, 7727096.222056973725557 ], [ 5400942.922178588807583, 7727181.048719359561801 ], [ 5400822.242339455522597, 7727243.648396046832204 ], [ 5400735.347488229162991, 7727183.607287235558033 ], [ 5400577.262077348306775, 7727037.279251031577587 ], [ 5400528.008981150574982, 7726911.663299193605781 ], [ 5400486.137987623922527, 7726570.188634859398007 ], [ 5400445.890617466531694, 7726317.88828818500042 ], [ 5400444.926516747102141, 7726176.791140630841255 ], [ 5400418.085343691520393, 7726125.380978977307677 ], [ 5400354.403982498683035, 7726095.729819835163653 ], [ 5400255.481804352253675, 7726086.190772168338299 ], [ 5400006.832233413122594, 7726121.575081935152411 ], [ 5399896.76042190566659, 7726121.971278365701437 ], [ 5399731.121116670779884, 7726118.354692663997412 ], [ 5399645.820793823339045, 7726154.95162708312273 ], [ 5399587.252020233310759, 7726192.519416477531195 ], [ 5399540.214856879785657, 7726276.109061873517931 ], [ 5399574.577205555513501, 7726384.155177558772266 ], [ 5399638.002457738853991, 7726488.424427336081862 ], [ 5399742.096055328845978, 7726603.291234073229134 ], [ 5399821.31934189517051, 7726686.18512552138418 ], [ 5399855.321844269521534, 7726774.777196252718568 ], [ 5399869.460620549507439, 7727016.193964689970016 ], [ 5399856.425380466505885, 7727203.55561782233417 ], [ 5399772.456865718588233, 7727420.230685140006244 ], [ 5399707.677783007733524, 7727507.376064425334334 ], [ 5399523.221155029721558, 7727644.570433565415442 ], [ 5399387.422172276303172, 7727742.764122787863016 ], [ 5399323.878401117399335, 7727764.201829301193357 ], [ 5399273.451516148634255, 7727751.334500353783369 ], [ 5399225.290223593823612, 7727728.70512028504163 ], [ 5399110.829347814433277, 7727622.121741821989417 ], [ 5399028.696374014951289, 7727557.134725604206324 ], [ 5398967.24874934181571, 7727516.895705011673272 ], [ 5398927.614381205290556, 7727518.432790946215391 ], [ 5398865.068212923593819, 7727550.397687734104693 ], [ 5398764.337897131219506, 7727662.534589260816574 ], [ 5398724.24866446107626, 7727771.944359527900815 ], [ 5398692.566435843706131, 7727898.233970913104713 ], [ 5398729.891654339618981, 7727947.015670046210289 ], [ 5398776.1309470301494, 7727997.264488682150841 ], [ 5398785.969972723163664, 7728048.175268715247512 ], [ 5398793.147099079564214, 7728130.760291494429111 ], [ 5398778.418635527603328, 7728254.301492680795491 ], [ 5398782.370866044424474, 7728337.760756806470454 ], [ 5398805.071561698801816, 7728383.577630717307329 ], [ 5398795.230633412487805, 7728421.067374565638602 ], [ 5398788.619663193821907, 7728473.549774510785937 ], [ 5398681.669742785394192, 7728539.926841438747942 ], [ 5398572.248170678503811, 7728575.991584463045001 ], [ 5398435.387786719948053, 7728572.007797675207257 ], [ 5398308.928612272255123, 7728605.960765678435564 ], [ 5398201.568035500124097, 7728621.713978370651603 ], [ 5398131.647005889564753, 7728604.337952124886215 ], [ 5398053.251885132864118, 7728610.63786518573761 ], [ 5397990.273178791627288, 7728663.701528611592948 ], [ 5397971.938623786903918, 7728723.235925929620862 ], [ 5397927.027999298647046, 7728833.453674263320863 ], [ 5397870.053896726109087, 7728905.139533556997776 ], [ 5397853.579156890511513, 7728928.968710808083415 ], [ 5397874.378062197007239, 7728979.69069161824882 ], [ 5397886.467536530457437, 7729031.913843063637614 ], [ 5397905.401061764918268, 7729088.560021224431694 ], [ 5397916.575786584988236, 7729114.496560972183943 ], [ 5397935.745347335934639, 7729151.253715135157108 ], [ 5397957.227428410202265, 7729178.425742159597576 ], [ 5397962.024319726973772, 7729200.23907414637506 ], [ 5397970.176157246343791, 7729227.655217319726944 ], [ 5397975.342806050553918, 7729257.726241654716432 ], [ 5397993.527858237735927, 7729332.398207187652588 ], [ 5398008.574397743679583, 7729361.029516788199544 ], [ 5398030.835819745436311, 7729402.82970577199012 ], [ 5398136.427878182381392, 7729601.62251116335392 ], [ 5398155.603851906955242, 7729637.724793808534741 ], [ 5398229.431000810116529, 7729776.431139554828405 ], [ 5398273.343025676906109, 7729857.027504028752446 ], [ 5398362.387493050657213, 7730019.944775653071702 ], [ 5398438.349686156027019, 7730158.80072576738894 ], [ 5398528.268305584788322, 7730327.322844268754125 ], [ 5398564.080186509527266, 7730393.860926979221404 ], [ 5398648.495983466506004, 7730549.185171334072948 ], [ 5398689.145926658064127, 7730623.56595001090318 ], [ 5398761.359827246516943, 7730762.608705457299948 ], [ 5398787.277437377721071, 7730812.489723760634661 ], [ 5398798.927047143690288, 7730834.542587596923113 ], [ 5398812.662694311700761, 7730861.018369993194938 ], [ 5398840.309471128508449, 7730906.276437612250447 ], [ 5398870.790744252502918, 7730958.957994021475315 ], [ 5398892.695278435014188, 7730998.735579570755363 ], [ 5398923.197255180217326, 7731052.293185012415051 ], [ 5398959.761303969658911, 7731118.75793004501611 ], [ 5398968.574173784814775, 7731135.062767540104687 ], [ 5399001.37107552960515, 7731193.926023464649916 ], [ 5399023.004223426803946, 7731234.575356432236731 ], [ 5399039.282462537288666, 7731260.414728605188429 ], [ 5399056.084551992826164, 7731282.313941789790988 ], [ 5399071.497248536907136, 7731304.60065339691937 ], [ 5399103.741172645241022, 7731328.114339767955244 ], [ 5399144.935870106332004, 7731347.890485539101064 ], [ 5399179.082861324772239, 7731363.503770876675844 ], [ 5399204.07682709954679, 7731371.053282082080841 ], [ 5399256.919002230279148, 7731365.802329935133457 ], [ 5399273.034054771065712, 7731363.173433745279908 ], [ 5399290.161773131228983, 7731358.323886277154088 ], [ 5399392.62124845944345, 7731329.055840468034148 ], [ 5399490.805096442811191, 7731299.942533100023866 ], [ 5399571.447515433654189, 7731278.972533650696278 ], [ 5399661.457754431292415, 7731250.692787076346576 ], [ 5399731.220474216155708, 7731232.650476556271315 ], [ 5399769.136585484258831, 7731220.634447968564928 ], [ 5400025.937281236983836, 7731150.768667738884687 ], [ 5400240.175999950617552, 7731090.672399719245732 ], [ 5400469.941393748857081, 7731024.739009752869606 ], [ 5400666.206284288316965, 7730969.108077879995108 ], [ 5400915.985321141779423, 7730897.394926870241761 ], [ 5401157.128272243775427, 7730825.980352893471718 ], [ 5401447.951423443853855, 7730741.943713773041964 ], [ 5401818.292755297385156, 7730632.075179535895586 ], [ 5401950.855555226095021, 7730592.750370790250599 ], [ 5402077.828996036201715, 7730557.184416147880256 ], [ 5402388.619733926840127, 7730470.119161847047508 ], [ 5402568.617248917929828, 7730419.962607033550739 ], [ 5402664.788994841277599, 7730389.589383349753916 ], [ 5402783.593698325566947, 7730352.922998620197177 ], [ 5402818.332477963529527, 7730342.638815036043525 ], [ 5402850.422415776178241, 7730340.850208308547735 ], [ 5402894.438738445751369, 7730340.755433747544885 ], [ 5402964.086907749064267, 7730356.212243689224124 ], [ 5403002.546708424575627, 7730374.512813838198781 ], [ 5403038.919273836538196, 7730397.23450721334666 ], [ 5403058.554334878921509, 7730414.714070556685328 ], [ 5403078.190183801576495, 7730435.766620583832264 ], [ 5403089.925627588294446, 7730451.046817019581795 ], [ 5403101.679102558642626, 7730466.64837761502713 ], [ 5403110.559533333405852, 7730481.230278300121427 ], [ 5403120.595956882461905, 7730500.578521797433496 ], [ 5403128.393332143314183, 7730516.584111519157887 ], [ 5403143.937223303131759, 7730555.731436293572187 ], [ 5403202.155681050382555, 7730710.893886543810368 ], [ 5403236.947235210798681, 7730799.298661835491657 ], [ 5403255.76226746942848, 7730850.574767792597413 ], [ 5403335.204065502621233, 7731056.390516748651862 ], [ 5403397.010430257767439, 7731217.549011118710041 ], [ 5403419.627565975300968, 7731268.491236701607704 ], [ 5403445.19393689930439, 7731313.937718311324716 ], [ 5403473.443954659625888, 7731358.99904412124306 ], [ 5403506.78893699683249, 7731403.252102421596646 ], [ 5403545.568496199324727, 7731447.376828552223742 ], [ 5403691.064313231036067, 7731613.19469593744725 ], [ 5403736.246329535730183, 7731671.19382671546191 ], [ 5403781.267556591890752, 7731739.172360321506858 ], [ 5403838.981563666835427, 7731821.797894896939397 ], [ 5403866.895245068706572, 7731858.733181638643146 ], [ 5403893.894156310707331, 7731886.535510078072548 ], [ 5403926.185438246466219, 7731915.255845138803124 ], [ 5403959.577808788977563, 7731938.446298006922007 ], [ 5403986.651128066703677, 7731956.570688471198082 ], [ 5404074.910655259154737, 7732008.935299488715827 ], [ 5404215.086748917587101, 7732083.940804861485958 ], [ 5404257.282758389599621, 7732107.76603084616363 ], [ 5404288.548816682770848, 7732124.858829228207469 ], [ 5404448.295067135244608, 7732213.503719091415405 ], [ 5404501.07565597537905, 7732240.451456439681351 ], [ 5404697.796508909203112, 7732350.013369427993894 ], [ 5404939.377060944214463, 7732481.547815210185945 ], [ 5404976.426513745449483, 7732501.720685206353664 ], [ 5405099.996127787977457, 7732568.868965785950422 ], [ 5405285.241056228987873, 7732669.520535884425044 ], [ 5405339.503888257779181, 7732699.005507029592991 ], [ 5405530.230520119890571, 7732805.794660076498985 ], [ 5405667.069164328277111, 7732885.219792732968926 ], [ 5405720.090668641962111, 7732916.442138779908419 ], [ 5405773.88991723023355, 7732947.002304568886757 ], [ 5405793.854493916034698, 7732958.346641765907407 ], [ 5405871.583845612592995, 7733003.286067986860871 ], [ 5405958.361860047094524, 7733053.458956065587699 ], [ 5406007.005205607041717, 7733081.355641284957528 ], [ 5406058.526920708827674, 7733110.903884330764413 ], [ 5406106.121507183648646, 7733136.816745301708579 ], [ 5406152.227858565747738, 7733158.947574269026518 ], [ 5406189.777212997898459, 7733171.91586253605783 ], [ 5406231.481027810834348, 7733184.452533482573926 ], [ 5406285.68625972699374, 7733195.982051633298397 ], [ 5406308.808088040910661, 7733198.717570338398218 ], [ 5406371.880393113009632, 7733206.074725548736751 ], [ 5406531.982215413823724, 7733227.072338057681918 ], [ 5406585.643255485221744, 7733234.13082823343575 ], [ 5406629.292712720111012, 7733238.475376405753195 ], [ 5406659.32497975975275, 7733242.11149195022881 ], [ 5406703.385694992728531, 7733246.19085987098515 ], [ 5406799.933762680739164, 7733259.320004847832024 ], [ 5406861.78130741044879, 7733265.628187831491232 ], [ 5406936.925965720787644, 7733274.982219707220793 ], [ 5406985.323123309761286, 7733281.010661406442523 ], [ 5407005.874770213849843, 7733282.752232879400253 ], [ 5407038.527207103557885, 7733289.465781426988542 ], [ 5407053.192086855880916, 7733292.090832507237792 ], [ 5407063.901174254715443, 7733294.721213683485985 ], [ 5407092.342715941369534, 7733302.122983800247312 ], [ 5407122.7080591423437, 7733310.977003373205662 ], [ 5407137.662222352810204, 7733315.670207884162664 ], [ 5407139.026281173340976, 7733312.020190074108541 ], [ 5407141.945512678474188, 7733307.489807551726699 ], [ 5407143.957373484037817, 7733304.745408670976758 ], [ 5407147.032203610055149, 7733302.807974932715297 ], [ 5407151.060673167929053, 7733301.469268141314387 ], [ 5407158.108707614243031, 7733300.258445700630546 ], [ 5407165.593388735316694, 7733300.291168481111526 ], [ 5407168.849022474139929, 7733301.567502370104194 ], [ 5407171.659695603884757, 7733305.639724306762218 ], [ 5407173.608241797424853, 7733309.011170316487551 ], [ 5407175.501791587099433, 7733314.459028634242713 ], [ 5407211.083798579871655, 7733350.864214142784476 ], [ 5407250.092300025746226, 7733375.536138318479061 ], [ 5407326.052329601719975, 7733428.346576334908605 ], [ 5407468.951063801534474, 7733533.349274226464331 ], [ 5407598.989770227111876, 7733632.565259916707873 ], [ 5407681.262336760759354, 7733713.243787902407348 ], [ 5407753.523077907972038, 7733791.630526345223188 ], [ 5407839.476931633427739, 7733883.506400402635336 ], [ 5407875.560856209136546, 7733921.163781084120274 ], [ 5407922.80133397039026, 7733972.759237828664482 ], [ 5408114.232688567601144, 7734177.095067945308983 ], [ 5408247.972286710515618, 7734319.575247537344694 ], [ 5408379.727548960596323, 7734466.307879848405719 ], [ 5408455.25851664505899, 7734551.583731013350189 ], [ 5408478.596611807122827, 7734582.120580116286874 ], [ 5408491.354352633468807, 7734605.39722041785717 ], [ 5408511.348782781511545, 7734657.242313727736473 ], [ 5408531.773670618422329, 7734721.883027262985706 ], [ 5408574.189034605398774, 7734858.584259131923318 ], [ 5408619.344126246869564, 7734988.462063260376453 ], [ 5408631.479542681947351, 7735019.332765661180019 ], [ 5408642.403478148393333, 7735047.114128223620355 ], [ 5408706.666560553945601, 7735196.854468485340476 ], [ 5408739.477950949221849, 7735273.517202660441399 ], [ 5408749.26999868452549, 7735295.410877479240298 ], [ 5408745.431171893142164, 7735296.4013537382707 ], [ 5408676.838440393097699, 7735314.883505693636835 ], [ 5408642.494282801635563, 7735328.908401781693101 ], [ 5408602.035535679198802, 7735351.368531137704849 ], [ 5408559.898951491340995, 7735380.959524301812053 ], [ 5408523.23390943184495, 7735414.559038543142378 ], [ 5408485.134385797195137, 7735458.057842204347253 ], [ 5408453.234778901562095, 7735493.640812028199434 ], [ 5408385.661329254508018, 7735579.045068083330989 ], [ 5408431.58933518268168, 7735620.473424990661442 ], [ 5408434.667597728781402, 7735623.484972609207034 ], [ 5408509.058593059889972, 7735686.162023283541203 ], [ 5408582.413869421929121, 7735748.28651775047183 ], [ 5408589.818668510764837, 7735754.557226784527302 ], [ 5408662.815657704137266, 7735816.956362091004848 ], [ 5408738.852615462616086, 7735880.736459074541926 ], [ 5408811.462757563218474, 7735944.82004177942872 ], [ 5408885.028843612410128, 7736006.505849895998836 ], [ 5408825.157662390731275, 7736081.773980039171875 ], [ 5408880.542447024025023, 7736128.302482958883047 ], [ 5408927.486588021740317, 7736164.523470835760236 ], [ 5408950.46012953389436, 7736181.863491982221603 ], [ 5408982.945542076602578, 7736206.699954227544367 ], [ 5408990.303197814151645, 7736208.355329362675548 ], [ 5408997.825908713042736, 7736209.052419642917812 ], [ 5409005.383591744117439, 7736209.027366889640689 ], [ 5409015.413602857850492, 7736190.54446217790246 ], [ 5409024.063115286640823, 7736154.017484458163381 ], [ 5409035.74996395688504, 7736153.35008386708796 ], [ 5409230.815449835732579, 7736142.055995006114244 ], [ 5409319.815339989960194, 7736136.911582480184734 ], [ 5409379.64547126647085, 7736133.451346375048161 ], [ 5409453.810913631692529, 7736120.448852049186826 ], [ 5409487.556589436717331, 7736114.537699507549405 ], [ 5409566.588807258754969, 7736101.185330357402563 ], [ 5409579.354480410926044, 7736098.483190728351474 ], [ 5409589.85682385135442, 7736050.858696744777262 ], [ 5409610.680608144961298, 7736086.559520011767745 ], [ 5409615.367576842196286, 7736093.971283625811338 ], [ 5409626.090938363224268, 7736114.588513927534223 ], [ 5409654.806327220052481, 7736156.370488122105598 ], [ 5409669.631337150000036, 7736173.005657859146595 ], [ 5409693.736235382035375, 7736189.163692435249686 ], [ 5409707.513129418715835, 7736195.137406144291162 ], [ 5409721.648710142821074, 7736199.082862682640553 ], [ 5409740.278686071746051, 7736296.30287198163569 ], [ 5409792.149652868509293, 7736515.87245159689337 ], [ 5409792.875661747530103, 7736525.720408732071519 ], [ 5409608.139149593189359, 7736528.184028039686382 ], [ 5409605.862293319776654, 7736579.717768205329776 ], [ 5409602.987710409797728, 7736723.371468382887542 ], [ 5409611.660408205352724, 7736738.111940436065197 ], [ 5409702.151419655419886, 7736930.303180050104856 ], [ 5409488.098131463862956, 7737032.606457128189504 ], [ 5409491.375599629245698, 7737038.698118230327964 ], [ 5409492.966331006027758, 7737045.418219242244959 ], [ 5409492.75512595847249, 7737052.314533296972513 ], [ 5409490.762429159134626, 7737058.931592438369989 ], [ 5409489.579122710041702, 7737070.589569628238678 ], [ 5409490.035836565308273, 7737082.286046367138624 ], [ 5409492.117109233513474, 7737093.810548594221473 ], [ 5409495.786345936357975, 7737104.942009606398642 ], [ 5409562.205591575242579, 7737233.013172551989555 ], [ 5409641.93950845208019, 7737389.607374399900436 ], [ 5409680.848177365958691, 7737380.321521331556141 ], [ 5410101.126746361143887, 7737272.984406704083085 ], [ 5409981.386062359437346, 7736827.414203451015055 ], [ 5409978.919512077234685, 7736818.129434272646904 ], [ 5409976.123806288465858, 7736805.556695559993386 ], [ 5409963.164469859562814, 7736743.401033787056804 ], [ 5409954.640030486509204, 7736708.671229363419116 ], [ 5409934.633108234964311, 7736613.292943280190229 ], [ 5409862.58994419593364, 7736282.757660609669983 ], [ 5409856.92062817979604, 7736251.288707785308361 ], [ 5409853.603691903874278, 7736244.421260299161077 ], [ 5409848.44236221536994, 7736239.007263391278684 ], [ 5409840.449813366867602, 7736232.196169478818774 ], [ 5409858.327911862172186, 7736220.194237466901541 ], [ 5409896.05327573698014, 7736193.846091125160456 ], [ 5409844.895773317664862, 7736135.622664741240442 ], [ 5409885.989394649863243, 7736101.70337924733758 ], [ 5409821.455750539898872, 7736024.12477838434279 ], [ 5409735.748321854509413, 7735921.085258789360523 ], [ 5409704.584940367378294, 7735879.084563497453928 ], [ 5409772.308168933726847, 7735883.124295101501048 ], [ 5409925.57658976316452, 7735879.923551008105278 ], [ 5409929.895516743883491, 7735879.798010069876909 ], [ 5409934.017268551513553, 7735879.721574767492712 ], [ 5410154.501703604124486, 7735875.498378010466695 ], [ 5410695.201184408739209, 7735860.180693387985229 ], [ 5410749.082740117795765, 7735852.485771683976054 ], [ 5410870.405935870483518, 7735807.451256599277258 ], [ 5410874.10063125193119, 7735806.10865243524313 ], [ 5410878.453761311247945, 7735804.361851301975548 ], [ 5410931.665540023706853, 7735781.800958612002432 ], [ 5411299.878677836619318, 7735630.14194330573082 ], [ 5412313.908660578541458, 7735391.627527566626668 ], [ 5412316.265785035677254, 7735391.104691735468805 ], [ 5412326.642811423167586, 7735411.518305478617549 ], [ 5412385.269639680162072, 7735479.643420752137899 ], [ 5412468.918038773350418, 7735574.587717143818736 ], [ 5411949.073359915986657, 7735852.269675465300679 ], [ 5411430.659919078461826, 7736140.70698216278106 ], [ 5411337.213665557093918, 7736195.9291677698493 ], [ 5411301.738620959222317, 7736217.210899971425533 ], [ 5411283.742361701093614, 7736233.822736376896501 ], [ 5411259.482833432033658, 7736268.740040207281709 ], [ 5411127.952327443286777, 7736466.398322038352489 ], [ 5410972.761050589382648, 7736659.684093033894897 ], [ 5410948.287175506353378, 7736684.407472373917699 ], [ 5410930.24242727458477, 7736707.312063375487924 ], [ 5410911.892844608053565, 7736715.753138352185488 ], [ 5410888.760232445783913, 7736748.534122958779335 ], [ 5410862.187064898200333, 7736777.591188066639006 ], [ 5410812.887663354165852, 7736819.79939045291394 ], [ 5410763.453160836361349, 7736865.095665726810694 ], [ 5410751.481216263957322, 7736891.805046152323484 ], [ 5410748.897452455945313, 7736915.5706119928509 ], [ 5410741.128903809934855, 7736939.93760359659791 ], [ 5410734.064879027195275, 7736960.592333099804819 ], [ 5410723.183824812993407, 7736985.777404414489865 ], [ 5410720.255749987438321, 7737016.531346347182989 ], [ 5410712.325139188207686, 7737042.855296245776117 ], [ 5410703.543205463327467, 7737071.996130185201764 ], [ 5410694.247172607108951, 7737095.800418362021446 ], [ 5410688.17783185839653, 7737111.348750942386687 ], [ 5410659.79308124165982, 7737175.981942592188716 ], [ 5410636.506947969086468, 7737229.007311686873436 ], [ 5410599.902101966552436, 7737332.333361960947514 ], [ 5410568.74822680093348, 7737421.768188521265984 ], [ 5410549.62297875341028, 7737516.507827343419194 ], [ 5410551.349064186215401, 7737594.313197628594935 ], [ 5410553.992888270877302, 7737662.042546043172479 ], [ 5410555.277595954947174, 7737695.225633880123496 ], [ 5410564.238381642848253, 7737731.121286323294044 ], [ 5410564.168520399369299, 7737785.798748448491096 ], [ 5410553.274975135922432, 7737844.541687371209264 ], [ 5410528.783128617331386, 7737905.718616830185056 ], [ 5410491.074311258271337, 7737972.183388072997332 ], [ 5410474.039052667096257, 7737988.937279454432428 ], [ 5410465.900810327380896, 7738008.374553052708507 ], [ 5410440.886070257984102, 7738053.827984898351133 ], [ 5410411.902143809944391, 7738080.444598229601979 ], [ 5410371.913515485823154, 7738120.596666702069342 ], [ 5410356.256908849813044, 7738142.621832756325603 ], [ 5410347.40211764536798, 7738163.540974101051688 ], [ 5410343.208688477054238, 7738200.816736109554768 ], [ 5410342.249529567547143, 7738236.683452762663364 ], [ 5410330.011665923520923, 7738310.439310729503632 ], [ 5410315.529569050297141, 7738359.768537858501077 ], [ 5410270.463134910911322, 7738497.663102185353637 ], [ 5410255.302721517160535, 7738530.862107673659921 ], [ 5410241.502310961484909, 7738548.448198905214667 ], [ 5410238.635058780200779, 7738552.112240810878575 ], [ 5410235.757370109669864, 7738555.776531580835581 ], [ 5410221.926669176667929, 7738573.407711632549763 ], [ 5410206.884419802576303, 7738601.510236350819468 ], [ 5410199.620863508433104, 7738623.500866799615324 ], [ 5410185.135357484221458, 7738645.630890710279346 ], [ 5410176.615780521184206, 7738665.31004348769784 ], [ 5410166.983165633864701, 7738681.231685530394316 ], [ 5410151.941592445597053, 7738696.26170994900167 ], [ 5410138.721279824152589, 7738702.303902766667306 ], [ 5410123.014367467723787, 7738729.256995511241257 ], [ 5410097.934011573903263, 7738761.572102013975382 ], [ 5410097.815671596676111, 7738786.776450769975781 ], [ 5410100.589771034196019, 7738822.043309185653925 ], [ 5410100.356221195310354, 7738856.849403672851622 ], [ 5410090.654646958224475, 7738899.616497395560145 ], [ 5410073.719814661890268, 7738939.870967354625463 ], [ 5410008.372200868092477, 7739066.852071401663125 ], [ 5409970.902912116609514, 7739159.320542653091252 ], [ 5409899.60492795612663, 7739259.754597736522555 ], [ 5409828.328910985961556, 7739423.274438941851258 ], [ 5409810.637985829263926, 7739438.467111125588417 ], [ 5409793.558228341862559, 7739456.519301122054458 ], [ 5409777.188392979092896, 7739476.318945962935686 ], [ 5409770.74567611888051, 7739497.313049236312509 ], [ 5409758.367283811792731, 7739532.109340791590512 ], [ 5409753.166140909306705, 7739550.876567226834595 ], [ 5409749.162209443747997, 7739563.367567591369152 ], [ 5409747.886395058594644, 7739580.354315862990916 ], [ 5409743.798846463672817, 7739593.280093587934971 ], [ 5409732.580862142145634, 7739608.884038588032126 ], [ 5409721.192921693436801, 7739615.614395625889301 ], [ 5409716.102657914161682, 7739630.716925134882331 ], [ 5409706.75029924698174, 7739647.929763329215348 ], [ 5409693.548789721913636, 7739660.052161590196192 ], [ 5409687.691256030462682, 7739683.262730503454804 ], [ 5409614.902821072377264, 7739736.712264519184828 ], [ 5409585.581809696741402, 7739760.771256386302412 ], [ 5409539.214750736951828, 7739785.936043372377753 ], [ 5409514.44405743572861, 7739813.847933698445559 ], [ 5409499.43058233615011, 7739835.823119627311826 ], [ 5409482.776413436979055, 7739866.504190426319838 ], [ 5409470.020682109519839, 7739902.596346655860543 ], [ 5409466.758711936883628, 7739916.878331130370498 ], [ 5409466.749125845730305, 7739927.864595336839557 ], [ 5409465.272638378664851, 7739943.457818867638707 ], [ 5409461.773347366601229, 7739954.793657453730702 ], [ 5409460.858914348296821, 7739968.997442560270429 ], [ 5409458.568111349828541, 7739982.845664409920573 ], [ 5409454.706352990120649, 7739996.49832153879106 ], [ 5409445.807703875936568, 7740010.426481648348272 ], [ 5409440.447231722995639, 7740033.047966434620321 ], [ 5409440.068005672656, 7740054.374349834397435 ], [ 5409432.395573663525283, 7740075.94127195328474 ], [ 5409419.424662304110825, 7740099.077169559895992 ], [ 5409414.77741723228246, 7740107.377592576667666 ], [ 5409412.633975975215435, 7740111.201693009585142 ], [ 5409410.490533577278256, 7740115.025792991742492 ], [ 5409387.764505783095956, 7740155.594646863639355 ], [ 5409382.051429817453027, 7740179.20102945715189 ], [ 5409328.261703501455486, 7740206.250901965424418 ], [ 5409266.90998911857605, 7740245.498879970051348 ], [ 5409212.690655524842441, 7740273.379732152447104 ], [ 5409165.294735796749592, 7740315.057730921544135 ], [ 5409141.657788648270071, 7740344.162443688139319 ], [ 5409119.074054794386029, 7740368.825421045534313 ], [ 5409076.790335029363632, 7740395.86644340492785 ], [ 5408968.155906476080418, 7740466.290146755054593 ], [ 5408926.72314300108701, 7740497.516171600669622 ], [ 5408893.658601582050323, 7740515.315242985263467 ], [ 5408830.273598889820278, 7740557.849968326278031 ], [ 5408815.58096092287451, 7740572.315087201073766 ], [ 5408808.609315604902804, 7740587.395333122462034 ], [ 5408810.523739961907268, 7740602.463745905086398 ], [ 5408809.435804550535977, 7740617.304026946425438 ], [ 5408806.74716826621443, 7740631.139308907091618 ], [ 5408798.194099927321076, 7740644.270848271436989 ], [ 5408785.923552594147623, 7740657.40211002714932 ], [ 5408761.809252545237541, 7740718.287875302135944 ], [ 5408756.282574254088104, 7740752.853131587617099 ], [ 5408732.723605845123529, 7740799.344000848010182 ], [ 5408677.361297500319779, 7740859.630579774267972 ], [ 5408661.444144068285823, 7740882.780201995745301 ], [ 5408637.263912494294345, 7740913.705604868009686 ], [ 5408613.85046952124685, 7740941.749714757315814 ], [ 5408597.991706459783018, 7740958.139855060726404 ], [ 5408572.027590841054916, 7740981.68375382386148 ], [ 5408568.827914960682392, 7740984.578485121950507 ], [ 5408565.618064998649061, 7740987.484554531052709 ], [ 5408546.298166567459702, 7741005.000078286975622 ], [ 5408538.814696873538196, 7741026.683844137936831 ], [ 5408533.19913219101727, 7741052.706431867554784 ], [ 5408516.643490521237254, 7741075.371671324595809 ], [ 5408508.64046177174896, 7741087.502268144860864 ], [ 5408494.124877464026213, 7741105.935428431257606 ], [ 5408487.211039809510112, 7741111.171143289655447 ], [ 5408479.060028117150068, 7741115.759371550753713 ], [ 5408447.053877338767052, 7741131.590127951465547 ], [ 5408429.516219487413764, 7741140.18559178058058 ], [ 5408402.959771745838225, 7741153.767148052342236 ], [ 5408376.72908122651279, 7741169.194083081558347 ], [ 5408329.406951561570168, 7741189.12839282117784 ], [ 5408321.681034457869828, 7741201.0636305231601 ], [ 5408301.154277206398547, 7741224.943767163902521 ], [ 5408232.857768917456269, 7741274.549935262650251 ], [ 5408160.964646740816534, 7741332.785773919895291 ], [ 5408135.517417236231267, 7741368.034732937812805 ], [ 5408101.805420179851353, 7741390.341376010328531 ], [ 5408014.990054493770003, 7741453.03676263988018 ], [ 5408039.556460681371391, 7741497.239892864599824 ], [ 5408045.202363038435578, 7741603.546296551823616 ], [ 5408061.152092586271465, 7741663.52293083909899 ], [ 5408108.324681325815618, 7741807.015914432704449 ], [ 5408166.355814935639501, 7741935.436692711897194 ], [ 5408174.842932582832873, 7742116.101987674832344 ], [ 5408204.095011771656573, 7742213.791409362107515 ], [ 5408246.481240537948906, 7742257.659957190044224 ], [ 5408260.080884030088782, 7742310.989967941306531 ], [ 5408209.18163931928575, 7742533.658199027180672 ], [ 5408224.171504174359143, 7742663.600876666605473 ], [ 5408306.350863480940461, 7742772.23963887616992 ], [ 5408303.900818815454841, 7742841.486490441486239 ], [ 5408359.204915139824152, 7743024.268941322341561 ], [ 5408367.943023261614144, 7743055.365490993484855 ], [ 5408389.107368075288832, 7743116.738585395738482 ], [ 5408436.418931695632637, 7743267.674394631758332 ], [ 5408522.26587200537324, 7743455.856639813631773 ], [ 5408599.25240303017199, 7743687.360560018569231 ], [ 5408633.425180657766759, 7743688.224134357646108 ], [ 5408667.311294314451516, 7743724.071724148467183 ], [ 5408690.306576089002192, 7743753.420131545513868 ], [ 5408672.159821107983589, 7743776.067300060763955 ], [ 5408689.137217237614095, 7743811.484454147517681 ], [ 5408676.895282313227654, 7743832.53759393747896 ], [ 5408752.548556257970631, 7743909.294192650355399 ], [ 5408764.241863119415939, 7743950.008052771911025 ], [ 5408745.506406807340682, 7743971.182284381240606 ], [ 5408754.535592914558947, 7744018.018353570252657 ], [ 5408783.03563285805285, 7744033.742120491340756 ], [ 5408786.108311384916306, 7744069.44536149315536 ], [ 5408797.360874681733549, 7744086.32255082949996 ], [ 5408803.531062848865986, 7744272.225842848420143 ], [ 5408802.497275278903544, 7744378.658180513419211 ], [ 5408798.161974158138037, 7744548.387738620862365 ], [ 5408796.166389068588614, 7744642.924863381311297 ], [ 5408832.289229143410921, 7744709.990313894115388 ], [ 5408903.715828008949757, 7744840.389864997006953 ], [ 5408951.223913763649762, 7744920.634036643430591 ], [ 5408999.83863471634686, 7745004.358464032411575 ], [ 5408967.292518507689238, 7745313.980046844109893 ], [ 5408959.380954538471997, 7745410.11153463460505 ], [ 5408984.248187546618283, 7745511.600647334009409 ], [ 5409114.079822267405689, 7745668.476422279141843 ], [ 5409144.05472429189831, 7745723.747684024274349 ], [ 5409140.913905608467758, 7745836.899544415064156 ], [ 5409104.28786033205688, 7745987.13397170510143 ], [ 5409019.597240708768368, 7746148.663791349157691 ], [ 5408904.496489209122956, 7746311.481046972796321 ], [ 5408870.764985013753176, 7746376.088938603177667 ], [ 5408851.713718107901514, 7746430.749370973557234 ], [ 5408857.140157135203481, 7746484.22932208981365 ], [ 5408894.006740596145391, 7746551.277631310746074 ], [ 5408949.512271481566131, 7746704.294384691864252 ], [ 5408998.833031689748168, 7746762.180481236428022 ], [ 5409046.106439815834165, 7747075.331596434116364 ], [ 5409096.304379681125283, 7747222.504308838397264 ], [ 5409202.778018997050822, 7747360.461518890224397 ], [ 5409295.147566134110093, 7747460.458173120394349 ], [ 5409327.842772839590907, 7747579.161422559991479 ], [ 5409335.541820134967566, 7747647.357455901801586 ], [ 5409314.143478882499039, 7747747.959653556346893 ], [ 5409245.050441902130842, 7747907.753442933782935 ], [ 5409221.747534930706024, 7747995.062134915031493 ], [ 5409245.844937563873827, 7748328.161276116967201 ], [ 5409221.172361805103719, 7748411.063590725883842 ], [ 5409272.007673519663513, 7748467.426987141370773 ], [ 5409273.397296041250229, 7748512.780135245993733 ], [ 5409275.02783356513828, 7748540.550140473991632 ], [ 5409267.050888076424599, 7748568.481694096699357 ], [ 5409261.002289671450853, 7748609.439545423723757 ], [ 5409239.396135579794645, 7748635.353238325566053 ], [ 5409255.976255756802857, 7748675.884772062301636 ], [ 5409277.574906595051289, 7748742.996177462860942 ], [ 5409329.685471610166132, 7748807.274684117175639 ], [ 5409442.548897169530392, 7748912.999661875888705 ], [ 5409618.148448390886188, 7749056.061708373948932 ], [ 5409982.944917293265462, 7748672.957478124648333 ], [ 5410014.745094790123403, 7748621.05524627584964 ], [ 5410021.341854150407016, 7748533.354478663764894 ], [ 5410078.251072216778994, 7748473.763745244592428 ], [ 5410137.643785019405186, 7748391.664477113634348 ], [ 5410245.046300639398396, 7748370.454251684248447 ], [ 5410327.844335045665503, 7748309.658006911166012 ], [ 5410471.845924587920308, 7748265.358575842343271 ], [ 5410490.84515571128577, 7748251.156843051314354 ], [ 5410517.651171647012234, 7748176.956185391172767 ], [ 5410543.250524845905602, 7748055.155750907957554 ], [ 5410614.749654323793948, 7747903.853049153462052 ], [ 5410629.944407407194376, 7747823.359230345115066 ], [ 5410618.9473632927984, 7747757.261018512770534 ], [ 5410626.144411848857999, 7747734.862124509178102 ], [ 5410646.643387439660728, 7747702.957834612578154 ], [ 5410753.242230990901589, 7747597.35841179266572 ], [ 5410830.751674766652286, 7747547.659715209156275 ], [ 5410928.352255357429385, 7747396.853010655380785 ], [ 5410994.14518559910357, 7747201.062118018046021 ], [ 5411013.549667582847178, 7747166.253594174981117 ], [ 5411074.851615687832236, 7747101.559400793164968 ], [ 5411084.74340979848057, 7747069.552299318835139 ], [ 5411092.651362353004515, 7746946.052469822578132 ], [ 5411152.151516212150455, 7746868.06204148195684 ], [ 5411266.751833857037127, 7746550.555496653541923 ], [ 5411327.343187575228512, 7746457.556789063848555 ], [ 5411358.1520134517923, 7746370.651406995952129 ], [ 5411437.751963376067579, 7746252.66207442060113 ], [ 5411447.651874648407102, 7746217.558197297155857 ], [ 5411449.349962640553713, 7746094.46112042106688 ], [ 5411463.142843498848379, 7746058.354195065796375 ], [ 5411495.647276860661805, 7746018.459746308624744 ], [ 5411561.051929372362792, 7745992.859760009683669 ], [ 5411674.442632606253028, 7745893.358780771493912 ], [ 5411779.747089589945972, 7745753.65636373963207 ], [ 5411859.347105777822435, 7745670.453673683106899 ], [ 5411935.15139986295253, 7745553.050834650173783 ], [ 5412007.647771701216698, 7745495.651777608320117 ], [ 5412094.448175073601305, 7745479.058466620743275 ], [ 5411981.275459893979132, 7745420.633145838975906 ], [ 5411975.116202701814473, 7745204.206704259850085 ], [ 5411834.21289708930999, 7744806.425452247262001 ], [ 5411862.090407824143767, 7744624.362629341892898 ], [ 5411849.412787280976772, 7744539.761131593026221 ], [ 5411803.944517683237791, 7744367.200022310949862 ], [ 5411782.66160512343049, 7744218.018880385905504 ], [ 5411777.094473489560187, 7744075.253012206405401 ], [ 5411811.512257996015251, 7743926.547067469917238 ], [ 5411806.13076192419976, 7743794.185898642987013 ], [ 5411801.142696252092719, 7743642.483891846612096 ], [ 5411814.526923707686365, 7743520.948078451678157 ], [ 5411945.748893864452839, 7743352.655203506350517 ], [ 5411966.841979884542525, 7743289.250450406223536 ], [ 5411980.644074069336057, 7743114.159779229201376 ], [ 5411993.0466616936028, 7743065.556084981188178 ], [ 5412124.65133863221854, 7742777.056667503900826 ], [ 5412227.445696566253901, 7742628.35123688634485 ], [ 5412327.450700275599957, 7742453.55532231554389 ], [ 5412371.244155365042388, 7742408.858726467005908 ], [ 5412513.848103700205684, 7742313.450302857905626 ], [ 5412641.246053793467581, 7742208.950565321370959 ], [ 5412657.641796099953353, 7742188.048884618096054 ], [ 5412673.744787264615297, 7742115.351627929136157 ], [ 5412831.646735493093729, 7741890.453998658806086 ], [ 5412997.74408960621804, 7741706.950198545120656 ], [ 5413051.550147314555943, 7741658.84763918351382 ], [ 5413118.97020772844553, 7741591.485222054645419 ], [ 5413215.225386500358582, 7741454.291657285764813 ], [ 5413309.941147100180387, 7741232.305156921967864 ], [ 5413363.412348866462708, 7741110.033595127053559 ], [ 5413465.943915366195142, 7740810.751801860518754 ], [ 5413570.044474280439317, 7740576.850668448954821 ], [ 5413616.648651342839003, 7740321.35055469814688 ], [ 5413633.243480382487178, 7740145.354477030225098 ], [ 5413632.745348300784826, 7739870.547080351039767 ], [ 5413658.050303852185607, 7739687.748899021185935 ], [ 5413665.251496131531894, 7739521.556039283052087 ], [ 5413653.845659609884024, 7739352.349210491403937 ], [ 5413558.548745587468147, 7739003.952747717499733 ], [ 5413489.947961881756783, 7738842.64994421415031 ], [ 5413388.143747976049781, 7738667.85362845659256 ], [ 5413363.044384248554707, 7738569.046839900314808 ], [ 5413358.547297959215939, 7738473.350289942696691 ], [ 5413386.849074725061655, 7738159.751201409846544 ], [ 5413382.5448276437819, 7738058.645454535260797 ], [ 5413323.03998252004385, 7737641.547494142316282 ], [ 5413326.346062583848834, 7737572.052734130993485 ], [ 5413340.945395892485976, 7737509.354833798483014 ], [ 5413384.049169762060046, 7737383.046567158773541 ], [ 5413403.345610194839537, 7737211.146374927833676 ], [ 5413405.649334268644452, 7737147.746011899784207 ], [ 5413373.940592073835433, 7736775.555391363799572 ], [ 5413389.444336853921413, 7736219.049605369567871 ], [ 5413405.840164542198181, 7736171.644753694534302 ], [ 5413471.141367091797292, 7736093.751064533367753 ], [ 5413573.542552521452308, 7736012.753061521798372 ], [ 5413665.448598134331405, 7735914.351382352411747 ], [ 5413737.546909174881876, 7735804.153422160074115 ], [ 5414048.644184316508472, 7735522.347645122557878 ], [ 5414077.647854163311422, 7735472.350726336240768 ], [ 5414070.341761371120811, 7735432.653458222746849 ], [ 5414064.349620847031474, 7735418.393554741516709 ], [ 5414058.602289901115, 7735404.760299289599061 ], [ 5414035.543736499734223, 7735349.951506226323545 ], [ 5414017.345369423739612, 7735335.143242303282022 ], [ 5413960.441734187304974, 7735289.353669963777065 ], [ 5413860.845102130435407, 7735105.353645849972963 ], [ 5413811.348815163597465, 7734972.445937814190984 ], [ 5413773.34155326988548, 7734918.453278713859618 ], [ 5413695.845844700932503, 7734875.347019946202636 ], [ 5413626.546339933760464, 7734854.348701500333846 ], [ 5413295.042298400774598, 7734828.150497426278889 ], [ 5413247.546472948044538, 7734811.751578707247972 ], [ 5413182.346201758831739, 7734755.950649553909898 ], [ 5412883.844656735658646, 7734401.949126956984401 ], [ 5412907.54095471650362, 7734173.745139707811177 ], [ 5412894.64635097514838, 7733976.15395487472415 ], [ 5412840.342727653682232, 7733777.253419419750571 ], [ 5412705.926596963778138, 7733568.36643888708204 ], [ 5412558.038581389002502, 7733440.094203367829323 ], [ 5412446.383500427007675, 7733343.918381385505199 ], [ 5412274.905347150750458, 7733225.01338532473892 ], [ 5412154.444324446842074, 7733134.941179148852825 ], [ 5412026.848410904407501, 7732979.520966344512999 ], [ 5411855.427258827723563, 7732863.596874719485641 ], [ 5411667.0516586760059, 7732795.598580719903111 ], [ 5411438.25990036316216, 7732790.860183891840279 ], [ 5411040.425792881287634, 7732801.101307256147265 ], [ 5410598.549503684043884, 7732838.946099744178355 ], [ 5410359.32081498298794, 7732751.059327460825443 ], [ 5410152.638006933033466, 7732656.607688132673502 ], [ 5410000.541484543122351, 7732540.64872895181179 ], [ 5409840.844328759238124, 7732498.611592868342996 ], [ 5409633.134917854331434, 7732246.344885716214776 ], [ 5409438.93836394418031, 7732180.850604798644781 ], [ 5409285.139314599335194, 7732185.353492631576955 ], [ 5409150.240378085523844, 7732212.051934702321887 ], [ 5409080.739251198247075, 7732205.946710560470819 ], [ 5408940.933863527141511, 7732099.851408638991416 ], [ 5408817.135691986419261, 7732026.75248153693974 ], [ 5408442.929854578338563, 7731844.638172084465623 ], [ 5408190.44007720053196, 7731721.754572393372655 ], [ 5408152.036669328808784, 7731688.248665476217866 ], [ 5408078.731361452490091, 7731591.246818440034986 ] ] ] } },
{ "type": "Feature", "properties": { "lv_id": "LOC_057907", "id": 371107.0, "CD_SETOR": "355610705000001", "SITUACAO": "Urbana", "CD_SIT": "1", "CD_TIPO": "0", "AREA_KM2": 0.164001253969662, "CD_REGIAO": "3", "NM_REGIAO": "Sudeste", "CD_UF": "35", "NM_UF": "São Paulo", "CD_MUN": "3556107", "NM_MUN": "Valentim Gentil", "CD_DIST": "355610705", "NM_DIST": "Valentim Gentil", "CD_SUBDIST": "35561070500", "NM_SUBDIST": null, "CD_BAIRRO": null, "NM_BAIRRO": null, "CD_NU": null, "NM_NU": null, "CD_FCU": null, "NM_FCU": null, "CD_AGLOM": null, "NM_AGLOM": null, "CD_RGINT": "3507", "NM_RGINT": "São José do Rio Preto", "CD_RGI": "350027", "NM_RGI": "Votuporanga", "CD_CONCURB": null, "NM_CONCURB": null, "mun_code_x": "3556107", "index_right": 91302, "dist_m": 0.0, "local_id": 630040, "ano": 2022, "cod_localidade_ibge": 3556107, "NR_ZONA": "147", "nr_cep": 15520000.0, "nm_localidade": "VALENTIM GENTIL", "nm_locvot": "EMEF VICENTE SANTORO", "ds_endereco": "R CIDADAO JOAO NOVAES, 747", "ds_bairro": "CENTRO", "pred_long": -50.085565, "pred_lat": -20.424909, "pred_dist": 0.0, "tse_long": -50.0855622, "tse_lat": -20.4248848, "long": -50.0855622, "lat": -20.4248848, "ID_UNICO": "LOC_057907", "SG_UF": "SP", "CD_MUNICIPIO": "72230", "NR_LOCAL_VOTACAO": "1023", "QT_SECOES_AGREGADAS": 0, "QT_ELEITORES_TRANSFERIDOS": 2, "CIRO GOMES (PDT) (NÃO ELEITO) 1T": 40.0, "CONSTITUINTE EYMAEL (DC) (NÃO ELEITO) 1T": 0.0, "FELIPE D AVILA (NOVO) (NÃO ELEITO) 1T": 3.0, "JAIR BOLSONARO (PL) (2º TURNO) 1T": 1674.0, "LULA (PT) (2º TURNO) 1T": 1018.0, "LÉO PÉRICLES (UP) (NÃO ELEITO) 1T": 0.0, "PADRE KELMON (PTB) (NÃO ELEITO) 1T": 1.0, "SIMONE TEBET (MDB) (NÃO ELEITO) 1T": 130.0, "SOFIA MANZANO (PCB) (NÃO ELEITO) 1T": 0.0, "SORAYA THRONICKE (UNIÃO) (NÃO ELEITO) 1T": 13.0, "VERA (PSTU) (NÃO ELEITO) 1T": 0.0, "Total_Votos_Validos 1T": 2879.0, "Votos_Brancos 1T": 81.0, "Votos_Nulos 1T": 86.0, "Abstenções 1T": 871.0, "Eleitores_Aptos 1T": 3917.0, "JAIR BOLSONARO (PL) (NÃO ELEITO) 2T": 1915.0, "LULA (PT) (ELEITO) 2T": 1038.0, "Total_Votos_Validos 2T": 2953.0, "Votos_Brancos 2T": 48.0, "Votos_Nulos 2T": 105.0, "Abstenções 2T": 811.0, "Eleitores_Aptos 2T": 3917.0, "mun_code_y": "3556107", "mun_code": "3556107" }, "geometry": { "type": "Polygon", "coordinates": [ [ [ 5407413.678317208774388, 7736494.541335426270962 ], [ 5407463.725169983692467, 7736485.261799880303442 ], [ 5407506.489927486516535, 7736473.991410023532808 ], [ 5407551.196593481115997, 7736458.335863307118416 ], [ 5407587.359089880250394, 7736442.495032331906259 ], [ 5407626.390859466977417, 7736422.635387266054749 ], [ 5407659.660747488029301, 7736401.93619669880718 ], [ 5407693.436603176407516, 7736379.249651200138032 ], [ 5407739.62912907730788, 7736340.48785350099206 ], [ 5407778.521161933429539, 7736300.723370228894055 ], [ 5407813.065689126029611, 7736261.650372732430696 ], [ 5407889.717622902244329, 7736170.99541462957859 ], [ 5407868.18698270432651, 7736155.018051018938422 ], [ 5407839.464788200333714, 7736131.632709257304668 ], [ 5407837.285341530106962, 7736127.345720002427697 ], [ 5407837.266565958037972, 7736123.484461861662567 ], [ 5407837.929668944329023, 7736119.76232784986496 ], [ 5407839.870949172414839, 7736116.231704227626324 ], [ 5407868.072553826496005, 7736083.06874985806644 ], [ 5407833.433828857727349, 7736054.963851125910878 ], [ 5407831.027464240789413, 7736051.669884659349918 ], [ 5407830.126845348626375, 7736048.04045888222754 ], [ 5407830.207510127685964, 7736044.40986742824316 ], [ 5407831.605850812979043, 7736040.437196678481996 ], [ 5407853.057799468748271, 7736014.936395321041346 ], [ 5407720.301814714446664, 7735969.836193480528891 ], [ 5407798.604335704818368, 7735817.843145886436105 ], [ 5407802.562948865815997, 7735818.370331570506096 ], [ 5407808.420849830843508, 7735813.603489337489009 ], [ 5407811.288747157901525, 7735812.603079132735729 ], [ 5407872.76692902110517, 7735820.538429634645581 ], [ 5407898.327838736586273, 7735823.835901877842844 ], [ 5407903.454596870578825, 7735824.75693098269403 ], [ 5407910.623334533534944, 7735829.013879397884011 ], [ 5407935.51038053445518, 7735849.616270455531776 ], [ 5407968.899855668656528, 7735876.119434054940939 ], [ 5408013.879781854338944, 7735914.575264306738973 ], [ 5408045.866757030598819, 7735942.232513676397502 ], [ 5408064.658081008121371, 7735958.474634004756808 ], [ 5408080.365243281237781, 7735971.893919060006738 ], [ 5408116.404953327961266, 7736002.705930024385452 ], [ 5408190.375057108700275, 7736064.362430492416024 ], [ 5408261.794694885611534, 7736126.301427365280688 ], [ 5408269.679847457446158, 7736133.0158063583076 ], [ 5408208.045351859182119, 7736206.703040127642453 ], [ 5408268.908917696215212, 7736258.906397683545947 ], [ 5408283.363506931811571, 7736270.124945811927319 ], [ 5408355.412317068316042, 7736333.014212809503078 ], [ 5408521.862198836170137, 7736473.6618148740381 ], [ 5408533.951009993441403, 7736467.94720808044076 ], [ 5408549.983256204985082, 7736460.363061926327646 ], [ 5408557.021530689671636, 7736467.452652461826801 ], [ 5408569.38719351682812, 7736479.930400965735316 ], [ 5408598.326703474856913, 7736491.779921254143119 ], [ 5408659.149763019755483, 7736514.598553484305739 ], [ 5408725.470482895150781, 7736539.427590385079384 ], [ 5408747.943661216646433, 7736549.344899674877524 ], [ 5408784.725060211494565, 7736566.943982038646936 ], [ 5408854.65068001113832, 7736594.516333600506186 ], [ 5408958.237006099894643, 7736647.141185475513339 ], [ 5408961.71218253672123, 7736647.524328358471394 ], [ 5409066.971611003391445, 7736594.321005120873451 ], [ 5409127.599870375357568, 7736563.422201194800436 ], [ 5409130.371622922830284, 7736561.014557549729943 ], [ 5409132.42442277725786, 7736556.915138326585293 ], [ 5409132.667396838776767, 7736552.659181836992502 ], [ 5409116.686282747425139, 7736469.61339642573148 ], [ 5409099.42653845064342, 7736381.105124745517969 ], [ 5409086.258677145466208, 7736313.139604700729251 ], [ 5409091.309843531809747, 7736320.509489653632045 ], [ 5409104.943664479069412, 7736344.120229221880436 ], [ 5409367.119754800572991, 7736854.215021139010787 ], [ 5409374.834531464613974, 7736862.508889147080481 ], [ 5409383.750621547922492, 7736869.520095394924283 ], [ 5409393.644408772699535, 7736875.065329628065228 ], [ 5409400.414365244098008, 7736876.579272272065282 ], [ 5409406.546083639375865, 7736879.78411144670099 ], [ 5409411.647944419644773, 7736884.456164924427867 ], [ 5409415.357775867916644, 7736890.293367825448513 ], [ 5409419.50563973467797, 7736902.234577732160687 ], [ 5409418.716915667057037, 7736905.493754956871271 ], [ 5409420.39760017581284, 7736912.921917810104787 ], [ 5409422.61302556283772, 7736919.571611118502915 ], [ 5409466.66983284894377, 7737005.275873022153974 ], [ 5409477.451347163878381, 7737023.949875110760331 ], [ 5409483.34276825748384, 7737027.582128079608083 ], [ 5409488.098131463862956, 7737032.606457128189504 ], [ 5409702.151419655419886, 7736930.303180050104856 ], [ 5409611.660408205352724, 7736738.111940436065197 ], [ 5409602.987710409797728, 7736723.371468382887542 ], [ 5409605.862293319776654, 7736579.717768205329776 ], [ 5409608.139149593189359, 7736528.184028039686382 ], [ 5409792.875661747530103, 7736525.720408732071519 ], [ 5409792.149652868509293, 7736515.87245159689337 ], [ 5409740.278686071746051, 7736296.30287198163569 ], [ 5409721.648710142821074, 7736199.082862682640553 ], [ 5409707.513129418715835, 7736195.137406144291162 ], [ 5409693.736235382035375, 7736189.163692435249686 ], [ 5409669.631337150000036, 7736173.005657859146595 ], [ 5409654.806327220052481, 7736156.370488122105598 ], [ 5409626.090938363224268, 7736114.588513927534223 ], [ 5409615.367576842196286, 7736093.971283625811338 ], [ 5409610.680608144961298, 7736086.559520011767745 ], [ 5409589.85682385135442, 7736050.858696744777262 ], [ 5409579.354480410926044, 7736098.483190728351474 ], [ 5409566.588807258754969, 7736101.185330357402563 ], [ 5409487.556589436717331, 7736114.537699507549405 ], [ 5409453.810913631692529, 7736120.448852049186826 ], [ 5409379.64547126647085, 7736133.451346375048161 ], [ 5409319.815339989960194, 7736136.911582480184734 ], [ 5409230.815449835732579, 7736142.055995006114244 ], [ 5409035.74996395688504, 7736153.35008386708796 ], [ 5409024.063115286640823, 7736154.017484458163381 ], [ 5409015.413602857850492, 7736190.54446217790246 ], [ 5409005.383591744117439, 7736209.027366889640689 ], [ 5408997.825908713042736, 7736209.052419642917812 ], [ 5408990.303197814151645, 7736208.355329362675548 ], [ 5408982.945542076602578, 7736206.699954227544367 ], [ 5408950.46012953389436, 7736181.863491982221603 ], [ 5408927.486588021740317, 7736164.523470835760236 ], [ 5408880.542447024025023, 7736128.302482958883047 ], [ 5408825.157662390731275, 7736081.773980039171875 ], [ 5408885.028843612410128, 7736006.505849895998836 ], [ 5408811.462757563218474, 7735944.82004177942872 ], [ 5408738.852615462616086, 7735880.736459074541926 ], [ 5408662.815657704137266, 7735816.956362091004848 ], [ 5408589.818668510764837, 7735754.557226784527302 ], [ 5408582.413869421929121, 7735748.28651775047183 ], [ 5408509.058593059889972, 7735686.162023283541203 ], [ 5408434.667597728781402, 7735623.484972609207034 ], [ 5408431.58933518268168, 7735620.473424990661442 ], [ 5408385.661329254508018, 7735579.045068083330989 ], [ 5408453.234778901562095, 7735493.640812028199434 ], [ 5408485.134385797195137, 7735458.057842204347253 ], [ 5408523.23390943184495, 7735414.559038543142378 ], [ 5408559.898951491340995, 7735380.959524301812053 ], [ 5408602.035535679198802, 7735351.368531137704849 ], [ 5408642.494282801635563, 7735328.908401781693101 ], [ 5408676.838440393097699, 7735314.883505693636835 ], [ 5408745.431171893142164, 7735296.4013537382707 ], [ 5408749.26999868452549, 7735295.410877479240298 ], [ 5408739.477950949221849, 7735273.517202660441399 ], [ 5408706.666560553945601, 7735196.854468485340476 ], [ 5408642.403478148393333, 7735047.114128223620355 ], [ 5408631.479542681947351, 7735019.332765661180019 ], [ 5408619.344126246869564, 7734988.462063260376453 ], [ 5408574.189034605398774, 7734858.584259131923318 ], [ 5408531.773670618422329, 7734721.883027262985706 ], [ 5408511.348782781511545, 7734657.242313727736473 ], [ 5408491.354352633468807, 7734605.39722041785717 ], [ 5408478.596611807122827, 7734582.120580116286874 ], [ 5408455.25851664505899, 7734551.583731013350189 ], [ 5408379.727548960596323, 7734466.307879848405719 ], [ 5408247.972286710515618, 7734319.575247537344694 ], [ 5408114.232688567601144, 7734177.095067945308983 ], [ 5407922.80133397039026, 7733972.759237828664482 ], [ 5407875.560856209136546, 7733921.163781084120274 ], [ 5407839.476931633427739, 7733883.506400402635336 ], [ 5407753.523077907972038, 7733791.630526345223188 ], [ 5407681.262336760759354, 7733713.243787902407348 ], [ 5407598.989770227111876, 7733632.565259916707873 ], [ 5407468.951063801534474, 7733533.349274226464331 ], [ 5407326.052329601719975, 7733428.346576334908605 ], [ 5407250.092300025746226, 7733375.536138318479061 ], [ 5407211.083798579871655, 7733350.864214142784476 ], [ 5407175.501791587099433, 7733314.459028634242713 ], [ 5407173.608241797424853, 7733309.011170316487551 ], [ 5407171.659695603884757, 7733305.639724306762218 ], [ 5407168.849022474139929, 7733301.567502370104194 ], [ 5407165.593388735316694, 7733300.291168481111526 ], [ 5407158.108707614243031, 7733300.258445700630546 ], [ 5407151.060673167929053, 7733301.469268141314387 ], [ 5407147.032203610055149, 7733302.807974932715297 ], [ 5407143.957373484037817, 7733304.745408670976758 ], [ 5407141.945512678474188, 7733307.489807551726699 ], [ 5407139.026281173340976, 7733312.020190074108541 ], [ 5407137.662222352810204, 7733315.670207884162664 ], [ 5407122.7080591423437, 7733310.977003373205662 ], [ 5407092.342715941369534, 7733302.122983800247312 ], [ 5407063.901174254715443, 7733294.721213683485985 ], [ 5407053.192086855880916, 7733292.090832507237792 ], [ 5407038.527207103557885, 7733289.465781426988542 ], [ 5407005.874770213849843, 7733282.752232879400253 ], [ 5406985.323123309761286, 7733281.010661406442523 ], [ 5406936.925965720787644, 7733274.982219707220793 ], [ 5406861.78130741044879, 7733265.628187831491232 ], [ 5406799.933762680739164, 7733259.320004847832024 ], [ 5406703.385694992728531, 7733246.19085987098515 ], [ 5406659.32497975975275, 7733242.11149195022881 ], [ 5406629.292712720111012, 7733238.475376405753195 ], [ 5406585.643255485221744, 7733234.13082823343575 ], [ 5406531.982215413823724, 7733227.072338057681918 ], [ 5406371.880393113009632, 7733206.074725548736751 ], [ 5406308.808088040910661, 7733198.717570338398218 ], [ 5406285.68625972699374, 7733195.982051633298397 ], [ 5406231.481027810834348, 7733184.452533482573926 ], [ 5406189.777212997898459, 7733171.91586253605783 ], [ 5406152.227858565747738, 7733158.947574269026518 ], [ 5406106.121507183648646, 7733136.816745301708579 ], [ 5406058.526920708827674, 7733110.903884330764413 ], [ 5406007.005205607041717, 7733081.355641284957528 ], [ 5405958.361860047094524, 7733053.458956065587699 ], [ 5405871.583845612592995, 7733003.286067986860871 ], [ 5405793.854493916034698, 7732958.346641765907407 ], [ 5405773.88991723023355, 7732947.002304568886757 ], [ 5405720.090668641962111, 7732916.442138779908419 ], [ 5405667.069164328277111, 7732885.219792732968926 ], [ 5405530.230520119890571, 7732805.794660076498985 ], [ 5405339.503888257779181, 7732699.005507029592991 ], [ 5405285.241056228987873, 7732669.520535884425044 ], [ 5405099.996127787977457, 7732568.868965785950422 ], [ 5404976.426513745449483, 7732501.720685206353664 ], [ 5404939.377060944214463, 7732481.547815210185945 ], [ 5404697.796508909203112, 7732350.013369427993894 ], [ 5404501.07565597537905, 7732240.451456439681351 ], [ 5404448.295067135244608, 7732213.503719091415405 ], [ 5404288.548816682770848, 7732124.858829228207469 ], [ 5404257.282758389599621, 7732107.76603084616363 ], [ 5404215.086748917587101, 7732083.940804861485958 ], [ 5404074.910655259154737, 7732008.935299488715827 ], [ 5403986.651128066703677, 7731956.570688471198082 ], [ 5403959.577808788977563, 7731938.446298006922007 ], [ 5403926.185438246466219, 7731915.255845138803124 ], [ 5403893.894156310707331, 7731886.535510078072548 ], [ 5403866.895245068706572, 7731858.733181638643146 ], [ 5403838.981563666835427, 7731821.797894896939397 ], [ 5403781.267556591890752, 7731739.172360321506858 ], [ 5403736.246329535730183, 7731671.19382671546191 ], [ 5403691.064313231036067, 7731613.19469593744725 ], [ 5403545.568496199324727, 7731447.376828552223742 ], [ 5403506.78893699683249, 7731403.252102421596646 ], [ 5403473.443954659625888, 7731358.99904412124306 ], [ 5403445.19393689930439, 7731313.937718311324716 ], [ 5403419.627565975300968, 7731268.491236701607704 ], [ 5403397.010430257767439, 7731217.549011118710041 ], [ 5403335.204065502621233, 7731056.390516748651862 ], [ 5403255.76226746942848, 7730850.574767792597413 ], [ 5403236.947235210798681, 7730799.298661835491657 ], [ 5403202.155681050382555, 7730710.893886543810368 ], [ 5403143.937223303131759, 7730555.731436293572187 ], [ 5403128.393332143314183, 7730516.584111519157887 ], [ 5403120.595956882461905, 7730500.578521797433496 ], [ 5403110.559533333405852, 7730481.230278300121427 ], [ 5403101.679102558642626, 7730466.64837761502713 ], [ 5403089.925627588294446, 7730451.046817019581795 ], [ 5403078.190183801576495, 7730435.766620583832264 ], [ 5403058.554334878921509, 7730414.714070556685328 ], [ 5403038.919273836538196, 7730397.23450721334666 ], [ 5403002.546708424575627, 7730374.512813838198781 ], [ 5402964.086907749064267, 7730356.212243689224124 ], [ 5402894.438738445751369, 7730340.755433747544885 ], [ 5402850.422415776178241, 7730340.850208308547735 ], [ 5402818.332477963529527, 7730342.638815036043525 ], [ 5402783.593698325566947, 7730352.922998620197177 ], [ 5402664.788994841277599, 7730389.589383349753916 ], [ 5402568.617248917929828, 7730419.962607033550739 ], [ 5402388.619733926840127, 7730470.119161847047508 ], [ 5402077.828996036201715, 7730557.184416147880256 ], [ 5401950.855555226095021, 7730592.750370790250599 ], [ 5401818.292755297385156, 7730632.075179535895586 ], [ 5401447.951423443853855, 7730741.943713773041964 ], [ 5401157.128272243775427, 7730825.980352893471718 ], [ 5400915.985321141779423, 7730897.394926870241761 ], [ 5400666.206284288316965, 7730969.108077879995108 ], [ 5400469.941393748857081, 7731024.739009752869606 ], [ 5400240.175999950617552, 7731090.672399719245732 ], [ 5400025.937281236983836, 7731150.768667738884687 ], [ 5399769.136585484258831, 7731220.634447968564928 ], [ 5399731.220474216155708, 7731232.650476556271315 ], [ 5399661.457754431292415, 7731250.692787076346576 ], [ 5399571.447515433654189, 7731278.972533650696278 ], [ 5399490.805096442811191, 7731299.942533100023866 ], [ 5399392.62124845944345, 7731329.055840468034148 ], [ 5399290.161773131228983, 7731358.323886277154088 ], [ 5399273.034054771065712, 7731363.173433745279908 ], [ 5399256.919002230279148, 7731365.802329935133457 ], [ 5399204.07682709954679, 7731371.053282082080841 ], [ 5399179.082861324772239, 7731363.503770876675844 ], [ 5399144.935870106332004, 7731347.890485539101064 ], [ 5399103.741172645241022, 7731328.114339767955244 ], [ 5399071.497248536907136, 7731304.60065339691937 ], [ 5399056.084551992826164, 7731282.313941789790988 ], [ 5399039.282462537288666, 7731260.414728605188429 ], [ 5399023.004223426803946, 7731234.575356432236731 ], [ 5399001.37107552960515, 7731193.926023464649916 ], [ 5398968.574173784814775, 7731135.062767540104687 ], [ 5398959.761303969658911, 7731118.75793004501611 ], [ 5398923.197255180217326, 7731052.293185012415051 ], [ 5398892.695278435014188, 7730998.735579570755363 ], [ 5398870.790744252502918, 7730958.957994021475315 ], [ 5398840.309471128508449, 7730906.276437612250447 ], [ 5398812.662694311700761, 7730861.018369993194938 ], [ 5398798.927047143690288, 7730834.542587596923113 ], [ 5398787.277437377721071, 7730812.489723760634661 ], [ 5398761.359827246516943, 7730762.608705457299948 ], [ 5398689.145926658064127, 7730623.56595001090318 ], [ 5398648.495983466506004, 7730549.185171334072948 ], [ 5398564.080186509527266, 7730393.860926979221404 ], [ 5398528.268305584788322, 7730327.322844268754125 ], [ 5398438.349686156027019, 7730158.80072576738894 ], [ 5398362.387493050657213, 7730019.944775653071702 ], [ 5398273.343025676906109, 7729857.027504028752446 ], [ 5398229.431000810116529, 7729776.431139554828405 ], [ 5398155.603851906955242, 7729637.724793808534741 ], [ 5398136.427878182381392, 7729601.62251116335392 ], [ 5398030.835819745436311, 7729402.82970577199012 ], [ 5398008.574397743679583, 7729361.029516788199544 ], [ 5397993.527858237735927, 7729332.398207187652588 ], [ 5397975.342806050553918, 7729257.726241654716432 ], [ 5397970.176157246343791, 7729227.655217319726944 ], [ 5397962.024319726973772, 7729200.23907414637506 ], [ 5397957.227428410202265, 7729178.425742159597576 ], [ 5397935.745347335934639, 7729151.253715135157108 ], [ 5397916.575786584988236, 7729114.496560972183943 ], [ 5397905.401061764918268, 7729088.560021224431694 ], [ 5397886.467536530457437, 7729031.913843063637614 ], [ 5397874.378062197007239, 7728979.69069161824882 ], [ 5397853.579156890511513, 7728928.968710808083415 ], [ 5397841.667555748485029, 7728946.211634232662618 ], [ 5397794.676034335978329, 7728943.833684964105487 ], [ 5397748.234144876711071, 7728883.046163152903318 ], [ 5397671.713557705283165, 7728770.90941711794585 ], [ 5397611.773225756362081, 7728724.161501271650195 ], [ 5397531.236030238680542, 7728702.114967569708824 ], [ 5397477.704838496632874, 7728695.794283976778388 ], [ 5397443.21906659938395, 7728707.049366093240678 ], [ 5397382.373664946295321, 7728794.046682223677635 ], [ 5397336.655983651056886, 7728905.179653933271766 ], [ 5397373.583603438921273, 7729109.689471736550331 ], [ 5397389.143251922912896, 7729295.922804556787014 ], [ 5397386.562036035582423, 7729331.655373927205801 ], [ 5397363.627252517268062, 7729373.453801192343235 ], [ 5397314.185527522116899, 7729445.705104955472052 ], [ 5397247.445431560277939, 7729469.637705449014902 ], [ 5397179.34039834421128, 7729463.588115748018026 ], [ 5397107.211909546516836, 7729414.625255100429058 ], [ 5396978.32280679512769, 7729315.620358606800437 ], [ 5396892.515751201659441, 7729314.752415959723294 ], [ 5396820.38313793297857, 7729309.58294933848083 ], [ 5396781.976318251341581, 7729290.015246623195708 ], [ 5396635.290834910236299, 7729147.538948653265834 ], [ 5396553.931279464624822, 7729124.696844630874693 ], [ 5396469.750669406726956, 7729124.621369438245893 ], [ 5396385.607634844258428, 7729126.164556810632348 ], [ 5396299.61933458968997, 7729160.171249436214566 ], [ 5396239.273081135004759, 7729179.934911995194852 ], [ 5396186.626653254963458, 7729215.85224243812263 ], [ 5396146.416963091120124, 7729299.857169361785054 ], [ 5396118.991119823418558, 7729418.127802094444633 ], [ 5396115.965920780785382, 7729606.333018127828836 ], [ 5396100.825072372332215, 7729751.779808822087944 ], [ 5396227.995467324741185, 7729889.742644904181361 ], [ 5396345.263049838133156, 7729972.745650069788098 ], [ 5396412.212125914171338, 7730048.572092949412763 ], [ 5396501.943877185694873, 7730086.666267484426498 ], [ 5396586.144105204381049, 7730043.757928119972348 ], [ 5396704.51257610693574, 7730009.963881777599454 ], [ 5396869.822568954899907, 7729974.956240729428828 ], [ 5396982.519207849167287, 7730012.858394481241703 ], [ 5397023.919370267540216, 7730045.759879438206553 ], [ 5397049.624601012095809, 7730083.153685163706541 ], [ 5397057.627683838829398, 7730115.455548796802759 ], [ 5397052.421414520591497, 7730235.45332769677043 ], [ 5397070.827870825305581, 7730331.956580290570855 ], [ 5397155.020106229931116, 7730482.75260738376528 ], [ 5397189.124686556868255, 7730573.054662568494678 ], [ 5397184.326812359504402, 7730638.752295623533428 ], [ 5397120.726376689970493, 7730751.353002869524062 ], [ 5397113.025763890706003, 7730782.854823298752308 ], [ 5397120.024589322507381, 7730807.85696361027658 ], [ 5397246.723765140399337, 7730959.950799921527505 ], [ 5397336.624500587582588, 7731023.457967741414905 ], [ 5397825.220227378420532, 7731082.958755573257804 ], [ 5397914.929124560207129, 7731105.358386741951108 ], [ 5398016.922130614519119, 7731079.349474353715777 ], [ 5398063.321752117946744, 7731094.157813372090459 ], [ 5398093.728833029977977, 7731128.057037037797272 ], [ 5398169.227893892675638, 7731256.850377389229834 ], [ 5398255.421492527239025, 7731369.349984591826797 ], [ 5398330.62734741345048, 7731452.757213344797492 ], [ 5398434.6300433203578, 7731523.254435188136995 ], [ 5398510.125369048677385, 7731645.456250977702439 ], [ 5398509.924395239911973, 7731697.755202934145927 ], [ 5398465.02686626277864, 7731750.652190856635571 ], [ 5398459.620837348513305, 7731773.957201318815351 ], [ 5398465.433468577452004, 7731847.863605216145515 ], [ 5398501.071971418336034, 7731893.446427821181715 ], [ 5398820.992487324401736, 7731993.016327057033777 ], [ 5398906.689615895040333, 7732031.993858898058534 ], [ 5399039.069302204996347, 7732144.733930337242782 ], [ 5399084.264514113776386, 7732182.02625584974885 ], [ 5399198.489648653194308, 7732231.843146609142423 ], [ 5399262.223266947083175, 7732264.74110135436058 ], [ 5399329.698604381643236, 7732325.13574967905879 ], [ 5399418.244593458250165, 7732386.780135810375214 ], [ 5399610.35561503097415, 7732446.525952247902751 ], [ 5399707.182295926846564, 7732562.345502711832523 ], [ 5399800.432541213929653, 7732660.395050914026797 ], [ 5399936.480189374648035, 7732752.794424227438867 ], [ 5399983.794487882405519, 7732861.415520714595914 ], [ 5400014.198749170638621, 7732885.992102634161711 ], [ 5400189.016143910586834, 7732929.837382674217224 ], [ 5400649.331657621078193, 7732912.259921743534505 ], [ 5400717.724860582500696, 7732904.55502606369555 ], [ 5401192.729719216935337, 7732747.351966381072998 ], [ 5401231.732794210314751, 7732742.853025380522013 ], [ 5401296.82845323253423, 7732754.352649630047381 ], [ 5401346.625473487190902, 7732747.258918521925807 ], [ 5401367.330269648693502, 7732755.15061110816896 ], [ 5401622.727233324199915, 7733127.755031107924879 ], [ 5401687.328369468450546, 7733268.457271790131927 ], [ 5401691.233012591488659, 7733332.556656672619283 ], [ 5401669.73278074990958, 7733516.358197513967752 ], [ 5401668.569380671717227, 7733547.743130715563893 ], [ 5401664.730577494949102, 7733651.959178829565644 ], [ 5401712.925044800154865, 7733909.256390146911144 ], [ 5401828.627276216633618, 7734262.359589300118387 ], [ 5401953.134787461720407, 7734388.251260424032807 ], [ 5402031.429183783009648, 7734536.654407295398414 ], [ 5402248.034245330840349, 7734733.050383286550641 ], [ 5402368.834933049045503, 7734877.757679356262088 ], [ 5402386.228982257656753, 7734913.455886317417026 ], [ 5402381.327143421396613, 7735004.759524000808597 ], [ 5402388.327406524680555, 7735019.253075827844441 ], [ 5402488.333605838008225, 7735102.054825883358717 ], [ 5402698.831547874026, 7735309.953456066548824 ], [ 5402923.73429205454886, 7735432.358996116556227 ], [ 5402966.927523840218782, 7735466.85074950940907 ], [ 5403060.730084943585098, 7735583.051631164737046 ], [ 5403110.8346804715693, 7735627.755509742535651 ], [ 5403185.631554043851793, 7735733.850762085989118 ], [ 5403212.635228171944618, 7735790.549575312063098 ], [ 5403259.030387143604457, 7735999.254768611863256 ], [ 5403013.136772704310715, 7736568.35318698734045 ], [ 5402797.307173519395292, 7737071.048516639508307 ], [ 5402784.801181074231863, 7737184.013259079307318 ], [ 5402886.432138823904097, 7737429.258946694433689 ], [ 5402980.928295193240047, 7737689.352522054687142 ], [ 5403006.334615173749626, 7737863.354387130588293 ], [ 5402996.529531753621995, 7738138.460331439040601 ], [ 5402923.837331994436681, 7738414.85499376244843 ], [ 5402909.438287512399256, 7738541.556780981831253 ], [ 5402954.832978963851929, 7738741.154097883030772 ], [ 5402960.893508925102651, 7738982.875604666769505 ], [ 5402933.871774671599269, 7739098.533437362872064 ], [ 5402842.730606338940561, 7739363.753051009960473 ], [ 5402805.730275684036314, 7739505.454308290965855 ], [ 5402797.534560045227408, 7739594.959761831909418 ], [ 5402821.388763595372438, 7739752.78657936770469 ], [ 5402825.367954706773162, 7739779.090968947857618 ], [ 5402827.04970171302557, 7739790.247530985623598 ], [ 5402828.235195628367364, 7739798.053601484745741 ], [ 5402827.163941556587815, 7739805.80167995300144 ], [ 5402824.744218222796917, 7739823.279460636898875 ], [ 5402955.985322332009673, 7739747.196754981763661 ], [ 5403114.982177458703518, 7739652.573778912425041 ], [ 5403258.617222127504647, 7739575.265027418732643 ], [ 5403323.336282419972122, 7739550.486346820369363 ], [ 5403444.710386107675731, 7739520.813589028082788 ], [ 5403498.524014173075557, 7739513.634005170315504 ], [ 5403639.564715337008238, 7739507.75377368927002 ], [ 5404242.159210891462862, 7739492.980782944709063 ], [ 5404611.738621671684086, 7739486.045946802943945 ], [ 5404681.824584460817277, 7739484.393261555582285 ], [ 5404783.176572738215327, 7739470.961853060871363 ], [ 5404838.600824783556163, 7739453.287135881371796 ], [ 5404888.182091838680208, 7739431.810853239148855 ], [ 5404950.111057768575847, 7739394.652246337383986 ], [ 5404952.148277612403035, 7739393.372463818639517 ], [ 5404954.171399808488786, 7739391.937663497403264 ], [ 5404985.206306895241141, 7739368.601757992058992 ], [ 5405014.668115405365825, 7739343.64953966345638 ], [ 5405047.631411512382329, 7739309.559890290722251 ], [ 5405092.24832892883569, 7739250.738421997055411 ], [ 5405116.427478707395494, 7739213.882109241560102 ], [ 5405157.374230223707855, 7739123.888269369490445 ], [ 5405163.287823460064828, 7739100.601378761231899 ], [ 5405168.858857008628547, 7739077.400247436016798 ], [ 5405180.591605896130204, 7738985.244341693818569 ], [ 5405198.502383180893958, 7738786.804627254605293 ], [ 5405211.099462015554309, 7738647.257283402606845 ], [ 5405227.111694913357496, 7738567.472547069191933 ], [ 5405238.074906952679157, 7738532.104242347180843 ], [ 5405266.187623888254166, 7738473.53851924277842 ], [ 5405301.843994600698352, 7738410.788609370589256 ], [ 5405370.192508520558476, 7738333.106750675477087 ], [ 5405609.659743412397802, 7738081.190583262592554 ], [ 5405806.022072873078287, 7737873.466626792214811 ], [ 5405881.618745253421366, 7737791.238231772556901 ], [ 5405916.926521156914532, 7737747.025837435387075 ], [ 5405955.313310687430203, 7737691.310940292663872 ], [ 5405985.849048471078277, 7737633.407145091332495 ], [ 5406099.412846868857741, 7737368.4935292173177 ], [ 5406232.922021119855344, 7737047.544835608452559 ], [ 5406347.540299736894667, 7736778.630289757624269 ], [ 5406374.761681812815368, 7736721.991093203425407 ], [ 5406404.888935570605099, 7736678.288192907348275 ], [ 5406443.677351525053382, 7736632.227033553645015 ], [ 5406492.448642552830279, 7736588.481178317219019 ], [ 5406521.134486162103713, 7736566.350813733413815 ], [ 5406524.548499877564609, 7736563.71758633479476 ], [ 5406528.082806643098593, 7736561.314534613862634 ], [ 5406541.480615788139403, 7736552.219211403280497 ], [ 5406558.67977034766227, 7736541.857438340783119 ], [ 5406593.31017299182713, 7736523.880300522781909 ], [ 5406626.692286819219589, 7736508.296296395361423 ], [ 5406661.262214189395308, 7736495.258460919372737 ], [ 5406684.916098764166236, 7736488.549520399421453 ], [ 5406688.991610633209348, 7736487.398607676848769 ], [ 5406693.386713217943907, 7736486.517526360228658 ], [ 5406753.77423894032836, 7736473.931997107341886 ], [ 5406828.5270194420591, 7736468.839470885694027 ], [ 5406882.095853542909026, 7736472.472315222024918 ], [ 5407048.174002337269485, 7736482.720731599256396 ], [ 5407198.299035277217627, 7736493.346694041974843 ], [ 5407277.998871439136565, 7736498.743175856769085 ], [ 5407364.807965548709035, 7736498.85467600915581 ], [ 5407413.678317208774388, 7736494.541335426270962 ] ] ] } },
{ "type": "Feature", "properties": { "lv_id": "LOC_057909", "id": 371113.0, "CD_SETOR": "355610705000011", "SITUACAO": "Urbana", "CD_SIT": "1", "CD_TIPO": "0", "AREA_KM2": 0.28034742838425297, "CD_REGIAO": "3", "NM_REGIAO": "Sudeste", "CD_UF": "35", "NM_UF": "São Paulo", "CD_MUN": "3556107", "NM_MUN": "Valentim Gentil", "CD_DIST": "355610705", "NM_DIST": "Valentim Gentil", "CD_SUBDIST": "35561070500", "NM_SUBDIST": null, "CD_BAIRRO": null, "NM_BAIRRO": null, "CD_NU": null, "NM_NU": null, "CD_FCU": null, "NM_FCU": null, "CD_AGLOM": null, "NM_AGLOM": null, "CD_RGINT": "3507", "NM_RGINT": "São José do Rio Preto", "CD_RGI": "350027", "NM_RGI": "Votuporanga", "CD_CONCURB": null, "NM_CONCURB": null, "mun_code_x": "3556107", "index_right": 91301, "dist_m": 134.5710539529392, "local_id": 630039, "ano": 2022, "cod_localidade_ibge": 3556107, "NR_ZONA": "147", "nr_cep": 15520000.0, "nm_localidade": "VALENTIM GENTIL", "nm_locvot": "EMEI ELAINE CRISTINA DOMENI POLIZELI (CEAP)", "ds_endereco": "RUA JOÃO GARCIA, 2-10", "ds_bairro": "JARDIM ITALIA", "pred_long": -50.091324, "pred_lat": -20.4169895, "pred_dist": 0.0, "tse_long": -50.091365, "tse_lat": -20.4162773, "long": -50.091365, "lat": -20.4162773, "ID_UNICO": "LOC_057909", "SG_UF": "SP", "CD_MUNICIPIO": "72230", "NR_LOCAL_VOTACAO": "1040", "QT_SECOES_AGREGADAS": 0, "QT_ELEITORES_TRANSFERIDOS": 0, "CIRO GOMES (PDT) (NÃO ELEITO) 1T": 20.0, "CONSTITUINTE EYMAEL (DC) (NÃO ELEITO) 1T": 0.0, "FELIPE D AVILA (NOVO) (NÃO ELEITO) 1T": 3.0, "JAIR BOLSONARO (PL) (2º TURNO) 1T": 710.0, "LULA (PT) (2º TURNO) 1T": 441.0, "LÉO PÉRICLES (UP) (NÃO ELEITO) 1T": 1.0, "PADRE KELMON (PTB) (NÃO ELEITO) 1T": 0.0, "SIMONE TEBET (MDB) (NÃO ELEITO) 1T": 58.0, "SOFIA MANZANO (PCB) (NÃO ELEITO) 1T": 0.0, "SORAYA THRONICKE (UNIÃO) (NÃO ELEITO) 1T": 4.0, "VERA (PSTU) (NÃO ELEITO) 1T": 0.0, "Total_Votos_Validos 1T": 1237.0, "Votos_Brancos 1T": 22.0, "Votos_Nulos 1T": 51.0, "Abstenções 1T": 341.0, "Eleitores_Aptos 1T": 1651.0, "JAIR BOLSONARO (PL) (NÃO ELEITO) 2T": 812.0, "LULA (PT) (ELEITO) 2T": 463.0, "Total_Votos_Validos 2T": 1275.0, "Votos_Brancos 2T": 21.0, "Votos_Nulos 2T": 47.0, "Abstenções 2T": 308.0, "Eleitores_Aptos 2T": 1651.0, "mun_code_y": "3556107", "mun_code": "3556107" }, "geometry": { "type": "Polygon", "coordinates": [ [ [ 5407778.521161933429539, 7736300.723370228894055 ], [ 5407739.62912907730788, 7736340.48785350099206 ], [ 5407693.436603176407516, 7736379.249651200138032 ], [ 5407659.660747488029301, 7736401.93619669880718 ], [ 5407626.390859466977417, 7736422.635387266054749 ], [ 5407587.359089880250394, 7736442.495032331906259 ], [ 5407551.196593481115997, 7736458.335863307118416 ], [ 5407506.489927486516535, 7736473.991410023532808 ], [ 5407463.725169983692467, 7736485.261799880303442 ], [ 5407413.678317208774388, 7736494.541335426270962 ], [ 5407364.807965548709035, 7736498.85467600915581 ], [ 5407277.998871439136565, 7736498.743175856769085 ], [ 5407198.299035277217627, 7736493.346694041974843 ], [ 5407048.174002337269485, 7736482.720731599256396 ], [ 5406882.095853542909026, 7736472.472315222024918 ], [ 5406828.5270194420591, 7736468.839470885694027 ], [ 5406753.77423894032836, 7736473.931997107341886 ], [ 5406693.386713217943907, 7736486.517526360228658 ], [ 5406688.991610633209348, 7736487.398607676848769 ], [ 5406684.916098764166236, 7736488.549520399421453 ], [ 5406661.262214189395308, 7736495.258460919372737 ], [ 5406626.692286819219589, 7736508.296296395361423 ], [ 5406593.31017299182713, 7736523.880300522781909 ], [ 5406558.67977034766227, 7736541.857438340783119 ], [ 5406541.480615788139403, 7736552.219211403280497 ], [ 5406528.082806643098593, 7736561.314534613862634 ], [ 5406524.548499877564609, 7736563.71758633479476 ], [ 5406521.134486162103713, 7736566.350813733413815 ], [ 5406492.448642552830279, 7736588.481178317219019 ], [ 5406443.677351525053382, 7736632.227033553645015 ], [ 5406404.888935570605099, 7736678.288192907348275 ], [ 5406374.761681812815368, 7736721.991093203425407 ], [ 5406347.540299736894667, 7736778.630289757624269 ], [ 5406232.922021119855344, 7737047.544835608452559 ], [ 5406099.412846868857741, 7737368.4935292173177 ], [ 5405985.849048471078277, 7737633.407145091332495 ], [ 5405955.313310687430203, 7737691.310940292663872 ], [ 5405916.926521156914532, 7737747.025837435387075 ], [ 5405881.618745253421366, 7737791.238231772556901 ], [ 5405806.022072873078287, 7737873.466626792214811 ], [ 5405609.659743412397802, 7738081.190583262592554 ], [ 5405370.192508520558476, 7738333.106750675477087 ], [ 5405301.843994600698352, 7738410.788609370589256 ], [ 5405266.187623888254166, 7738473.53851924277842 ], [ 5405238.074906952679157, 7738532.104242347180843 ], [ 5405227.111694913357496, 7738567.472547069191933 ], [ 5405211.099462015554309, 7738647.257283402606845 ], [ 5405198.502383180893958, 7738786.804627254605293 ], [ 5405180.591605896130204, 7738985.244341693818569 ], [ 5405168.858857008628547, 7739077.400247436016798 ], [ 5405163.287823460064828, 7739100.601378761231899 ], [ 5405157.374230223707855, 7739123.888269369490445 ], [ 5405116.427478707395494, 7739213.882109241560102 ], [ 5405092.24832892883569, 7739250.738421997055411 ], [ 5405047.631411512382329, 7739309.559890290722251 ], [ 5405014.668115405365825, 7739343.64953966345638 ], [ 5404985.206306895241141, 7739368.601757992058992 ], [ 5404954.171399808488786, 7739391.937663497403264 ], [ 5404952.148277612403035, 7739393.372463818639517 ], [ 5404950.111057768575847, 7739394.652246337383986 ], [ 5404888.182091838680208, 7739431.810853239148855 ], [ 5404838.600824783556163, 7739453.287135881371796 ], [ 5404783.176572738215327, 7739470.961853060871363 ], [ 5404681.824584460817277, 7739484.393261555582285 ], [ 5404611.738621671684086, 7739486.045946802943945 ], [ 5404242.159210891462862, 7739492.980782944709063 ], [ 5403639.564715337008238, 7739507.75377368927002 ], [ 5403498.524014173075557, 7739513.634005170315504 ], [ 5403444.710386107675731, 7739520.813589028082788 ], [ 5403323.336282419972122, 7739550.486346820369363 ], [ 5403258.617222127504647, 7739575.265027418732643 ], [ 5403114.982177458703518, 7739652.573778912425041 ], [ 5402955.985322332009673, 7739747.196754981763661 ], [ 5402824.744218222796917, 7739823.279460636898875 ], [ 5402817.531192487105727, 7739875.456497689709067 ], [ 5402706.931583365425467, 7740179.556574618443847 ], [ 5402693.634478340856731, 7740261.758091486059129 ], [ 5402699.537262819707394, 7740323.358580539003015 ], [ 5402724.833988611586392, 7740355.254668306559324 ], [ 5402757.035646686330438, 7740354.754416525363922 ], [ 5402796.232013967819512, 7740329.256782464683056 ], [ 5402903.931760177947581, 7740146.361092755571008 ], [ 5402991.536792453378439, 7740063.058310959488153 ], [ 5403072.435341694392264, 7740041.962344979867339 ], [ 5403146.537537770345807, 7740040.055588299408555 ], [ 5403524.133407833985984, 7740118.754288652911782 ], [ 5403793.339317814446986, 7740093.65972904022783 ], [ 5403897.037760507315397, 7740096.357558460906148 ], [ 5404037.740037729032338, 7740125.158944053575397 ], [ 5404193.238724583759904, 7740185.457357063889503 ], [ 5404256.637069848366082, 7740195.460238493047655 ], [ 5404564.937811437994242, 7740180.551538222469389 ], [ 5404706.534148322418332, 7740228.157356468960643 ], [ 5404880.240179639309645, 7740365.252059947699308 ], [ 5404930.332508040592074, 7740418.054698966443539 ], [ 5405120.738474765792489, 7740525.459178313612938 ], [ 5405269.734073589555919, 7740624.052428424358368 ], [ 5405633.738831895403564, 7740778.453211853280663 ], [ 5405937.039027769118547, 7740846.253815980628133 ], [ 5406005.238405514508486, 7740882.957832703366876 ], [ 5406165.400918859988451, 7741055.161881933920085 ], [ 5406292.601062121801078, 7741189.018285371363163 ], [ 5406531.736301855184138, 7741310.460038244724274 ], [ 5406649.241886126808822, 7741368.055101869627833 ], [ 5406722.54040506016463, 7741381.355504295788705 ], [ 5406927.041517005302012, 7741393.356501828879118 ], [ 5407076.736576843075454, 7741430.356638357043266 ], [ 5407437.035922412760556, 7741449.0563541110605 ], [ 5407490.440142841078341, 7741442.451977248303592 ], [ 5407635.350712290965021, 7741361.735800443217158 ], [ 5407694.042974045500159, 7741357.956963967531919 ], [ 5407730.037967031821609, 7741351.753899045288563 ], [ 5407839.06122072506696, 7741334.218152112327516 ], [ 5407923.742732067592442, 7741311.855673434212804 ], [ 5408014.990054493770003, 7741453.03676263988018 ], [ 5408101.805420179851353, 7741390.341376010328531 ], [ 5408135.517417236231267, 7741368.034732937812805 ], [ 5408160.964646740816534, 7741332.785773919895291 ], [ 5408232.857768917456269, 7741274.549935262650251 ], [ 5408301.154277206398547, 7741224.943767163902521 ], [ 5408321.681034457869828, 7741201.0636305231601 ], [ 5408329.406951561570168, 7741189.12839282117784 ], [ 5408376.72908122651279, 7741169.194083081558347 ], [ 5408402.959771745838225, 7741153.767148052342236 ], [ 5408429.516219487413764, 7741140.18559178058058 ], [ 5408447.053877338767052, 7741131.590127951465547 ], [ 5408479.060028117150068, 7741115.759371550753713 ], [ 5408487.211039809510112, 7741111.171143289655447 ], [ 5408494.124877464026213, 7741105.935428431257606 ], [ 5408508.64046177174896, 7741087.502268144860864 ], [ 5408516.643490521237254, 7741075.371671324595809 ], [ 5408533.19913219101727, 7741052.706431867554784 ], [ 5408538.814696873538196, 7741026.683844137936831 ], [ 5408546.298166567459702, 7741005.000078286975622 ], [ 5408565.618064998649061, 7740987.484554531052709 ], [ 5408568.827914960682392, 7740984.578485121950507 ], [ 5408572.027590841054916, 7740981.68375382386148 ], [ 5408597.991706459783018, 7740958.139855060726404 ], [ 5408613.85046952124685, 7740941.749714757315814 ], [ 5408637.263912494294345, 7740913.705604868009686 ], [ 5408661.444144068285823, 7740882.780201995745301 ], [ 5408677.361297500319779, 7740859.630579774267972 ], [ 5408732.723605845123529, 7740799.344000848010182 ], [ 5408756.282574254088104, 7740752.853131587617099 ], [ 5408761.809252545237541, 7740718.287875302135944 ], [ 5408785.923552594147623, 7740657.40211002714932 ], [ 5408798.194099927321076, 7740644.270848271436989 ], [ 5408806.74716826621443, 7740631.139308907091618 ], [ 5408809.435804550535977, 7740617.304026946425438 ], [ 5408810.523739961907268, 7740602.463745905086398 ], [ 5408808.609315604902804, 7740587.395333122462034 ], [ 5408815.58096092287451, 7740572.315087201073766 ], [ 5408830.273598889820278, 7740557.849968326278031 ], [ 5408893.658601582050323, 7740515.315242985263467 ], [ 5408926.72314300108701, 7740497.516171600669622 ], [ 5408968.155906476080418, 7740466.290146755054593 ], [ 5409076.790335029363632, 7740395.86644340492785 ], [ 5409119.074054794386029, 7740368.825421045534313 ], [ 5409141.657788648270071, 7740344.162443688139319 ], [ 5409165.294735796749592, 7740315.057730921544135 ], [ 5409212.690655524842441, 7740273.379732152447104 ], [ 5409266.90998911857605, 7740245.498879970051348 ], [ 5409328.261703501455486, 7740206.250901965424418 ], [ 5409382.051429817453027, 7740179.20102945715189 ], [ 5409387.764505783095956, 7740155.594646863639355 ], [ 5409410.490533577278256, 7740115.025792991742492 ], [ 5409412.633975975215435, 7740111.201693009585142 ], [ 5409414.77741723228246, 7740107.377592576667666 ], [ 5409419.424662304110825, 7740099.077169559895992 ], [ 5409432.395573663525283, 7740075.94127195328474 ], [ 5409440.068005672656, 7740054.374349834397435 ], [ 5409440.447231722995639, 7740033.047966434620321 ], [ 5409445.807703875936568, 7740010.426481648348272 ], [ 5409454.706352990120649, 7739996.49832153879106 ], [ 5409458.568111349828541, 7739982.845664409920573 ], [ 5409460.858914348296821, 7739968.997442560270429 ], [ 5409461.773347366601229, 7739954.793657453730702 ], [ 5409465.272638378664851, 7739943.457818867638707 ], [ 5409466.749125845730305, 7739927.864595336839557 ], [ 5409466.758711936883628, 7739916.878331130370498 ], [ 5409470.020682109519839, 7739902.596346655860543 ], [ 5409482.776413436979055, 7739866.504190426319838 ], [ 5409499.43058233615011, 7739835.823119627311826 ], [ 5409514.44405743572861, 7739813.847933698445559 ], [ 5409539.214750736951828, 7739785.936043372377753 ], [ 5409585.581809696741402, 7739760.771256386302412 ], [ 5409614.902821072377264, 7739736.712264519184828 ], [ 5409687.691256030462682, 7739683.262730503454804 ], [ 5409693.548789721913636, 7739660.052161590196192 ], [ 5409706.75029924698174, 7739647.929763329215348 ], [ 5409716.102657914161682, 7739630.716925134882331 ], [ 5409721.192921693436801, 7739615.614395625889301 ], [ 5409732.580862142145634, 7739608.884038588032126 ], [ 5409743.798846463672817, 7739593.280093587934971 ], [ 5409747.886395058594644, 7739580.354315862990916 ], [ 5409749.162209443747997, 7739563.367567591369152 ], [ 5409753.166140909306705, 7739550.876567226834595 ], [ 5409758.367283811792731, 7739532.109340791590512 ], [ 5409770.74567611888051, 7739497.313049236312509 ], [ 5409777.188392979092896, 7739476.318945962935686 ], [ 5409793.558228341862559, 7739456.519301122054458 ], [ 5409810.637985829263926, 7739438.467111125588417 ], [ 5409828.328910985961556, 7739423.274438941851258 ], [ 5409899.60492795612663, 7739259.754597736522555 ], [ 5409970.902912116609514, 7739159.320542653091252 ], [ 5410008.372200868092477, 7739066.852071401663125 ], [ 5410073.719814661890268, 7738939.870967354625463 ], [ 5410090.654646958224475, 7738899.616497395560145 ], [ 5410100.356221195310354, 7738856.849403672851622 ], [ 5410100.589771034196019, 7738822.043309185653925 ], [ 5410097.815671596676111, 7738786.776450769975781 ], [ 5410097.934011573903263, 7738761.572102013975382 ], [ 5410123.014367467723787, 7738729.256995511241257 ], [ 5410138.721279824152589, 7738702.303902766667306 ], [ 5410151.941592445597053, 7738696.26170994900167 ], [ 5410166.983165633864701, 7738681.231685530394316 ], [ 5410176.615780521184206, 7738665.31004348769784 ], [ 5410185.135357484221458, 7738645.630890710279346 ], [ 5410199.620863508433104, 7738623.500866799615324 ], [ 5410206.884419802576303, 7738601.510236350819468 ], [ 5410221.926669176667929, 7738573.407711632549763 ], [ 5410235.757370109669864, 7738555.776531580835581 ], [ 5410238.635058780200779, 7738552.112240810878575 ], [ 5410241.502310961484909, 7738548.448198905214667 ], [ 5410255.302721517160535, 7738530.862107673659921 ], [ 5410270.463134910911322, 7738497.663102185353637 ], [ 5410315.529569050297141, 7738359.768537858501077 ], [ 5410330.011665923520923, 7738310.439310729503632 ], [ 5410342.249529567547143, 7738236.683452762663364 ], [ 5410343.208688477054238, 7738200.816736109554768 ], [ 5410347.40211764536798, 7738163.540974101051688 ], [ 5410356.256908849813044, 7738142.621832756325603 ], [ 5410371.913515485823154, 7738120.596666702069342 ], [ 5410411.902143809944391, 7738080.444598229601979 ], [ 5410440.886070257984102, 7738053.827984898351133 ], [ 5410465.900810327380896, 7738008.374553052708507 ], [ 5410474.039052667096257, 7737988.937279454432428 ], [ 5410491.074311258271337, 7737972.183388072997332 ], [ 5410528.783128617331386, 7737905.718616830185056 ], [ 5410553.274975135922432, 7737844.541687371209264 ], [ 5410564.168520399369299, 7737785.798748448491096 ], [ 5410564.238381642848253, 7737731.121286323294044 ], [ 5410555.277595954947174, 7737695.225633880123496 ], [ 5410553.992888270877302, 7737662.042546043172479 ], [ 5410551.349064186215401, 7737594.313197628594935 ], [ 5410549.62297875341028, 7737516.507827343419194 ], [ 5410568.74822680093348, 7737421.768188521265984 ], [ 5410599.902101966552436, 7737332.333361960947514 ], [ 5410636.506947969086468, 7737229.007311686873436 ], [ 5410659.79308124165982, 7737175.981942592188716 ], [ 5410688.17783185839653, 7737111.348750942386687 ], [ 5410694.247172607108951, 7737095.800418362021446 ], [ 5410703.543205463327467, 7737071.996130185201764 ], [ 5410712.325139188207686, 7737042.855296245776117 ], [ 5410720.255749987438321, 7737016.531346347182989 ], [ 5410723.183824812993407, 7736985.777404414489865 ], [ 5410734.064879027195275, 7736960.592333099804819 ], [ 5410741.128903809934855, 7736939.93760359659791 ], [ 5410748.897452455945313, 7736915.5706119928509 ], [ 5410751.481216263957322, 7736891.805046152323484 ], [ 5410763.453160836361349, 7736865.095665726810694 ], [ 5410812.887663354165852, 7736819.79939045291394 ], [ 5410862.187064898200333, 7736777.591188066639006 ], [ 5410888.760232445783913, 7736748.534122958779335 ], [ 5410911.892844608053565, 7736715.753138352185488 ], [ 5410930.24242727458477, 7736707.312063375487924 ], [ 5410948.287175506353378, 7736684.407472373917699 ], [ 5410972.761050589382648, 7736659.684093033894897 ], [ 5411127.952327443286777, 7736466.398322038352489 ], [ 5411259.482833432033658, 7736268.740040207281709 ], [ 5411283.742361701093614, 7736233.822736376896501 ], [ 5411301.738620959222317, 7736217.210899971425533 ], [ 5411337.213665557093918, 7736195.9291677698493 ], [ 5411430.659919078461826, 7736140.70698216278106 ], [ 5411949.073359915986657, 7735852.269675465300679 ], [ 5412468.918038773350418, 7735574.587717143818736 ], [ 5412385.269639680162072, 7735479.643420752137899 ], [ 5412326.642811423167586, 7735411.518305478617549 ], [ 5412316.265785035677254, 7735391.104691735468805 ], [ 5412313.908660578541458, 7735391.627527566626668 ], [ 5411299.878677836619318, 7735630.14194330573082 ], [ 5410931.665540023706853, 7735781.800958612002432 ], [ 5410878.453761311247945, 7735804.361851301975548 ], [ 5410874.10063125193119, 7735806.10865243524313 ], [ 5410870.405935870483518, 7735807.451256599277258 ], [ 5410749.082740117795765, 7735852.485771683976054 ], [ 5410695.201184408739209, 7735860.180693387985229 ], [ 5410154.501703604124486, 7735875.498378010466695 ], [ 5409934.017268551513553, 7735879.721574767492712 ], [ 5409929.895516743883491, 7735879.798010069876909 ], [ 5409925.57658976316452, 7735879.923551008105278 ], [ 5409772.308168933726847, 7735883.124295101501048 ], [ 5409704.584940367378294, 7735879.084563497453928 ], [ 5409735.748321854509413, 7735921.085258789360523 ], [ 5409821.455750539898872, 7736024.12477838434279 ], [ 5409885.989394649863243, 7736101.70337924733758 ], [ 5409844.895773317664862, 7736135.622664741240442 ], [ 5409896.05327573698014, 7736193.846091125160456 ], [ 5409858.327911862172186, 7736220.194237466901541 ], [ 5409840.449813366867602, 7736232.196169478818774 ], [ 5409848.44236221536994, 7736239.007263391278684 ], [ 5409853.603691903874278, 7736244.421260299161077 ], [ 5409856.92062817979604, 7736251.288707785308361 ], [ 5409862.58994419593364, 7736282.757660609669983 ], [ 5409934.633108234964311, 7736613.292943280190229 ], [ 5409954.640030486509204, 7736708.671229363419116 ], [ 5409963.164469859562814, 7736743.401033787056804 ], [ 5409976.123806288465858, 7736805.556695559993386 ], [ 5409978.919512077234685, 7736818.129434272646904 ], [ 5409981.386062359437346, 7736827.414203451015055 ], [ 5410101.126746361143887, 7737272.984406704083085 ], [ 5409680.848177365958691, 7737380.321521331556141 ], [ 5409641.93950845208019, 7737389.607374399900436 ], [ 5409562.205591575242579, 7737233.013172551989555 ], [ 5409495.786345936357975, 7737104.942009606398642 ], [ 5409492.117109233513474, 7737093.810548594221473 ], [ 5409490.035836565308273, 7737082.286046367138624 ], [ 5409489.579122710041702, 7737070.589569628238678 ], [ 5409490.762429159134626, 7737058.931592438369989 ], [ 5409492.75512595847249, 7737052.314533296972513 ], [ 5409492.966331006027758, 7737045.418219242244959 ], [ 5409491.375599629245698, 7737038.698118230327964 ], [ 5409488.098131463862956, 7737032.606457128189504 ], [ 5409483.34276825748384, 7737027.582128079608083 ], [ 5409477.451347163878381, 7737023.949875110760331 ], [ 5409466.66983284894377, 7737005.275873022153974 ], [ 5409422.61302556283772, 7736919.571611118502915 ], [ 5409420.39760017581284, 7736912.921917810104787 ], [ 5409418.716915667057037, 7736905.493754956871271 ], [ 5409419.50563973467797, 7736902.234577732160687 ], [ 5409415.357775867916644, 7736890.293367825448513 ], [ 5409411.647944419644773, 7736884.456164924427867 ], [ 5409406.546083639375865, 7736879.78411144670099 ], [ 5409400.414365244098008, 7736876.579272272065282 ], [ 5409393.644408772699535, 7736875.065329628065228 ], [ 5409383.750621547922492, 7736869.520095394924283 ], [ 5409374.834531464613974, 7736862.508889147080481 ], [ 5409367.119754800572991, 7736854.215021139010787 ], [ 5409104.943664479069412, 7736344.120229221880436 ], [ 5409091.309843531809747, 7736320.509489653632045 ], [ 5409086.258677145466208, 7736313.139604700729251 ], [ 5409099.42653845064342, 7736381.105124745517969 ], [ 5409116.686282747425139, 7736469.61339642573148 ], [ 5409132.667396838776767, 7736552.659181836992502 ], [ 5409132.42442277725786, 7736556.915138326585293 ], [ 5409130.371622922830284, 7736561.014557549729943 ], [ 5409127.599870375357568, 7736563.422201194800436 ], [ 5409066.971611003391445, 7736594.321005120873451 ], [ 5408961.71218253672123, 7736647.524328358471394 ], [ 5408958.237006099894643, 7736647.141185475513339 ], [ 5408854.65068001113832, 7736594.516333600506186 ], [ 5408784.725060211494565, 7736566.943982038646936 ], [ 5408747.943661216646433, 7736549.344899674877524 ], [ 5408725.470482895150781, 7736539.427590385079384 ], [ 5408659.149763019755483, 7736514.598553484305739 ], [ 5408598.326703474856913, 7736491.779921254143119 ], [ 5408569.38719351682812, 7736479.930400965735316 ], [ 5408557.021530689671636, 7736467.452652461826801 ], [ 5408549.983256204985082, 7736460.363061926327646 ], [ 5408533.951009993441403, 7736467.94720808044076 ], [ 5408521.862198836170137, 7736473.6618148740381 ], [ 5408355.412317068316042, 7736333.014212809503078 ], [ 5408283.363506931811571, 7736270.124945811927319 ], [ 5408268.908917696215212, 7736258.906397683545947 ], [ 5408208.045351859182119, 7736206.703040127642453 ], [ 5408269.679847457446158, 7736133.0158063583076 ], [ 5408261.794694885611534, 7736126.301427365280688 ], [ 5408190.375057108700275, 7736064.362430492416024 ], [ 5408116.404953327961266, 7736002.705930024385452 ], [ 5408080.365243281237781, 7735971.893919060006738 ], [ 5408064.658081008121371, 7735958.474634004756808 ], [ 5408045.866757030598819, 7735942.232513676397502 ], [ 5408013.879781854338944, 7735914.575264306738973 ], [ 5407968.899855668656528, 7735876.119434054940939 ], [ 5407935.51038053445518, 7735849.616270455531776 ], [ 5407910.623334533534944, 7735829.013879397884011 ], [ 5407903.454596870578825, 7735824.75693098269403 ], [ 5407898.327838736586273, 7735823.835901877842844 ], [ 5407872.76692902110517, 7735820.538429634645581 ], [ 5407811.288747157901525, 7735812.603079132735729 ], [ 5407808.420849830843508, 7735813.603489337489009 ], [ 5407802.562948865815997, 7735818.370331570506096 ], [ 5407798.604335704818368, 7735817.843145886436105 ], [ 5407720.301814714446664, 7735969.836193480528891 ], [ 5407853.057799468748271, 7736014.936395321041346 ], [ 5407831.605850812979043, 7736040.437196678481996 ], [ 5407830.207510127685964, 7736044.40986742824316 ], [ 5407830.126845348626375, 7736048.04045888222754 ], [ 5407831.027464240789413, 7736051.669884659349918 ], [ 5407833.433828857727349, 7736054.963851125910878 ], [ 5407868.072553826496005, 7736083.06874985806644 ], [ 5407839.870949172414839, 7736116.231704227626324 ], [ 5407837.929668944329023, 7736119.76232784986496 ], [ 5407837.266565958037972, 7736123.484461861662567 ], [ 5407837.285341530106962, 7736127.345720002427697 ], [ 5407839.464788200333714, 7736131.632709257304668 ], [ 5407868.18698270432651, 7736155.018051018938422 ], [ 5407889.717622902244329, 7736170.99541462957859 ], [ 5407813.065689126029611, 7736261.650372732430696 ], [ 5407778.521161933429539, 7736300.723370228894055 ] ] ] } }
]
}
