{
"type": "FeatureCollection",
"name": "4101101",
"crs": { "type": "name", "properties": { "name": "urn:ogc:def:crs:EPSG::5880" } },
"features": [
{ "type": "Feature", "properties": { "lv_id": "LOC_058471", "id": 373130.0, "CD_SETOR": "410110105000001", "SITUACAO": "Urbana", "CD_SIT": "1", "CD_TIPO": "0", "AREA_KM2": 0.28898385034667101, "CD_REGIAO": "4", "NM_REGIAO": "Sul", "CD_UF": "41", "NM_UF": "Paraná", "CD_MUN": "4101101", "NM_MUN": "Andirá", "CD_DIST": "410110105", "NM_DIST": "Andirá", "CD_SUBDIST": "41011010500", "NM_SUBDIST": null, "CD_BAIRRO": null, "NM_BAIRRO": null, "CD_NU": null, "NM_NU": null, "CD_FCU": null, "NM_FCU": null, "CD_AGLOM": null, "NM_AGLOM": null, "CD_RGINT": "4105", "NM_RGINT": "Londrina", "CD_RGI": "410022", "NM_RGI": "Santo Antônio da Platina", "CD_CONCURB": null, "NM_CONCURB": null, "mun_code_x": "4101101", "index_right": 56105, "dist_m": 0.0, "local_id": 635203, "ano": 2022, "cod_localidade_ibge": 4101101, "NR_ZONA": "57", "nr_cep": 86380000.0, "nm_localidade": "ANDIRÁ", "nm_locvot": "ESCOLA MUNICIPAL ANA NERY", "ds_endereco": "R SAO PAULO,  N 68", "ds_bairro": "CENTRO", "pred_long": -50.22565, "pred_lat": -23.05105, "pred_dist": 0.0, "tse_long": -50.2259219, "tse_lat": -23.050906, "long": -50.2259219, "lat": -23.050906, "ID_UNICO": "LOC_058471", "SG_UF": "PR", "CD_MUNICIPIO": "74195", "NR_LOCAL_VOTACAO": "1015", "QT_SECOES_AGREGADAS": 0, "QT_ELEITORES_TRANSFERIDOS": 18, "CIRO GOMES (PDT) (NÃO ELEITO) 1T": 51.0, "CONSTITUINTE EYMAEL (DC) (NÃO ELEITO) 1T": 0.0, "FELIPE D AVILA (NOVO) (NÃO ELEITO) 1T": 3.0, "JAIR BOLSONARO (PL) (2º TURNO) 1T": 1096.0, "LULA (PT) (2º TURNO) 1T": 737.0, "LÉO PÉRICLES (UP) (NÃO ELEITO) 1T": 0.0, "PADRE KELMON (PTB) (NÃO ELEITO) 1T": 2.0, "SIMONE TEBET (MDB) (NÃO ELEITO) 1T": 66.0, "SOFIA MANZANO (PCB) (NÃO ELEITO) 1T": 0.0, "SORAYA THRONICKE (UNIÃO) (NÃO ELEITO) 1T": 7.0, "VERA (PSTU) (NÃO ELEITO) 1T": 0.0, "Total_Votos_Validos 1T": 1962.0, "Votos_Brancos 1T": 22.0, "Votos_Nulos 1T": 76.0, "Abstenções 1T": 565.0, "Eleitores_Aptos 1T": 2625.0, "JAIR BOLSONARO (PL) (NÃO ELEITO) 2T": 1208.0, "LULA (PT) (ELEITO) 2T": 791.0, "Total_Votos_Validos 2T": 1999.0, "Votos_Brancos 2T": 27.0, "Votos_Nulos 2T": 66.0, "Abstenções 2T": 533.0, "Eleitores_Aptos 2T": 2625.0, "mun_code_y": "4101101", "mun_code": "4101101" }, "geometry": { "type": "Polygon", "coordinates": [ [ [ 5387155.016727957874537, 7445007.79078162740916 ], [ 5387166.686834306456149, 7444979.320996148511767 ], [ 5387171.773343869484961, 7444947.602821486070752 ], [ 5387125.992909991182387, 7444842.504170821979642 ], [ 5387096.654647923074663, 7444775.459989330731332 ], [ 5386977.268245950341225, 7444830.128773886710405 ], [ 5386957.772503534331918, 7444786.537075669504702 ], [ 5386933.245750875212252, 7444730.722431976348162 ], [ 5386906.75127899646759, 7444672.938608580268919 ], [ 5386873.837986408732831, 7444600.392758172005415 ], [ 5386843.176238089799881, 7444532.061751391738653 ], [ 5386815.919904716312885, 7444469.758190074935555 ], [ 5386784.599193929694593, 7444401.299864698201418 ], [ 5386751.317742753773928, 7444328.752321087755263 ], [ 5386628.511044630780816, 7444377.891126584261656 ], [ 5386502.200282696634531, 7444425.942699651233852 ], [ 5386387.685158729553223, 7444478.250534215942025 ], [ 5386419.547737710177898, 7444552.688664039596915 ], [ 5386448.866313436999917, 7444623.474330061115324 ], [ 5386478.607171513140202, 7444691.940584884956479 ], [ 5386508.959594922140241, 7444761.056967995129526 ], [ 5386542.470022707246244, 7444835.752188429236412 ], [ 5386576.879177339375019, 7444910.701673692092299 ], [ 5386632.766277667135, 7445034.974393354728818 ], [ 5386698.939004105515778, 7445006.597837662324309 ], [ 5386785.229121759533882, 7444998.234417270869017 ], [ 5386899.377310956828296, 7444997.963927736505866 ], [ 5387020.093282823450863, 7444991.984809165820479 ], [ 5387048.542549522593617, 7444995.567771390080452 ], [ 5387069.193759448826313, 7444998.497411111369729 ], [ 5387148.323362251743674, 7445024.123282188549638 ], [ 5387155.016727957874537, 7445007.79078162740916 ] ] ] } },
{ "type": "Feature", "properties": { "lv_id": "LOC_058472", "id": 373131.0, "CD_SETOR": "410110105000002", "SITUACAO": "Urbana", "CD_SIT": "1", "CD_TIPO": "0", "AREA_KM2": 0.18453370580907, "CD_REGIAO": "4", "NM_REGIAO": "Sul", "CD_UF": "41", "NM_UF": "Paraná", "CD_MUN": "4101101", "NM_MUN": "Andirá", "CD_DIST": "410110105", "NM_DIST": "Andirá", "CD_SUBDIST": "41011010500", "NM_SUBDIST": null, "CD_BAIRRO": null, "NM_BAIRRO": null, "CD_NU": null, "NM_NU": null, "CD_FCU": null, "NM_FCU": null, "CD_AGLOM": null, "NM_AGLOM": null, "CD_RGINT": "4105", "NM_RGINT": "Londrina", "CD_RGI": "410022", "NM_RGI": "Santo Antônio da Platina", "CD_CONCURB": null, "NM_CONCURB": null, "mun_code_x": "4101101", "index_right": 56108, "dist_m": 0.0, "local_id": 635206, "ano": 2022, "cod_localidade_ibge": 4101101, "NR_ZONA": "57", "nr_cep": 86380000.0, "nm_localidade": "ANDIRÁ", "nm_locvot": "COLÉGIO ESTADUAL BARBOSA FERRAZ", "ds_endereco": "TRAVESSA NESTOR CARLOS CUNHA, N 62", "ds_bairro": "CENTRO", "pred_long": -50.229885, "pred_lat": -23.052172, "pred_dist": 0.0, "tse_long": -50.2298579, "tse_lat": -23.0520798, "long": -50.2298579, "lat": -23.0520798, "ID_UNICO": "LOC_058472", "SG_UF": "PR", "CD_MUNICIPIO": "74195", "NR_LOCAL_VOTACAO": "1023", "QT_SECOES_AGREGADAS": 0, "QT_ELEITORES_TRANSFERIDOS": 0, "CIRO GOMES (PDT) (NÃO ELEITO) 1T": 62.0, "CONSTITUINTE EYMAEL (DC) (NÃO ELEITO) 1T": 0.0, "FELIPE D AVILA (NOVO) (NÃO ELEITO) 1T": 6.0, "JAIR BOLSONARO (PL) (2º TURNO) 1T": 1416.0, "LULA (PT) (2º TURNO) 1T": 541.0, "LÉO PÉRICLES (UP) (NÃO ELEITO) 1T": 1.0, "PADRE KELMON (PTB) (NÃO ELEITO) 1T": 1.0, "SIMONE TEBET (MDB) (NÃO ELEITO) 1T": 54.0, "SOFIA MANZANO (PCB) (NÃO ELEITO) 1T": 1.0, "SORAYA THRONICKE (UNIÃO) (NÃO ELEITO) 1T": 6.0, "VERA (PSTU) (NÃO ELEITO) 1T": 0.0, "Total_Votos_Validos 1T": 2088.0, "Votos_Brancos 1T": 19.0, "Votos_Nulos 1T": 44.0, "Abstenções 1T": 557.0, "Eleitores_Aptos 1T": 2708.0, "JAIR BOLSONARO (PL) (NÃO ELEITO) 2T": 1546.0, "LULA (PT) (ELEITO) 2T": 586.0, "Total_Votos_Validos 2T": 2132.0, "Votos_Brancos 2T": 20.0, "Votos_Nulos 2T": 49.0, "Abstenções 2T": 507.0, "Eleitores_Aptos 2T": 2708.0, "mun_code_y": "4101101", "mun_code": "4101101" }, "geometry": { "type": "Polygon", "coordinates": [ [ [ 5386678.162944991141558, 7444168.111578307114542 ], [ 5386652.398739232681692, 7444111.951349407434464 ], [ 5386710.954991615377367, 7444087.333173256367445 ], [ 5386769.415790741331875, 7444059.021354517899454 ], [ 5386831.615174249745905, 7444033.775884102098644 ], [ 5386876.185452627018094, 7444017.398012170568109 ], [ 5386862.838244656100869, 7443996.732827318832278 ], [ 5386829.696409551426768, 7443940.71887977514416 ], [ 5386795.287187261506915, 7443881.663286020047963 ], [ 5386765.843806347809732, 7443824.355155939236283 ], [ 5386704.688248949125409, 7443722.70508598536253 ], [ 5386636.963728996925056, 7443601.624224688857794 ], [ 5386482.550073063932359, 7443325.534519484266639 ], [ 5386308.912253579124808, 7443309.225183811970055 ], [ 5386444.224733401089907, 7443759.901433564722538 ], [ 5386406.629720303229988, 7443763.312635710462928 ], [ 5386332.845315273851156, 7443764.216260086745024 ], [ 5386212.193369483575225, 7443763.142271963879466 ], [ 5385447.549529551528394, 7443671.124569356441498 ], [ 5385488.655344923958182, 7443864.079652203246951 ], [ 5385370.575333806686103, 7443922.009783361107111 ], [ 5385368.208902607671916, 7443935.632962209172547 ], [ 5385351.511721394024789, 7443956.849756872281432 ], [ 5385335.715995626524091, 7443978.043345063924789 ], [ 5385365.365484049543738, 7444001.697544855996966 ], [ 5385410.664701015688479, 7444033.972286444157362 ], [ 5385440.029542131349444, 7444082.039233765564859 ], [ 5385448.397310500964522, 7444125.219042057171464 ], [ 5385466.090869472362101, 7444213.351973676122725 ], [ 5385460.323810257948935, 7444271.356624898500741 ], [ 5385463.646552636288106, 7444330.037567769177258 ], [ 5385483.083965163677931, 7444415.417635774239898 ], [ 5385552.033449311740696, 7444414.543191654607654 ], [ 5385621.40706411935389, 7444394.679105283692479 ], [ 5385655.928378531709313, 7444467.018760411068797 ], [ 5385770.876473902724683, 7444483.671856909990311 ], [ 5385769.806278273463249, 7444535.329644192941487 ], [ 5385776.035106751136482, 7444585.390071643516421 ], [ 5385809.251382733695209, 7444728.516121314838529 ], [ 5385852.059340000152588, 7444804.116144368425012 ], [ 5385889.945265629328787, 7444872.084943706169724 ], [ 5385928.486697743646801, 7444941.61281462572515 ], [ 5385919.459093592129648, 7444963.298632349818945 ], [ 5385992.644031927920878, 7445022.145718077197671 ], [ 5385932.841208602301776, 7445091.752443144097924 ], [ 5385932.206450937315822, 7445094.177160065621138 ], [ 5385912.803612622432411, 7445113.865915616974235 ], [ 5385953.004302557557821, 7445190.08791542891413 ], [ 5385984.71957868617028, 7445265.229776334017515 ], [ 5385988.456356423906982, 7445274.989069100469351 ], [ 5386107.945105475373566, 7445224.821603074669838 ], [ 5386178.017169253900647, 7445193.328426780179143 ], [ 5386245.739981419406831, 7445165.768788238987327 ], [ 5386252.984257567673922, 7445172.785131800919771 ], [ 5386271.995643601752818, 7445191.26280162576586 ], [ 5386632.766277667135, 7445034.974393354728818 ], [ 5386576.879177339375019, 7444910.701673692092299 ], [ 5386542.470022707246244, 7444835.752188429236412 ], [ 5386508.959594922140241, 7444761.056967995129526 ], [ 5386478.607171513140202, 7444691.940584884956479 ], [ 5386448.866313436999917, 7444623.474330061115324 ], [ 5386419.547737710177898, 7444552.688664039596915 ], [ 5386387.685158729553223, 7444478.250534215942025 ], [ 5386502.200282696634531, 7444425.942699651233852 ], [ 5386628.511044630780816, 7444377.891126584261656 ], [ 5386751.317742753773928, 7444328.752321087755263 ], [ 5386707.188987443223596, 7444234.675831688567996 ], [ 5386678.162944991141558, 7444168.111578307114542 ] ] ] } },
{ "type": "Feature", "properties": { "lv_id": "LOC_058473", "id": 373146.0, "CD_SETOR": "410110105000017", "SITUACAO": "Urbana", "CD_SIT": "1", "CD_TIPO": "0", "AREA_KM2": 0.20878651161133499, "CD_REGIAO": "4", "NM_REGIAO": "Sul", "CD_UF": "41", "NM_UF": "Paraná", "CD_MUN": "4101101", "NM_MUN": "Andirá", "CD_DIST": "410110105", "NM_DIST": "Andirá", "CD_SUBDIST": "41011010500", "NM_SUBDIST": null, "CD_BAIRRO": null, "NM_BAIRRO": null, "CD_NU": null, "NM_NU": null, "CD_FCU": null, "NM_FCU": null, "CD_AGLOM": null, "NM_AGLOM": null, "CD_RGINT": "4105", "NM_RGINT": "Londrina", "CD_RGI": "410022", "NM_RGI": "Santo Antônio da Platina", "CD_CONCURB": null, "NM_CONCURB": null, "mun_code_x": "4101101", "index_right": 56109, "dist_m": 110.27714441387175, "local_id": 635207, "ano": 2022, "cod_localidade_ibge": 4101101, "NR_ZONA": "57", "nr_cep": 86380000.0, "nm_localidade": "ANDIRÁ", "nm_locvot": "COLÉGIO ESTADUAL DURVAL RAMOS FILHO", "ds_endereco": "AVENIDA GOIAS, N 1545", "ds_bairro": "JARDIM HORIZONTE", "pred_long": -50.221921, "pred_lat": -23.054085, "pred_dist": 0.0, "tse_long": -50.2217712, "tse_lat": -23.0540401, "long": -50.2217712, "lat": -23.0540401, "ID_UNICO": "LOC_058473", "SG_UF": "PR", "CD_MUNICIPIO": "74195", "NR_LOCAL_VOTACAO": "1031", "QT_SECOES_AGREGADAS": 0, "QT_ELEITORES_TRANSFERIDOS": 4, "CIRO GOMES (PDT) (NÃO ELEITO) 1T": 55.0, "CONSTITUINTE EYMAEL (DC) (NÃO ELEITO) 1T": 1.0, "FELIPE D AVILA (NOVO) (NÃO ELEITO) 1T": 4.0, "JAIR BOLSONARO (PL) (2º TURNO) 1T": 1075.0, "LULA (PT) (2º TURNO) 1T": 803.0, "LÉO PÉRICLES (UP) (NÃO ELEITO) 1T": 0.0, "PADRE KELMON (PTB) (NÃO ELEITO) 1T": 0.0, "SIMONE TEBET (MDB) (NÃO ELEITO) 1T": 74.0, "SOFIA MANZANO (PCB) (NÃO ELEITO) 1T": 1.0, "SORAYA THRONICKE (UNIÃO) (NÃO ELEITO) 1T": 8.0, "VERA (PSTU) (NÃO ELEITO) 1T": 1.0, "Total_Votos_Validos 1T": 2022.0, "Votos_Brancos 1T": 33.0, "Votos_Nulos 1T": 64.0, "Abstenções 1T": 616.0, "Eleitores_Aptos 1T": 2735.0, "JAIR BOLSONARO (PL) (NÃO ELEITO) 2T": 1226.0, "LULA (PT) (ELEITO) 2T": 826.0, "Total_Votos_Validos 2T": 2052.0, "Votos_Brancos 2T": 22.0, "Votos_Nulos 2T": 72.0, "Abstenções 2T": 589.0, "Eleitores_Aptos 2T": 2735.0, "mun_code_y": "4101101", "mun_code": "4101101" }, "geometry": { "type": "Polygon", "coordinates": [ [ [ 5387420.642476649023592, 7444625.049384625628591 ], [ 5387415.875359266996384, 7444629.412295004352927 ], [ 5387421.907363113947213, 7444708.157115066424012 ], [ 5387442.771893491968513, 7444795.564052234403789 ], [ 5387469.373244757764041, 7444911.379704777151346 ], [ 5387490.639774488285184, 7445011.162417275831103 ], [ 5387510.533466775901616, 7445110.181507414206862 ], [ 5387506.762288454920053, 7445186.848980205133557 ], [ 5387471.136292546987534, 7445249.966804100200534 ], [ 5387391.241738838143647, 7445293.651251927018166 ], [ 5387299.726090712472796, 7445294.25060835108161 ], [ 5387320.206576435826719, 7445356.873117841780186 ], [ 5387098.393203711137176, 7445440.036189866252244 ], [ 5387177.533014544285834, 7445623.318544879555702 ], [ 5387163.624861055985093, 7445638.982662146911025 ], [ 5387191.869351466186345, 7445729.151521160267293 ], [ 5387208.598425796255469, 7445774.734677826985717 ], [ 5387228.345013069920242, 7445816.865928599610925 ], [ 5387246.993451897054911, 7445841.467431391589344 ], [ 5387298.879933530464768, 7445823.135590761899948 ], [ 5387341.021800620481372, 7445894.399585635401309 ], [ 5387389.348630085587502, 7445953.439513539895415 ], [ 5387423.672989808022976, 7445983.573788344860077 ], [ 5387389.067211559973657, 7446023.568260423839092 ], [ 5387417.57903855945915, 7446058.491939802654088 ], [ 5387540.366113574244082, 7446172.500122793018818 ], [ 5387624.643462080508471, 7446225.294468377716839 ], [ 5387661.027991397306323, 7446178.350073006935418 ], [ 5387702.128070699051023, 7446199.263324003666639 ], [ 5387807.393201127648354, 7446262.357784949243069 ], [ 5387665.914462942630053, 7446510.086371876299381 ], [ 5387577.302082543261349, 7446652.818742299452424 ], [ 5387475.537331650033593, 7446665.413826371543109 ], [ 5388162.021372145041823, 7447100.044000466354191 ], [ 5388319.047666544094682, 7447202.563123224303126 ], [ 5388375.774711212143302, 7447214.247249683365226 ], [ 5388454.978946543298662, 7447241.842205492779613 ], [ 5388685.875075350515544, 7446604.839956239797175 ], [ 5389001.574976327829063, 7446148.540771628729999 ], [ 5389633.674048377200961, 7445024.535986535251141 ], [ 5391121.578559154644608, 7443881.338805451989174 ], [ 5391475.576566014438868, 7443469.437635214999318 ], [ 5391902.572106894105673, 7443270.541872750036418 ], [ 5391984.579649220220745, 7443152.541960977949202 ], [ 5392089.577084165066481, 7442810.343830870464444 ], [ 5392138.079646696336567, 7442390.24083960801363 ], [ 5392019.380121319554746, 7442230.74329243414104 ], [ 5392022.672747488133609, 7442087.042929283343256 ], [ 5392382.28883018437773, 7441744.198818178847432 ], [ 5392329.179405329748988, 7441734.235925508663058 ], [ 5392244.44676814135164, 7441725.356654356233776 ], [ 5392213.418698634952307, 7441728.034199896268547 ], [ 5392123.786861864849925, 7441735.998223070986569 ], [ 5391990.99145486112684, 7441745.091838955879211 ], [ 5391895.491794803179801, 7441727.013708963990211 ], [ 5391800.002619083039463, 7441708.934739286080003 ], [ 5391718.848483337089419, 7441711.05824320577085 ], [ 5391677.709306994453073, 7441723.355916258879006 ], [ 5391609.336154129356146, 7441751.338750975206494 ], [ 5391529.999634632840753, 7441822.62869596388191 ], [ 5391499.319825807586312, 7441971.228725209832191 ], [ 5391400.573954413644969, 7442017.641146685928106 ], [ 5391304.773517780005932, 7442026.538120545446873 ], [ 5391156.27287001721561, 7441994.034831310622394 ], [ 5391084.874162433668971, 7441962.735365911386907 ], [ 5390930.413335710763931, 7441886.000045897439122 ], [ 5390796.689756448380649, 7441859.567479592747986 ], [ 5390588.823003900237381, 7441838.797478246502578 ], [ 5390550.257245589978993, 7441817.349921305663884 ], [ 5390460.380557370372117, 7441815.953643118031323 ], [ 5390266.549563754349947, 7441869.643536168150604 ], [ 5390218.105417592450976, 7441867.165764359757304 ], [ 5390101.81468434818089, 7441879.552607857622206 ], [ 5389949.102088334970176, 7441853.596426568925381 ], [ 5389857.279404486529529, 7441777.417362842708826 ], [ 5389677.574620207771659, 7441643.657321353442967 ], [ 5389497.678188197314739, 7441502.408807771280408 ], [ 5389446.912446129135787, 7441410.187077866867185 ], [ 5389377.360433730296791, 7441393.294547049328685 ], [ 5389338.05405320879072, 7441360.986612560227513 ], [ 5389145.094012817367911, 7441496.616828205063939 ], [ 5389097.39681982062757, 7441589.522997908294201 ], [ 5388965.793226114474237, 7441710.802604204975069 ], [ 5388920.440051631070673, 7441760.62749104667455 ], [ 5388881.795940006151795, 7441802.786147767677903 ], [ 5388775.37342391256243, 7441739.644558542408049 ], [ 5388706.175481078214943, 7441710.741690395399928 ], [ 5388549.171156316995621, 7441682.341820625588298 ], [ 5388467.075363080948591, 7441688.445628751069307 ], [ 5388352.770018965937197, 7441790.046789845451713 ], [ 5388132.078046859242022, 7442013.839644864201546 ], [ 5388100.569485808722675, 7442068.04175391420722 ], [ 5388082.276839816942811, 7442127.539449959993362 ], [ 5388077.871131923049688, 7442180.639444570988417 ], [ 5388024.975390093401074, 7442264.341259010136127 ], [ 5387893.074961309321225, 7442384.240367874503136 ], [ 5387768.475660637952387, 7442453.238557707518339 ], [ 5387685.276696166023612, 7442535.337020652368665 ], [ 5387617.172547849826515, 7442518.642553485929966 ], [ 5387446.976547225378454, 7442549.93877918086946 ], [ 5387288.071131195873022, 7442546.945613482967019 ], [ 5387252.773443423211575, 7442531.24356170091778 ], [ 5387151.476605957373977, 7442452.142675341106951 ], [ 5387069.669161704368889, 7442412.43738204985857 ], [ 5386953.868470942601562, 7442337.639266000129282 ], [ 5386824.768863262608647, 7442299.942787118256092 ], [ 5386527.374962816014886, 7442296.445575825870037 ], [ 5386459.475448973476887, 7442278.842009840533137 ], [ 5386323.769127957522869, 7442193.144072653725743 ], [ 5386252.569920684210956, 7442158.843735821545124 ], [ 5386110.067166292108595, 7442124.33975771907717 ], [ 5385999.773000184446573, 7442126.939196465536952 ], [ 5385936.169127161614597, 7442142.740430293604732 ], [ 5385786.973345335572958, 7442204.142097316682339 ], [ 5385735.874749784357846, 7442248.243338304571807 ], [ 5385693.872696983627975, 7442269.047317493706942 ], [ 5385563.867251061834395, 7442276.44618228264153 ], [ 5385537.371879303827882, 7442287.239096348173916 ], [ 5385473.870295032858849, 7442361.24719453137368 ], [ 5385412.174905978143215, 7442414.642920754849911 ], [ 5385281.474551506340504, 7442459.647542050108314 ], [ 5385215.075898284092546, 7442516.33743054792285 ], [ 5385183.774808806367218, 7442521.237850109115243 ], [ 5385118.369732002727687, 7442502.942681581713259 ], [ 5385080.572764280252159, 7442438.544722126796842 ], [ 5385035.267015474848449, 7442398.645378917455673 ], [ 5384870.973007217980921, 7442351.338664167560637 ], [ 5384554.373731296509504, 7442326.343456164002419 ], [ 5384496.065755246207118, 7442309.339685913175344 ], [ 5384305.069857167080045, 7442208.741527687758207 ], [ 5384228.965304362587631, 7442140.441972790285945 ], [ 5384199.272456526756287, 7442057.744294794276357 ], [ 5384119.272915162146091, 7441913.842545006424189 ], [ 5384108.571394296362996, 7441864.64069443475455 ], [ 5384105.965340156108141, 7441694.248124522157013 ], [ 5384119.474742598831654, 7441587.945600917562842 ], [ 5384116.667457373812795, 7441517.243477602489293 ], [ 5384080.074799101799726, 7441406.84381409175694 ], [ 5384008.16849287878722, 7441291.445836080238223 ], [ 5383864.965124990791082, 7440979.948909752070904 ], [ 5383848.670461324974895, 7440887.640354523435235 ], [ 5383862.572854018770158, 7440843.445377085357904 ], [ 5383861.37038189265877, 7440784.144566795788705 ], [ 5383847.769434185698628, 7440742.142228346318007 ], [ 5383789.869961547665298, 7440648.048545336350799 ], [ 5383782.565826789475977, 7440501.83793075568974 ], [ 5383710.166944095864892, 7440276.645391723141074 ], [ 5383736.668982871808112, 7440208.243728906847537 ], [ 5383743.066009661182761, 7440164.341162160038948 ], [ 5383720.073727980256081, 7439977.446964057162404 ], [ 5383743.664973396807909, 7439945.844190749339759 ], [ 5383772.767809238284826, 7439939.348664339631796 ], [ 5383849.270609461702406, 7439884.147084748372436 ], [ 5383843.269262466579676, 7439843.54797769151628 ], [ 5383896.772154544480145, 7439807.448250791989267 ], [ 5383924.265306462533772, 7439800.53865387942642 ], [ 5383951.268147484399378, 7439750.946219166740775 ], [ 5383965.872849946841598, 7439634.33823362365365 ], [ 5383952.970222653821111, 7439553.240802661515772 ], [ 5383979.064012750983238, 7439468.64511595480144 ], [ 5384021.664577817544341, 7439451.447612852789462 ], [ 5384039.469355631619692, 7439427.639463897794485 ], [ 5384084.264007076621056, 7439433.248066298663616 ], [ 5384092.468100716359913, 7439448.242150969803333 ], [ 5384114.273187353275716, 7439443.742225164547563 ], [ 5384122.271063460968435, 7439427.54404773004353 ], [ 5384118.663968851789832, 7439328.539244934916496 ], [ 5383913.266871175728738, 7439336.643432982265949 ], [ 5383740.070525481365621, 7439309.646918974816799 ], [ 5383628.965278314426541, 7439340.14332670532167 ], [ 5383393.56976240966469, 7439344.947864603251219 ], [ 5383357.973354643210769, 7439332.742195365019143 ], [ 5383052.766011375002563, 7438971.146242565475404 ], [ 5382943.669793764129281, 7438828.642408210784197 ], [ 5382903.170146104879677, 7438662.839765066280961 ], [ 5382885.870138381607831, 7438423.738368466496468 ], [ 5382862.869216561317444, 7438347.039305498823524 ], [ 5382895.764990753494203, 7438246.645473456941545 ], [ 5383375.466379546560347, 7437876.440776953473687 ], [ 5383578.072068362496793, 7437652.838095508515835 ], [ 5383617.26833706907928, 7437503.147422386333346 ], [ 5383615.970088266767561, 7437388.645782753825188 ], [ 5383517.764377711340785, 7437188.843926806934178 ], [ 5383446.971645310521126, 7437120.541622661054134 ], [ 5383295.064287559129298, 7437062.444271015003324 ], [ 5383172.862763859331608, 7437039.542226987890899 ], [ 5382938.269163989461958, 7437239.84333791397512 ], [ 5382881.869404589757323, 7437307.745099456980824 ], [ 5382869.66510312538594, 7437363.73779113125056 ], [ 5382995.37232793867588, 7437629.838011525571346 ], [ 5382975.672459466382861, 7437742.446470127440989 ], [ 5382939.669428222812712, 7437798.238843319937587 ], [ 5382869.065580548718572, 7437828.94760624319315 ], [ 5382691.163552774116397, 7437843.54793085437268 ], [ 5382311.972006206400692, 7437837.74851081520319 ], [ 5381986.96756443567574, 7437852.440253904089332 ], [ 5381871.471254156902432, 7437833.439667303115129 ], [ 5381372.064458600245416, 7437607.039582371711731 ], [ 5381124.16142440866679, 7437563.844708330929279 ], [ 5381004.570654924958944, 7437559.747211845591664 ], [ 5380831.162171974778175, 7437589.348910793662071 ], [ 5380433.463022193871439, 7437998.749901507049799 ], [ 5380276.461149802431464, 7438230.54142096824944 ], [ 5380305.470010322518647, 7438408.646501611918211 ], [ 5380420.665683965198696, 7438619.239760464988649 ], [ 5380510.471327036619186, 7438884.248342314735055 ], [ 5380599.567203853279352, 7439105.149424780160189 ], [ 5380659.862951084971428, 7439156.640673345886171 ], [ 5380768.471496092155576, 7439169.645763383246958 ], [ 5380910.269831406883895, 7439153.149708934128284 ], [ 5381344.062869624234736, 7438814.445955215021968 ], [ 5381681.869018039666116, 7438531.947569780051708 ], [ 5381814.765556335449219, 7438490.143437720835209 ], [ 5381972.664292759262025, 7438519.348719814792275 ], [ 5382110.665591165423393, 7438583.143434455618262 ], [ 5382319.972145847044885, 7438777.348499184474349 ], [ 5382491.46273790858686, 7439001.740412077866495 ], [ 5382495.9659733036533, 7439108.145607780665159 ], [ 5382432.563068199902773, 7439233.645088071003556 ], [ 5381935.772037141025066, 7439819.647501085884869 ], [ 5381590.36883741710335, 7440098.345516497269273 ], [ 5381405.067527884617448, 7440188.448115912266076 ], [ 5381293.865757289342582, 7440211.148150976747274 ], [ 5381050.069242242723703, 7440292.648435420356691 ], [ 5380744.262291574850678, 7440476.747130182571709 ], [ 5380560.163206803612411, 7440729.846670379862189 ], [ 5380958.469540742225945, 7440928.309116481803358 ], [ 5381302.3700403990224, 7441099.649244732223451 ], [ 5381469.909149221144617, 7441193.697300422936678 ], [ 5381532.868376187980175, 7441229.048958930186927 ], [ 5381692.767010156065226, 7441350.546569925732911 ], [ 5382445.770211374387145, 7442338.148627808317542 ], [ 5383001.868038853630424, 7442997.740320248529315 ], [ 5383809.270466633141041, 7443610.907877564430237 ], [ 5383855.124812096357346, 7443538.127085080370307 ], [ 5384161.403397852554917, 7443758.724934192374349 ], [ 5384479.36206192523241, 7443993.534990591928363 ], [ 5384584.14240253996104, 7443842.583264613524079 ], [ 5384735.272323367185891, 7443775.409657827578485 ], [ 5385121.341879068873823, 7443646.727685447782278 ], [ 5385212.269436520524323, 7443642.403689233586192 ], [ 5385432.834197270683944, 7443669.327801998704672 ], [ 5385447.549529551528394, 7443671.124569356441498 ], [ 5386212.193369483575225, 7443763.142271963879466 ], [ 5386332.845315273851156, 7443764.216260086745024 ], [ 5386406.629720303229988, 7443763.312635710462928 ], [ 5386444.224733401089907, 7443759.901433564722538 ], [ 5386308.912253579124808, 7443309.225183811970055 ], [ 5386482.550073063932359, 7443325.534519484266639 ], [ 5386636.963728996925056, 7443601.624224688857794 ], [ 5386704.688248949125409, 7443722.70508598536253 ], [ 5386765.843806347809732, 7443824.355155939236283 ], [ 5386795.287187261506915, 7443881.663286020047963 ], [ 5386829.696409551426768, 7443940.71887977514416 ], [ 5386862.838244656100869, 7443996.732827318832278 ], [ 5386876.185452627018094, 7444017.398012170568109 ], [ 5386831.615174249745905, 7444033.775884102098644 ], [ 5386769.415790741331875, 7444059.021354517899454 ], [ 5386710.954991615377367, 7444087.333173256367445 ], [ 5386652.398739232681692, 7444111.951349407434464 ], [ 5386678.162944991141558, 7444168.111578307114542 ], [ 5386707.188987443223596, 7444234.675831688567996 ], [ 5386751.317742753773928, 7444328.752321087755263 ], [ 5386784.599193929694593, 7444401.299864698201418 ], [ 5386815.919904716312885, 7444469.758190074935555 ], [ 5386843.176238089799881, 7444532.061751391738653 ], [ 5386873.837986408732831, 7444600.392758172005415 ], [ 5386906.75127899646759, 7444672.938608580268919 ], [ 5387026.841171075589955, 7444620.149909051135182 ], [ 5387159.956412214785814, 7444562.850592806003988 ], [ 5387366.094908365979791, 7444469.112740969285369 ], [ 5387415.359038589522243, 7444443.122706672176719 ], [ 5387438.369221221655607, 7444437.389254031702876 ], [ 5387418.237482326105237, 7444522.01563339214772 ], [ 5387422.38807909656316, 7444566.813738067634404 ], [ 5387420.642476649023592, 7444625.049384625628591 ] ] ] } },
{ "type": "Feature", "properties": { "lv_id": "LOC_058474", "id": 373162.0, "CD_SETOR": "410110110000001", "SITUACAO": "Urbana", "CD_SIT": "1", "CD_TIPO": "0", "AREA_KM2": 0.28277010305524097, "CD_REGIAO": "4", "NM_REGIAO": "Sul", "CD_UF": "41", "NM_UF": "Paraná", "CD_MUN": "4101101", "NM_MUN": "Andirá", "CD_DIST": "410110110", "NM_DIST": "Nossa Senhora Aparecida", "CD_SUBDIST": "41011011000", "NM_SUBDIST": null, "CD_BAIRRO": null, "NM_BAIRRO": null, "CD_NU": null, "NM_NU": null, "CD_FCU": null, "NM_FCU": null, "CD_AGLOM": null, "NM_AGLOM": null, "CD_RGINT": "4105", "NM_RGINT": "Londrina", "CD_RGI": "410022", "NM_RGI": "Santo Antônio da Platina", "CD_CONCURB": null, "NM_CONCURB": null, "mun_code_x": "4101101", "index_right": 56111, "dist_m": 0.0, "local_id": 635209, "ano": 2022, "cod_localidade_ibge": 4101101, "NR_ZONA": "57", "nr_cep": 86380000.0, "nm_localidade": "ANDIRÁ", "nm_locvot": "COLÉGIO ESTADUAL MARIO ZACARELLI", "ds_endereco": "RUA SILVIO NARDONI, N 150", "ds_bairro": "PATRIMONIO NOSSA SENHORA APARECIDA", "pred_long": -50.266891, "pred_lat": -22.966237, "pred_dist": 0.0, "tse_long": -50.2668697, "tse_lat": -22.9662453, "long": -50.2668697, "lat": -22.9662453, "ID_UNICO": "LOC_058474", "SG_UF": "PR", "CD_MUNICIPIO": "74195", "NR_LOCAL_VOTACAO": "1040", "QT_SECOES_AGREGADAS": 0, "QT_ELEITORES_TRANSFERIDOS": 0, "CIRO GOMES (PDT) (NÃO ELEITO) 1T": 7.0, "CONSTITUINTE EYMAEL (DC) (NÃO ELEITO) 1T": 0.0, "FELIPE D AVILA (NOVO) (NÃO ELEITO) 1T": 0.0, "JAIR BOLSONARO (PL) (2º TURNO) 1T": 279.0, "LULA (PT) (2º TURNO) 1T": 214.0, "LÉO PÉRICLES (UP) (NÃO ELEITO) 1T": 0.0, "PADRE KELMON (PTB) (NÃO ELEITO) 1T": 0.0, "SIMONE TEBET (MDB) (NÃO ELEITO) 1T": 10.0, "SOFIA MANZANO (PCB) (NÃO ELEITO) 1T": 0.0, "SORAYA THRONICKE (UNIÃO) (NÃO ELEITO) 1T": 1.0, "VERA (PSTU) (NÃO ELEITO) 1T": 0.0, "Total_Votos_Validos 1T": 511.0, "Votos_Brancos 1T": 12.0, "Votos_Nulos 1T": 15.0, "Abstenções 1T": 156.0, "Eleitores_Aptos 1T": 694.0, "JAIR BOLSONARO (PL) (NÃO ELEITO) 2T": 302.0, "LULA (PT) (ELEITO) 2T": 222.0, "Total_Votos_Validos 2T": 524.0, "Votos_Brancos 2T": 9.0, "Votos_Nulos 2T": 12.0, "Abstenções 2T": 149.0, "Eleitores_Aptos 2T": 694.0, "mun_code_y": "4101101", "mun_code": "4101101" }, "geometry": { "type": "Polygon", "coordinates": [ [ [ 5384405.877929699607193, 7457511.474802048876882 ], [ 5384838.683008077554405, 7457439.247653257101774 ], [ 5384939.674776630476117, 7457361.245671902783215 ], [ 5385000.578951420262456, 7457179.144577572122216 ], [ 5385047.47463025059551, 7456471.444994987919927 ], [ 5385158.882980920374393, 7456126.849426398985088 ], [ 5385248.668930614367127, 7455966.103904341347516 ], [ 5385475.175679564476013, 7455731.496255673468113 ], [ 5385825.178417683579028, 7455599.698935031890869 ], [ 5386535.480359515175223, 7455585.050033126957715 ], [ 5386852.879810497164726, 7455647.942644963040948 ], [ 5387194.376774806529284, 7455852.048539899289608 ], [ 5387565.474709926173091, 7456120.546348845586181 ], [ 5387652.131592119112611, 7456161.845406809821725 ], [ 5387960.680306606926024, 7456238.141603292897344 ], [ 5388357.682220118120313, 7456165.139827189967036 ], [ 5389278.538654968142509, 7455661.764287379570305 ], [ 5389448.6801853235811, 7455356.145170908421278 ], [ 5389551.679956833831966, 7454629.13977556861937 ], [ 5389790.58432400226593, 7454172.94273954257369 ], [ 5389745.378550438210368, 7453664.442848078906536 ], [ 5389799.98439715988934, 7453368.942006307654083 ], [ 5389991.784514158964157, 7452330.04334226809442 ], [ 5389986.27728230599314, 7452200.24011480435729 ], [ 5389869.280509000644088, 7452049.542493857443333 ], [ 5390001.478386268950999, 7451827.044523220509291 ], [ 5389530.082625441253185, 7451476.440789710730314 ], [ 5388176.272676243446767, 7451364.839536713436246 ], [ 5383811.773736135102808, 7451476.647615808993578 ], [ 5382767.27498843241483, 7451503.342199833132327 ], [ 5382655.711954087950289, 7451499.057125184684992 ], [ 5380119.04437093436718, 7451401.433976653032005 ], [ 5379479.574003960937262, 7451376.749758343212306 ], [ 5378263.582107091322541, 7451329.745967822149396 ], [ 5375137.670434836298227, 7451208.649754449725151 ], [ 5375265.771895287558436, 7451609.753265893086791 ], [ 5375308.872016448527575, 7452178.94665755610913 ], [ 5375478.867949460633099, 7452711.947930628433824 ], [ 5375694.667694758623838, 7453151.954196352511644 ], [ 5375616.76750950422138, 7453577.953627985902131 ], [ 5375320.769733953289688, 7453905.046347977593541 ], [ 5375281.569056557491422, 7454105.649137007072568 ], [ 5375293.769751664251089, 7454333.045681450515985 ], [ 5375450.766643725335598, 7454693.148160092532635 ], [ 5375489.865981973707676, 7454981.052282286807895 ], [ 5375463.869907352142036, 7455297.956116328947246 ], [ 5375326.671559996902943, 7455750.152215822599828 ], [ 5375289.975200729444623, 7456333.550269302912056 ], [ 5375301.06556246150285, 7456415.14793446380645 ], [ 5375317.920358381234109, 7456539.136947955936193 ], [ 5375724.467391746118665, 7456271.152407133951783 ], [ 5376386.77656624186784, 7456235.255334925837815 ], [ 5376804.174016062170267, 7456164.763076019473374 ], [ 5376804.368263561278582, 7456164.736022958531976 ], [ 5377039.068928675726056, 7456141.851652583107352 ], [ 5377534.674691456370056, 7456194.14774070866406 ], [ 5377838.177429299801588, 7456357.249211598187685 ], [ 5378511.675555408000946, 7456510.245201710611582 ], [ 5378808.670571313239634, 7456658.245563220232725 ], [ 5378963.684009802527726, 7456797.105699744075537 ], [ 5379093.776818343438208, 7457010.145754816010594 ], [ 5379290.572614344768226, 7457477.348672199994326 ], [ 5379420.77065712120384, 7457561.25410589389503 ], [ 5379911.372372792102396, 7457653.74748788587749 ], [ 5380492.773196502588689, 7457557.050223965197802 ], [ 5380551.676101927645504, 7457547.251190418377519 ], [ 5380982.723913308233023, 7457564.950877221301198 ], [ 5381098.978695857338607, 7457588.347171718254685 ], [ 5381385.679301328957081, 7457733.146780628710985 ], [ 5381564.276159903034568, 7457852.600809620693326 ], [ 5381989.381448525935411, 7458199.252525370568037 ], [ 5382214.725114391185343, 7458260.340189248323441 ], [ 5382546.378372673876584, 7458174.344737616367638 ], [ 5383837.734673856757581, 7457606.257444694638252 ], [ 5384115.472447604872286, 7457559.918168909847736 ], [ 5384284.307095498777926, 7457531.754281181842089 ], [ 5384405.877929699607193, 7457511.474802048876882 ] ] ] } },
{ "type": "Feature", "properties": { "lv_id": "LOC_058475", "id": 373133.0, "CD_SETOR": "410110105000004", "SITUACAO": "Urbana", "CD_SIT": "2", "CD_TIPO": "0", "AREA_KM2": 1.866998223886827, "CD_REGIAO": "4", "NM_REGIAO": "Sul", "CD_UF": "41", "NM_UF": "Paraná", "CD_MUN": "4101101", "NM_MUN": "Andirá", "CD_DIST": "410110105", "NM_DIST": "Andirá", "CD_SUBDIST": "41011010500", "NM_SUBDIST": null, "CD_BAIRRO": null, "NM_BAIRRO": null, "CD_NU": null, "NM_NU": null, "CD_FCU": null, "NM_FCU": null, "CD_AGLOM": null, "NM_AGLOM": null, "CD_RGINT": "4105", "NM_RGINT": "Londrina", "CD_RGI": "410022", "NM_RGI": "Santo Antônio da Platina", "CD_CONCURB": null, "NM_CONCURB": null, "mun_code_x": "4101101", "index_right": 56106, "dist_m": 518.3052962828375, "local_id": 635204, "ano": 2022, "cod_localidade_ibge": 4101101, "NR_ZONA": "57", "nr_cep": 86380000.0, "nm_localidade": "ANDIRÁ", "nm_locvot": "ESCOLA MUNICIPAL SANTA INES", "ds_endereco": "R SAO PAULO, N 1260", "ds_bairro": "VILA SANTA INES", "pred_long": -50.236637, "pred_lat": -23.045457, "pred_dist": 0.0, "tse_long": -50.2363979, "tse_lat": -23.0457727, "long": -50.2363979, "lat": -23.0457727, "ID_UNICO": "LOC_058475", "SG_UF": "PR", "CD_MUNICIPIO": "74195", "NR_LOCAL_VOTACAO": "1058", "QT_SECOES_AGREGADAS": 0, "QT_ELEITORES_TRANSFERIDOS": 4, "CIRO GOMES (PDT) (NÃO ELEITO) 1T": 19.0, "CONSTITUINTE EYMAEL (DC) (NÃO ELEITO) 1T": 0.0, "FELIPE D AVILA (NOVO) (NÃO ELEITO) 1T": 4.0, "JAIR BOLSONARO (PL) (2º TURNO) 1T": 723.0, "LULA (PT) (2º TURNO) 1T": 921.0, "LÉO PÉRICLES (UP) (NÃO ELEITO) 1T": 0.0, "PADRE KELMON (PTB) (NÃO ELEITO) 1T": 3.0, "SIMONE TEBET (MDB) (NÃO ELEITO) 1T": 35.0, "SOFIA MANZANO (PCB) (NÃO ELEITO) 1T": 0.0, "SORAYA THRONICKE (UNIÃO) (NÃO ELEITO) 1T": 3.0, "VERA (PSTU) (NÃO ELEITO) 1T": 0.0, "Total_Votos_Validos 1T": 1708.0, "Votos_Brancos 1T": 32.0, "Votos_Nulos 1T": 61.0, "Abstenções 1T": 590.0, "Eleitores_Aptos 1T": 2391.0, "JAIR BOLSONARO (PL) (NÃO ELEITO) 2T": 837.0, "LULA (PT) (ELEITO) 2T": 907.0, "Total_Votos_Validos 2T": 1744.0, "Votos_Brancos 2T": 14.0, "Votos_Nulos 2T": 63.0, "Abstenções 2T": 570.0, "Eleitores_Aptos 2T": 2391.0, "mun_code_y": "4101101", "mun_code": "4101101" }, "geometry": { "type": "Polygon", "coordinates": [ [ [ 5385770.876473902724683, 7444483.671856909990311 ], [ 5385655.928378531709313, 7444467.018760411068797 ], [ 5385621.40706411935389, 7444394.679105283692479 ], [ 5385552.033449311740696, 7444414.543191654607654 ], [ 5385483.083965163677931, 7444415.417635774239898 ], [ 5385463.646552636288106, 7444330.037567769177258 ], [ 5385460.323810257948935, 7444271.356624898500741 ], [ 5385466.090869472362101, 7444213.351973676122725 ], [ 5385448.397310500964522, 7444125.219042057171464 ], [ 5385440.029542131349444, 7444082.039233765564859 ], [ 5385410.664701015688479, 7444033.972286444157362 ], [ 5385365.365484049543738, 7444001.697544855996966 ], [ 5385335.715995626524091, 7443978.043345063924789 ], [ 5385351.511721394024789, 7443956.849756872281432 ], [ 5385368.208902607671916, 7443935.632962209172547 ], [ 5385370.575333806686103, 7443922.009783361107111 ], [ 5385488.655344923958182, 7443864.079652203246951 ], [ 5385447.549529551528394, 7443671.124569356441498 ], [ 5385432.834197270683944, 7443669.327801998704672 ], [ 5385212.269436520524323, 7443642.403689233586192 ], [ 5385121.341879068873823, 7443646.727685447782278 ], [ 5384735.272323367185891, 7443775.409657827578485 ], [ 5384584.14240253996104, 7443842.583264613524079 ], [ 5384479.36206192523241, 7443993.534990591928363 ], [ 5384161.403397852554917, 7443758.724934192374349 ], [ 5383855.124812096357346, 7443538.127085080370307 ], [ 5383809.270466633141041, 7443610.907877564430237 ], [ 5383001.868038853630424, 7442997.740320248529315 ], [ 5382445.770211374387145, 7442338.148627808317542 ], [ 5381692.767010156065226, 7441350.546569925732911 ], [ 5381532.868376187980175, 7441229.048958930186927 ], [ 5381469.909149221144617, 7441193.697300422936678 ], [ 5381302.3700403990224, 7441099.649244732223451 ], [ 5380958.469540742225945, 7440928.309116481803358 ], [ 5380560.163206803612411, 7440729.846670379862189 ], [ 5380446.66971409227699, 7440948.542466476559639 ], [ 5380130.671432876959443, 7441250.843332174234092 ], [ 5379976.56811554171145, 7441362.849346082657576 ], [ 5379855.56600149627775, 7441372.146495589986444 ], [ 5379649.565560638904572, 7441321.950508603826165 ], [ 5379287.865430912934244, 7441103.150397071614861 ], [ 5379155.665174920111895, 7440910.547279404476285 ], [ 5378980.261240102350712, 7440520.443907105363905 ], [ 5378818.266793230548501, 7440212.445169529877603 ], [ 5378677.267262108623981, 7440108.245069621130824 ], [ 5378452.669072828255594, 7440051.648565554991364 ], [ 5378296.861596245318651, 7440053.148042497225106 ], [ 5378224.163725143298507, 7440131.149437252432108 ], [ 5378220.067606051452458, 7440324.751506975851953 ], [ 5378237.270108400844038, 7440503.04414133913815 ], [ 5378340.163795751519501, 7440734.947148513048887 ], [ 5378491.563087275251746, 7441010.446666847914457 ], [ 5378568.268363174051046, 7441450.848544053733349 ], [ 5378653.263035186566412, 7441636.848668824881315 ], [ 5378685.063411356881261, 7441863.346849668771029 ], [ 5378663.670336208306253, 7442135.747571845538914 ], [ 5378618.670482055284083, 7442342.047999015077949 ], [ 5378561.163493422791362, 7442428.243603879585862 ], [ 5378467.268525663763285, 7442472.643733073025942 ], [ 5378296.966157274320722, 7442506.743966171517968 ], [ 5378060.867914934642613, 7442418.942790428176522 ], [ 5377941.170315321534872, 7442335.247841818258166 ], [ 5377854.961712203919888, 7442177.252296764403582 ], [ 5377602.569241632707417, 7441849.750000448897481 ], [ 5377424.569530488923192, 7441735.55055997800082 ], [ 5377129.765099992975593, 7441514.449681920930743 ], [ 5376864.16748194117099, 7441295.749595599249005 ], [ 5376763.069199120625854, 7441238.246560096740723 ], [ 5376541.468844598159194, 7441166.252365732565522 ], [ 5376411.465608764439821, 7441156.250111129134893 ], [ 5376330.268767492845654, 7441149.946821412071586 ], [ 5376053.163606442511082, 7441169.352369946427643 ], [ 5375820.564052394591272, 7441237.151499550789595 ], [ 5375704.959883469156921, 7441353.346503084525466 ], [ 5375616.161134573630989, 7441562.950630398467183 ], [ 5375515.168370258063078, 7442006.646235558204353 ], [ 5375530.767385190352798, 7442265.443204987794161 ], [ 5375670.664361500181258, 7442485.744261870160699 ], [ 5375722.766790747642517, 7442714.350994552485645 ], [ 5375956.664028029888868, 7443061.753447039052844 ], [ 5376420.662029135972261, 7443550.347544204443693 ], [ 5376526.66588859539479, 7443685.946102195419371 ], [ 5376581.16459241323173, 7443825.346779806539416 ], [ 5376578.869888810440898, 7444028.242468202486634 ], [ 5376507.26870150770992, 7444268.346674721688032 ], [ 5376356.670944342389703, 7444523.251375518739223 ], [ 5376166.56185257434845, 7444715.346721231937408 ], [ 5376025.166352349333465, 7444786.144134328700602 ], [ 5375910.564581825397909, 7444775.047042833641171 ], [ 5375731.464855994097888, 7444708.847814654931426 ], [ 5375616.667958228848875, 7444638.34989570081234 ], [ 5375560.562602711841464, 7444550.744728032499552 ], [ 5375485.261500393971801, 7444173.050054103136063 ], [ 5375374.860644867643714, 7443979.050760135054588 ], [ 5375237.865107436664402, 7443822.049449846148491 ], [ 5375030.264507637359202, 7443444.14944907091558 ], [ 5374964.361849029548466, 7443380.947081269696355 ], [ 5374895.668158232234418, 7443348.7533298432827 ], [ 5374597.865433372557163, 7443345.949421433731914 ], [ 5374297.26748735550791, 7443385.944501860067248 ], [ 5374083.560087066143751, 7443358.546210547909141 ], [ 5373639.263888210058212, 7443129.749805836006999 ], [ 5373530.062877275981009, 7443006.144810941070318 ], [ 5373450.865513373166323, 7442875.144068289548159 ], [ 5373298.665078990161419, 7442703.650096470490098 ], [ 5373074.558914002031088, 7442509.244839894585311 ], [ 5372862.659357039257884, 7442375.544277245178819 ], [ 5372565.065833238884807, 7442392.650516679510474 ], [ 5372539.866077890619636, 7442394.05428459495306 ], [ 5372412.45779060292989, 7442473.847759250551462 ], [ 5372350.765104453079402, 7442582.744434531778097 ], [ 5372398.661837649531662, 7443120.152461227029562 ], [ 5372345.063771012239158, 7443274.044938007369637 ], [ 5372058.166745526716113, 7443844.24981926381588 ], [ 5371956.663189716637135, 7444256.953101594001055 ], [ 5372008.663716554641724, 7444253.553924703039229 ], [ 5372001.966254464350641, 7444276.546358915045857 ], [ 5372384.761423602700233, 7444441.448710722848773 ], [ 5372781.864659120328724, 7444497.447871118783951 ], [ 5373465.660091411322355, 7445330.553892528638244 ], [ 5373832.766515180468559, 7445989.446023724973202 ], [ 5374274.867094895802438, 7446464.548840670846403 ], [ 5374366.864167219027877, 7446718.651112368330359 ], [ 5374404.862450145184994, 7447104.746671668253839 ], [ 5374897.671677032485604, 7448489.846839056350291 ], [ 5374929.564960412681103, 7448952.254944426938891 ], [ 5374868.665806970559061, 7449286.044594867154956 ], [ 5374663.26730481442064, 7449930.149934837594628 ], [ 5374885.6640087608248, 7450645.745813401415944 ], [ 5375070.665125836618245, 7450870.850671840831637 ], [ 5375137.670434836298227, 7451208.649754449725151 ], [ 5378263.582107091322541, 7451329.745967822149396 ], [ 5379479.574003960937262, 7451376.749758343212306 ], [ 5380119.04437093436718, 7451401.433976653032005 ], [ 5382655.711954087950289, 7451499.057125184684992 ], [ 5382767.27498843241483, 7451503.342199833132327 ], [ 5383811.773736135102808, 7451476.647615808993578 ], [ 5388176.272676243446767, 7451364.839536713436246 ], [ 5389530.082625441253185, 7451476.440789710730314 ], [ 5390001.478386268950999, 7451827.044523220509291 ], [ 5390098.480443645268679, 7451663.838190941140056 ], [ 5390151.477947153151035, 7451378.740968922153115 ], [ 5390061.679932027123868, 7450531.846733270213008 ], [ 5389965.67853048350662, 7450463.937432463280857 ], [ 5389704.6809913944453, 7450401.039616051129997 ], [ 5389471.676507072523236, 7450114.94634616561234 ], [ 5389156.674567970447242, 7449140.63766073808074 ], [ 5388650.679477793164551, 7448329.742057202383876 ], [ 5388568.678862730041146, 7448127.646559954620898 ], [ 5388411.573578098788857, 7447556.53970511071384 ], [ 5388454.978946543298662, 7447241.842205492779613 ], [ 5388375.774711212143302, 7447214.247249683365226 ], [ 5388319.047666544094682, 7447202.563123224303126 ], [ 5388162.021372145041823, 7447100.044000466354191 ], [ 5387475.537331650033593, 7446665.413826371543109 ], [ 5387388.151932884007692, 7446609.846246279776096 ], [ 5387307.58438045438379, 7446559.007871205918491 ], [ 5387265.412769205868244, 7446532.338743352331221 ], [ 5387203.20120803732425, 7446492.724083328619599 ], [ 5387026.700574546121061, 7446380.332115447148681 ], [ 5386935.006644409149885, 7446304.263471754267812 ], [ 5386761.536137228831649, 7446437.047781486064196 ], [ 5386582.149521185085177, 7446354.958212358877063 ], [ 5386578.877897517755628, 7446302.768224557861686 ], [ 5386443.592102490365505, 7446147.056149447336793 ], [ 5386420.763006668537855, 7446062.773578500375152 ], [ 5386446.532075901515782, 7445906.851858121342957 ], [ 5386216.079213678836823, 7445758.384952759370208 ], [ 5386077.535377386957407, 7445662.231842682696879 ], [ 5386193.33394477982074, 7445530.707009262405336 ], [ 5386255.313427893444896, 7445467.558170977979898 ], [ 5386308.899255705066025, 7445409.719463214278221 ], [ 5386353.474513305351138, 7445356.31901247613132 ], [ 5386400.811927230097353, 7445299.517623078078032 ], [ 5386376.561257964931428, 7445275.459312285296619 ], [ 5386353.101369868032634, 7445252.645835498347878 ], [ 5386280.929725710302591, 7445200.200047584250569 ], [ 5386271.995643601752818, 7445191.26280162576586 ], [ 5386252.984257567673922, 7445172.785131800919771 ], [ 5386245.739981419406831, 7445165.768788238987327 ], [ 5386178.017169253900647, 7445193.328426780179143 ], [ 5386107.945105475373566, 7445224.821603074669838 ], [ 5385988.456356423906982, 7445274.989069100469351 ], [ 5385984.71957868617028, 7445265.229776334017515 ], [ 5385953.004302557557821, 7445190.08791542891413 ], [ 5385912.803612622432411, 7445113.865915616974235 ], [ 5385932.206450937315822, 7445094.177160065621138 ], [ 5385932.841208602301776, 7445091.752443144097924 ], [ 5385992.644031927920878, 7445022.145718077197671 ], [ 5385919.459093592129648, 7444963.298632349818945 ], [ 5385928.486697743646801, 7444941.61281462572515 ], [ 5385889.945265629328787, 7444872.084943706169724 ], [ 5385852.059340000152588, 7444804.116144368425012 ], [ 5385809.251382733695209, 7444728.516121314838529 ], [ 5385776.035106751136482, 7444585.390071643516421 ], [ 5385769.806278273463249, 7444535.329644192941487 ], [ 5385770.876473902724683, 7444483.671856909990311 ] ] ] } },
{ "type": "Feature", "properties": { "lv_id": "LOC_058476", "id": 373138.0, "CD_SETOR": "410110105000009", "SITUACAO": "Urbana", "CD_SIT": "1", "CD_TIPO": "0", "AREA_KM2": 0.072508471577913, "CD_REGIAO": "4", "NM_REGIAO": "Sul", "CD_UF": "41", "NM_UF": "Paraná", "CD_MUN": "4101101", "NM_MUN": "Andirá", "CD_DIST": "410110105", "NM_DIST": "Andirá", "CD_SUBDIST": "41011010500", "NM_SUBDIST": null, "CD_BAIRRO": null, "NM_BAIRRO": null, "CD_NU": null, "NM_NU": null, "CD_FCU": null, "NM_FCU": null, "CD_AGLOM": null, "NM_AGLOM": null, "CD_RGINT": "4105", "NM_RGINT": "Londrina", "CD_RGI": "410022", "NM_RGI": "Santo Antônio da Platina", "CD_CONCURB": null, "NM_CONCURB": null, "mun_code_x": "4101101", "index_right": 56112, "dist_m": 0.0, "local_id": 635210, "ano": 2022, "cod_localidade_ibge": 4101101, "NR_ZONA": "57", "nr_cep": 86380000.0, "nm_localidade": "ANDIRÁ", "nm_locvot": "COLÉGIO ESTADUAL STELLA MARIS", "ds_endereco": "R CARAMURU, N 270", "ds_bairro": "VILA AMERICANA", "pred_long": -50.22992, "pred_lat": -23.04524, "pred_dist": 0.0, "tse_long": -50.2299612, "tse_lat": -23.0445818, "long": -50.2299612, "lat": -23.0445818, "ID_UNICO": "LOC_058476", "SG_UF": "PR", "CD_MUNICIPIO": "74195", "NR_LOCAL_VOTACAO": "1066", "QT_SECOES_AGREGADAS": 0, "QT_ELEITORES_TRANSFERIDOS": 8, "CIRO GOMES (PDT) (NÃO ELEITO) 1T": 37.0, "CONSTITUINTE EYMAEL (DC) (NÃO ELEITO) 1T": 0.0, "FELIPE D AVILA (NOVO) (NÃO ELEITO) 1T": 3.0, "JAIR BOLSONARO (PL) (2º TURNO) 1T": 873.0, "LULA (PT) (2º TURNO) 1T": 631.0, "LÉO PÉRICLES (UP) (NÃO ELEITO) 1T": 1.0, "PADRE KELMON (PTB) (NÃO ELEITO) 1T": 1.0, "SIMONE TEBET (MDB) (NÃO ELEITO) 1T": 54.0, "SOFIA MANZANO (PCB) (NÃO ELEITO) 1T": 0.0, "SORAYA THRONICKE (UNIÃO) (NÃO ELEITO) 1T": 6.0, "VERA (PSTU) (NÃO ELEITO) 1T": 0.0, "Total_Votos_Validos 1T": 1606.0, "Votos_Brancos 1T": 26.0, "Votos_Nulos 1T": 59.0, "Abstenções 1T": 507.0, "Eleitores_Aptos 1T": 2198.0, "JAIR BOLSONARO (PL) (NÃO ELEITO) 2T": 983.0, "LULA (PT) (ELEITO) 2T": 642.0, "Total_Votos_Validos 2T": 1625.0, "Votos_Brancos 2T": 23.0, "Votos_Nulos 2T": 53.0, "Abstenções 2T": 497.0, "Eleitores_Aptos 2T": 2198.0, "mun_code_y": "4101101", "mun_code": "4101101" }, "geometry": { "type": "Polygon", "coordinates": [ [ [ 5386902.716679828241467, 7445363.999525317922235 ], [ 5386912.204847237095237, 7445342.323247654363513 ], [ 5386948.516965088434517, 7445324.394232649356127 ], [ 5387023.688360790722072, 7445295.084946010261774 ], [ 5386997.143810937181115, 7445229.433453632518649 ], [ 5386973.017057119868696, 7445172.454180030152202 ], [ 5386924.286870807409286, 7445057.486822716891766 ], [ 5386899.377310956828296, 7444997.963927736505866 ], [ 5386785.229121759533882, 7444998.234417270869017 ], [ 5386698.939004105515778, 7445006.597837662324309 ], [ 5386632.766277667135, 7445034.974393354728818 ], [ 5386271.995643601752818, 7445191.26280162576586 ], [ 5386280.929725710302591, 7445200.200047584250569 ], [ 5386353.101369868032634, 7445252.645835498347878 ], [ 5386376.561257964931428, 7445275.459312285296619 ], [ 5386400.811927230097353, 7445299.517623078078032 ], [ 5386353.474513305351138, 7445356.31901247613132 ], [ 5386308.899255705066025, 7445409.719463214278221 ], [ 5386255.313427893444896, 7445467.558170977979898 ], [ 5386193.33394477982074, 7445530.707009262405336 ], [ 5386077.535377386957407, 7445662.231842682696879 ], [ 5386216.079213678836823, 7445758.384952759370208 ], [ 5386446.532075901515782, 7445906.851858121342957 ], [ 5386420.763006668537855, 7446062.773578500375152 ], [ 5386443.592102490365505, 7446147.056149447336793 ], [ 5386578.877897517755628, 7446302.768224557861686 ], [ 5386582.149521185085177, 7446354.958212358877063 ], [ 5386761.536137228831649, 7446437.047781486064196 ], [ 5386935.006644409149885, 7446304.263471754267812 ], [ 5386900.717560497112572, 7446265.536903474479914 ], [ 5386883.338672135025263, 7446248.416015598922968 ], [ 5386835.463019189424813, 7446201.260746341198683 ], [ 5386701.63062503002584, 7446050.307773781940341 ], [ 5386640.449086278676987, 7445981.297935603186488 ], [ 5386607.303034907206893, 7445943.906597327440977 ], [ 5386643.368820078670979, 7445905.596874666400254 ], [ 5386694.254894389770925, 7445843.631175927817822 ], [ 5386732.434827454388142, 7445795.477679085917771 ], [ 5386826.384119977243245, 7445698.661093462258577 ], [ 5386714.704564993269742, 7445590.0446633156389 ], [ 5386612.469035936519504, 7445494.169541701674461 ], [ 5386902.716679828241467, 7445363.999525317922235 ] ] ] } },
{ "type": "Feature", "properties": { "lv_id": "LOC_058477", "id": 373140.0, "CD_SETOR": "410110105000011", "SITUACAO": "Urbana", "CD_SIT": "1", "CD_TIPO": "0", "AREA_KM2": 0.16676304484854801, "CD_REGIAO": "4", "NM_REGIAO": "Sul", "CD_UF": "41", "NM_UF": "Paraná", "CD_MUN": "4101101", "NM_MUN": "Andirá", "CD_DIST": "410110105", "NM_DIST": "Andirá", "CD_SUBDIST": "41011010500", "NM_SUBDIST": null, "CD_BAIRRO": null, "NM_BAIRRO": null, "CD_NU": null, "NM_NU": null, "CD_FCU": null, "NM_FCU": null, "CD_AGLOM": null, "NM_AGLOM": null, "CD_RGINT": "4105", "NM_RGINT": "Londrina", "CD_RGI": "410022", "NM_RGI": "Santo Antônio da Platina", "CD_CONCURB": null, "NM_CONCURB": null, "mun_code_x": "4101101", "index_right": 56107, "dist_m": 0.0, "local_id": 635205, "ano": 2022, "cod_localidade_ibge": 4101101, "NR_ZONA": "57", "nr_cep": 86380000.0, "nm_localidade": "ANDIRÁ", "nm_locvot": "ESCOLA MUNICIPAL PROFESSOR MICHEL KAIRALLA", "ds_endereco": "RUA TAPAJOS, N 186", "ds_bairro": "VILA AMERICANA", "pred_long": -50.22367, "pred_lat": -23.03993, "pred_dist": 0.0, "tse_long": -50.2236917, "tse_lat": -23.039939, "long": -50.2236917, "lat": -23.039939, "ID_UNICO": "LOC_058477", "SG_UF": "PR", "CD_MUNICIPIO": "74195", "NR_LOCAL_VOTACAO": "1074", "QT_SECOES_AGREGADAS": 0, "QT_ELEITORES_TRANSFERIDOS": 6, "CIRO GOMES (PDT) (NÃO ELEITO) 1T": 23.0, "CONSTITUINTE EYMAEL (DC) (NÃO ELEITO) 1T": 0.0, "FELIPE D AVILA (NOVO) (NÃO ELEITO) 1T": 6.0, "JAIR BOLSONARO (PL) (2º TURNO) 1T": 663.0, "LULA (PT) (2º TURNO) 1T": 648.0, "LÉO PÉRICLES (UP) (NÃO ELEITO) 1T": 0.0, "PADRE KELMON (PTB) (NÃO ELEITO) 1T": 4.0, "SIMONE TEBET (MDB) (NÃO ELEITO) 1T": 49.0, "SOFIA MANZANO (PCB) (NÃO ELEITO) 1T": 0.0, "SORAYA THRONICKE (UNIÃO) (NÃO ELEITO) 1T": 5.0, "VERA (PSTU) (NÃO ELEITO) 1T": 0.0, "Total_Votos_Validos 1T": 1398.0, "Votos_Brancos 1T": 25.0, "Votos_Nulos 1T": 47.0, "Abstenções 1T": 375.0, "Eleitores_Aptos 1T": 1845.0, "JAIR BOLSONARO (PL) (NÃO ELEITO) 2T": 756.0, "LULA (PT) (ELEITO) 2T": 680.0, "Total_Votos_Validos 2T": 1436.0, "Votos_Brancos 2T": 24.0, "Votos_Nulos 2T": 39.0, "Abstenções 2T": 346.0, "Eleitores_Aptos 2T": 1845.0, "mun_code_y": "4101101", "mun_code": "4101101" }, "geometry": { "type": "Polygon", "coordinates": [ [ [ 5387320.206576435826719, 7445356.873117841780186 ], [ 5387299.726090712472796, 7445294.25060835108161 ], [ 5387293.401585491374135, 7445294.291877964511514 ], [ 5387242.697017166763544, 7445261.817056223750114 ], [ 5387208.10257170163095, 7445219.958357032388449 ], [ 5387199.829115863889456, 7445202.081172730773687 ], [ 5387185.914373925887048, 7445146.75846435688436 ], [ 5387203.628360929898918, 7445140.740586318075657 ], [ 5387175.328436680138111, 7445086.943624071776867 ], [ 5387157.964509381912649, 7445054.084901643916965 ], [ 5387130.876009075902402, 7445036.893318647518754 ], [ 5387054.400141797959805, 7445065.64884911570698 ], [ 5387020.093282823450863, 7444991.984809165820479 ], [ 5386899.377310956828296, 7444997.963927736505866 ], [ 5386924.286870807409286, 7445057.486822716891766 ], [ 5386973.017057119868696, 7445172.454180030152202 ], [ 5386997.143810937181115, 7445229.433453632518649 ], [ 5387023.688360790722072, 7445295.084946010261774 ], [ 5386948.516965088434517, 7445324.394232649356127 ], [ 5386912.204847237095237, 7445342.323247654363513 ], [ 5386902.716679828241467, 7445363.999525317922235 ], [ 5386612.469035936519504, 7445494.169541701674461 ], [ 5386714.704564993269742, 7445590.0446633156389 ], [ 5386826.384119977243245, 7445698.661093462258577 ], [ 5386732.434827454388142, 7445795.477679085917771 ], [ 5386694.254894389770925, 7445843.631175927817822 ], [ 5386643.368820078670979, 7445905.596874666400254 ], [ 5386607.303034907206893, 7445943.906597327440977 ], [ 5386640.449086278676987, 7445981.297935603186488 ], [ 5386701.63062503002584, 7446050.307773781940341 ], [ 5386835.463019189424813, 7446201.260746341198683 ], [ 5386883.338672135025263, 7446248.416015598922968 ], [ 5386900.717560497112572, 7446265.536903474479914 ], [ 5386935.006644409149885, 7446304.263471754267812 ], [ 5387026.700574546121061, 7446380.332115447148681 ], [ 5387203.20120803732425, 7446492.724083328619599 ], [ 5387265.412769205868244, 7446532.338743352331221 ], [ 5387307.58438045438379, 7446559.007871205918491 ], [ 5387388.151932884007692, 7446609.846246279776096 ], [ 5387475.537331650033593, 7446665.413826371543109 ], [ 5387577.302082543261349, 7446652.818742299452424 ], [ 5387665.914462942630053, 7446510.086371876299381 ], [ 5387807.393201127648354, 7446262.357784949243069 ], [ 5387702.128070699051023, 7446199.263324003666639 ], [ 5387661.027991397306323, 7446178.350073006935418 ], [ 5387624.643462080508471, 7446225.294468377716839 ], [ 5387540.366113574244082, 7446172.500122793018818 ], [ 5387417.57903855945915, 7446058.491939802654088 ], [ 5387389.067211559973657, 7446023.568260423839092 ], [ 5387423.672989808022976, 7445983.573788344860077 ], [ 5387389.348630085587502, 7445953.439513539895415 ], [ 5387341.021800620481372, 7445894.399585635401309 ], [ 5387298.879933530464768, 7445823.135590761899948 ], [ 5387246.993451897054911, 7445841.467431391589344 ], [ 5387228.345013069920242, 7445816.865928599610925 ], [ 5387208.598425796255469, 7445774.734677826985717 ], [ 5387191.869351466186345, 7445729.151521160267293 ], [ 5387163.624861055985093, 7445638.982662146911025 ], [ 5387177.533014544285834, 7445623.318544879555702 ], [ 5387098.393203711137176, 7445440.036189866252244 ], [ 5387320.206576435826719, 7445356.873117841780186 ] ] ] } },
{ "type": "Feature", "properties": { "lv_id": "LOC_058478", "id": 373143.0, "CD_SETOR": "410110105000014", "SITUACAO": "Urbana", "CD_SIT": "1", "CD_TIPO": "0", "AREA_KM2": 0.087582015205655006, "CD_REGIAO": "4", "NM_REGIAO": "Sul", "CD_UF": "41", "NM_UF": "Paraná", "CD_MUN": "4101101", "NM_MUN": "Andirá", "CD_DIST": "410110105", "NM_DIST": "Andirá", "CD_SUBDIST": "41011010500", "NM_SUBDIST": null, "CD_BAIRRO": null, "NM_BAIRRO": null, "CD_NU": null, "NM_NU": null, "CD_FCU": null, "NM_FCU": null, "CD_AGLOM": null, "NM_AGLOM": null, "CD_RGINT": "4105", "NM_RGINT": "Londrina", "CD_RGI": "410022", "NM_RGI": "Santo Antônio da Platina", "CD_CONCURB": null, "NM_CONCURB": null, "mun_code_x": "4101101", "index_right": 56110, "dist_m": 183.18299427338926, "local_id": 635208, "ano": 2022, "cod_localidade_ibge": 4101101, "NR_ZONA": "57", "nr_cep": 86380000.0, "nm_localidade": "ANDIRÁ", "nm_locvot": "ESCOLA MUNICIPAL PINGO DE GENTE", "ds_endereco": "RUA PARANÁ, N 1436", "ds_bairro": "VILA INDUSTRIAL", "pred_long": -50.22187, "pred_lat": -23.050924, "pred_dist": 0.0, "tse_long": -50.2219752, "tse_lat": -23.0514158, "long": -50.2219752, "lat": -23.0514158, "ID_UNICO": "LOC_058478", "SG_UF": "PR", "CD_MUNICIPIO": "74195", "NR_LOCAL_VOTACAO": "1082", "QT_SECOES_AGREGADAS": 0, "QT_ELEITORES_TRANSFERIDOS": 4, "CIRO GOMES (PDT) (NÃO ELEITO) 1T": 17.0, "CONSTITUINTE EYMAEL (DC) (NÃO ELEITO) 1T": 0.0, "FELIPE D AVILA (NOVO) (NÃO ELEITO) 1T": 1.0, "JAIR BOLSONARO (PL) (2º TURNO) 1T": 464.0, "LULA (PT) (2º TURNO) 1T": 477.0, "LÉO PÉRICLES (UP) (NÃO ELEITO) 1T": 0.0, "PADRE KELMON (PTB) (NÃO ELEITO) 1T": 0.0, "SIMONE TEBET (MDB) (NÃO ELEITO) 1T": 36.0, "SOFIA MANZANO (PCB) (NÃO ELEITO) 1T": 0.0, "SORAYA THRONICKE (UNIÃO) (NÃO ELEITO) 1T": 6.0, "VERA (PSTU) (NÃO ELEITO) 1T": 1.0, "Total_Votos_Validos 1T": 1002.0, "Votos_Brancos 1T": 15.0, "Votos_Nulos 1T": 22.0, "Abstenções 1T": 286.0, "Eleitores_Aptos 1T": 1325.0, "JAIR BOLSONARO (PL) (NÃO ELEITO) 2T": 538.0, "LULA (PT) (ELEITO) 2T": 487.0, "Total_Votos_Validos 2T": 1025.0, "Votos_Brancos 2T": 9.0, "Votos_Nulos 2T": 30.0, "Abstenções 2T": 261.0, "Eleitores_Aptos 2T": 1325.0, "mun_code_y": "4101101", "mun_code": "4101101" }, "geometry": { "type": "Polygon", "coordinates": [ [ [ 5387415.359038589522243, 7444443.122706672176719 ], [ 5387366.094908365979791, 7444469.112740969285369 ], [ 5387159.956412214785814, 7444562.850592806003988 ], [ 5387026.841171075589955, 7444620.149909051135182 ], [ 5386906.75127899646759, 7444672.938608580268919 ], [ 5386933.245750875212252, 7444730.722431976348162 ], [ 5386957.772503534331918, 7444786.537075669504702 ], [ 5386977.268245950341225, 7444830.128773886710405 ], [ 5387096.654647923074663, 7444775.459989330731332 ], [ 5387125.992909991182387, 7444842.504170821979642 ], [ 5387171.773343869484961, 7444947.602821486070752 ], [ 5387166.686834306456149, 7444979.320996148511767 ], [ 5387155.016727957874537, 7445007.79078162740916 ], [ 5387148.323362251743674, 7445024.123282188549638 ], [ 5387069.193759448826313, 7444998.497411111369729 ], [ 5387048.542549522593617, 7444995.567771390080452 ], [ 5387020.093282823450863, 7444991.984809165820479 ], [ 5387054.400141797959805, 7445065.64884911570698 ], [ 5387130.876009075902402, 7445036.893318647518754 ], [ 5387157.964509381912649, 7445054.084901643916965 ], [ 5387175.328436680138111, 7445086.943624071776867 ], [ 5387203.628360929898918, 7445140.740586318075657 ], [ 5387185.914373925887048, 7445146.75846435688436 ], [ 5387199.829115863889456, 7445202.081172730773687 ], [ 5387208.10257170163095, 7445219.958357032388449 ], [ 5387242.697017166763544, 7445261.817056223750114 ], [ 5387293.401585491374135, 7445294.291877964511514 ], [ 5387299.726090712472796, 7445294.25060835108161 ], [ 5387391.241738838143647, 7445293.651251927018166 ], [ 5387471.136292546987534, 7445249.966804100200534 ], [ 5387506.762288454920053, 7445186.848980205133557 ], [ 5387510.533466775901616, 7445110.181507414206862 ], [ 5387490.639774488285184, 7445011.162417275831103 ], [ 5387469.373244757764041, 7444911.379704777151346 ], [ 5387442.771893491968513, 7444795.564052234403789 ], [ 5387421.907363113947213, 7444708.157115066424012 ], [ 5387415.875359266996384, 7444629.412295004352927 ], [ 5387420.642476649023592, 7444625.049384625628591 ], [ 5387422.38807909656316, 7444566.813738067634404 ], [ 5387418.237482326105237, 7444522.01563339214772 ], [ 5387438.369221221655607, 7444437.389254031702876 ], [ 5387415.359038589522243, 7444443.122706672176719 ] ] ] } }
]
}
