{
"type": "FeatureCollection",
"name": "4109906",
"crs": { "type": "name", "properties": { "name": "urn:ogc:def:crs:EPSG::5880" } },
"features": [
{ "type": "Feature", "properties": { "lv_id": "LOC_060979", "id": 383771.0, "CD_SETOR": "410990605000002", "SITUACAO": "Urbana", "CD_SIT": "1", "CD_TIPO": "0", "AREA_KM2": 0.25495869973742402, "CD_REGIAO": "4", "NM_REGIAO": "Sul", "CD_UF": "41", "NM_UF": "Paraná", "CD_MUN": "4109906", "NM_MUN": "Icaraíma", "CD_DIST": "410990605", "NM_DIST": "Icaraíma", "CD_SUBDIST": "41099060500", "NM_SUBDIST": null, "CD_BAIRRO": null, "NM_BAIRRO": null, "CD_NU": "4109906002", "NM_NU": "Jardim Novo Horizonte", "CD_FCU": null, "NM_FCU": null, "CD_AGLOM": null, "NM_AGLOM": null, "CD_RGINT": "4104", "NM_RGINT": "Maringá", "CD_RGI": "410016", "NM_RGI": "Umuarama", "CD_CONCURB": null, "NM_CONCURB": null, "mun_code_x": "4109906", "index_right": 58176, "dist_m": 161.94501414388787, "local_id": 656514, "ano": 2022, "cod_localidade_ibge": 4109906, "NR_ZONA": "172", "nr_cep": 87530000.0, "nm_localidade": "ICARAÍMA", "nm_locvot": "COLÉGIO ESTADUAL DESEMBARGADOR ANTÔNIO FRANCO FERREIRA DA COSTA", "ds_endereco": "RUA IZUPÉRIO DE SOUZA, N 920", "ds_bairro": "CENTRO", "pred_long": -53.62344, "pred_lat": -23.390007, "pred_dist": 0.0, "tse_long": -53.62344545, "tse_lat": -23.38999617, "long": -53.62344545, "lat": -23.38999617, "ID_UNICO": "LOC_060979", "SG_UF": "PR", "CD_MUNICIPIO": "75930", "NR_LOCAL_VOTACAO": "1031", "QT_SECOES_AGREGADAS": 0, "QT_ELEITORES_TRANSFERIDOS": 14, "CIRO GOMES (PDT) (NÃO ELEITO) 1T": 52.0, "CONSTITUINTE EYMAEL (DC) (NÃO ELEITO) 1T": 0.0, "FELIPE D AVILA (NOVO) (NÃO ELEITO) 1T": 2.0, "JAIR BOLSONARO (PL) (2º TURNO) 1T": 2102.0, "LULA (PT) (2º TURNO) 1T": 1088.0, "LÉO PÉRICLES (UP) (NÃO ELEITO) 1T": 2.0, "PADRE KELMON (PTB) (NÃO ELEITO) 1T": 1.0, "SIMONE TEBET (MDB) (NÃO ELEITO) 1T": 104.0, "SOFIA MANZANO (PCB) (NÃO ELEITO) 1T": 0.0, "SORAYA THRONICKE (UNIÃO) (NÃO ELEITO) 1T": 17.0, "VERA (PSTU) (NÃO ELEITO) 1T": 0.0, "Total_Votos_Validos 1T": 3368.0, "Votos_Brancos 1T": 55.0, "Votos_Nulos 1T": 47.0, "Abstenções 1T": 971.0, "Eleitores_Aptos 1T": 4441.0, "JAIR BOLSONARO (PL) (NÃO ELEITO) 2T": 2334.0, "LULA (PT) (ELEITO) 2T": 1126.0, "Total_Votos_Validos 2T": 3460.0, "Votos_Brancos 2T": 36.0, "Votos_Nulos 2T": 39.0, "Abstenções 2T": 906.0, "Eleitores_Aptos 2T": 4441.0, "mun_code_y": "4109906", "mun_code": "4109906" }, "geometry": { "type": "MultiPolygon", "coordinates": [ [ [ [ 5037872.813766461797059, 7411198.03739926032722 ], [ 5037876.493976883590221, 7411226.026040995493531 ], [ 5037830.663347957655787, 7411231.725576484575868 ], [ 5037709.670230240561068, 7411249.135552713647485 ], [ 5037753.570076802745461, 7411543.346444603987038 ], [ 5037682.951233084313571, 7411553.627607399597764 ], [ 5037750.227453458122909, 7411647.195969697088003 ], [ 5037886.740273085422814, 7411625.492992673069239 ], [ 5037804.813857783563435, 7411742.867617316544056 ], [ 5036522.265609844587743, 7413695.880752569064498 ], [ 5036406.797182131558657, 7413765.164110383950174 ], [ 5036295.068106893450022, 7413792.274281533434987 ], [ 5035451.325953741557896, 7413731.617006352171302 ], [ 5034308.681868245825171, 7413643.688895830884576 ], [ 5034507.026358257047832, 7414145.472291260957718 ], [ 5034723.25838711950928, 7414639.546909340657294 ], [ 5034711.802115565165877, 7414672.178974652662873 ], [ 5034922.200426609255373, 7415006.43938060477376 ], [ 5034935.173989301547408, 7415096.659785866737366 ], [ 5034949.696841081604362, 7415197.730114962905645 ], [ 5035020.900916088372469, 7415348.537379856221378 ], [ 5035034.641401287168264, 7415365.117464691400528 ], [ 5035084.896915634162724, 7415425.734099155291915 ], [ 5035265.880776635371149, 7415539.122102528810501 ], [ 5035299.100014774128795, 7415559.930430923588574 ], [ 5035351.303268422372639, 7415609.0898562297225 ], [ 5035374.299829515628517, 7415630.730955887585878 ], [ 5035420.005090638063848, 7415715.93302555475384 ], [ 5035447.20570844784379, 7416045.03103999234736 ], [ 5035482.598657319322228, 7416110.333520149812102 ], [ 5035629.405839146114886, 7416247.234089348465204 ], [ 5035733.499927797354758, 7416433.232803143560886 ], [ 5035731.505688784644008, 7416547.333325523883104 ], [ 5035668.598122909665108, 7416683.033405525609851 ], [ 5035675.502475470304489, 7416861.835273064672947 ], [ 5035715.597784241661429, 7416980.330591857433319 ], [ 5035720.800094058737159, 7417097.736179327592254 ], [ 5035816.603856491856277, 7417227.238060220144689 ], [ 5035906.000506919808686, 7417703.338776975870132 ], [ 5035965.09795786626637, 7417808.131639117375016 ], [ 5036021.304145778529346, 7417993.535788313485682 ], [ 5036026.299729263409972, 7418180.338155586272478 ], [ 5036057.001399649307132, 7418315.036037374287844 ], [ 5036167.798981866799295, 7418574.531605938449502 ], [ 5036261.103758217766881, 7418980.935808122158051 ], [ 5036329.999786680564284, 7419091.340376083739102 ], [ 5036331.499902836978436, 7419219.131982831284404 ], [ 5036474.398987641558051, 7419431.333293162286282 ], [ 5036499.604615128599107, 7419541.135873286053538 ], [ 5036469.803514969535172, 7419645.835531050339341 ], [ 5036695.749114531092346, 7419705.547628381289542 ], [ 5036789.304794810712337, 7419644.734739048406482 ], [ 5037043.002195819281042, 7419354.034591946750879 ], [ 5037180.502409680746496, 7419301.636899335309863 ], [ 5037226.703075190074742, 7419140.234295415692031 ], [ 5037380.303908922709525, 7419085.933563033118844 ], [ 5037365.302575989626348, 7418945.040942145511508 ], [ 5037446.703457459807396, 7418869.136912014335394 ], [ 5037528.406129037961364, 7418835.937209338881075 ], [ 5037558.09643716737628, 7418860.437506221234798 ], [ 5037599.506058989092708, 7418860.332335846498609 ], [ 5037657.397654889151454, 7418854.536812752485275 ], [ 5037680.998169106431305, 7418828.937559559009969 ], [ 5037831.003873193636537, 7418810.435920843854547 ], [ 5037882.402535419911146, 7418825.233644471503794 ], [ 5037899.997146948240697, 7418778.83929998986423 ], [ 5037973.600294763222337, 7418778.240799751132727 ], [ 5037999.199451101012528, 7418746.633191809058189 ], [ 5038005.202010730281472, 7418682.636917581781745 ], [ 5037971.297644196078181, 7418594.333588292822242 ], [ 5038062.602305235341191, 7418498.133193729445338 ], [ 5038098.20027297642082, 7418485.438093295320868 ], [ 5038130.703507452271879, 7418498.135024018585682 ], [ 5038142.403122560121119, 7418533.833152560517192 ], [ 5038217.499100306071341, 7418529.630160443484783 ], [ 5038383.204763000831008, 7418312.14010286424309 ], [ 5038439.704071069136262, 7418196.535352142527699 ], [ 5038529.20535674598068, 7418163.941012544557452 ], [ 5038699.903987661935389, 7417911.63613891042769 ], [ 5038806.003390234895051, 7417825.537022694945335 ], [ 5038855.400153717957437, 7417822.738224987871945 ], [ 5038938.801325900480151, 7417754.440089114010334 ], [ 5038977.405031640082598, 7417657.032343576662242 ], [ 5039058.505168203264475, 7417620.237223202362657 ], [ 5039075.905782420188189, 7417587.530701706185937 ], [ 5039144.898399244993925, 7417582.032173250801861 ], [ 5039168.80131902359426, 7417487.032864494249225 ], [ 5039211.500061866827309, 7417450.039514453150332 ], [ 5039226.602231768891215, 7417395.3326062168926 ], [ 5039271.497169516049325, 7417369.131501214578748 ], [ 5039305.106061204336584, 7417294.340419224463403 ], [ 5039389.505079242400825, 7417226.335990612395108 ], [ 5039378.902851173654199, 7417108.13713666331023 ], [ 5039414.303622634150088, 7417000.137721952050924 ], [ 5039392.204289042390883, 7416942.140735459513962 ], [ 5039403.998400989919901, 7416882.137415191158652 ], [ 5039349.999029323458672, 7416864.140164855867624 ], [ 5039339.602443560026586, 7416815.337536133825779 ], [ 5039297.397890489548445, 7416775.834006114862859 ], [ 5039297.39986211899668, 7416657.329977191984653 ], [ 5039225.298807905055583, 7416595.733256733044982 ], [ 5039254.697138221934438, 7416468.534709822386503 ], [ 5039246.405383059754968, 7416338.036135632544756 ], [ 5039295.599469769746065, 7416237.830389890819788 ], [ 5039306.00136139895767, 7416127.339190112426877 ], [ 5039353.605042666196823, 7416048.534631429240108 ], [ 5039328.601071198470891, 7415774.535455673001707 ], [ 5039350.601782856509089, 7415730.940447033382952 ], [ 5039399.398578841239214, 7415709.036657933145761 ], [ 5039446.90226724371314, 7415574.335670585744083 ], [ 5039426.599406063556671, 7415426.337127482518554 ], [ 5039551.498057587072253, 7415324.133947629481554 ], [ 5039626.404065447859466, 7415289.633436687290668 ], [ 5039687.900684458203614, 7415287.729556520469487 ], [ 5039801.396796182729304, 7415371.839139368385077 ], [ 5039864.097101090475917, 7415380.131517330184579 ], [ 5039921.805425749160349, 7415345.930626774206758 ], [ 5039986.299801431596279, 7415246.434089351445436 ], [ 5040127.904330754652619, 7415119.438756629824638 ], [ 5040139.001720102503896, 7415045.537195762619376 ], [ 5040365.995574058033526, 7414861.613366289064288 ], [ 5040207.47650789655745, 7414651.484417039901018 ], [ 5039038.297679293900728, 7413537.335497055202723 ], [ 5038918.463614778593183, 7413431.009010354056954 ], [ 5038888.446657204069197, 7413376.321355530060828 ], [ 5038888.061537445522845, 7413373.71970281470567 ], [ 5038886.093851070851088, 7413360.257467522285879 ], [ 5038729.82389663066715, 7412294.726052517071366 ], [ 5038775.457960695959628, 7412310.344041310250759 ], [ 5038814.362500072456896, 7412351.984146786853671 ], [ 5038920.624424453824759, 7412335.368315078318119 ], [ 5038920.603570234961808, 7412335.213317373767495 ], [ 5038861.420053226873279, 7411968.724974896758795 ], [ 5038685.990731160156429, 7411995.135244462639093 ], [ 5038649.216858115978539, 7411720.588910827413201 ], [ 5038634.522864185273647, 7411625.15919192507863 ], [ 5038711.242283486761153, 7411614.204022587276995 ], [ 5038658.988711436279118, 7411205.566426631063223 ], [ 5038582.454074576497078, 7411216.022496507503092 ], [ 5038569.653224532492459, 7411121.063953400589526 ], [ 5038546.482070062309504, 7411125.643221912905574 ], [ 5038222.999724864959717, 7411176.124266812577844 ], [ 5038194.440646735019982, 7410963.332899509929121 ], [ 5037846.756670670583844, 7411018.220958169549704 ], [ 5037872.813766461797059, 7411198.03739926032722 ] ] ], [ [ [ 5039191.535263722762465, 7412681.625981993973255 ], [ 5039339.769945663399994, 7412306.734837772324681 ], [ 5039352.701063784770668, 7412272.034978244453669 ], [ 5038986.064895207062364, 7412325.693029149435461 ], [ 5039040.16732978913933, 7412702.017933614552021 ], [ 5039191.535263722762465, 7412681.625981993973255 ] ] ] ] } },
{ "type": "Feature", "properties": { "lv_id": "LOC_060980", "id": 383773.0, "CD_SETOR": "410990605000005", "SITUACAO": "Urbana", "CD_SIT": "1", "CD_TIPO": "0", "AREA_KM2": 0.28637201679125601, "CD_REGIAO": "4", "NM_REGIAO": "Sul", "CD_UF": "41", "NM_UF": "Paraná", "CD_MUN": "4109906", "NM_MUN": "Icaraíma", "CD_DIST": "410990605", "NM_DIST": "Icaraíma", "CD_SUBDIST": "41099060500", "NM_SUBDIST": null, "CD_BAIRRO": null, "NM_BAIRRO": null, "CD_NU": null, "NM_NU": null, "CD_FCU": null, "NM_FCU": null, "CD_AGLOM": null, "NM_AGLOM": null, "CD_RGINT": "4104", "NM_RGINT": "Maringá", "CD_RGI": "410016", "NM_RGI": "Umuarama", "CD_CONCURB": null, "NM_CONCURB": null, "mun_code_x": "4109906", "index_right": 58178, "dist_m": 0.0, "local_id": 656516, "ano": 2022, "cod_localidade_ibge": 4109906, "NR_ZONA": "172", "nr_cep": 87530000.0, "nm_localidade": "ICARAÍMA", "nm_locvot": "ESCOLA MUNICIPAL ICARAÍMA", "ds_endereco": "RUA DOS PIONEIROS, N. 637", "ds_bairro": "CENTRO", "pred_long": -53.61512, "pred_lat": -23.39491, "pred_dist": 0.0, "tse_long": -53.61568509, "tse_lat": -23.39523487, "long": -53.61568509, "lat": -23.39523487, "ID_UNICO": "LOC_060980", "SG_UF": "PR", "CD_MUNICIPIO": "75930", "NR_LOCAL_VOTACAO": "1015", "QT_SECOES_AGREGADAS": 0, "QT_ELEITORES_TRANSFERIDOS": 8, "CIRO GOMES (PDT) (NÃO ELEITO) 1T": 14.0, "CONSTITUINTE EYMAEL (DC) (NÃO ELEITO) 1T": 0.0, "FELIPE D AVILA (NOVO) (NÃO ELEITO) 1T": 3.0, "JAIR BOLSONARO (PL) (2º TURNO) 1T": 657.0, "LULA (PT) (2º TURNO) 1T": 570.0, "LÉO PÉRICLES (UP) (NÃO ELEITO) 1T": 0.0, "PADRE KELMON (PTB) (NÃO ELEITO) 1T": 0.0, "SIMONE TEBET (MDB) (NÃO ELEITO) 1T": 36.0, "SOFIA MANZANO (PCB) (NÃO ELEITO) 1T": 0.0, "SORAYA THRONICKE (UNIÃO) (NÃO ELEITO) 1T": 1.0, "VERA (PSTU) (NÃO ELEITO) 1T": 0.0, "Total_Votos_Validos 1T": 1281.0, "Votos_Brancos 1T": 19.0, "Votos_Nulos 1T": 34.0, "Abstenções 1T": 466.0, "Eleitores_Aptos 1T": 1800.0, "JAIR BOLSONARO (PL) (NÃO ELEITO) 2T": 762.0, "LULA (PT) (ELEITO) 2T": 574.0, "Total_Votos_Validos 2T": 1336.0, "Votos_Brancos 2T": 13.0, "Votos_Nulos 2T": 32.0, "Abstenções 2T": 419.0, "Eleitores_Aptos 2T": 1800.0, "mun_code_y": "4109906", "mun_code": "4109906" }, "geometry": { "type": "Polygon", "coordinates": [ [ [ 5045164.892378439195454, 7408082.876726472750306 ], [ 5046981.7907345443964, 7406241.28370482288301 ], [ 5048651.801290112547576, 7404515.135574762709439 ], [ 5049911.489419212564826, 7403199.391076982952654 ], [ 5051268.899144541472197, 7401779.236276936717331 ], [ 5050729.900233066640794, 7401455.831375462934375 ], [ 5050061.007452393881977, 7398786.635930633172393 ], [ 5049939.902256627567112, 7398460.929796436801553 ], [ 5049861.202200419269502, 7397920.833385816775262 ], [ 5049565.598034734837711, 7397776.635350954718888 ], [ 5049499.905188044533134, 7397699.428225723095238 ], [ 5049367.498407723382115, 7397680.935487074777484 ], [ 5049321.203931134194136, 7397510.627781157381833 ], [ 5049155.098733440041542, 7397407.031354969367385 ], [ 5049094.201685877516866, 7397229.927227824926376 ], [ 5048919.699909205548465, 7397240.533968200907111 ], [ 5048808.499285173602402, 7397029.029761509969831 ], [ 5048626.101101447828114, 7396825.835177678614855 ], [ 5048630.905546437948942, 7396725.729659175500274 ], [ 5048259.806958391331136, 7396533.732694258913398 ], [ 5048142.99962486512959, 7396407.734048288315535 ], [ 5048043.005149311386049, 7396388.436392799019814 ], [ 5047796.802745412103832, 7396044.128140800632536 ], [ 5047750.500392521731555, 7396033.535856797359884 ], [ 5047703.602805882692337, 7396084.735726926475763 ], [ 5047626.399899961426854, 7396083.33663122355938 ], [ 5047167.802779302932322, 7396485.532295889221132 ], [ 5047116.800856824964285, 7396436.432490867562592 ], [ 5047060.206202742643654, 7396451.832103732042015 ], [ 5047047.406293646432459, 7396523.531757812947035 ], [ 5046751.00377931445837, 7396665.327541476115584 ], [ 5046678.097771282307804, 7396766.734644345939159 ], [ 5046680.006482431665063, 7396859.430507117882371 ], [ 5046574.897748218849301, 7396947.128422815352678 ], [ 5046496.307251129299402, 7396934.630047790706158 ], [ 5046440.799808512441814, 7397007.12901210039854 ], [ 5046139.206247290596366, 7397084.734944393858314 ], [ 5046092.498255194164813, 7397166.630070669576526 ], [ 5045928.905439426191151, 7397253.332983734086156 ], [ 5045685.304257337935269, 7397201.330609750002623 ], [ 5045614.700276442803442, 7397238.431831708177924 ], [ 5045261.901226413436234, 7397245.827349714934826 ], [ 5045241.502813837490976, 7397353.532842319458723 ], [ 5045164.599465322680771, 7397361.932596581056714 ], [ 5044953.002986192703247, 7397309.431798135861754 ], [ 5044797.706514311954379, 7397376.73655588272959 ], [ 5044483.107131959870458, 7397333.326243089511991 ], [ 5044177.403251213021576, 7397553.832678527571261 ], [ 5043778.902453351765871, 7397590.934663490392268 ], [ 5043822.800164968706667, 7397647.133247915655375 ], [ 5043700.299804724752903, 7397749.426214762032032 ], [ 5043473.304528581909835, 7397811.226377347484231 ], [ 5043330.49919324927032, 7397800.030954618006945 ], [ 5043239.198936988599598, 7397859.033527256920934 ], [ 5043181.103007172234356, 7397988.632271684706211 ], [ 5043137.299726453609765, 7397939.73024913854897 ], [ 5043016.900992276147008, 7397970.629994479008019 ], [ 5042937.202430280856788, 7397915.331366539001465 ], [ 5042946.706726752221584, 7398029.136819267645478 ], [ 5042868.902308514341712, 7398059.334594924002886 ], [ 5042787.102768513374031, 7398411.029995027929544 ], [ 5042737.398285540752113, 7398418.82803515996784 ], [ 5042692.397532002069056, 7398312.834393781609833 ], [ 5042650.805440481752157, 7398370.835570996627212 ], [ 5042516.00022204965353, 7398915.628034135326743 ], [ 5042362.20042528770864, 7399054.737121168524027 ], [ 5042318.206030263565481, 7399176.937243799678981 ], [ 5042196.498309057205915, 7399143.928677409887314 ], [ 5042147.098224301822484, 7399173.331900133751333 ], [ 5042103.603608347475529, 7399481.131471432745457 ], [ 5041691.906373932957649, 7399768.428751587867737 ], [ 5041589.000724140554667, 7399934.23136237822473 ], [ 5041391.801538525149226, 7399982.734208837151527 ], [ 5041322.901535950601101, 7400107.637179059907794 ], [ 5041032.601700190454721, 7400117.832491286098957 ], [ 5040961.203409576788545, 7400285.834947489202023 ], [ 5040849.406383356079459, 7400351.43583058565855 ], [ 5040786.206292911432683, 7400666.229603933170438 ], [ 5040447.599587412551045, 7400794.732460984960198 ], [ 5040316.905915953218937, 7400773.528220327571034 ], [ 5040050.496575079858303, 7400859.32721833884716 ], [ 5039892.30558149702847, 7401026.331199398264289 ], [ 5039798.099095737561584, 7401356.034154016524553 ], [ 5039587.002244038507342, 7401294.427762342616916 ], [ 5039385.103880486451089, 7401542.537732347846031 ], [ 5039246.996234546415508, 7401569.931282391771674 ], [ 5039167.302792119793594, 7401660.131130019202828 ], [ 5038953.902733941562474, 7401701.334074499085546 ], [ 5038536.502000842243433, 7401929.634399522095919 ], [ 5038405.596784950233996, 7402080.335801661014557 ], [ 5038544.504424041137099, 7402230.828898876905441 ], [ 5038194.899373773485422, 7402374.43637109734118 ], [ 5037989.996789585798979, 7402601.634921373799443 ], [ 5037949.405313374474645, 7402750.536551712080836 ], [ 5037757.904929879121482, 7402766.036928812973201 ], [ 5037497.298370170406997, 7402707.728319814428687 ], [ 5037325.103108750656247, 7402754.129235656931996 ], [ 5037293.100606477819383, 7402884.633177747949958 ], [ 5037226.702950499951839, 7402875.332161894068122 ], [ 5037193.904003563337028, 7402970.131126111373305 ], [ 5036944.504297498613596, 7403160.136612198315561 ], [ 5036679.295885813422501, 7403658.236086837947369 ], [ 5036458.599922019988298, 7403754.630557694472373 ], [ 5036149.896704007871449, 7403889.636296296492219 ], [ 5035932.79625765606761, 7404072.135151942260563 ], [ 5035878.499351882375777, 7404233.73400117829442 ], [ 5035739.602194767445326, 7404386.534289955161512 ], [ 5035382.402663585729897, 7404463.928160473704338 ], [ 5035126.505422361195087, 7404691.827919217757881 ], [ 5034648.297611590474844, 7404815.631751902401447 ], [ 5034335.303580964915454, 7404967.531703243032098 ], [ 5034166.301648148335516, 7405049.538652347400784 ], [ 5033572.299435742199421, 7405532.335293422453105 ], [ 5033541.60231792461127, 7405688.133940401487052 ], [ 5033428.698397319763899, 7405744.531172940507531 ], [ 5033409.902799639850855, 7405990.033795090392232 ], [ 5033332.895067003555596, 7406110.529518608003855 ], [ 5033246.298752370290458, 7406067.133409278467298 ], [ 5033213.701167509891093, 7406152.630095974542201 ], [ 5033081.699267057701945, 7406156.737317563965917 ], [ 5032921.20119509100914, 7406322.029175121337175 ], [ 5032804.201688898727298, 7406258.829548699781299 ], [ 5032730.901306821033359, 7406275.638791400007904 ], [ 5032567.897169851697981, 7406382.134055733680725 ], [ 5032457.0980245154351, 7406553.734244859777391 ], [ 5032349.402847654186189, 7406627.732129000127316 ], [ 5032136.304646973498166, 7406666.330835512839258 ], [ 5032127.201631496660411, 7406756.137255633249879 ], [ 5032018.401641841977835, 7406840.434990553185344 ], [ 5031713.101998190395534, 7407076.930814007297158 ], [ 5031438.100707626901567, 7407121.134716879576445 ], [ 5031248.403296210803092, 7407240.829289995133877 ], [ 5031168.495959009975195, 7407383.735475556924939 ], [ 5030860.000699780881405, 7407506.832358504645526 ], [ 5030774.39576842263341, 7407620.332600995898247 ], [ 5030755.701588205061853, 7407819.536278476007283 ], [ 5030879.499651545658708, 7407989.53562734182924 ], [ 5030785.897149112075567, 7408121.138334549963474 ], [ 5030764.89725892432034, 7408254.028700673952699 ], [ 5030655.896891517564654, 7408378.829290492460132 ], [ 5030607.801682776771486, 7408634.433007147163153 ], [ 5030456.797881496138871, 7408574.13171177264303 ], [ 5030367.504395451396704, 7408682.730662897229195 ], [ 5030396.203760120086372, 7408747.737947050482035 ], [ 5030385.698056808672845, 7408792.636102577671409 ], [ 5030475.104008291848004, 7408846.830381140112877 ], [ 5030630.49603676982224, 7408902.636951190419495 ], [ 5030908.004537678323686, 7408916.034205194562674 ], [ 5031218.099430788308382, 7408892.532350962981582 ], [ 5031330.6016367059201, 7408953.838145352900028 ], [ 5031522.102732388302684, 7409117.72953562811017 ], [ 5031591.198241219855845, 7409125.035126162692904 ], [ 5031683.901822992600501, 7409217.335735151544213 ], [ 5031811.697140079922974, 7409244.936539687216282 ], [ 5031960.596627810038626, 7409342.430070653557777 ], [ 5031978.49616236705333, 7409480.531602224335074 ], [ 5032127.89684475120157, 7409525.038852471858263 ], [ 5032215.303180812858045, 7409575.9377117510885 ], [ 5032369.495358188636601, 7409539.638811357319355 ], [ 5032432.398834944702685, 7409546.632907254621387 ], [ 5032542.504709508270025, 7409642.932303110137582 ], [ 5032653.89905951730907, 7410066.43233273550868 ], [ 5032685.399012945592403, 7410088.833996711298823 ], [ 5032788.297661244869232, 7410062.534559025429189 ], [ 5032830.597971987910569, 7410087.935403509996831 ], [ 5032907.70424404554069, 7410265.730073925107718 ], [ 5033059.398123723454773, 7410439.237303325906396 ], [ 5033062.097572828643024, 7410521.730036828666925 ], [ 5033101.895043546333909, 7410578.832802820950747 ], [ 5033097.900602456182241, 7410643.531710250303149 ], [ 5033036.100259501487017, 7410720.531831882894039 ], [ 5033036.904196447692811, 7410791.931493614800274 ], [ 5033086.002716363407671, 7410853.033728800714016 ], [ 5033112.598176704719663, 7410970.835713719949126 ], [ 5033172.698405537754297, 7411055.635908939875662 ], [ 5033206.002976945601404, 7411147.329584715887904 ], [ 5033253.003782462328672, 7411505.83672659099102 ], [ 5033298.701696636155248, 7411589.638873582705855 ], [ 5033438.399857734329998, 7411617.730563167482615 ], [ 5033631.603543097153306, 7411592.937064642086625 ], [ 5033739.395489195361733, 7411628.430372670292854 ], [ 5033883.796657490544021, 7411691.936484105885029 ], [ 5034065.196833457797766, 7411810.033780509606004 ], [ 5034230.497151417657733, 7411993.133029158227146 ], [ 5034298.044504715129733, 7412216.339604092761874 ], [ 5034363.081409156322479, 7412480.064544447697699 ], [ 5034335.754379760473967, 7412813.290383959189057 ], [ 5034288.879907734692097, 7413419.685152025893331 ], [ 5034278.262688836082816, 7413628.730617706663907 ], [ 5034308.681868245825171, 7413643.688895830884576 ], [ 5035451.325953741557896, 7413731.617006352171302 ], [ 5036295.068106893450022, 7413792.274281533434987 ], [ 5036406.797182131558657, 7413765.164110383950174 ], [ 5036522.265609844587743, 7413695.880752569064498 ], [ 5037804.813857783563435, 7411742.867617316544056 ], [ 5037886.740273085422814, 7411625.492992673069239 ], [ 5037750.227453458122909, 7411647.195969697088003 ], [ 5037682.951233084313571, 7411553.627607399597764 ], [ 5037753.570076802745461, 7411543.346444603987038 ], [ 5037709.670230240561068, 7411249.135552713647485 ], [ 5037830.663347957655787, 7411231.725576484575868 ], [ 5037876.493976883590221, 7411226.026040995493531 ], [ 5037872.813766461797059, 7411198.03739926032722 ], [ 5037846.756670670583844, 7411018.220958169549704 ], [ 5038194.440646735019982, 7410963.332899509929121 ], [ 5038222.999724864959717, 7411176.124266812577844 ], [ 5038546.482070062309504, 7411125.643221912905574 ], [ 5038569.653224532492459, 7411121.063953400589526 ], [ 5038582.454074576497078, 7411216.022496507503092 ], [ 5038658.988711436279118, 7411205.566426631063223 ], [ 5038711.242283486761153, 7411614.204022587276995 ], [ 5038634.522864185273647, 7411625.15919192507863 ], [ 5038649.216858115978539, 7411720.588910827413201 ], [ 5038685.990731160156429, 7411995.135244462639093 ], [ 5038861.420053226873279, 7411968.724974896758795 ], [ 5038920.603570234961808, 7412335.213317373767495 ], [ 5038920.624424453824759, 7412335.368315078318119 ], [ 5038814.362500072456896, 7412351.984146786853671 ], [ 5038775.457960695959628, 7412310.344041310250759 ], [ 5038729.82389663066715, 7412294.726052517071366 ], [ 5038886.093851070851088, 7413360.257467522285879 ], [ 5038888.061537445522845, 7413373.71970281470567 ], [ 5038888.446657204069197, 7413376.321355530060828 ], [ 5038918.463614778593183, 7413431.009010354056954 ], [ 5039038.297679293900728, 7413537.335497055202723 ], [ 5040207.47650789655745, 7414651.484417039901018 ], [ 5040365.995574058033526, 7414861.613366289064288 ], [ 5040139.001720102503896, 7415045.537195762619376 ], [ 5040127.904330754652619, 7415119.438756629824638 ], [ 5039986.299801431596279, 7415246.434089351445436 ], [ 5039921.805425749160349, 7415345.930626774206758 ], [ 5039864.097101090475917, 7415380.131517330184579 ], [ 5039801.396796182729304, 7415371.839139368385077 ], [ 5039687.900684458203614, 7415287.729556520469487 ], [ 5039626.404065447859466, 7415289.633436687290668 ], [ 5039551.498057587072253, 7415324.133947629481554 ], [ 5039426.599406063556671, 7415426.337127482518554 ], [ 5039446.90226724371314, 7415574.335670585744083 ], [ 5039399.398578841239214, 7415709.036657933145761 ], [ 5039350.601782856509089, 7415730.940447033382952 ], [ 5039328.601071198470891, 7415774.535455673001707 ], [ 5039353.605042666196823, 7416048.534631429240108 ], [ 5039306.00136139895767, 7416127.339190112426877 ], [ 5039295.599469769746065, 7416237.830389890819788 ], [ 5039246.405383059754968, 7416338.036135632544756 ], [ 5039254.697138221934438, 7416468.534709822386503 ], [ 5039225.298807905055583, 7416595.733256733044982 ], [ 5039297.39986211899668, 7416657.329977191984653 ], [ 5039297.397890489548445, 7416775.834006114862859 ], [ 5039339.602443560026586, 7416815.337536133825779 ], [ 5039349.999029323458672, 7416864.140164855867624 ], [ 5039403.998400989919901, 7416882.137415191158652 ], [ 5039392.204289042390883, 7416942.140735459513962 ], [ 5039414.303622634150088, 7417000.137721952050924 ], [ 5039378.902851173654199, 7417108.13713666331023 ], [ 5039389.505079242400825, 7417226.335990612395108 ], [ 5039305.106061204336584, 7417294.340419224463403 ], [ 5039271.497169516049325, 7417369.131501214578748 ], [ 5039226.602231768891215, 7417395.3326062168926 ], [ 5039211.500061866827309, 7417450.039514453150332 ], [ 5039168.80131902359426, 7417487.032864494249225 ], [ 5039144.898399244993925, 7417582.032173250801861 ], [ 5039075.905782420188189, 7417587.530701706185937 ], [ 5039058.505168203264475, 7417620.237223202362657 ], [ 5038977.405031640082598, 7417657.032343576662242 ], [ 5038938.801325900480151, 7417754.440089114010334 ], [ 5038855.400153717957437, 7417822.738224987871945 ], [ 5038806.003390234895051, 7417825.537022694945335 ], [ 5038699.903987661935389, 7417911.63613891042769 ], [ 5038529.20535674598068, 7418163.941012544557452 ], [ 5038439.704071069136262, 7418196.535352142527699 ], [ 5038383.204763000831008, 7418312.14010286424309 ], [ 5038217.499100306071341, 7418529.630160443484783 ], [ 5038142.403122560121119, 7418533.833152560517192 ], [ 5038130.703507452271879, 7418498.135024018585682 ], [ 5038098.20027297642082, 7418485.438093295320868 ], [ 5038062.602305235341191, 7418498.133193729445338 ], [ 5037971.297644196078181, 7418594.333588292822242 ], [ 5038005.202010730281472, 7418682.636917581781745 ], [ 5037999.199451101012528, 7418746.633191809058189 ], [ 5037973.600294763222337, 7418778.240799751132727 ], [ 5037899.997146948240697, 7418778.83929998986423 ], [ 5037882.402535419911146, 7418825.233644471503794 ], [ 5037831.003873193636537, 7418810.435920843854547 ], [ 5037680.998169106431305, 7418828.937559559009969 ], [ 5037657.397654889151454, 7418854.536812752485275 ], [ 5037599.506058989092708, 7418860.332335846498609 ], [ 5037558.09643716737628, 7418860.437506221234798 ], [ 5037528.406129037961364, 7418835.937209338881075 ], [ 5037446.703457459807396, 7418869.136912014335394 ], [ 5037365.302575989626348, 7418945.040942145511508 ], [ 5037380.303908922709525, 7419085.933563033118844 ], [ 5037226.703075190074742, 7419140.234295415692031 ], [ 5037180.502409680746496, 7419301.636899335309863 ], [ 5037043.002195819281042, 7419354.034591946750879 ], [ 5036789.304794810712337, 7419644.734739048406482 ], [ 5036695.749114531092346, 7419705.547628381289542 ], [ 5044164.562471015378833, 7419943.729824465699494 ], [ 5045835.097287381999195, 7419973.804288788698614 ], [ 5046100.774136430583894, 7419072.344011059962213 ], [ 5046257.198297156020999, 7418515.116025836206973 ], [ 5046227.32262469176203, 7418406.262510169297457 ], [ 5044515.211364285089076, 7416084.812041276134551 ], [ 5044325.374306750483811, 7415834.473528770729899 ], [ 5045867.177519151940942, 7413232.874316111207008 ], [ 5046293.050428485497832, 7412486.443671748042107 ], [ 5044355.57726320065558, 7410835.888123117387295 ], [ 5043527.389920169487596, 7410095.747645273804665 ], [ 5043320.986586086452007, 7410023.54679718054831 ], [ 5043178.594388416036963, 7410089.109399110078812 ], [ 5043424.380505250766873, 7409797.140615904703736 ], [ 5045164.892378439195454, 7408082.876726472750306 ] ], [ [ 5039191.535263722762465, 7412681.625981993973255 ], [ 5039040.16732978913933, 7412702.017933614552021 ], [ 5038986.064895207062364, 7412325.693029149435461 ], [ 5039352.701063784770668, 7412272.034978244453669 ], [ 5039339.769945663399994, 7412306.734837772324681 ], [ 5039191.535263722762465, 7412681.625981993973255 ] ] ] } },
{ "type": "Feature", "properties": { "lv_id": "LOC_060982", "id": 383790.0, "CD_SETOR": "410990610000002", "SITUACAO": "Rural", "CD_SIT": "8", "CD_TIPO": "0", "AREA_KM2": 35.430009802000576, "CD_REGIAO": "4", "NM_REGIAO": "Sul", "CD_UF": "41", "NM_UF": "Paraná", "CD_MUN": "4109906", "NM_MUN": "Icaraíma", "CD_DIST": "410990610", "NM_DIST": "Porto Camargo", "CD_SUBDIST": "41099061000", "NM_SUBDIST": null, "CD_BAIRRO": null, "NM_BAIRRO": null, "CD_NU": "4109906001", "NM_NU": "Porto Cobrinco", "CD_FCU": null, "NM_FCU": null, "CD_AGLOM": null, "NM_AGLOM": null, "CD_RGINT": "4104", "NM_RGINT": "Maringá", "CD_RGI": "410016", "NM_RGI": "Umuarama", "CD_CONCURB": null, "NM_CONCURB": null, "mun_code_x": "4109906", "index_right": 58177, "dist_m": 548.49661810136354, "local_id": 656515, "ano": 2022, "cod_localidade_ibge": 4109906, "NR_ZONA": "172", "nr_cep": 87532000.0, "nm_localidade": "ICARAÍMA", "nm_locvot": "ESCOLA ESTADUAL DE PORTO CAMARGO", "ds_endereco": "AVENIDA PRINCIPAL S/N", "ds_bairro": "PORTO CAMARGO", "pred_long": -53.749669, "pred_lat": -23.366349, "pred_dist": 0.0, "tse_long": -53.74966866, "tse_lat": -23.36642462, "long": -53.74966866, "lat": -23.36642462, "ID_UNICO": "LOC_060982", "SG_UF": "PR", "CD_MUNICIPIO": "75930", "NR_LOCAL_VOTACAO": "1058", "QT_SECOES_AGREGADAS": 0, "QT_ELEITORES_TRANSFERIDOS": 8, "CIRO GOMES (PDT) (NÃO ELEITO) 1T": 3.0, "CONSTITUINTE EYMAEL (DC) (NÃO ELEITO) 1T": 0.0, "FELIPE D AVILA (NOVO) (NÃO ELEITO) 1T": 0.0, "JAIR BOLSONARO (PL) (2º TURNO) 1T": 272.0, "LULA (PT) (2º TURNO) 1T": 124.0, "LÉO PÉRICLES (UP) (NÃO ELEITO) 1T": 0.0, "PADRE KELMON (PTB) (NÃO ELEITO) 1T": 0.0, "SIMONE TEBET (MDB) (NÃO ELEITO) 1T": 8.0, "SOFIA MANZANO (PCB) (NÃO ELEITO) 1T": 0.0, "SORAYA THRONICKE (UNIÃO) (NÃO ELEITO) 1T": 3.0, "VERA (PSTU) (NÃO ELEITO) 1T": 0.0, "Total_Votos_Validos 1T": 410.0, "Votos_Brancos 1T": 7.0, "Votos_Nulos 1T": 12.0, "Abstenções 1T": 156.0, "Eleitores_Aptos 1T": 585.0, "JAIR BOLSONARO (PL) (NÃO ELEITO) 2T": 278.0, "LULA (PT) (ELEITO) 2T": 132.0, "Total_Votos_Validos 2T": 410.0, "Votos_Brancos 2T": 6.0, "Votos_Nulos 2T": 5.0, "Abstenções 2T": 164.0, "Eleitores_Aptos 2T": 585.0, "mun_code_y": "4109906", "mun_code": "4109906" }, "geometry": { "type": "MultiPolygon", "coordinates": [ [ [ [ 5034335.754379760473967, 7412813.290383959189057 ], [ 5034363.081409156322479, 7412480.064544447697699 ], [ 5034298.044504715129733, 7412216.339604092761874 ], [ 5034230.497151417657733, 7411993.133029158227146 ], [ 5034065.196833457797766, 7411810.033780509606004 ], [ 5033883.796657490544021, 7411691.936484105885029 ], [ 5033739.395489195361733, 7411628.430372670292854 ], [ 5033631.603543097153306, 7411592.937064642086625 ], [ 5033438.399857734329998, 7411617.730563167482615 ], [ 5033298.701696636155248, 7411589.638873582705855 ], [ 5033253.003782462328672, 7411505.83672659099102 ], [ 5033206.002976945601404, 7411147.329584715887904 ], [ 5033172.698405537754297, 7411055.635908939875662 ], [ 5033112.598176704719663, 7410970.835713719949126 ], [ 5033086.002716363407671, 7410853.033728800714016 ], [ 5033036.904196447692811, 7410791.931493614800274 ], [ 5033036.100259501487017, 7410720.531831882894039 ], [ 5033097.900602456182241, 7410643.531710250303149 ], [ 5033101.895043546333909, 7410578.832802820950747 ], [ 5033062.097572828643024, 7410521.730036828666925 ], [ 5033059.398123723454773, 7410439.237303325906396 ], [ 5032907.70424404554069, 7410265.730073925107718 ], [ 5032830.597971987910569, 7410087.935403509996831 ], [ 5032788.297661244869232, 7410062.534559025429189 ], [ 5032685.399012945592403, 7410088.833996711298823 ], [ 5032653.89905951730907, 7410066.43233273550868 ], [ 5032542.504709508270025, 7409642.932303110137582 ], [ 5032432.398834944702685, 7409546.632907254621387 ], [ 5032369.495358188636601, 7409539.638811357319355 ], [ 5032215.303180812858045, 7409575.9377117510885 ], [ 5032127.89684475120157, 7409525.038852471858263 ], [ 5031978.49616236705333, 7409480.531602224335074 ], [ 5031960.596627810038626, 7409342.430070653557777 ], [ 5031811.697140079922974, 7409244.936539687216282 ], [ 5031683.901822992600501, 7409217.335735151544213 ], [ 5031591.198241219855845, 7409125.035126162692904 ], [ 5031522.102732388302684, 7409117.72953562811017 ], [ 5031330.6016367059201, 7408953.838145352900028 ], [ 5031218.099430788308382, 7408892.532350962981582 ], [ 5030908.004537678323686, 7408916.034205194562674 ], [ 5030630.49603676982224, 7408902.636951190419495 ], [ 5030475.104008291848004, 7408846.830381140112877 ], [ 5030385.698056808672845, 7408792.636102577671409 ], [ 5030197.098541288636625, 7408949.139079458080232 ], [ 5030151.796816130168736, 7408941.534640392288566 ], [ 5030164.697247298434377, 7408872.83129096776247 ], [ 5030029.195067608729005, 7408921.938396208919585 ], [ 5029973.903924992308021, 7409072.938654709607363 ], [ 5030025.403537987731397, 7409313.230670860037208 ], [ 5029979.600457589142025, 7409406.33289160579443 ], [ 5029863.703395846299827, 7409368.336874540895224 ], [ 5029674.89486141782254, 7409437.638839205726981 ], [ 5029611.402024543844163, 7409400.930687172338367 ], [ 5029547.804267232306302, 7409719.534658268094063 ], [ 5029437.798906890675426, 7409797.036998721770942 ], [ 5029297.998749929480255, 7409787.336885676719248 ], [ 5029310.294923657551408, 7409952.032685957849026 ], [ 5029212.69475741032511, 7409983.037425294518471 ], [ 5029186.097477715462446, 7410090.33046337403357 ], [ 5029034.904166337102652, 7410187.436622308567166 ], [ 5029032.696058950386941, 7410358.529293680563569 ], [ 5028940.799612419679761, 7410396.531487304717302 ], [ 5028959.901096654124558, 7410525.530063831247389 ], [ 5028760.997237977571785, 7410664.037067334167659 ], [ 5028319.197345602326095, 7410761.633269062265754 ], [ 5028092.10047008190304, 7410925.536109345033765 ], [ 5028061.597484724596143, 7410999.930219051428139 ], [ 5028090.894572786055505, 7411151.03837482444942 ], [ 5028034.703652491793036, 7411311.534757677465677 ], [ 5028092.001097656786442, 7411431.435389248654246 ], [ 5027989.298795730806887, 7411516.731615038588643 ], [ 5027772.597038343548775, 7412177.038806170225143 ], [ 5027670.496215364895761, 7412297.937882762402296 ], [ 5027395.803895300254226, 7412193.137640969827771 ], [ 5027358.802822456695139, 7412085.335097652859986 ], [ 5027126.401369882747531, 7412044.332409972324967 ], [ 5026936.303624230436981, 7412138.829893000423908 ], [ 5026916.698283387348056, 7412346.932961146347225 ], [ 5026972.701538624241948, 7412533.434458997100592 ], [ 5027105.694626974873245, 7412664.131238101050258 ], [ 5026843.602515768259764, 7412946.138345311395824 ], [ 5026748.796817730180919, 7413297.533681424334645 ], [ 5026496.701674907468259, 7413389.435054341331124 ], [ 5026391.40292058698833, 7413579.23956798389554 ], [ 5026121.745876491069794, 7413855.476641822606325 ], [ 5026096.294049728661776, 7413881.536918450146914 ], [ 5025673.996208662167192, 7414018.334105458110571 ], [ 5025453.996935362927616, 7413998.536298805847764 ], [ 5025356.593750805594027, 7414105.035265449434519 ], [ 5025173.203441036865115, 7414192.132976365275681 ], [ 5025267.397347588092089, 7414389.838527778163552 ], [ 5025030.899370608851314, 7414700.430496387183666 ], [ 5024982.859971248544753, 7414763.517617397941649 ], [ 5024977.697943085804582, 7414770.304259276017547 ], [ 5025006.09507960267365, 7414796.935928703285754 ], [ 5025009.682477790862322, 7414802.179413426667452 ], [ 5025095.944476298056543, 7414928.077879913151264 ], [ 5025139.419158055447042, 7414988.384946886450052 ], [ 5025203.188936217688024, 7415084.108400313183665 ], [ 5025293.968839704059064, 7415189.376317668706179 ], [ 5025380.820891249924898, 7415257.272250493988395 ], [ 5025461.049166497774422, 7415296.107177503407001 ], [ 5025534.366011366248131, 7415340.889827427454293 ], [ 5025612.481116445735097, 7415351.674574227072299 ], [ 5025699.377161682583392, 7415384.693345529027283 ], [ 5025858.813026173040271, 7415473.081732200458646 ], [ 5025956.659881219267845, 7415546.127090457826853 ], [ 5026041.334379793144763, 7415611.309615653008223 ], [ 5026161.522882868535817, 7415683.395007012411952 ], [ 5026251.390386088751256, 7415769.919773567467928 ], [ 5026320.758901494555175, 7415805.480075157247484 ], [ 5026374.280755539424717, 7415830.624605286866426 ], [ 5026478.143307533115149, 7415902.791946370154619 ], [ 5026560.731691238470376, 7415965.461226657032967 ], [ 5026645.720485627651215, 7416054.705759762786329 ], [ 5026696.663088659755886, 7416111.62800260912627 ], [ 5026766.819784847088158, 7416163.110675798729062 ], [ 5026808.542777153663337, 7416215.940399786457419 ], [ 5027001.021133105270565, 7416342.908388232812285 ], [ 5027198.144100261852145, 7416458.181202825158834 ], [ 5027445.777736819349229, 7416520.253003854304552 ], [ 5027574.442499300464988, 7416529.493752960115671 ], [ 5027675.54890707693994, 7416494.695357165299356 ], [ 5027845.65861255582422, 7416537.003623100928962 ], [ 5028033.82649059407413, 7416605.645329819060862 ], [ 5028226.202266713604331, 7416686.780322533100843 ], [ 5028383.95193282328546, 7416771.180036704987288 ], [ 5028614.328791255131364, 7416814.316120859235525 ], [ 5028915.98207457922399, 7416978.414787444286048 ], [ 5029099.736115797422826, 7417131.897419797256589 ], [ 5029168.944596733897924, 7417390.639713047072291 ], [ 5029142.57340529654175, 7417780.864627686329186 ], [ 5029061.67029894888401, 7418191.054036888293922 ], [ 5029021.225190748460591, 7418556.719449434429407 ], [ 5029064.274318237788975, 7418881.475872742012143 ], [ 5029159.535907307639718, 7419309.935236000455916 ], [ 5029349.334637311287224, 7419772.749598322436213 ], [ 5029461.638124698773026, 7419948.629958878271282 ], [ 5029568.867855721153319, 7420076.77531505189836 ], [ 5029756.774244841188192, 7420248.537402745336294 ], [ 5029979.516253806650639, 7420503.15615978371352 ], [ 5030262.696434988640249, 7420718.088338433764875 ], [ 5030612.343529175035655, 7421078.22607383877039 ], [ 5030917.276639430783689, 7421384.602437647990882 ], [ 5030815.200876065529883, 7421565.835782451555133 ], [ 5030876.003795178607106, 7421546.937075044959784 ], [ 5031453.800025057047606, 7421951.431535297073424 ], [ 5032070.000188295729458, 7422517.238560643978417 ], [ 5033173.203097242861986, 7423331.535375345498323 ], [ 5033402.701347146183252, 7423419.032986347563565 ], [ 5034080.197775729931891, 7423554.034660446457565 ], [ 5034422.39847488515079, 7423581.939434364438057 ], [ 5035191.902807199396193, 7423517.836012778803706 ], [ 5035652.397411555983126, 7423587.538353150710464 ], [ 5035672.699963551014662, 7423432.439356150105596 ], [ 5035598.701004519127309, 7423354.538388790562749 ], [ 5035605.097411842085421, 7423295.936208100058138 ], [ 5035633.298362676985562, 7423294.34009775519371 ], [ 5035662.20218117441982, 7423368.041261728852987 ], [ 5035707.69810903351754, 7423373.037331679835916 ], [ 5035752.198962562717497, 7423351.43347760476172 ], [ 5035785.1001540068537, 7423279.632296327501535 ], [ 5035784.305596691556275, 7423192.041909416206181 ], [ 5035803.604421614669263, 7423151.637946903705597 ], [ 5036046.496534924022853, 7422856.232205061241984 ], [ 5036025.900425864383578, 7422471.934559632092714 ], [ 5036064.400020089000463, 7422238.733666255138814 ], [ 5035995.302129931747913, 7421915.532845689915121 ], [ 5036098.702144879847765, 7421786.334607511758804 ], [ 5036220.004733796231449, 7421507.933166150003672 ], [ 5036273.301713731139898, 7421121.039973289705813 ], [ 5036246.500369264744222, 7420852.734964506700635 ], [ 5036286.001959726214409, 7420284.631813062354922 ], [ 5036251.598115150816739, 7420252.731319958344102 ], [ 5036253.301565846428275, 7420196.532292579300702 ], [ 5036291.503230411559343, 7420175.540055966004729 ], [ 5036418.002352994866669, 7420195.541085605509579 ], [ 5036427.701865163631737, 7420055.539493037387729 ], [ 5036393.005639391951263, 7420029.432301864027977 ], [ 5036432.602302511222661, 7419690.338175958022475 ], [ 5036469.803514969535172, 7419645.835531050339341 ], [ 5036499.604615128599107, 7419541.135873286053538 ], [ 5036474.398987641558051, 7419431.333293162286282 ], [ 5036331.499902836978436, 7419219.131982831284404 ], [ 5036329.999786680564284, 7419091.340376083739102 ], [ 5036261.103758217766881, 7418980.935808122158051 ], [ 5036167.798981866799295, 7418574.531605938449502 ], [ 5036057.001399649307132, 7418315.036037374287844 ], [ 5036026.299729263409972, 7418180.338155586272478 ], [ 5036021.304145778529346, 7417993.535788313485682 ], [ 5035965.09795786626637, 7417808.131639117375016 ], [ 5035906.000506919808686, 7417703.338776975870132 ], [ 5035816.603856491856277, 7417227.238060220144689 ], [ 5035720.800094058737159, 7417097.736179327592254 ], [ 5035715.597784241661429, 7416980.330591857433319 ], [ 5035675.502475470304489, 7416861.835273064672947 ], [ 5035668.598122909665108, 7416683.033405525609851 ], [ 5035731.505688784644008, 7416547.333325523883104 ], [ 5035733.499927797354758, 7416433.232803143560886 ], [ 5035629.405839146114886, 7416247.234089348465204 ], [ 5035482.598657319322228, 7416110.333520149812102 ], [ 5035447.20570844784379, 7416045.03103999234736 ], [ 5035420.005090638063848, 7415715.93302555475384 ], [ 5035374.299829515628517, 7415630.730955887585878 ], [ 5035351.303268422372639, 7415609.0898562297225 ], [ 5035299.100014774128795, 7415559.930430923588574 ], [ 5035265.880776635371149, 7415539.122102528810501 ], [ 5035084.896915634162724, 7415425.734099155291915 ], [ 5035034.641401287168264, 7415365.117464691400528 ], [ 5035020.900916088372469, 7415348.537379856221378 ], [ 5034949.696841081604362, 7415197.730114962905645 ], [ 5034935.173989301547408, 7415096.659785866737366 ], [ 5034922.200426609255373, 7415006.43938060477376 ], [ 5034711.802115565165877, 7414672.178974652662873 ], [ 5034723.25838711950928, 7414639.546909340657294 ], [ 5034507.026358257047832, 7414145.472291260957718 ], [ 5034308.681868245825171, 7413643.688895830884576 ], [ 5034278.262688836082816, 7413628.730617706663907 ], [ 5034288.879907734692097, 7413419.685152025893331 ], [ 5034335.754379760473967, 7412813.290383959189057 ] ] ], [ [ [ 5024531.527746460400522, 7415582.318660178221762 ], [ 5024637.844328981824219, 7415808.149362547323108 ], [ 5024703.582090393640101, 7415955.525410360656679 ], [ 5024784.672707402147353, 7416068.387864205986261 ], [ 5024883.003438083454967, 7416119.942879396490753 ], [ 5024996.68549104500562, 7416142.731660322286189 ], [ 5025042.904078128747642, 7416136.905488085001707 ], [ 5025054.283251217566431, 7416033.456754830665886 ], [ 5025003.90597615763545, 7415853.506817318499088 ], [ 5024930.43020951282233, 7415690.828385194763541 ], [ 5024882.145532570779324, 7415610.460927566513419 ], [ 5024808.771979468874633, 7415507.154818456619978 ], [ 5024752.766270813532174, 7415419.147066940553486 ], [ 5024675.556480744853616, 7415319.678673515096307 ], [ 5024620.791380592621863, 7415238.966777801513672 ], [ 5024460.826923814602196, 7415449.015294490382075 ], [ 5024531.527746460400522, 7415582.318660178221762 ] ] ], [ [ [ 5025275.50972396787256, 7415862.613546103239059 ], [ 5025312.354903684929013, 7416002.372432632371783 ], [ 5025430.115741603076458, 7416155.404030424542725 ], [ 5025569.036110578104854, 7416291.154317812994123 ], [ 5025698.276954528875649, 7416392.454728236421943 ], [ 5025858.352397850714624, 7416507.10085966065526 ], [ 5026043.638194967992604, 7416709.802523332647979 ], [ 5026122.753032798878849, 7416784.374894386157393 ], [ 5026230.837928389199078, 7416904.856727488338947 ], [ 5026329.271346577443182, 7417013.859113959595561 ], [ 5026393.01983003411442, 7417111.438030270859599 ], [ 5026497.271179736591876, 7417235.756714700721204 ], [ 5026555.226894397288561, 7417329.52443521283567 ], [ 5026595.784551203250885, 7417386.90863492898643 ], [ 5026655.584418971091509, 7417430.857301022857428 ], [ 5026696.135840469971299, 7417484.420363346114755 ], [ 5026732.776873936876655, 7417507.345864779315889 ], [ 5026804.032564540393651, 7417495.721027927473187 ], [ 5026879.007624010555446, 7417409.388209557160735 ], [ 5026928.9905005088076, 7417351.829084942117333 ], [ 5026978.934550228528678, 7417273.205197835341096 ], [ 5027019.332689062692225, 7417242.475820110179484 ], [ 5027034.690749684348702, 7417213.719185611233115 ], [ 5027038.458371651358902, 7417165.823975071310997 ], [ 5027053.784760768525302, 7417119.823590708896518 ], [ 5027076.835708577185869, 7417087.220875072292984 ], [ 5027099.88624385651201, 7417048.870193107053638 ], [ 5027095.939812396652997, 7416999.073117582127452 ], [ 5027062.965260434895754, 7416872.712295134551823 ], [ 5026997.283932087942958, 7416771.307778187096119 ], [ 5026854.497863629832864, 7416639.398691824637353 ], [ 5026761.844087513163686, 7416538.053184018470347 ], [ 5026684.653036428615451, 7416459.659838608466089 ], [ 5026532.295447370037436, 7416358.409493811428547 ], [ 5026379.96731760725379, 7416272.49642828758806 ], [ 5026245.928856709040701, 7416183.669832376763225 ], [ 5026132.161553700454533, 7416113.954893000423908 ], [ 5026084.896003996022046, 7416076.693458875641227 ], [ 5025951.830777652561665, 7415986.898971764370799 ], [ 5025880.48275429289788, 7415942.015253999270499 ], [ 5025872.749543372541666, 7415928.61695730406791 ], [ 5025737.808007964864373, 7415863.73154169972986 ], [ 5025677.069319067522883, 7415827.444724617525935 ], [ 5025623.074196276254952, 7415794.025470305234194 ], [ 5025562.349332452751696, 7415765.402068415656686 ], [ 5025524.769803140312433, 7415752.055194169282913 ], [ 5025451.491691125556827, 7415707.1727539524436 ], [ 5025411.986487767659128, 7415697.660865105688572 ], [ 5025298.241613979451358, 7415636.566946245729923 ], [ 5025289.559435968287289, 7415629.881428109481931 ], [ 5025192.2133261654526, 7415585.03888612985611 ], [ 5025246.401432444341481, 7415732.421217765659094 ], [ 5025275.50972396787256, 7415862.613546103239059 ] ] ], [ [ [ 5027439.903969186358154, 7417057.811841757968068 ], [ 5027423.253238703124225, 7417425.632663700729609 ], [ 5027429.398738378658891, 7417623.874912714585662 ], [ 5027458.564937587827444, 7417767.496788501739502 ], [ 5027555.251117782667279, 7417962.702122023329139 ], [ 5027603.641895823180676, 7418088.091629104688764 ], [ 5027626.914472408592701, 7418168.496965058147907 ], [ 5027688.144399088807404, 7418459.566278977319598 ], [ 5027712.325526611879468, 7418511.252299247309566 ], [ 5027747.172501404769719, 7418606.011077597737312 ], [ 5027757.000372484326363, 7418709.444146953523159 ], [ 5027853.662246059626341, 7418886.462349997833371 ], [ 5027909.727634829469025, 7418984.060266504995525 ], [ 5027950.398153888061643, 7419096.051315607503057 ], [ 5028006.523623359389603, 7419230.052230024710298 ], [ 5028114.838058087974787, 7419453.993507094681263 ], [ 5028187.284211891703308, 7419558.270670242607594 ], [ 5028272.304198334924877, 7419685.515133511275053 ], [ 5028337.966614418663085, 7419765.849324992857873 ], [ 5028468.370869936421514, 7419946.652926847338676 ], [ 5028603.616896082647145, 7420143.726249895989895 ], [ 5028692.564739856868982, 7420304.495749770663679 ], [ 5028801.67605296894908, 7420434.558883547782898 ], [ 5028882.9940783130005, 7420635.57746709138155 ], [ 5028945.84511585906148, 7420749.460555914789438 ], [ 5029000.981039724312723, 7420861.431440162472427 ], [ 5029105.385010200552642, 7421044.207359754480422 ], [ 5029172.106188158504665, 7421168.614171822555363 ], [ 5029235.092131006531417, 7421348.602262574248016 ], [ 5029300.040515475906432, 7421547.745883954688907 ], [ 5029355.217355031520128, 7421682.718046868219972 ], [ 5029420.957191132009029, 7421794.688465092331171 ], [ 5029492.522055318579078, 7421923.879644022323191 ], [ 5029567.232165168970823, 7422188.156621275469661 ], [ 5029635.139087287709117, 7422415.090936111286283 ], [ 5029690.498705968260765, 7422638.218113079667091 ], [ 5029751.413497995585203, 7422743.485268481075764 ], [ 5029804.631836765445769, 7422851.647139584645629 ], [ 5029825.961193934082985, 7422917.721731433644891 ], [ 5029840.499020278453827, 7422958.891311331652105 ], [ 5029857.910202588886023, 7422994.307185938581824 ], [ 5029889.751919796690345, 7423012.450240654870868 ], [ 5029928.303769475780427, 7423020.036321926862001 ], [ 5030022.670869975350797, 7422987.262960867024958 ], [ 5030269.005768682807684, 7422820.050570847466588 ], [ 5030467.196326215751469, 7422674.008694879710674 ], [ 5030590.249403160996735, 7422539.615197979845107 ], [ 5030626.701338557526469, 7422457.153205011039972 ], [ 5030618.742724698036909, 7422338.357354274019599 ], [ 5030589.656078935600817, 7422252.18768853507936 ], [ 5030579.85022986587137, 7422165.025734873488545 ], [ 5030578.726193705573678, 7422091.257647699676454 ], [ 5030587.20884340070188, 7421998.310016063973308 ], [ 5030596.69445929210633, 7421925.47245638538152 ], [ 5030612.016882974654436, 7421880.409945074468851 ], [ 5030617.740952737629414, 7421853.574518916197121 ], [ 5030598.362314954400063, 7421801.883328689262271 ], [ 5030581.918178557418287, 7421769.334693975746632 ], [ 5030582.808522995561361, 7421734.845369530841708 ], [ 5030588.540497411973774, 7421711.841876938939095 ], [ 5030578.734963711351156, 7421624.679872408509254 ], [ 5030558.418937703594565, 7421584.486387895420194 ], [ 5030532.3055209973827, 7421540.472881756722927 ], [ 5030486.899586277082562, 7421481.160198038443923 ], [ 5030438.593738210387528, 7421414.200522386468947 ], [ 5030427.951337662525475, 7421392.183172652497888 ], [ 5030304.400334588252008, 7421284.178508563898504 ], [ 5030200.175262874923646, 7421197.220198104158044 ], [ 5030144.215717777609825, 7421158.051231686025858 ], [ 5030122.003341807983816, 7421135.104759053327143 ], [ 5030077.597295522689819, 7421088.248153203167021 ], [ 5029999.401242777705193, 7421013.683841279707849 ], [ 5029966.567817363888025, 7420973.514898966997862 ], [ 5029907.672484453767538, 7420913.275294173508883 ], [ 5029826.541680486872792, 7420812.855916492640972 ], [ 5029743.542883014306426, 7420739.252386646345258 ], [ 5029604.582404192537069, 7420628.40446250885725 ], [ 5029420.302297735586762, 7420491.785275857895613 ], [ 5029308.345518401823938, 7420389.497255835682154 ], [ 5029233.053447360172868, 7420315.886708858422935 ], [ 5029157.688527708873153, 7420204.908925043419003 ], [ 5029090.992413219064474, 7420091.045303837396204 ], [ 5029039.660020358860493, 7419951.291152987629175 ], [ 5029020.281772032380104, 7419895.765940779820085 ], [ 5028994.126016710884869, 7419821.094247724860907 ], [ 5028966.997021082788706, 7419745.471960866823792 ], [ 5028925.2695696009323, 7419589.418349219486117 ], [ 5028902.001733668148518, 7419510.908888165839016 ], [ 5028861.343452277593315, 7419409.452700018882751 ], [ 5028811.012322182767093, 7419287.903040727600455 ], [ 5028745.250781059265137, 7419156.792239394038916 ], [ 5028702.693161335773766, 7419071.630607952363789 ], [ 5028674.534158995375037, 7418953.858315370976925 ], [ 5028667.595875139348209, 7418851.383731015026569 ], [ 5028648.012694803997874, 7418688.585947822779417 ], [ 5028651.65399232506752, 7418583.21133778989315 ], [ 5028674.578437223099172, 7418480.678850227966905 ], [ 5028708.02129527926445, 7418338.853934586979449 ], [ 5028754.942236609756947, 7418197.002717332914472 ], [ 5028790.29319644253701, 7418048.473461261019111 ], [ 5028822.770764940418303, 7417905.697617545723915 ], [ 5028849.437139159999788, 7417751.437143843621016 ], [ 5028858.653551869094372, 7417537.826412835158408 ], [ 5028855.428725014440715, 7417368.307406241074204 ], [ 5028829.212764494121075, 7417260.133452219888568 ], [ 5028789.550175216980278, 7417173.050322260707617 ], [ 5028706.554438886232674, 7417087.97833720035851 ], [ 5028580.241929883137345, 7417018.306445486843586 ], [ 5028321.004631069488823, 7416943.140786115080118 ], [ 5027983.752983586862683, 7416870.997992424294353 ], [ 5027691.852717839181423, 7416840.892013469710946 ], [ 5027581.039397089742124, 7416815.239015351980925 ], [ 5027461.575978978537023, 7416795.349194052629173 ], [ 5027404.709618196822703, 7416778.222002442926168 ], [ 5027431.87689548637718, 7416881.601160008460283 ], [ 5027439.903969186358154, 7417057.811841757968068 ] ] ] ] } },
{ "type": "Feature", "properties": { "lv_id": "LOC_060983", "id": 383777.0, "CD_SETOR": "410990605000010", "SITUACAO": "Rural", "CD_SIT": "8", "CD_TIPO": "0", "AREA_KM2": 177.93622798491083, "CD_REGIAO": "4", "NM_REGIAO": "Sul", "CD_UF": "41", "NM_UF": "Paraná", "CD_MUN": "4109906", "NM_MUN": "Icaraíma", "CD_DIST": "410990605", "NM_DIST": "Icaraíma", "CD_SUBDIST": "41099060500", "NM_SUBDIST": null, "CD_BAIRRO": null, "NM_BAIRRO": null, "CD_NU": null, "NM_NU": null, "CD_FCU": null, "NM_FCU": null, "CD_AGLOM": null, "NM_AGLOM": null, "CD_RGINT": "4104", "NM_RGINT": "Maringá", "CD_RGI": "410016", "NM_RGI": "Umuarama", "CD_CONCURB": null, "NM_CONCURB": null, "mun_code_x": "4109906", "index_right": 58179, "dist_m": 2988.6784842896054, "local_id": 656517, "ano": 2022, "cod_localidade_ibge": 4109906, "NR_ZONA": "172", "nr_cep": 87530000.0, "nm_localidade": "ICARAÍMA", "nm_locvot": "COLÉGIO ESTADUAL BENJAMIN CONSTANT", "ds_endereco": "AV PARANA, S/N.", "ds_bairro": "VILA RICA DO IVAI", "pred_long": -53.554551, "pred_lat": -23.292938, "pred_dist": 0.0, "tse_long": -53.55451064, "tse_lat": -23.29283711, "long": -53.55451064, "lat": -23.29283711, "ID_UNICO": "LOC_060983", "SG_UF": "PR", "CD_MUNICIPIO": "75930", "NR_LOCAL_VOTACAO": "1066", "QT_SECOES_AGREGADAS": 0, "QT_ELEITORES_TRANSFERIDOS": 0, "CIRO GOMES (PDT) (NÃO ELEITO) 1T": 4.0, "CONSTITUINTE EYMAEL (DC) (NÃO ELEITO) 1T": 0.0, "FELIPE D AVILA (NOVO) (NÃO ELEITO) 1T": 0.0, "JAIR BOLSONARO (PL) (2º TURNO) 1T": 164.0, "LULA (PT) (2º TURNO) 1T": 122.0, "LÉO PÉRICLES (UP) (NÃO ELEITO) 1T": 0.0, "PADRE KELMON (PTB) (NÃO ELEITO) 1T": 0.0, "SIMONE TEBET (MDB) (NÃO ELEITO) 1T": 18.0, "SOFIA MANZANO (PCB) (NÃO ELEITO) 1T": 0.0, "SORAYA THRONICKE (UNIÃO) (NÃO ELEITO) 1T": 1.0, "VERA (PSTU) (NÃO ELEITO) 1T": 0.0, "Total_Votos_Validos 1T": 309.0, "Votos_Brancos 1T": 1.0, "Votos_Nulos 1T": 12.0, "Abstenções 1T": 103.0, "Eleitores_Aptos 1T": 425.0, "JAIR BOLSONARO (PL) (NÃO ELEITO) 2T": 183.0, "LULA (PT) (ELEITO) 2T": 126.0, "Total_Votos_Validos 2T": 309.0, "Votos_Brancos 2T": 3.0, "Votos_Nulos 2T": 8.0, "Abstenções 2T": 105.0, "Eleitores_Aptos 2T": 425.0, "mun_code_y": "4109906", "mun_code": "4109906" }, "geometry": { "type": "Polygon", "coordinates": [ [ [ 5055693.701777538284659, 7415011.938163749873638 ], [ 5055761.10964875575155, 7415005.73636669293046 ], [ 5055775.506248648278415, 7414832.528918641619384 ], [ 5055826.908377305604517, 7414749.63456001598388 ], [ 5055810.002645843662322, 7414683.434199184179306 ], [ 5055869.104610272683203, 7414649.630070514976978 ], [ 5055922.004386018961668, 7414468.435259459540248 ], [ 5056000.107560457661748, 7414444.238533148542047 ], [ 5055993.607250315137208, 7414218.335479164496064 ], [ 5055893.702023865655065, 7414143.832981899380684 ], [ 5055973.008148961700499, 7414054.430721949785948 ], [ 5056086.605380931869149, 7414094.535762552171946 ], [ 5056218.009612049907446, 7414004.734803053550422 ], [ 5056236.5095582799986, 7413917.434194251894951 ], [ 5056179.303150032646954, 7413763.238187516108155 ], [ 5056407.409195901826024, 7413451.236984573304653 ], [ 5056382.110634834505618, 7413294.538492104038596 ], [ 5056636.308789348229766, 7413196.732637226581573 ], [ 5056778.906922546215355, 7412960.930931206792593 ], [ 5056787.808315007947385, 7412641.33631029818207 ], [ 5056656.305877487175167, 7412424.530071556568146 ], [ 5056638.506879523396492, 7412208.538176505826414 ], [ 5056661.909737199544907, 7412044.33199255913496 ], [ 5056773.804672396741807, 7411964.335604730993509 ], [ 5056932.406885039061308, 7411702.132633773609996 ], [ 5056965.707399410195649, 7411462.928686351515353 ], [ 5056924.707059407606721, 7411431.333570177666843 ], [ 5057014.204294359311461, 7410932.236443466506898 ], [ 5056936.810895698145032, 7410835.835358885116875 ], [ 5056864.507818965241313, 7410495.332517985254526 ], [ 5056791.904610029421747, 7410460.835319008678198 ], [ 5056788.202081761322916, 7410391.229020193219185 ], [ 5056634.6063470877707, 7410301.133735700510442 ], [ 5056628.001595697365701, 7410005.332623560912907 ], [ 5056471.600629170425236, 7409648.637126304209232 ], [ 5056454.808510220609605, 7409491.42936285585165 ], [ 5056360.009509026072919, 7409440.335452357307076 ], [ 5056335.407713523134589, 7409116.736918842419982 ], [ 5056226.601278937421739, 7409023.331950409337878 ], [ 5056176.80041734315455, 7408737.430581113323569 ], [ 5056069.00145522877574, 7408636.533616738393903 ], [ 5056159.209078751504421, 7408484.832115188241005 ], [ 5056063.307836210355163, 7408297.932738875970244 ], [ 5056055.110306208953261, 7408225.131389085203409 ], [ 5056018.309535583481193, 7408265.730235458351672 ], [ 5056023.00732072070241, 7408369.633859945461154 ], [ 5055899.606856431812048, 7408373.934813445433974 ], [ 5055885.602888409979641, 7408136.230056880041957 ], [ 5055812.80796829611063, 7408198.528931259177625 ], [ 5055746.010065498761833, 7408066.030898499302566 ], [ 5055773.407309801317751, 7407995.331887748092413 ], [ 5055727.608994950540364, 7407845.830846494063735 ], [ 5055629.608532888814807, 7407663.433340940624475 ], [ 5055636.600817907601595, 7407566.629115717485547 ], [ 5055508.907050126232207, 7407408.930628303438425 ], [ 5055574.600169578567147, 7407352.928684690967202 ], [ 5055605.803405012004077, 7407224.03587156906724 ], [ 5055567.309826008975506, 7407051.336723173968494 ], [ 5055616.408919375389814, 7407026.032036585733294 ], [ 5055640.609027679078281, 7406837.136215692386031 ], [ 5055646.607118500396609, 7406758.63240122795105 ], [ 5055636.50075660739094, 7406323.435740084387362 ], [ 5055686.109817855060101, 7406117.630912293680012 ], [ 5055647.906547928228974, 7405813.231541425921023 ], [ 5055571.702141303569078, 7405646.334385704249144 ], [ 5055597.8030742155388, 7405490.535891203209758 ], [ 5055525.206282597966492, 7405350.327970879152417 ], [ 5055583.209851924329996, 7405241.236370163038373 ], [ 5055497.907449665479362, 7405053.329660717397928 ], [ 5055576.601916430518031, 7404855.334073478356004 ], [ 5055504.502299931831658, 7404737.729335509240627 ], [ 5055510.005314538255334, 7404628.337552446871996 ], [ 5055422.200489730574191, 7404396.137633881531656 ], [ 5055485.808837995864451, 7404327.329024042934179 ], [ 5055495.000029256567359, 7404226.030578965321183 ], [ 5055394.200219550170004, 7404082.926930737681687 ], [ 5055436.802977955900133, 7403854.731783383525908 ], [ 5055399.106807236559689, 7403788.03291374258697 ], [ 5055419.208451216109097, 7403553.631586756557226 ], [ 5055547.009319318458438, 7403418.636490684002638 ], [ 5055706.308559364639223, 7403052.728153917938471 ], [ 5055653.802727590315044, 7402919.433243777602911 ], [ 5055471.606884583830833, 7402767.932749595493078 ], [ 5055067.106193667277694, 7402562.429781319573522 ], [ 5054690.509599077515304, 7402149.333539141342044 ], [ 5054577.904945136979222, 7402092.336615721695125 ], [ 5053851.502591321244836, 7401978.336591249331832 ], [ 5052297.600303211249411, 7401868.034732282161713 ], [ 5051218.500948758795857, 7401847.936280985362828 ], [ 5051268.899144541472197, 7401779.236276936717331 ], [ 5049911.489419212564826, 7403199.391076982952654 ], [ 5048651.801290112547576, 7404515.135574762709439 ], [ 5046981.7907345443964, 7406241.28370482288301 ], [ 5045164.892378439195454, 7408082.876726472750306 ], [ 5043424.380505250766873, 7409797.140615904703736 ], [ 5043178.594388416036963, 7410089.109399110078812 ], [ 5043320.986586086452007, 7410023.54679718054831 ], [ 5043527.389920169487596, 7410095.747645273804665 ], [ 5044355.57726320065558, 7410835.888123117387295 ], [ 5046293.050428485497832, 7412486.443671748042107 ], [ 5045867.177519151940942, 7413232.874316111207008 ], [ 5044325.374306750483811, 7415834.473528770729899 ], [ 5044515.211364285089076, 7416084.812041276134551 ], [ 5046227.32262469176203, 7418406.262510169297457 ], [ 5046257.198297156020999, 7418515.116025836206973 ], [ 5046100.774136430583894, 7419072.344011059962213 ], [ 5045835.097287381999195, 7419973.804288788698614 ], [ 5044164.562471015378833, 7419943.729824465699494 ], [ 5036695.749114531092346, 7419705.547628381289542 ], [ 5036469.803514969535172, 7419645.835531050339341 ], [ 5036432.602302511222661, 7419690.338175958022475 ], [ 5036393.005639391951263, 7420029.432301864027977 ], [ 5036427.701865163631737, 7420055.539493037387729 ], [ 5036418.002352994866669, 7420195.541085605509579 ], [ 5036291.503230411559343, 7420175.540055966004729 ], [ 5036253.301565846428275, 7420196.532292579300702 ], [ 5036251.598115150816739, 7420252.731319958344102 ], [ 5036286.001959726214409, 7420284.631813062354922 ], [ 5036246.500369264744222, 7420852.734964506700635 ], [ 5036273.301713731139898, 7421121.039973289705813 ], [ 5036220.004733796231449, 7421507.933166150003672 ], [ 5036098.702144879847765, 7421786.334607511758804 ], [ 5035995.302129931747913, 7421915.532845689915121 ], [ 5036064.400020089000463, 7422238.733666255138814 ], [ 5036025.900425864383578, 7422471.934559632092714 ], [ 5036046.496534924022853, 7422856.232205061241984 ], [ 5035803.604421614669263, 7423151.637946903705597 ], [ 5035784.305596691556275, 7423192.041909416206181 ], [ 5035785.1001540068537, 7423279.632296327501535 ], [ 5035752.198962562717497, 7423351.43347760476172 ], [ 5035707.69810903351754, 7423373.037331679835916 ], [ 5035662.20218117441982, 7423368.041261728852987 ], [ 5035633.298362676985562, 7423294.34009775519371 ], [ 5035605.097411842085421, 7423295.936208100058138 ], [ 5035598.701004519127309, 7423354.538388790562749 ], [ 5035672.699963551014662, 7423432.439356150105596 ], [ 5035652.397411555983126, 7423587.538353150710464 ], [ 5035994.400763628073037, 7423768.541582303121686 ], [ 5036816.996660872362554, 7424562.439052226021886 ], [ 5037095.201842898502946, 7424889.931756442412734 ], [ 5037380.605169204995036, 7425129.432375140488148 ], [ 5037724.503195818513632, 7425240.641083190217614 ], [ 5037894.003279153257608, 7425386.233223033137619 ], [ 5037958.306955941021442, 7425525.237488838844001 ], [ 5037939.707062997855246, 7425898.036683270707726 ], [ 5037557.200459836050868, 7426888.139711899682879 ], [ 5037555.001341577619314, 7427208.134923657402396 ], [ 5037715.602974459528923, 7427774.534555621445179 ], [ 5037719.497699349187315, 7427954.238371277227998 ], [ 5037686.301328322850168, 7428051.439110871404409 ], [ 5037471.103115059435368, 7428231.032587673515081 ], [ 5037369.499571463093162, 7428408.532329740002751 ], [ 5037313.797297101467848, 7428681.637031074613333 ], [ 5037441.297400282695889, 7428911.232589157298207 ], [ 5038054.10546362772584, 7429310.534494517371058 ], [ 5038269.404316819272935, 7429556.133933905512094 ], [ 5038371.702736668288708, 7429843.132658747956157 ], [ 5038384.298258345574141, 7430036.037057365290821 ], [ 5038227.198914685286582, 7430902.536377247422934 ], [ 5038250.304736470803618, 7431182.83924010861665 ], [ 5038387.306426180526614, 7431447.44330158829689 ], [ 5038665.505770644173026, 7431765.935989502817392 ], [ 5038976.503381578251719, 7431978.738112850114703 ], [ 5039363.507336253300309, 7432045.442719738930464 ], [ 5040049.207576038315892, 7431871.242472860962152 ], [ 5040521.698670571669936, 7431653.137587597593665 ], [ 5040770.100894315168262, 7431441.934850955381989 ], [ 5041257.206841300241649, 7430844.436702752485871 ], [ 5041751.499137940816581, 7430593.238698063418269 ], [ 5042780.406627503223717, 7430352.733341586776078 ], [ 5044224.106789965182543, 7430691.138134486973286 ], [ 5044497.499462732113898, 7430782.035025350749493 ], [ 5044784.507255243137479, 7430974.432956511154771 ], [ 5044847.901469611562788, 7431016.936211075633764 ], [ 5045290.800216109491885, 7431478.940633861348033 ], [ 5045308.106465997174382, 7431471.334764959290624 ], [ 5045461.601808440871537, 7431403.541356743313372 ], [ 5045486.600320785306394, 7431303.933559495955706 ], [ 5045545.104794551618397, 7431302.835330968722701 ], [ 5045546.409019903279841, 7431374.442554136738181 ], [ 5045621.206011144444346, 7431402.332901608198881 ], [ 5045748.709277358837426, 7431297.536920669488609 ], [ 5045833.70175854023546, 7431312.337366513907909 ], [ 5045900.70772869605571, 7431432.538673312403262 ], [ 5045963.104134295135736, 7431408.833708051592112 ], [ 5046025.608864836394787, 7431274.63238391187042 ], [ 5046269.301885526627302, 7431323.835987372323871 ], [ 5046498.001786827109754, 7431301.238613890483975 ], [ 5046605.006610540673137, 7431353.432768566533923 ], [ 5046634.303947727195919, 7431246.433425473049283 ], [ 5046741.104001799598336, 7431217.136956844478846 ], [ 5046966.802054058760405, 7430996.641413579694927 ], [ 5047328.00760605558753, 7430977.842839327640831 ], [ 5047564.908013479784131, 7430909.938981154933572 ], [ 5047933.802825986407697, 7431026.139520375058055 ], [ 5048248.007744235917926, 7431001.533739063888788 ], [ 5048407.805049632675946, 7430903.742040304467082 ], [ 5048388.6045593759045, 7430841.241332363337278 ], [ 5048446.00930420588702, 7430785.93373192101717 ], [ 5048529.609190336428583, 7430803.735740741714835 ], [ 5048545.404442044906318, 7430700.840869784355164 ], [ 5048660.709345072507858, 7430617.334378028288484 ], [ 5048594.500512568280101, 7430414.832270122133195 ], [ 5048673.509149104356766, 7430259.433854524046183 ], [ 5048653.808338820002973, 7430178.639003980904818 ], [ 5048556.201045551337302, 7430023.242122822441161 ], [ 5048391.307498496025801, 7429552.035655343905091 ], [ 5048393.707612722180784, 7429453.038528746925294 ], [ 5048498.608868082985282, 7429311.034892403520644 ], [ 5048371.10645985417068, 7428911.140436628833413 ], [ 5048298.103980195708573, 7428422.433610203675926 ], [ 5048385.009744595736265, 7428161.641808204352856 ], [ 5048512.70529358368367, 7427973.634851235896349 ], [ 5048532.801640279591084, 7427709.837109742686152 ], [ 5048700.502966015599668, 7427546.7384232301265 ], [ 5048729.107865229249001, 7427195.241475099697709 ], [ 5048831.301258631981909, 7426914.13975909166038 ], [ 5048772.700773948803544, 7426575.43280618917197 ], [ 5048833.104279665276408, 7426457.438917401246727 ], [ 5048893.90555162075907, 7426041.13405731972307 ], [ 5048844.908313234336674, 7425824.931047460995615 ], [ 5048874.806848135776818, 7425756.731440018862486 ], [ 5049004.105526045896113, 7425700.032141444273293 ], [ 5049037.400390584021807, 7425458.538874482735991 ], [ 5049253.30568958632648, 7425247.140764286741614 ], [ 5049260.100141146220267, 7424812.838305966928601 ], [ 5049373.505286676809192, 7424644.040970678441226 ], [ 5049583.90307663846761, 7424507.136487243697047 ], [ 5049707.405166414566338, 7423973.541042058728635 ], [ 5049963.500052340328693, 7423605.637010992504656 ], [ 5049988.608531398698688, 7423515.43340328335762 ], [ 5049921.000293454155326, 7423498.638602676801383 ], [ 5049988.901252003386617, 7423423.231291234493256 ], [ 5050068.900774222798645, 7423156.037606913596392 ], [ 5050370.205432964488864, 7422738.931813860312104 ], [ 5050434.208428672514856, 7422665.130351571366191 ], [ 5050562.10140790976584, 7422544.938120949082077 ], [ 5050642.002328951843083, 7422379.134861618280411 ], [ 5050622.807416119612753, 7422330.037478053942323 ], [ 5050733.600478707812726, 7422251.135145152918994 ], [ 5050749.305293331854045, 7422138.33543552365154 ], [ 5050998.800714316777885, 7422024.732832726091146 ], [ 5051089.906680906191468, 7421897.939641818404198 ], [ 5051142.102488802745938, 7421887.736461913213134 ], [ 5051127.504308923147619, 7421807.435909740626812 ], [ 5051186.20363552402705, 7421761.138026844710112 ], [ 5051172.80016125459224, 7421698.03324400447309 ], [ 5051306.903351015411317, 7421608.934151059016585 ], [ 5051314.201655601151288, 7421542.435184966772795 ], [ 5051446.101010516285896, 7421567.539397520944476 ], [ 5051512.901454167440534, 7421530.537396578118205 ], [ 5051573.002931113354862, 7421385.231270024552941 ], [ 5051561.200319577008486, 7421250.530701907351613 ], [ 5051728.707746613770723, 7421036.437617445364594 ], [ 5051759.608284278772771, 7420898.730486697517335 ], [ 5051826.902444954030216, 7420892.835674468427896 ], [ 5051787.404024066403508, 7420832.735438760370016 ], [ 5051924.708639532327652, 7420834.436477405019104 ], [ 5051961.803511872887611, 7420722.434991696849465 ], [ 5052113.000908222049475, 7420649.537791384384036 ], [ 5052203.408249605447054, 7420500.93237280100584 ], [ 5052162.210294830612838, 7420455.037605607882142 ], [ 5052395.607752063311636, 7420292.237422551959753 ], [ 5052386.703341796062887, 7420244.33507277071476 ], [ 5052429.600864948704839, 7420250.230332803912461 ], [ 5052399.306993664242327, 7420190.132294470444322 ], [ 5052617.505642069503665, 7419983.236061149276793 ], [ 5052726.605134464800358, 7419729.732930486090481 ], [ 5052937.102098410017788, 7419628.938363630324602 ], [ 5052996.504948900081217, 7419666.038507265970111 ], [ 5053087.603684106841683, 7419377.931135673075914 ], [ 5053336.807840950787067, 7419266.736025455407798 ], [ 5053333.200491607189178, 7419310.131052982993424 ], [ 5053458.806177238933742, 7419296.232428102754056 ], [ 5053637.410278766416013, 7419222.932052738964558 ], [ 5053838.408020037226379, 7419036.435666784644127 ], [ 5054037.207573682069778, 7418941.138744671829045 ], [ 5054139.500893795862794, 7418781.734032314270735 ], [ 5054087.201417464762926, 7418748.832192962057889 ], [ 5054298.502329505048692, 7418477.731234240345657 ], [ 5054246.108533814549446, 7418438.439833174459636 ], [ 5054305.010610487312078, 7418411.930857782252133 ], [ 5054344.205614204518497, 7418299.239229268394411 ], [ 5054511.803736888803542, 7418191.036596142686903 ], [ 5054501.504197826609015, 7418121.333040955476463 ], [ 5054609.401037962175906, 7418053.33111184835434 ], [ 5054644.004248854704201, 7417949.836991518735886 ], [ 5054719.800883245654404, 7417921.336747149005532 ], [ 5054638.610549711622298, 7417743.833054734393954 ], [ 5054851.90462196059525, 7417520.539380321279168 ], [ 5054822.908396625891328, 7417411.731726877391338 ], [ 5055018.201027888804674, 7417244.532449565827847 ], [ 5054959.705079252831638, 7417241.139420779421926 ], [ 5054863.501698538661003, 7417038.330034119077027 ], [ 5054941.90264843031764, 7417032.335077584721148 ], [ 5054978.108640186488628, 7416934.936518790200353 ], [ 5054903.609300647862256, 7416867.930453119799495 ], [ 5054922.503623592667282, 7416806.535899043083191 ], [ 5054875.304530492052436, 7416796.433224468491971 ], [ 5054950.307805088348687, 7416729.53621110972017 ], [ 5054984.706005518324673, 7416536.729876894503832 ], [ 5055153.403235152363777, 7416496.839147564955056 ], [ 5055171.110051919706166, 7416375.23175548017025 ], [ 5055258.508266596123576, 7416350.738765597343445 ], [ 5055231.908205374144018, 7416155.534729299135506 ], [ 5055342.702340349555016, 7416180.63797115534544 ], [ 5055415.00330613553524, 7416027.138938626274467 ], [ 5055332.908743029460311, 7415976.433265190571547 ], [ 5055323.608682241290808, 7415871.22965500690043 ], [ 5055246.107183896005154, 7415867.233423287048936 ], [ 5055262.907012751325965, 7415815.238066742196679 ], [ 5055208.308234921656549, 7415766.931913066655397 ], [ 5055393.707124860957265, 7415749.735721049830317 ], [ 5055442.403278748504817, 7415685.437586509622633 ], [ 5055405.305105123668909, 7415575.930248378776014 ], [ 5055421.006263840943575, 7415457.530664626508951 ], [ 5055515.609523186460137, 7415365.637254075147212 ], [ 5055659.310047568753362, 7415360.334157362580299 ], [ 5055734.207380509003997, 7415284.528563179075718 ], [ 5055695.809036209248006, 7415223.736450324766338 ], [ 5055759.608977810479701, 7415152.635278986766934 ], [ 5055693.701777538284659, 7415011.938163749873638 ] ] ] } }
]
}
