{
"type": "FeatureCollection",
"name": "4110904",
"crs": { "type": "name", "properties": { "name": "urn:ogc:def:crs:EPSG::5880" } },
"features": [
{ "type": "Feature", "properties": { "lv_id": "LOC_061128", "id": 384215.0, "CD_SETOR": "411090405000001", "SITUACAO": "Urbana", "CD_SIT": "1", "CD_TIPO": "0", "AREA_KM2": 0.14145740893432299, "CD_REGIAO": "4", "NM_REGIAO": "Sul", "CD_UF": "41", "NM_UF": "Paraná", "CD_MUN": "4110904", "NM_MUN": "Itaguajé", "CD_DIST": "411090405", "NM_DIST": "Itaguajé", "CD_SUBDIST": "41109040500", "NM_SUBDIST": null, "CD_BAIRRO": null, "NM_BAIRRO": null, "CD_NU": "4110904001", "NM_NU": "Condomínio Beira Rio", "CD_FCU": null, "NM_FCU": null, "CD_AGLOM": null, "NM_AGLOM": null, "CD_RGINT": "4104", "NM_RGINT": "Maringá", "CD_RGI": "410019", "NM_RGI": "Paranacity - Colorado", "CD_CONCURB": null, "NM_CONCURB": null, "mun_code_x": "4110904", "index_right": 58315, "dist_m": 124.63778108451805, "local_id": 657907, "ano": 2022, "cod_localidade_ibge": 4110904, "NR_ZONA": "95", "nr_cep": 86670000.0, "nm_localidade": "ITAGUAJÉ", "nm_locvot": "COLEGIO ESTADUAL LOURDES ALVES MELO", "ds_endereco": "RUA SAO PAULO, 573", "ds_bairro": "CENTRO", "pred_long": -51.96738, "pred_lat": -22.617863, "pred_dist": 0.0, "tse_long": -51.9672477, "tse_lat": -22.6178376, "long": -51.9672477, "lat": -22.6178376, "ID_UNICO": "LOC_061128", "SG_UF": "PR", "CD_MUNICIPIO": "76112", "NR_LOCAL_VOTACAO": "1015", "QT_SECOES_AGREGADAS": 0, "QT_ELEITORES_TRANSFERIDOS": 2, "CIRO GOMES (PDT) (NÃO ELEITO) 1T": 31.0, "CONSTITUINTE EYMAEL (DC) (NÃO ELEITO) 1T": 0.0, "FELIPE D AVILA (NOVO) (NÃO ELEITO) 1T": 0.0, "JAIR BOLSONARO (PL) (2º TURNO) 1T": 1154.0, "LULA (PT) (2º TURNO) 1T": 1397.0, "LÉO PÉRICLES (UP) (NÃO ELEITO) 1T": 0.0, "PADRE KELMON (PTB) (NÃO ELEITO) 1T": 0.0, "SIMONE TEBET (MDB) (NÃO ELEITO) 1T": 80.0, "SOFIA MANZANO (PCB) (NÃO ELEITO) 1T": 0.0, "SORAYA THRONICKE (UNIÃO) (NÃO ELEITO) 1T": 9.0, "VERA (PSTU) (NÃO ELEITO) 1T": 0.0, "Total_Votos_Validos 1T": 2671.0, "Votos_Brancos 1T": 23.0, "Votos_Nulos 1T": 75.0, "Abstenções 1T": 821.0, "Eleitores_Aptos 1T": 3590.0, "JAIR BOLSONARO (PL) (NÃO ELEITO) 2T": 1268.0, "LULA (PT) (ELEITO) 2T": 1444.0, "Total_Votos_Validos 2T": 2712.0, "Votos_Brancos 2T": 28.0, "Votos_Nulos 2T": 62.0, "Abstenções 2T": 788.0, "Eleitores_Aptos 2T": 3590.0, "mun_code_y": "4110904", "mun_code": "4110904" }, "geometry": { "type": "Polygon", "coordinates": [ [ [ 5205917.977253498509526, 7485310.827804085798562 ], [ 5205782.075123701244593, 7485411.825591903179884 ], [ 5205706.976658505387604, 7485557.820600859820843 ], [ 5205702.980272474698722, 7485698.722589089535177 ], [ 5205624.078461380675435, 7485799.824571091681719 ], [ 5205481.973939827643335, 7485845.91987569257617 ], [ 5205434.872345272451639, 7486143.92954977042973 ], [ 5205347.680979505181313, 7486295.126719232648611 ], [ 5205047.97586689889431, 7486654.83004186488688 ], [ 5204954.074206589721143, 7486847.822369781322777 ], [ 5204850.072703971527517, 7486800.830164012499154 ], [ 5204730.980745709501207, 7486839.826844091527164 ], [ 5204734.9724165443331, 7486974.924793941900134 ], [ 5204409.175056944601238, 7487315.92633805796504 ], [ 5204356.873908979818225, 7487527.825030161067843 ], [ 5204247.072612543590367, 7487631.924776125699282 ], [ 5204015.779377955943346, 7488019.828783725388348 ], [ 5203809.076156843453646, 7488166.927614306099713 ], [ 5203762.280206530354917, 7488443.427190915681422 ], [ 5203512.473189789801836, 7488657.923809066414833 ], [ 5203132.978497595526278, 7489295.82485996838659 ], [ 5203004.079332013614476, 7489321.728267695754766 ], [ 5202880.977704723365605, 7489418.923431742936373 ], [ 5202840.978010125458241, 7489616.123782861977816 ], [ 5202680.77399359177798, 7489584.931949161924422 ], [ 5202441.873259314335883, 7489692.125329715199769 ], [ 5202297.373458089306951, 7489688.123406672850251 ], [ 5202321.074183723889291, 7489851.923031868413091 ], [ 5202090.573637461289763, 7489862.022404906339943 ], [ 5202214.872785885818303, 7490231.130917483940721 ], [ 5202121.772989797405899, 7490751.229906147345901 ], [ 5202189.874275902286172, 7490870.031384000554681 ], [ 5202622.976938291452825, 7491279.026368532329798 ], [ 5202522.876398379914463, 7491448.123505042865872 ], [ 5202276.975798119790852, 7491636.125550448894501 ], [ 5202197.078531046397984, 7491844.221787920221686 ], [ 5202301.874807990156114, 7492017.031498182564974 ], [ 5202663.978229585103691, 7492197.024488009512424 ], [ 5202753.876655214466155, 7492306.227588338777423 ], [ 5202901.077646618708968, 7492377.12903025187552 ], [ 5203419.974445739760995, 7492121.330681400373578 ], [ 5203589.873994762077928, 7492071.123140377923846 ], [ 5203806.872370867058635, 7492105.129773372784257 ], [ 5203762.076178962364793, 7492297.121921615675092 ], [ 5203594.978856220841408, 7492608.13049897365272 ], [ 5203691.980211153626442, 7492671.128005359321833 ], [ 5204399.880077906884253, 7492816.222319108434021 ], [ 5204472.982365684583783, 7492985.022247856482863 ], [ 5204004.981571071781218, 7493661.326964291743934 ], [ 5203969.974300319328904, 7493778.228524865582585 ], [ 5203993.074162419885397, 7494014.224901827983558 ], [ 5204279.979563016444445, 7493905.330458438023925 ], [ 5204551.476000165566802, 7493962.125290486030281 ], [ 5204590.976745250634849, 7494106.232358912006021 ], [ 5204534.97867651283741, 7494425.326954981312156 ], [ 5204958.077162482775748, 7494659.129190291278064 ], [ 5205037.882083953358233, 7494822.330566751770675 ], [ 5204996.878018313087523, 7494994.729342948645353 ], [ 5204821.574740874581039, 7495295.632368827238679 ], [ 5204853.880537203513086, 7495410.327659097500145 ], [ 5205410.776047209277749, 7495530.425733545795083 ], [ 5205559.076499283313751, 7495591.229302948340774 ], [ 5205637.8823372265324, 7495731.32755240239203 ], [ 5205667.978894075378776, 7496052.328946937806904 ], [ 5205893.974488108418882, 7496311.3276521936059 ], [ 5205930.979760199785233, 7496487.323034786619246 ], [ 5205593.182308340445161, 7496619.33296636864543 ], [ 5205434.883930804207921, 7496564.325193806551397 ], [ 5205239.076420219615102, 7496670.332480745390058 ], [ 5205206.377299780026078, 7496708.533346990123391 ], [ 5205110.678742330521345, 7497124.529138966463506 ], [ 5204977.279484926722944, 7497427.629226993769407 ], [ 5204635.978841216303408, 7497800.032974851317704 ], [ 5204613.779698555357754, 7497919.523035284131765 ], [ 5204662.476939915679395, 7498103.430709353648126 ], [ 5204800.674705795943737, 7498330.132589150220156 ], [ 5204694.980395532213151, 7498895.932766003534198 ], [ 5204973.279924333095551, 7499264.333617931231856 ], [ 5205008.084660456515849, 7499896.424765236675739 ], [ 5205284.679812814109027, 7500471.630352563224733 ], [ 5205261.77711175289005, 7500698.5344597697258 ], [ 5204887.978387834504247, 7501140.624358166009188 ], [ 5204274.984922681003809, 7501504.734381159767509 ], [ 5204040.180200008675456, 7501736.624899020418525 ], [ 5204012.27930836379528, 7502094.529310212470591 ], [ 5204045.88177568744868, 7502344.534657875075936 ], [ 5203917.481053684838116, 7502692.127896571531892 ], [ 5203556.376781078055501, 7503106.329059067182243 ], [ 5203457.584939667023718, 7503293.33464748878032 ], [ 5203163.784036692231894, 7503583.429647022858262 ], [ 5202931.679798287339509, 7503677.832666162401438 ], [ 5202729.980481739155948, 7503850.235437936149538 ], [ 5202725.379197474569082, 7504027.027914132922888 ], [ 5202750.932952731847763, 7504133.173054141923785 ], [ 5202755.830164562910795, 7504153.496306993067265 ], [ 5202756.081044835038483, 7504154.578872353769839 ], [ 5202760.096795795485377, 7504171.24615457188338 ], [ 5202837.978789598681033, 7504494.729019111953676 ], [ 5202785.680101810954511, 7504777.934954961761832 ], [ 5202788.319462009705603, 7504812.692449662834406 ], [ 5202791.991382723674178, 7504860.998675368726254 ], [ 5202871.186045788228512, 7504838.546502772718668 ], [ 5202967.712995953857899, 7504830.768157867714763 ], [ 5202999.479141425341368, 7504824.431789817288518 ], [ 5203036.610449364408851, 7504809.160196142271161 ], [ 5203066.222228283062577, 7504806.397857540287077 ], [ 5203095.21876335889101, 7504798.336090262979269 ], [ 5203146.242579354904592, 7504795.877948017790914 ], [ 5203194.055849933065474, 7504798.80281696934253 ], [ 5203270.291815942153335, 7504793.063598962500691 ], [ 5203296.760677861049771, 7504801.577882641926408 ], [ 5203331.223629610612988, 7504792.25776375643909 ], [ 5203387.226126259192824, 7504792.104167541489005 ], [ 5203426.683273836970329, 7504786.263476461172104 ], [ 5203431.495169899426401, 7504776.737139398232102 ], [ 5203447.954460270702839, 7504775.92097039334476 ], [ 5203469.992454139515758, 7504781.546217817813158 ], [ 5203495.314079379662871, 7504786.540705975145102 ], [ 5203532.522984243929386, 7504777.172691334038973 ], [ 5203595.024597883224487, 7504769.840822098776698 ], [ 5203649.824627289548516, 7504762.012384635396302 ], [ 5203708.526447436772287, 7504758.287196915596724 ], [ 5203759.479583940468729, 7504750.509338708594441 ], [ 5203800.621392890810966, 7504747.603808829560876 ], [ 5203870.693841516040266, 7504732.480607291683555 ], [ 5203943.131998402997851, 7504729.746850231662393 ], [ 5203992.978935189545155, 7504720.797270128503442 ], [ 5204029.050224128179252, 7504707.908451488241553 ], [ 5204070.063804494217038, 7504696.128457347862422 ], [ 5204101.244841327890754, 7504686.839040385559201 ], [ 5204143.025704620406032, 7504691.015573479235172 ], [ 5204166.861997879110277, 7504667.042244968935847 ], [ 5204238.026480882428586, 7504651.315536722540855 ], [ 5204299.316759071312845, 7504635.719727640971541 ], [ 5204364.086766188964248, 7504634.260387187823653 ], [ 5204396.934414586983621, 7504627.319404159672558 ], [ 5204407.830359886400402, 7504621.25754570774734 ], [ 5204428.767961400561035, 7504626.89606748521328 ], [ 5204447.302473735995591, 7504616.599575459957123 ], [ 5204486.211192559450865, 7504611.350651664659381 ], [ 5204533.26406364236027, 7504598.890678379684687 ], [ 5204565.42491680663079, 7504581.321206891909242 ], [ 5204621.355914182960987, 7504575.845376551151276 ], [ 5204691.990036837756634, 7504561.298080523498356 ], [ 5204787.654258257709444, 7504529.862736448645592 ], [ 5204840.681287473067641, 7504512.601891068741679 ], [ 5204876.085537566803396, 7504491.431657018139958 ], [ 5204913.308714242652059, 7504483.245586145669222 ], [ 5204988.002940587699413, 7504443.811332484707236 ], [ 5205062.783527474850416, 7504410.879785802215338 ], [ 5205120.431178173050284, 7504369.89936731569469 ], [ 5205182.580788778141141, 7504337.135747466236353 ], [ 5205224.063390861265361, 7504318.24363118223846 ], [ 5205269.706385502591729, 7504282.74152628518641 ], [ 5205389.082917856052518, 7504218.464083073660731 ], [ 5205422.07935359608382, 7504222.754460774362087 ], [ 5205419.734441265463829, 7503964.941745331510901 ], [ 5205459.939053578302264, 7503933.655746527016163 ], [ 5205467.126304871402681, 7503895.708519231528044 ], [ 5205487.272808399051428, 7503842.219273800030351 ], [ 5205538.223879927769303, 7503793.038270384073257 ], [ 5205598.359055439941585, 7503774.493789555504918 ], [ 5205680.858352224342525, 7503785.22371581941843 ], [ 5205778.580734598450363, 7503785.089846594259143 ], [ 5205847.461704284884036, 7503762.881452846340835 ], [ 5205870.723588151857257, 7503696.341233737766743 ], [ 5205885.518758761696517, 7503653.560353527776897 ], [ 5205895.314563876017928, 7503564.718018927611411 ], [ 5205919.035334447398782, 7503532.465897353366017 ], [ 5205956.295261138118804, 7503527.235056091099977 ], [ 5205993.945936773903668, 7503550.387330638244748 ], [ 5206035.337291662581265, 7503607.783763169310987 ], [ 5206047.003267593681812, 7503658.487193302251399 ], [ 5206084.533117885701358, 7503673.363708136603236 ], [ 5206241.600605379790068, 7503513.944971904158592 ], [ 5206299.532288697548211, 7503412.63289269991219 ], [ 5206343.928905964829028, 7503365.90809622593224 ], [ 5206346.69598684553057, 7503326.845034528523684 ], [ 5206339.669146214611828, 7503293.819484267383814 ], [ 5206359.076464377343655, 7503267.541532586328685 ], [ 5206339.727072285488248, 7503216.941454322077334 ], [ 5206318.806518918834627, 7503212.491027878597379 ], [ 5206317.197882037609816, 7503174.661281488835812 ], [ 5206300.208465175703168, 7503135.863561161793768 ], [ 5206300.65777373034507, 7503087.357712661847472 ], [ 5206304.715844502672553, 7503062.471570273861289 ], [ 5206323.868616213090718, 7503017.26029228232801 ], [ 5206368.343361802399158, 7502976.45128970220685 ], [ 5206399.035714360885322, 7502972.493098822422326 ], [ 5206433.997838350944221, 7502960.189159786328673 ], [ 5206451.309384018182755, 7502941.041871415451169 ], [ 5206497.366306325420737, 7502936.865872167050838 ], [ 5206520.662392029538751, 7502954.30381995998323 ], [ 5206528.039238282479346, 7503013.341918972320855 ], [ 5206571.648179069161415, 7503071.892807743512094 ], [ 5206578.173560394905508, 7503148.682427294552326 ], [ 5206548.756185104139149, 7503165.632453508675098 ], [ 5206550.540243237279356, 7503216.468519255518913 ], [ 5206596.419925141148269, 7503280.905905971303582 ], [ 5206641.737667496316135, 7503302.767898768186569 ], [ 5206719.658329605124891, 7503300.533946168608963 ], [ 5206798.355556729249656, 7503273.457436098717153 ], [ 5206811.323111818172038, 7503257.902941292151809 ], [ 5206845.147851930931211, 7503242.078689796850085 ], [ 5206854.813993806019425, 7503226.568603837862611 ], [ 5206887.707630774006248, 7503222.579832585528493 ], [ 5206902.977096069604158, 7503215.271487331949174 ], [ 5206960.018767598085105, 7503210.957295359112322 ], [ 5207040.33767594397068, 7503142.460290709510446 ], [ 5207036.472914852201939, 7503099.929423060268164 ], [ 5207009.582428153604269, 7503060.08013991266489 ], [ 5206977.46541269402951, 7503039.227001627907157 ], [ 5206975.313474932685494, 7502961.192801443859935 ], [ 5207009.966690617613494, 7502925.234472440555692 ], [ 5207037.389471894130111, 7502923.690309987403452 ], [ 5207060.144124560989439, 7502900.912001434713602 ], [ 5207091.952417299151421, 7502898.111904859542847 ], [ 5207115.159091904759407, 7502909.633141859434545 ], [ 5207148.073516948148608, 7502908.003645729273558 ], [ 5207166.548184277489781, 7502893.560142249800265 ], [ 5207158.387436523102224, 7502858.189917261712253 ], [ 5207157.956872873008251, 7502826.261243177577853 ], [ 5207143.602533360943198, 7502820.537766940891743 ], [ 5207128.737923884764314, 7502776.969606889411807 ], [ 5207112.00190519168973, 7502757.094974614679813 ], [ 5207102.836507051251829, 7502728.829905832186341 ], [ 5207080.76247045211494, 7502719.664663963019848 ], [ 5207063.936537669040263, 7502693.874128134921193 ], [ 5207037.343710055574775, 7502675.306869350373745 ], [ 5207007.338202697224915, 7502648.508317069150507 ], [ 5206985.06281466409564, 7502625.151344005018473 ], [ 5206983.627710597589612, 7502600.327850071713328 ], [ 5207011.028243105858564, 7502596.412719592452049 ], [ 5207044.308609299361706, 7502621.981477243825793 ], [ 5207089.646842172369361, 7502646.213035137392581 ], [ 5207120.577522316016257, 7502659.990260364487767 ], [ 5207136.213202835060656, 7502679.890798015519977 ], [ 5207155.006566314958036, 7502689.100209530442953 ], [ 5207182.965319541282952, 7502726.563557398505509 ], [ 5207215.113992393948138, 7502749.787077026441693 ], [ 5207230.749875633977354, 7502769.687533413991332 ], [ 5207308.056382389739156, 7502802.93896104209125 ], [ 5207357.589647165499628, 7502811.733205083757639 ], [ 5207424.055458483286202, 7502774.169739363715053 ], [ 5207481.450768923386931, 7502715.442488299682736 ], [ 5207521.338460528291762, 7502660.497378480620682 ], [ 5207518.849984083324671, 7502639.233911028131843 ], [ 5207494.303535206243396, 7502610.002282835543156 ], [ 5207488.508318491280079, 7502587.60893682949245 ], [ 5207485.854480599053204, 7502553.338969010859728 ], [ 5207492.037007027305663, 7502523.692149627953768 ], [ 5207501.360836634412408, 7502482.168698329478502 ], [ 5207510.940253789536655, 7502459.567608469165862 ], [ 5207503.804879040457308, 7502419.441103029996157 ], [ 5207509.008999282494187, 7502398.084764678031206 ], [ 5207493.261275317519903, 7502369.908815648406744 ], [ 5207484.993703271262348, 7502327.437415854074061 ], [ 5207491.903288715519011, 7502269.392012441530824 ], [ 5207504.906960982829332, 7502257.393188166432083 ], [ 5207523.332547863014042, 7502239.403982074931264 ], [ 5207559.594535348005593, 7502241.274050699546933 ], [ 5207595.001649611629546, 7502262.081433777697384 ], [ 5207610.583936571143568, 7502277.250779503956437 ], [ 5207672.194778100587428, 7502287.066215068101883 ], [ 5207705.235773762688041, 7502294.896613113582134 ], [ 5207751.668794060125947, 7502317.925792878493667 ], [ 5207759.910783284343779, 7502359.211827114224434 ], [ 5207746.036457466892898, 7502388.962874136865139 ], [ 5207741.789203426800668, 7502399.668896166607738 ], [ 5207769.33307065628469, 7502406.387909687124193 ], [ 5207775.182367938570678, 7502433.511918978765607 ], [ 5207825.751131896860898, 7502437.559099175967276 ], [ 5207836.388211498968303, 7502412.583252317272127 ], [ 5207845.791074042208493, 7502376.975528974086046 ], [ 5207835.652121006511152, 7502358.186890864744782 ], [ 5207838.126810202375054, 7502297.829964756034315 ], [ 5207859.442720742896199, 7502250.226760418154299 ], [ 5207871.308017019182444, 7502234.697177246212959 ], [ 5207872.964429831132293, 7502194.45173083525151 ], [ 5207883.601222962141037, 7502169.475825350731611 ], [ 5207903.03625132329762, 7502145.555338161066175 ], [ 5207908.255584053695202, 7502125.373149116523564 ], [ 5207934.314518193714321, 7502103.734193904325366 ], [ 5207961.617765710689127, 7502092.715834664180875 ], [ 5207968.007192818447948, 7502078.434877162799239 ], [ 5208013.981169591657817, 7502068.349152557551861 ], [ 5208046.989921897649765, 7502073.81903176009655 ], [ 5208064.538532037287951, 7502072.395599458366632 ], [ 5208078.620102209039032, 7502058.010346217080951 ], [ 5208091.537331282161176, 7502038.920462905429304 ], [ 5208102.125443932600319, 7502010.388101138174534 ], [ 5208103.92544779740274, 7501980.789206875488162 ], [ 5208134.230674866586924, 7501948.443710587918758 ], [ 5208159.477112240158021, 7501948.10143862478435 ], [ 5208182.362582208588719, 7501935.967982294969261 ], [ 5208204.302151070907712, 7501934.484834283590317 ], [ 5208236.380924855358899, 7501951.790059757418931 ], [ 5208273.892895957455039, 7501965.475681477226317 ], [ 5208332.590479651466012, 7501922.095965286716819 ], [ 5208353.140897800214589, 7501899.345314902253449 ], [ 5208394.851375034078956, 7501898.779207233339548 ], [ 5208442.93622459191829, 7501963.181610323488712 ], [ 5208452.087699318304658, 7501990.260639408603311 ], [ 5208455.651442327536643, 7502010.323841415345669 ], [ 5208472.11568240635097, 7502010.100298333913088 ], [ 5208568.760848419740796, 7502092.757825588807464 ], [ 5208598.752185855060816, 7502118.379133395850658 ], [ 5208634.923548606224358, 7502114.341832788661122 ], [ 5208673.054460674524307, 7502092.526409150101244 ], [ 5208701.345069845207036, 7502073.215925477445126 ], [ 5208705.908759454265237, 7502066.173001269809902 ], [ 5208743.966086319647729, 7502036.690478862263262 ], [ 5208779.997493589296937, 7502004.974916256964207 ], [ 5208843.323894698172808, 7501985.907929554581642 ], [ 5208891.031535813584924, 7501978.566121377050877 ], [ 5208927.071765391156077, 7501962.651266740635037 ], [ 5208947.417973950505257, 7501953.675957792438567 ], [ 5208966.919449475593865, 7501957.455035680904984 ], [ 5208985.583836289122701, 7501951.117632744833827 ], [ 5209011.899447576142848, 7501947.71218706201762 ], [ 5209033.417091413401067, 7501928.836733613163233 ], [ 5209064.492818263359368, 7501911.681588216684759 ], [ 5209087.110439420677722, 7501895.793968338519335 ], [ 5209083.061545609496534, 7501874.152887532487512 ], [ 5209095.588618518784642, 7501852.950906487181783 ], [ 5209104.765539485961199, 7501834.232319941744208 ], [ 5209123.816315929405391, 7501826.072213525883853 ], [ 5209161.880122012458742, 7501816.046340538188815 ], [ 5209198.855793335475028, 7501811.464796183630824 ], [ 5209204.595716184005141, 7501810.754973436705768 ], [ 5209226.807962936349213, 7501804.391065994277596 ], [ 5209252.329558804631233, 7501797.084472008980811 ], [ 5209284.5527961300686, 7501777.375682989135385 ], [ 5209289.801704010926187, 7501774.600406670942903 ], [ 5209320.385009600780904, 7501758.337864933535457 ], [ 5209344.261069705709815, 7501726.15492520481348 ], [ 5209375.158895500935614, 7501711.849277166649699 ], [ 5209420.230441912077367, 7501704.364382680505514 ], [ 5209457.08875784277916, 7501624.101679624989629 ], [ 5209511.548800163902342, 7501617.241882169619203 ], [ 5209529.865564985200763, 7501583.970976652577519 ], [ 5209525.256921541877091, 7501538.691078305244446 ], [ 5209513.956237369216979, 7501492.172818377614021 ], [ 5209477.499850592575967, 7501441.277433059178293 ], [ 5209421.699409709312022, 7501409.394690219312906 ], [ 5209358.147708522155881, 7501389.086152309551835 ], [ 5209326.716550711542368, 7501414.768035455606878 ], [ 5209294.742978447116911, 7501415.004578338935971 ], [ 5209249.081037010066211, 7501395.714875416830182 ], [ 5209241.560375006869435, 7501392.537473379634321 ], [ 5209204.577115741558373, 7501370.824529441073537 ], [ 5209135.766412406228483, 7501350.996781278401613 ], [ 5209075.065269654616714, 7501356.433344678021967 ], [ 5209034.950103454291821, 7501350.176091181114316 ], [ 5209030.760886313393712, 7501349.945040945895016 ], [ 5208971.597998864017427, 7501346.739376557990909 ], [ 5208927.32955863699317, 7501395.033787105232477 ], [ 5208901.03779324144125, 7501414.483852710574865 ], [ 5208883.257545440457761, 7501426.792814860120416 ], [ 5208872.812168790027499, 7501442.237539187073708 ], [ 5208859.094686504453421, 7501434.900331929326057 ], [ 5208847.08069284632802, 7501422.741950638592243 ], [ 5208840.546964236535132, 7501407.428538372740149 ], [ 5208833.429607790894806, 7501387.014817068353295 ], [ 5208818.17251159530133, 7501374.612440411001444 ], [ 5208821.267298707738519, 7501359.41180725581944 ], [ 5208831.85043135471642, 7501350.314538920298219 ], [ 5208824.665587635710835, 7501337.791261753067374 ], [ 5208834.088918403722346, 7501329.629475487396121 ], [ 5208843.670127493329346, 7501317.952920999377966 ], [ 5208844.732386665418744, 7501316.653094755485654 ], [ 5208854.965697082690895, 7501300.745873892679811 ], [ 5208855.328207047656178, 7501300.175820330157876 ], [ 5208858.809142058715224, 7501285.390989438630641 ], [ 5208851.383405786938965, 7501262.720989502966404 ], [ 5208844.440759000368416, 7501245.318874904885888 ], [ 5208836.57991616986692, 7501220.904024595394731 ], [ 5208796.369006826542318, 7501218.160105215385556 ], [ 5208790.687590793706477, 7501211.057037236168981 ], [ 5208815.817987900227308, 7501192.442916113883257 ], [ 5208818.25039411149919, 7501170.137415863573551 ], [ 5208811.640013261698186, 7501143.888293392956257 ], [ 5208805.970094164833426, 7501133.848664160817862 ], [ 5208808.317334468476474, 7501124.941009500063956 ], [ 5208804.638811884447932, 7501116.126417005434632 ], [ 5208806.3986612893641, 7501104.86654351092875 ], [ 5208810.07560611423105, 7501092.394940815865993 ], [ 5208818.418926288373768, 7501080.458208908326924 ], [ 5208827.671427107416093, 7501074.115985497832298 ], [ 5208838.627361891791224, 7501072.781260393559933 ], [ 5208851.719662842340767, 7501066.697032884694636 ], [ 5208866.710619908757508, 7501058.80294425971806 ], [ 5208881.415927913039923, 7501050.325444661080837 ], [ 5208897.339833294041455, 7501051.283270225860178 ], [ 5208916.245078056119382, 7501048.366536259651184 ], [ 5208936.059341258369386, 7501052.540201460942626 ], [ 5208957.4744185898453, 7501053.423207519575953 ], [ 5208979.008494990877807, 7501041.894054500386119 ], [ 5208997.012301811948419, 7501033.95880436245352 ], [ 5209023.41955657210201, 7501018.518176350742579 ], [ 5209058.954626627266407, 7501007.983849879354239 ], [ 5209066.320575883612037, 7501024.737431285902858 ], [ 5209078.843770699575543, 7501037.287606865167618 ], [ 5209106.781918085180223, 7501033.061924559995532 ], [ 5209132.240039709955454, 7501027.983519590459764 ], [ 5209141.743992730975151, 7501040.862892981618643 ], [ 5209140.002344803884625, 7501054.19469490647316 ], [ 5209154.468637075275183, 7501068.192086678929627 ], [ 5209178.148799728602171, 7501073.775431832298636 ], [ 5209188.786590327508748, 7501049.097491236403584 ], [ 5209188.060258239507675, 7501035.799319739453495 ], [ 5209204.82525447383523, 7501037.343727540224791 ], [ 5209221.063206472434103, 7501040.96741721779108 ], [ 5209246.961497770622373, 7501028.192723562940955 ], [ 5209260.134103320538998, 7501028.013117542490363 ], [ 5209283.649146854877472, 7501021.487200057134032 ], [ 5209311.126811945810914, 7501023.472685378044844 ], [ 5209331.090279184281826, 7501038.580598503351212 ], [ 5209351.598105605691671, 7501033.270162307657301 ], [ 5209368.051482364535332, 7501031.571958824060857 ], [ 5209396.599082906730473, 7501032.068946087732911 ], [ 5209406.966262187808752, 7501047.894982817582786 ], [ 5209409.288508663885295, 7501077.138876379467547 ], [ 5209429.348875559866428, 7501099.337092650122941 ], [ 5209442.658645247109234, 7501109.205787766724825 ], [ 5209518.472747617401183, 7501113.201697912067175 ], [ 5209534.068914697505534, 7501109.731008956208825 ], [ 5209560.571776547469199, 7501080.980016032233834 ], [ 5209584.103797802701592, 7501056.114593546837568 ], [ 5209634.225456168875098, 7501048.039111725986004 ], [ 5209676.933827131986618, 7501020.551353873685002 ], [ 5209700.786545839160681, 7500978.528170874342322 ], [ 5209744.214429934509099, 7500942.752957547083497 ], [ 5209775.333629047498107, 7500930.49324612505734 ], [ 5209806.633499746210873, 7500911.139240810647607 ], [ 5209848.458525383844972, 7500919.143966688774526 ], [ 5209855.315546202473342, 7500915.914314094930887 ], [ 5209903.241772600449622, 7500912.798909919336438 ], [ 5209986.11959530506283, 7500959.556665900163352 ], [ 5209999.429083566181362, 7500943.07457111030817 ], [ 5210020.027711150236428, 7500954.94841655343771 ], [ 5210028.524666382931173, 7500973.104508398100734 ], [ 5209994.779918603599072, 7501024.239154115319252 ], [ 5210011.838740022853017, 7501037.480078805238008 ], [ 5209955.784337035380304, 7501074.991219338029623 ], [ 5209937.845001482404768, 7501102.650708865374327 ], [ 5209962.198024875484407, 7501201.014930991455913 ], [ 5209995.69144713319838, 7501284.095441437326372 ], [ 5210048.903827528469265, 7501314.692968458868563 ], [ 5210141.213136546313763, 7501309.418171931058168 ], [ 5210190.601066991686821, 7501298.791289482265711 ], [ 5210228.068010728806257, 7501286.632147829048336 ], [ 5210259.452709370292723, 7501268.949297169223428 ], [ 5210283.592463803477585, 7501206.665299048647285 ], [ 5210292.523948803544044, 7501183.683036094531417 ], [ 5210309.299552705138922, 7501164.959155374206603 ], [ 5210304.923597687855363, 7501137.582810723222792 ], [ 5210290.078946913592517, 7501106.560241320170462 ], [ 5210290.46177096478641, 7501029.398693832568824 ], [ 5210318.165722513571382, 7500971.320803778246045 ], [ 5210415.727434816770256, 7500862.432153254747391 ], [ 5210431.926456681452692, 7500850.453185060992837 ], [ 5210458.985475261695683, 7500843.666262880899012 ], [ 5210480.501637827605009, 7500829.431375272572041 ], [ 5210487.707706132903695, 7500824.66747041977942 ], [ 5210498.761027000844479, 7500807.207462955266237 ], [ 5210503.624669417738914, 7500790.630179857835174 ], [ 5210515.43233797699213, 7500781.681033974513412 ], [ 5210528.207338014617562, 7500752.52917137183249 ], [ 5210533.022926014848053, 7500703.961915660649538 ], [ 5210507.000054982490838, 7500647.551380353048444 ], [ 5210498.270989090204239, 7500611.004367884248495 ], [ 5210524.518067419528961, 7500603.541407769545913 ], [ 5210539.677789920009673, 7500588.551456500776112 ], [ 5210562.582032958976924, 7500617.801070483401418 ], [ 5210596.883709256537259, 7500637.442207243293524 ], [ 5210615.628184265457094, 7500643.102149806916714 ], [ 5210656.554855063557625, 7500625.387064013630152 ], [ 5210693.301792099140584, 7500623.109587296843529 ], [ 5210716.931132899597287, 7500625.74372414778918 ], [ 5210733.165467858314514, 7500648.580202816054225 ], [ 5210750.435300948098302, 7500666.681967718526721 ], [ 5210757.088385510258377, 7500711.53486548922956 ], [ 5210751.490791331976652, 7500743.546999658457935 ], [ 5210760.962447347119451, 7500793.680033773183823 ], [ 5210770.041349782608449, 7500855.652897220104933 ], [ 5210783.522355661727488, 7500877.939872094430029 ], [ 5210832.01637557707727, 7500891.468396844342351 ], [ 5210876.526592721231282, 7500895.001105705276132 ], [ 5210907.197402222082019, 7500889.84805666655302 ], [ 5210958.003661718219519, 7500912.209177121520042 ], [ 5211008.474404466338456, 7500950.553485229611397 ], [ 5211034.404563119634986, 7500959.660068426281214 ], [ 5211073.4156708503142, 7500962.669476605951786 ], [ 5211103.476495710201561, 7500952.79286458902061 ], [ 5211133.063376493752003, 7500948.839941895566881 ], [ 5211247.40206859074533, 7500921.248379032127559 ], [ 5211353.106808715499938, 7500864.199720414355397 ], [ 5211383.656119066290557, 7500770.33307662140578 ], [ 5211359.250258032232523, 7500672.502882277593017 ], [ 5211322.187347519211471, 7500611.502853821031749 ], [ 5211291.045002633705735, 7500582.356597592122853 ], [ 5211271.681726397946477, 7500531.76155786216259 ], [ 5211267.902889995835721, 7500496.332314648665488 ], [ 5211271.886675065383315, 7500466.713423891924322 ], [ 5211282.337251060642302, 7500428.716911112889647 ], [ 5211320.476377304643393, 7500408.07969375886023 ], [ 5211333.241384948603809, 7500378.339823228307068 ], [ 5211360.197111935354769, 7500342.487206476740539 ], [ 5211381.368481523357332, 7500285.416575787588954 ], [ 5211390.229677302762866, 7500211.960530044510961 ], [ 5211392.96013939101249, 7500170.524345722049475 ], [ 5211436.48129637632519, 7500142.720765052363276 ], [ 5211460.651156983338296, 7500143.573295438662171 ], [ 5211474.580670798197389, 7500278.214780418202281 ], [ 5211455.681375618092716, 7500341.171506281942129 ], [ 5211456.740549487993121, 7500418.036797350272536 ], [ 5211457.685658204369247, 7500486.626157853752375 ], [ 5211477.163551668636501, 7500545.496935363858938 ], [ 5211537.03631286509335, 7500588.430452328175306 ], [ 5211586.620117145590484, 7500601.941555492579937 ], [ 5211657.426538772881031, 7500641.177962757647038 ], [ 5211683.608037259429693, 7500628.993376049213111 ], [ 5211708.444402898661792, 7500599.075535871088505 ], [ 5211724.205731237307191, 7500548.007343888282776 ], [ 5211778.170773293823004, 7500481.02034830302 ], [ 5211826.01151336915791, 7500447.238810498267412 ], [ 5211825.293370771221817, 7500395.212294742465019 ], [ 5211794.907869745977223, 7500341.212928209453821 ], [ 5211783.534465165808797, 7500312.991460824385285 ], [ 5211757.059918629936874, 7500303.893707867711782 ], [ 5211741.110246768221259, 7500261.529527485370636 ], [ 5211761.506263727322221, 7500228.126882251352072 ], [ 5211806.268053121864796, 7500209.768270326778293 ], [ 5211867.857285336591303, 7500218.381035732105374 ], [ 5211928.699696893803775, 7500251.847526433877647 ], [ 5211995.829031546600163, 7500263.929199269041419 ], [ 5212042.470362041145563, 7500223.071585964411497 ], [ 5212052.771672061644495, 7500174.42753716185689 ], [ 5212078.200169779360294, 7500107.844706203788519 ], [ 5212065.491126900538802, 7500061.890057081356645 ], [ 5212043.227662677876651, 7500039.725474371574819 ], [ 5212042.802628431469202, 7500008.970405641943216 ], [ 5212043.281815598718822, 7499964.019115636125207 ], [ 5212051.409110873006284, 7499916.590758289210498 ], [ 5212056.507707166485488, 7499888.141747275367379 ], [ 5212066.988419316709042, 7499852.504299667663872 ], [ 5212091.593806455843151, 7499806.033747622743249 ], [ 5212115.098833085037768, 7499759.578356359153986 ], [ 5212152.505081312730908, 7499764.97830206528306 ], [ 5212188.817272944375873, 7499771.57896576821804 ], [ 5212229.661021538078785, 7499787.568981284275651 ], [ 5212245.644343936815858, 7499832.292557133361697 ], [ 5212263.61555658839643, 7499861.619200315326452 ], [ 5212296.240988853387535, 7499919.121592917479575 ], [ 5212318.913862255401909, 7499970.85548959672451 ], [ 5212375.496592433191836, 7500013.83131823129952 ], [ 5212438.349443384446204, 7500034.258833521045744 ], [ 5212464.578193070366979, 7500025.606956796720624 ], [ 5212505.317321862094104, 7499955.26521023735404 ], [ 5212527.551132214255631, 7499895.806458403356373 ], [ 5212528.774847622029483, 7499826.012026408687234 ], [ 5212532.510016752406955, 7499778.64411417208612 ], [ 5212565.01801164355129, 7499747.443680886179209 ], [ 5212616.685674871318042, 7499752.633784340694547 ], [ 5212657.486843661405146, 7499766.263021821156144 ], [ 5212782.479923907667398, 7499755.066345142200589 ], [ 5212814.565859578549862, 7499773.547702061012387 ], [ 5212843.246738714165986, 7499783.798674482852221 ], [ 5212861.62998737115413, 7499763.431395886465907 ], [ 5212874.17797863483429, 7499718.312348056584597 ], [ 5212904.402659497223794, 7499681.225502232089639 ], [ 5212955.627154408954084, 7499654.495964024215937 ], [ 5212992.891829209402204, 7499650.432574890553951 ], [ 5213097.201476097106934, 7499573.277569370344281 ], [ 5213102.363520896993577, 7499549.547677804715931 ], [ 5213067.55179123301059, 7499493.262811502441764 ], [ 5213030.621957020834088, 7499442.913538038730621 ], [ 5213012.731826906092465, 7499419.503868918865919 ], [ 5213022.235090179368854, 7499392.167754997499287 ], [ 5213067.130333169363439, 7499384.441094487905502 ], [ 5213101.416236221790314, 7499402.891255876980722 ], [ 5213141.17632934357971, 7499420.079590953886509 ], [ 5213203.003758132457733, 7499445.249750418588519 ], [ 5213228.328159972093999, 7499450.803915811702609 ], [ 5213238.690858961082995, 7499406.900490693747997 ], [ 5213249.972671614959836, 7499349.963951136916876 ], [ 5213295.458212180994451, 7499305.572027291171253 ], [ 5213334.872815827839077, 7499297.920774047262967 ], [ 5213397.9051259662956, 7499331.350982215255499 ], [ 5213419.676064754836261, 7499318.038771352730691 ], [ 5213413.340115580707788, 7499256.615565762855113 ], [ 5213393.954668659716845, 7499204.848325189203024 ], [ 5213363.878223839215934, 7499173.331001915968955 ], [ 5213376.423919529654086, 7499128.200277877040207 ], [ 5213410.265380484983325, 7499114.720085863023996 ], [ 5213460.274184721522033, 7499158.969126485288143 ], [ 5213544.629129806533456, 7499225.223427052609622 ], [ 5213602.236831353977323, 7499263.4489213116467 ], [ 5213629.827460831962526, 7499273.713578074239194 ], [ 5213656.864150080829859, 7499244.947009077295661 ], [ 5213680.456133580766618, 7499204.404790067113936 ], [ 5213727.155448982492089, 7499168.272134029306471 ], [ 5213764.270361353643239, 7499153.559834046289325 ], [ 5213790.249590423889458, 7499127.168011168949306 ], [ 5213819.370614958927035, 7499090.094408065080643 ], [ 5213868.358273483812809, 7499061.032374111935496 ], [ 5213907.343167619779706, 7499022.635305942036211 ], [ 5213932.04033028613776, 7498983.25178166013211 ], [ 5213999.639029421843588, 7498950.37253893725574 ], [ 5214051.502830348908901, 7498969.760956238955259 ], [ 5214069.774147660471499, 7498942.301573853008449 ], [ 5214068.156014585867524, 7498904.470839163288474 ], [ 5214044.625987401232123, 7498870.503069642931223 ], [ 5214011.572210446931422, 7498861.501136336475611 ], [ 5213978.178144960664213, 7498828.845566745847464 ], [ 5213946.912212221883237, 7498790.24289180804044 ], [ 5213907.890001202002168, 7498747.02780182659626 ], [ 5213883.524192887358367, 7498731.987061258405447 ], [ 5213850.075117588974535, 7498694.611448699608445 ], [ 5213800.561157175339758, 7498685.838692068122327 ], [ 5213744.275364936329424, 7498664.139823589473963 ], [ 5213678.307165332138538, 7498656.781764458864927 ], [ 5213594.558003147132695, 7498633.115917121991515 ], [ 5213595.345144133083522, 7498610.632366077974439 ], [ 5213657.093875013291836, 7498631.05884575471282 ], [ 5213694.553656909614801, 7498641.185748558491468 ], [ 5213738.274051027372479, 7498627.555914464406669 ], [ 5213787.254041007719934, 7498597.308419259265065 ], [ 5213826.37602137774229, 7498569.558537753298879 ], [ 5213839.21664110571146, 7498545.721130263060331 ], [ 5213853.602648635394871, 7498553.798095747828484 ], [ 5213858.306176113896072, 7498576.205105494707823 ], [ 5213882.661447047255933, 7498591.246010110713542 ], [ 5213939.70058411359787, 7498588.078767713159323 ], [ 5213962.113510108552873, 7498620.887631697580218 ], [ 5214014.114509448409081, 7498650.923176258802414 ], [ 5214039.388457700610161, 7498652.930639307014644 ], [ 5214070.047642700374126, 7498568.518246381543577 ], [ 5214132.302553079091012, 7498546.361848153173923 ], [ 5214189.143388892523944, 7498529.012495703995228 ], [ 5214230.910795175470412, 7498533.160556406714022 ], [ 5214265.378096085973084, 7498564.614890030585229 ], [ 5214292.55472666490823, 7498545.308339955285192 ], [ 5214295.315844228491187, 7498507.416347285732627 ], [ 5214286.858844576403499, 7498451.940155118703842 ], [ 5214316.951359949074686, 7498406.57410107459873 ], [ 5214352.676443168893456, 7498370.592562656849623 ], [ 5214412.062056633643806, 7498299.97255080845207 ], [ 5214475.03480345569551, 7498250.589086931198835 ], [ 5214472.033375504426658, 7498232.302742525935173 ], [ 5214458.490914954803884, 7498205.875128472223878 ], [ 5214448.081477248109877, 7498168.178397292271256 ], [ 5214431.306943024508655, 7498145.92928047478199 ], [ 5214400.229416893795133, 7498121.531005393713713 ], [ 5214342.076692936941981, 7498083.903593483380973 ], [ 5214323.807709721848369, 7498032.708986962214112 ], [ 5214322.566350245848298, 7497983.636567186564207 ], [ 5214310.22351779974997, 7497964.284061251208186 ], [ 5214318.722519683651626, 7497944.063894825056195 ], [ 5214339.812180167064071, 7497960.922692936845124 ], [ 5214363.209386586211622, 7497985.428475798107684 ], [ 5214374.97218048479408, 7498003.00498354062438 ], [ 5214430.332136016339064, 7498036.538029627874494 ], [ 5214485.201272381469607, 7498075.396753918379545 ], [ 5214526.737063773907721, 7498102.019872533157468 ], [ 5214579.234576554037631, 7498127.891051171347499 ], [ 5214627.071294771507382, 7498133.737053895369172 ], [ 5214654.252819023095071, 7498115.60428080521524 ], [ 5214641.290276510640979, 7498090.95276137534529 ], [ 5214613.543713894672692, 7498069.455856247805059 ], [ 5214594.362148671410978, 7498032.469323156401515 ], [ 5214594.584713842719793, 7497969.768591931089759 ], [ 5214611.003869459033012, 7497926.964588023722172 ], [ 5214660.870303825475276, 7497922.12185557000339 ], [ 5214676.578283574432135, 7497907.119467195123434 ], [ 5214664.77171939983964, 7497887.172390379011631 ], [ 5214648.088351953774691, 7497871.437993142753839 ], [ 5214676.239118521101773, 7497843.251950132660568 ], [ 5214710.75210093986243, 7497800.183251763693988 ], [ 5214723.449815868400037, 7497766.296204851008952 ], [ 5214724.829670711420476, 7497747.350105051882565 ], [ 5214727.360303576104343, 7497741.552399795502424 ], [ 5213987.588464605621994, 7497301.028092426247895 ], [ 5213886.079150329343975, 7497160.329116786830127 ], [ 5213694.381873521953821, 7497094.622083842754364 ], [ 5213171.779057973064482, 7496775.429694274440408 ], [ 5213011.207525718957186, 7496453.406969884410501 ], [ 5213011.006351791322231, 7496452.988684209063649 ], [ 5212970.084472641348839, 7496370.9256706321612 ], [ 5212755.780030942521989, 7495609.427808839827776 ], [ 5212482.883454929105937, 7495455.522141519002616 ], [ 5211990.878595765680075, 7495334.2233413644135 ], [ 5211987.178337862715125, 7494861.322418820112944 ], [ 5211153.877809244208038, 7494659.830556666478515 ], [ 5211145.977186248637736, 7493634.222211615182459 ], [ 5209868.605439480394125, 7493349.921734949573874 ], [ 5209784.176285618916154, 7493331.123171453364193 ], [ 5210722.875824999064207, 7491939.526990488171577 ], [ 5213705.682670290581882, 7488858.721210153773427 ], [ 5213377.980516703799367, 7488160.81902517285198 ], [ 5213360.978093521669507, 7487795.11955435667187 ], [ 5213404.979471512138844, 7487609.125287011265755 ], [ 5213315.785829056054354, 7486822.925116370432079 ], [ 5213051.18339233379811, 7486207.423969354480505 ], [ 5212796.87920143827796, 7485615.822391535155475 ], [ 5212818.583536312915385, 7485360.727520540356636 ], [ 5212762.884152319282293, 7484726.924510674551129 ], [ 5212958.982850509695709, 7484376.021579314023256 ], [ 5212994.183192804455757, 7484265.924276753328741 ], [ 5213010.781100354157388, 7484048.819877833127975 ], [ 5212965.775348772294819, 7483578.726132959127426 ], [ 5213304.87969146296382, 7482773.519444368779659 ], [ 5213514.775011848658323, 7482647.61827530991286 ], [ 5213683.435112773440778, 7482415.047190924175084 ], [ 5213681.059361129067838, 7481854.296058679930866 ], [ 5213674.841839070431888, 7480391.217929319478571 ], [ 5213672.35341661889106, 7479806.896891775541008 ], [ 5213651.417881052009761, 7479175.860618196427822 ], [ 5213610.743010141886771, 7478427.959722970612347 ], [ 5213630.561418202705681, 7477692.217353880405426 ], [ 5213550.500622113235295, 7476717.068195939064026 ], [ 5213548.670397739857435, 7476586.920166587457061 ], [ 5213493.778924949467182, 7475740.925238208845258 ], [ 5213446.7859658729285, 7475774.797342412173748 ], [ 5213398.556044390425086, 7475775.475568816065788 ], [ 5213362.65285930968821, 7475795.505862468853593 ], [ 5213261.334546625614166, 7475881.536675585433841 ], [ 5213220.318607421591878, 7475966.719698257744312 ], [ 5213053.764043382368982, 7476131.778124764561653 ], [ 5212803.068743363954127, 7476317.528451872989535 ], [ 5212640.901697481051087, 7476365.356475433334708 ], [ 5212550.818709933198988, 7476392.659275578334928 ], [ 5212442.918820375576615, 7476439.725152047351003 ], [ 5212425.102346065454185, 7476459.49984251242131 ], [ 5212358.78064373973757, 7476460.427702825516462 ], [ 5212334.654326875694096, 7476460.765165280550718 ], [ 5212286.786072385497391, 7476487.464725088328123 ], [ 5212244.842943490482867, 7476507.576525057666004 ], [ 5212221.090700862929225, 7476533.949764787219465 ], [ 5212131.187667622230947, 7476574.256903901696205 ], [ 5212053.438251812011003, 7476620.898470255546272 ], [ 5211993.222878977656364, 7476628.244128938764334 ], [ 5211933.744297596625984, 7476687.650465336628258 ], [ 5211873.891863230615854, 7476721.031687907874584 ], [ 5211850.32006189506501, 7476760.411215486004949 ], [ 5211832.683992547914386, 7476793.20314241759479 ], [ 5211809.111953269690275, 7476832.582585657946765 ], [ 5211785.347974004223943, 7476858.944099428132176 ], [ 5211737.386777298524976, 7476879.138271972537041 ], [ 5211707.68678349070251, 7476912.098233798518777 ], [ 5211677.805211407132447, 7476932.040108506567776 ], [ 5211623.262692325748503, 7476913.275081673637033 ], [ 5211587.626345617696643, 7476952.822240015491843 ], [ 5211551.185856593772769, 7476999.52794208470732 ], [ 5211498.977829382754862, 7476916.125934870913625 ], [ 5211335.88221908826381, 7477002.016214017756283 ], [ 5211236.980858940631151, 7477300.924823351204395 ], [ 5211138.875047501176596, 7477374.417092084884644 ], [ 5211091.77879932243377, 7477515.416048888117075 ], [ 5211090.779655477963388, 7477869.221538526937366 ], [ 5211029.876582354307175, 7477975.317531481385231 ], [ 5210905.877153284847736, 7478056.325893211178482 ], [ 5210700.37253426015377, 7478384.422747464850545 ], [ 5210429.777372321113944, 7478703.621563777327538 ], [ 5210440.878654927015305, 7479117.517112884670496 ], [ 5210381.378347354009748, 7479417.023419557139277 ], [ 5209789.973334414884448, 7480065.421530498191714 ], [ 5209152.4783084243536, 7480500.82617218233645 ], [ 5208894.981078622862697, 7480798.623309146612883 ], [ 5208668.979625983163714, 7480921.423134334385395 ], [ 5208432.974786188453436, 7481242.518593437038362 ], [ 5208256.977414145134389, 7481289.618680085986853 ], [ 5208139.980336455628276, 7481541.019204445183277 ], [ 5207785.976962872780859, 7481698.720078085549176 ], [ 5207554.976787665858865, 7481920.622289924882352 ], [ 5207579.971863612532616, 7482080.523311772383749 ], [ 5207487.980729925446212, 7482461.62212282884866 ], [ 5207377.978104007430375, 7482563.824924832209945 ], [ 5207245.078386156819761, 7482840.5198411103338 ], [ 5207196.676554623991251, 7483101.226047541946173 ], [ 5206997.011954552493989, 7483345.317517802119255 ], [ 5206971.57737195584923, 7483376.423872135579586 ], [ 5206837.974528152495623, 7483539.7212497536093 ], [ 5206707.775891874916852, 7483590.72151168063283 ], [ 5206695.979430880397558, 7484017.529148048721254 ], [ 5206625.981084148399532, 7484133.819779207929969 ], [ 5206487.07631253823638, 7484188.725345887243748 ], [ 5206367.972251505590975, 7484445.720011506229639 ], [ 5206221.576377454213798, 7484528.12721056304872 ], [ 5206222.879283146932721, 7484692.726656138896942 ], [ 5206119.676027045585215, 7484937.225695065222681 ], [ 5205917.977253498509526, 7485310.827804085798562 ] ] ] } }
]
}
