{
"type": "FeatureCollection",
"name": "4115903",
"crs": { "type": "name", "properties": { "name": "urn:ogc:def:crs:EPSG::5880" } },
"features": [
{ "type": "Feature", "properties": { "lv_id": "LOC_061842", "id": 388163.0, "CD_SETOR": "411590305000001", "SITUACAO": "Urbana", "CD_SIT": "1", "CD_TIPO": "0", "AREA_KM2": 0.62475504371735602, "CD_REGIAO": "4", "NM_REGIAO": "Sul", "CD_UF": "41", "NM_UF": "Paraná", "CD_MUN": "4115903", "NM_MUN": "Mirador", "CD_DIST": "411590305", "NM_DIST": "Mirador", "CD_SUBDIST": "41159030500", "NM_SUBDIST": null, "CD_BAIRRO": null, "NM_BAIRRO": null, "CD_NU": null, "NM_NU": null, "CD_FCU": null, "NM_FCU": null, "CD_AGLOM": null, "NM_AGLOM": null, "CD_RGINT": "4104", "NM_RGINT": "Maringá", "CD_RGI": "410017", "NM_RGI": "Paranavaí", "CD_CONCURB": null, "NM_CONCURB": null, "mun_code_x": "4115903", "index_right": 58956, "dist_m": 76.379721447843195, "local_id": 663953, "ano": 2022, "cod_localidade_ibge": 4115903, "NR_ZONA": "100", "nr_cep": 87840000.0, "nm_localidade": "MIRADOR", "nm_locvot": "COLÉGIO ESTADUAL PEDRO VIRIATO PARIGOT DE SOUZA", "ds_endereco": "RUA MUNHOZ DE MELO, S/N", "ds_bairro": "CENTRO", "pred_long": -52.775918, "pred_lat": -23.255601, "pred_dist": 0.0, "tse_long": -52.77397702, "tse_lat": -23.25675089, "long": -52.77397702, "lat": -23.25675089, "ID_UNICO": "LOC_061842", "SG_UF": "PR", "CD_MUNICIPIO": "77038", "NR_LOCAL_VOTACAO": "1015", "QT_SECOES_AGREGADAS": 0, "QT_ELEITORES_TRANSFERIDOS": 0, "CIRO GOMES (PDT) (NÃO ELEITO) 1T": 16.0, "CONSTITUINTE EYMAEL (DC) (NÃO ELEITO) 1T": 0.0, "FELIPE D AVILA (NOVO) (NÃO ELEITO) 1T": 1.0, "JAIR BOLSONARO (PL) (2º TURNO) 1T": 383.0, "LULA (PT) (2º TURNO) 1T": 871.0, "LÉO PÉRICLES (UP) (NÃO ELEITO) 1T": 0.0, "PADRE KELMON (PTB) (NÃO ELEITO) 1T": 1.0, "SIMONE TEBET (MDB) (NÃO ELEITO) 1T": 41.0, "SOFIA MANZANO (PCB) (NÃO ELEITO) 1T": 0.0, "SORAYA THRONICKE (UNIÃO) (NÃO ELEITO) 1T": 3.0, "VERA (PSTU) (NÃO ELEITO) 1T": 0.0, "Total_Votos_Validos 1T": 1316.0, "Votos_Brancos 1T": 12.0, "Votos_Nulos 1T": 22.0, "Abstenções 1T": 418.0, "Eleitores_Aptos 1T": 1768.0, "JAIR BOLSONARO (PL) (NÃO ELEITO) 2T": 405.0, "LULA (PT) (ELEITO) 2T": 872.0, "Total_Votos_Validos 2T": 1277.0, "Votos_Brancos 2T": 15.0, "Votos_Nulos 2T": 12.0, "Abstenções 2T": 464.0, "Eleitores_Aptos 2T": 1768.0, "mun_code_y": "4115903", "mun_code": "4115903" }, "geometry": { "type": "Polygon", "coordinates": [ [ [ 5126094.68784811720252, 7427118.823022528551519 ], [ 5126001.281620390713215, 7427015.754770714789629 ], [ 5126055.708874985575676, 7426968.181027336977422 ], [ 5126092.559999565593898, 7426948.94810985121876 ], [ 5125956.619506992399693, 7426800.602132633328438 ], [ 5125917.352719580754638, 7426837.844783499836922 ], [ 5125844.858549209311604, 7426908.977518665604293 ], [ 5125735.093421361409128, 7426787.923868847079575 ], [ 5125668.970336844213307, 7426720.756894256919622 ], [ 5125697.780727797187865, 7426690.969844012521207 ], [ 5125640.988140163011849, 7426639.198791103437543 ], [ 5125653.233961361460388, 7426620.662517296150327 ], [ 5125584.791086924262345, 7426573.0995366955176 ], [ 5125570.397318987175822, 7426588.131332086399198 ], [ 5125557.640282510779798, 7426577.68253156915307 ], [ 5125536.285466405563056, 7426563.37396826967597 ], [ 5125603.914198873564601, 7426442.125772868283093 ], [ 5125534.79882391076535, 7426403.263985623605549 ], [ 5125541.256054530851543, 7426371.816280203871429 ], [ 5125547.299912271089852, 7426321.740021114237607 ], [ 5125545.619666430167854, 7426277.932370228692889 ], [ 5125540.021094676107168, 7426222.127886238507926 ], [ 5125518.747309199534357, 7426154.403818679973483 ], [ 5125498.148796518333256, 7426101.174223938956857 ], [ 5125470.34835131559521, 7426051.793919842690229 ], [ 5125428.818190097808838, 7426019.666190221905708 ], [ 5125405.301448160782456, 7425961.310192298144102 ], [ 5125353.725657237693667, 7425928.270175434648991 ], [ 5125297.338298911228776, 7425904.642010206356645 ], [ 5125256.336648691445589, 7425887.762828912585974 ], [ 5125199.293665194883943, 7425870.077276028692722 ], [ 5125135.346049060113728, 7425856.304621960036457 ], [ 5125108.77760845888406, 7425854.567891746759415 ], [ 5125072.137463979423046, 7425858.576482413336635 ], [ 5125011.646133282221854, 7425882.171144637279212 ], [ 5124970.707413202151656, 7425898.245625630021095 ], [ 5124936.502809221856296, 7425922.958989223465323 ], [ 5124872.811195503920317, 7426002.87479280680418 ], [ 5124817.957352957688272, 7426090.990708372555673 ], [ 5124787.890284788794816, 7426141.766986081376672 ], [ 5124773.403478749096394, 7426181.080188563093543 ], [ 5124767.415972353890538, 7426280.781763486564159 ], [ 5124768.334708263166249, 7426384.025401597842574 ], [ 5124788.432491754181683, 7426448.569984069094062 ], [ 5124809.294349379837513, 7426477.383883655071259 ], [ 5124831.682131256908178, 7426496.592000694945455 ], [ 5124778.124690288677812, 7426617.474379702471197 ], [ 5124768.29857680387795, 7426628.168982436880469 ], [ 5124731.711256233975291, 7426661.852205344475806 ], [ 5124975.850714414380491, 7426777.994065843522549 ], [ 5124984.29640894010663, 7426751.625505840405822 ], [ 5125245.899297163821757, 7427077.918550299480557 ], [ 5125289.748435362242162, 7427013.444392625242472 ], [ 5125507.913926439359784, 7427229.980227518826723 ], [ 5125496.084742741659284, 7427245.832103986293077 ], [ 5125474.922741699032485, 7427271.411142900586128 ], [ 5125590.459367187693715, 7427382.603435664437711 ], [ 5125611.574414239265025, 7427361.156464941799641 ], [ 5125670.155854144133627, 7427419.647598215378821 ], [ 5125733.741255762055516, 7427354.717106366530061 ], [ 5125674.331161538138986, 7427299.888742359355092 ], [ 5125793.556550755165517, 7427186.655220891349018 ], [ 5125798.410337950102985, 7427182.183184890076518 ], [ 5126043.429920572787523, 7427448.298911619931459 ], [ 5126133.313166477717459, 7427367.535500962287188 ], [ 5125988.869987569749355, 7427210.178462473675609 ], [ 5126094.68784811720252, 7427118.823022528551519 ] ] ] } },
{ "type": "Feature", "properties": { "lv_id": "LOC_061843", "id": 388165.0, "CD_SETOR": "411590305000003", "SITUACAO": "Rural", "CD_SIT": "8", "CD_TIPO": "0", "AREA_KM2": 112.13962239013384, "CD_REGIAO": "4", "NM_REGIAO": "Sul", "CD_UF": "41", "NM_UF": "Paraná", "CD_MUN": "4115903", "NM_MUN": "Mirador", "CD_DIST": "411590305", "NM_DIST": "Mirador", "CD_SUBDIST": "41159030500", "NM_SUBDIST": null, "CD_BAIRRO": null, "NM_BAIRRO": null, "CD_NU": null, "NM_NU": null, "CD_FCU": null, "NM_FCU": null, "CD_AGLOM": "411590300008", "NM_AGLOM": "Quatro Marcos", "CD_RGINT": "4104", "NM_RGINT": "Maringá", "CD_RGI": "410017", "NM_RGI": "Paranavaí", "CD_CONCURB": null, "NM_CONCURB": null, "mun_code_x": "4115903", "index_right": 58957, "dist_m": 130.02307770510134, "local_id": 663954, "ano": 2022, "cod_localidade_ibge": 4115903, "NR_ZONA": "100", "nr_cep": 87840000.0, "nm_localidade": "MIRADOR", "nm_locvot": "ESCOLA RURAL MUNICIPAL ELEODORO ÉBANO PEREIRA", "ds_endereco": "RUA TRÊS MARCOS, S/N", "ds_bairro": "QUATRO MARCOS", "pred_long": -52.7078073, "pred_lat": -23.1179081, "pred_dist": 0.0, "tse_long": -52.70780797, "tse_lat": -23.11777959, "long": -52.70780797, "lat": -23.11777959, "ID_UNICO": "LOC_061843", "SG_UF": "PR", "CD_MUNICIPIO": "77038", "NR_LOCAL_VOTACAO": "1023", "QT_SECOES_AGREGADAS": 0, "QT_ELEITORES_TRANSFERIDOS": 0, "CIRO GOMES (PDT) (NÃO ELEITO) 1T": 4.0, "CONSTITUINTE EYMAEL (DC) (NÃO ELEITO) 1T": 0.0, "FELIPE D AVILA (NOVO) (NÃO ELEITO) 1T": 0.0, "JAIR BOLSONARO (PL) (2º TURNO) 1T": 165.0, "LULA (PT) (2º TURNO) 1T": 151.0, "LÉO PÉRICLES (UP) (NÃO ELEITO) 1T": 0.0, "PADRE KELMON (PTB) (NÃO ELEITO) 1T": 0.0, "SIMONE TEBET (MDB) (NÃO ELEITO) 1T": 10.0, "SOFIA MANZANO (PCB) (NÃO ELEITO) 1T": 0.0, "SORAYA THRONICKE (UNIÃO) (NÃO ELEITO) 1T": 0.0, "VERA (PSTU) (NÃO ELEITO) 1T": 0.0, "Total_Votos_Validos 1T": 330.0, "Votos_Brancos 1T": 0.0, "Votos_Nulos 1T": 4.0, "Abstenções 1T": 67.0, "Eleitores_Aptos 1T": 401.0, "JAIR BOLSONARO (PL) (NÃO ELEITO) 2T": 191.0, "LULA (PT) (ELEITO) 2T": 139.0, "Total_Votos_Validos 2T": 330.0, "Votos_Brancos 2T": 2.0, "Votos_Nulos 2T": 3.0, "Abstenções 2T": 66.0, "Eleitores_Aptos 2T": 401.0, "mun_code_y": "4115903", "mun_code": "4115903" }, "geometry": { "type": "Polygon", "coordinates": [ [ [ 5134580.335033527575433, 7441617.233765671029687 ], [ 5135402.23744358215481, 7441972.931910656392574 ], [ 5137200.132912668399513, 7441897.229295482859015 ], [ 5138286.03071778640151, 7441874.926929924637079 ], [ 5138254.536460343748331, 7437128.231510544195771 ], [ 5138238.236522443592548, 7437120.827569735236466 ], [ 5138230.729884129017591, 7437063.326252778060734 ], [ 5138224.735628474503756, 7437017.630838664248586 ], [ 5138255.537945247255266, 7436955.631418688222766 ], [ 5138254.23985674418509, 7436895.125881716609001 ], [ 5138202.832407953217626, 7436802.228221327066422 ], [ 5138130.334681848064065, 7436776.124969821423292 ], [ 5138079.43090517167002, 7436705.433090884238482 ], [ 5138010.331440825015306, 7436684.626211106777191 ], [ 5137880.335553641431034, 7436687.324050301685929 ], [ 5137784.437879789620638, 7436573.423165511339903 ], [ 5137735.334924674592912, 7436602.124868090264499 ], [ 5137674.735080501064658, 7436603.426613949239254 ], [ 5137652.436890308745205, 7436587.32607257924974 ], [ 5137649.435363686643541, 7436438.524935288354754 ], [ 5137675.932803720235825, 7436393.72583094611764 ], [ 5137669.438720578327775, 7436334.730574019253254 ], [ 5137590.837952167727053, 7436279.425028218887746 ], [ 5137458.930198995396495, 7436298.731426157057285 ], [ 5137452.738043736666441, 7436265.732677950523794 ], [ 5137479.032378175295889, 7436204.430042063817382 ], [ 5137455.939229373820126, 7436155.325056512840092 ], [ 5137350.137034247629344, 7436086.023165041580796 ], [ 5137304.13056075386703, 7436009.423735791817307 ], [ 5137291.738396639935672, 7435938.031379945576191 ], [ 5137323.439239378087223, 7435876.723522990942001 ], [ 5137171.030069324187934, 7435708.52719852514565 ], [ 5136791.931370709091425, 7435512.324452327564359 ], [ 5136742.535213656723499, 7435513.331538589671254 ], [ 5136694.631140346638858, 7435607.831356136128306 ], [ 5136651.336183281615376, 7435636.631419513374567 ], [ 5136534.337659062817693, 7435578.327190453186631 ], [ 5136485.429141304455698, 7435347.429254287853837 ], [ 5136433.234638726338744, 7435221.632865095511079 ], [ 5136353.836455525830388, 7435118.329167420975864 ], [ 5136343.935174899175763, 7434903.424568928778172 ], [ 5136298.937022016383708, 7434860.024049891158938 ], [ 5135975.636451490223408, 7434690.132980329915881 ], [ 5135871.636542623862624, 7434727.925854723900557 ], [ 5135828.536997321993113, 7434787.030253673903644 ], [ 5135784.53818498365581, 7434787.929722463712096 ], [ 5135740.032000115141273, 7434761.228218287229538 ], [ 5135715.929735733196139, 7434667.930359560996294 ], [ 5135626.835469790734351, 7434620.033194834366441 ], [ 5135586.831304117105901, 7434549.024086005985737 ], [ 5135564.628847798332572, 7434549.624895916320384 ], [ 5135548.733994570560753, 7434582.924841661006212 ], [ 5135509.931096573360264, 7434573.030969949439168 ], [ 5135497.037361686117947, 7434479.232103104703128 ], [ 5135435.337583070620894, 7434441.929737101309001 ], [ 5135412.436347454786301, 7434387.026704386807978 ], [ 5135410.529330910183489, 7434293.227625762112439 ], [ 5135436.028447453863919, 7434193.529829140752554 ], [ 5135469.537516812793911, 7434144.926698559895158 ], [ 5135459.230609153397381, 7433983.131915350444615 ], [ 5135414.738121538423002, 7433962.123368367552757 ], [ 5135372.931652646511793, 7434073.323934340849519 ], [ 5135328.638044025748968, 7434074.224860114976764 ], [ 5135295.528817635960877, 7434024.831367652863264 ], [ 5135244.935143138282001, 7434020.826494373381138 ], [ 5135216.830487437546253, 7433993.730973648838699 ], [ 5135208.62813737615943, 7433867.232513716444373 ], [ 5135140.937843401916325, 7433796.72845134884119 ], [ 5135106.031195169314742, 7433698.033336516469717 ], [ 5135061.233386901207268, 7433671.432378670200706 ], [ 5135054.732897837646306, 7433621.830355670303106 ], [ 5135081.235574360005558, 7433571.729647901840508 ], [ 5135075.230507748201489, 7433544.023590901866555 ], [ 5134985.4300397336483, 7433457.922745371237397 ], [ 5135044.829401537775993, 7433406.925696255639195 ], [ 5134985.135082510299981, 7433328.228651372715831 ], [ 5135036.536293105222285, 7433269.128805866464972 ], [ 5134963.333003303967416, 7433198.829171385616064 ], [ 5134984.235493455082178, 7433143.129752098582685 ], [ 5134889.037012959830463, 7433067.722981613129377 ], [ 5134854.335869587957859, 7432985.730578097514808 ], [ 5134815.037798602133989, 7432953.429614530876279 ], [ 5134709.727909854613245, 7432933.623273953795433 ], [ 5134654.932180784642696, 7432951.322441990487278 ], [ 5134651.4290617601946, 7433039.432198755443096 ], [ 5134607.331484249792993, 7433045.823880752548575 ], [ 5134523.827673452906311, 7433009.025420302525163 ], [ 5134521.734040954150259, 7432915.527194490656257 ], [ 5134373.73673786316067, 7432951.625044303014874 ], [ 5134367.127695679664612, 7432896.529321955516934 ], [ 5134344.634373854845762, 7432874.831877339631319 ], [ 5134245.33654797077179, 7432882.429431235417724 ], [ 5134195.23094049282372, 7432850.324059695005417 ], [ 5134221.634237600490451, 7432794.731332333758473 ], [ 5134225.735583889298141, 7432728.428187728859484 ], [ 5134090.52845957595855, 7432593.126293504610658 ], [ 5134105.332250061444938, 7432504.527299825102091 ], [ 5134214.535609509795904, 7432458.125028131529689 ], [ 5134224.236483526416123, 7432386.132869927212596 ], [ 5134173.737198695540428, 7432337.425737647339702 ], [ 5134161.035908274352551, 7432260.528753409162164 ], [ 5134104.83609374333173, 7432211.928183153271675 ], [ 5134092.731007911264896, 7432162.531457778066397 ], [ 5134118.428015852347016, 7432068.428371148183942 ], [ 5134056.327946064993739, 7431997.725628384388983 ], [ 5133989.834826422855258, 7431982.527723053470254 ], [ 5133946.531154042109847, 7432016.526914344169199 ], [ 5133885.130145130679011, 7431984.732797178439796 ], [ 5133841.036296091042459, 7431985.528166642412543 ], [ 5133804.430606824345887, 7432041.533244090154767 ], [ 5133793.933114917948842, 7432102.532172579318285 ], [ 5133727.731290526688099, 7432103.824988652952015 ], [ 5133709.536081577651203, 7432027.032491550780833 ], [ 5133648.136402255855501, 7431989.63215759396553 ], [ 5133630.828032941557467, 7431956.831769061274827 ], [ 5133618.131502454169095, 7431874.428869091905653 ], [ 5133557.327480685897171, 7431864.528481462970376 ], [ 5133517.833116162568331, 7431826.831371802836657 ], [ 5133390.627851217053831, 7431807.223739989101887 ], [ 5133390.136741129681468, 7431774.128358761779964 ], [ 5133417.029203443787992, 7431757.027232291176915 ], [ 5133422.034260974265635, 7431723.827184964902699 ], [ 5133361.830267727375031, 7431657.425046979449689 ], [ 5133363.431255351752043, 7431553.924016827717423 ], [ 5133334.932354561053216, 7431516.22763522900641 ], [ 5133257.030344574712217, 7431489.829719793051481 ], [ 5132921.135570249520242, 7431463.522701989859343 ], [ 5132759.728934060782194, 7431422.724926812574267 ], [ 5132642.528378101065755, 7431353.627116510644555 ], [ 5132585.33187529630959, 7431255.424891889095306 ], [ 5132479.231081550009549, 7431196.828194766305387 ], [ 5132376.533192681148648, 7431022.429168812930584 ], [ 5132375.235604845918715, 7430961.724727476015687 ], [ 5132407.531199274584651, 7430922.632704371586442 ], [ 5132390.42908010724932, 7430895.323686479590833 ], [ 5132324.031595231965184, 7430885.523694528266788 ], [ 5132279.330377537757158, 7430853.331125801429152 ], [ 5132227.73397166095674, 7430760.528066048398614 ], [ 5132216.133513562381268, 7430468.826713006943464 ], [ 5132171.430082281120121, 7430436.224040449596941 ], [ 5132136.336392614990473, 7430337.724230989813805 ], [ 5132103.228792899288237, 7430338.328503180295229 ], [ 5132054.526923125609756, 7430383.325911709107459 ], [ 5132005.235095358453691, 7430395.328415684401989 ], [ 5131977.232799756340683, 7430379.52557760477066 ], [ 5131970.630710611119866, 7430329.923595609143376 ], [ 5131920.636050302535295, 7430308.832410470582545 ], [ 5131810.326837043277919, 7430305.623131653293967 ], [ 5131711.931216407567263, 7430346.229898724704981 ], [ 5131524.934673501178622, 7430377.727530423551798 ], [ 5131529.329842803068459, 7430316.828819591552019 ], [ 5131507.026114549487829, 7430306.424870712682605 ], [ 5131414.929674016311765, 7430380.029205264523625 ], [ 5131348.935963774099946, 7430392.431851977482438 ], [ 5131288.030499486252666, 7430377.128769354894757 ], [ 5131248.334231111221015, 7430328.22856202814728 ], [ 5131184.632508043199778, 7430169.928182981908321 ], [ 5131050.528585489839315, 7430094.93058699183166 ], [ 5131254.532637177035213, 7429831.325720524415374 ], [ 5131367.029810862615705, 7429428.03023917041719 ], [ 5131419.926923858933151, 7429292.727180968038738 ], [ 5131574.133330254815519, 7429013.328290460631251 ], [ 5132396.826921651139855, 7427732.32395756803453 ], [ 5131554.930416385643184, 7427287.130035805515945 ], [ 5131504.934189994819462, 7427001.129438515752554 ], [ 5131500.328673478215933, 7426780.328088488429785 ], [ 5131564.233411397784948, 7426133.231169033795595 ], [ 5131573.029773863963783, 7425765.621592635288835 ], [ 5131555.658006659708917, 7425503.912807056680322 ], [ 5131554.334849456325173, 7425483.929511939175427 ], [ 5131476.929502857849002, 7424313.327522546052933 ], [ 5131343.333228479139507, 7424255.423179794102907 ], [ 5131038.429656639695168, 7424178.926222393289208 ], [ 5130904.525371024385095, 7424110.131561731919646 ], [ 5130798.232678015716374, 7424029.228223189711571 ], [ 5130687.027563503012061, 7423987.526636546477675 ], [ 5130389.428514692001045, 7423993.723889384418726 ], [ 5130223.534378942102194, 7423974.931608533486724 ], [ 5130045.927143880166113, 7423923.627949064597487 ], [ 5129917.934379425831139, 7423859.624879756942391 ], [ 5129688.23319134209305, 7423693.821903682313859 ], [ 5129200.724343460053205, 7423631.523513069376349 ], [ 5128979.930836833082139, 7423575.731763928197324 ], [ 5128818.932722194120288, 7423523.82633556611836 ], [ 5128612.633979664184153, 7423417.822078319266438 ], [ 5128478.332304758019745, 7423321.12793049775064 ], [ 5128382.433025039732456, 7423223.723554237745702 ], [ 5128335.832752295769751, 7423103.327160974964499 ], [ 5128171.923727525398135, 7422907.93171598110348 ], [ 5128091.125637533143163, 7422733.129772607237101 ], [ 5128054.927662952803075, 7422584.827231986448169 ], [ 5127888.732046023011208, 7422284.622783971950412 ], [ 5127738.123799624852836, 7422199.329117739573121 ], [ 5127113.024292740039527, 7422112.927190162241459 ], [ 5126882.125480647198856, 7422139.83007401227951 ], [ 5126468.624258334748447, 7422149.523567377589643 ], [ 5126326.33195365127176, 7422366.624604266136885 ], [ 5126245.431564307771623, 7423014.222471989691257 ], [ 5126173.627692244946957, 7423142.323337629437447 ], [ 5126045.426263113506138, 7423276.032135022804141 ], [ 5125915.222872470505536, 7423316.429846618324518 ], [ 5125624.024946509860456, 7423266.32670861762017 ], [ 5125501.432222316972911, 7423281.322343688458204 ], [ 5125383.429307634942234, 7423397.525094993412495 ], [ 5125320.928642340935767, 7423539.223123302683234 ], [ 5125216.732201865874231, 7423925.428453413769603 ], [ 5125090.328670197166502, 7424157.723214080557227 ], [ 5124431.025278110988438, 7424859.73137682210654 ], [ 5124164.022888381965458, 7425071.428382463753223 ], [ 5124008.523704282008111, 7425155.730698060244322 ], [ 5123858.625395688228309, 7425237.026907438412309 ], [ 5123506.124330693855882, 7425389.430127147585154 ], [ 5123217.23229313082993, 7425442.13322913646698 ], [ 5122926.825333666056395, 7425429.531851291656494 ], [ 5122210.724920236505568, 7425196.023522948846221 ], [ 5121983.126168043352664, 7425051.123437919653952 ], [ 5121792.823089265264571, 7424895.722972728312016 ], [ 5121629.728362364694476, 7424697.627312922850251 ], [ 5121409.824517411179841, 7424477.430880566127598 ], [ 5121173.627104826271534, 7424369.831065507605672 ], [ 5120911.130173608660698, 7424337.833188035525382 ], [ 5120705.829146572388709, 7424375.029601732268929 ], [ 5120473.522284017875791, 7424454.624210272915661 ], [ 5120223.226711065508425, 7424572.233534777536988 ], [ 5120082.727483388036489, 7424575.132719799876213 ], [ 5119997.924550311639905, 7424539.430573084391654 ], [ 5119891.828059587627649, 7424387.025421814993024 ], [ 5119749.323351978324354, 7424287.031384218484163 ], [ 5119316.927857955917716, 7424192.826875782571733 ], [ 5119009.927738314494491, 7424278.925232268869877 ], [ 5118832.327164486050606, 7424282.531267203390598 ], [ 5118296.925668474286795, 7424190.628705713897943 ], [ 5118072.222455617971718, 7424190.62461822386831 ], [ 5117422.130112041719258, 7424428.923361714929342 ], [ 5117221.921681539155543, 7424547.225266344845295 ], [ 5117052.527774927206337, 7424647.325377497822046 ], [ 5116804.320804447866976, 7424867.631338000297546 ], [ 5116665.620297777466476, 7425050.23009198717773 ], [ 5116336.820916089229286, 7425333.025752512738109 ], [ 5116393.225097794085741, 7425351.824167417362332 ], [ 5116461.323830682784319, 7425417.430504657328129 ], [ 5116449.428043088875711, 7425558.832764513790607 ], [ 5116480.225582894869149, 7425606.831294320523739 ], [ 5116576.22264373395592, 7425575.128521010279655 ], [ 5116636.828437787480652, 7425625.827985934913158 ], [ 5116669.026943228207529, 7425751.730596457608044 ], [ 5116633.023509072139859, 7425804.429791701957583 ], [ 5116678.423337974585593, 7425840.626998360268772 ], [ 5116803.724470817483962, 7425800.728087704628706 ], [ 5116879.322689840570092, 7425851.430498016998172 ], [ 5116931.526205472648144, 7425849.734416271559894 ], [ 5117024.527296240441501, 7425688.429464869201183 ], [ 5117076.529519813135266, 7425687.232895034365356 ], [ 5117136.827863541431725, 7425723.333370677195489 ], [ 5117198.229878929443657, 7425818.830823487602174 ], [ 5117214.722850199788809, 7425900.227269265800714 ], [ 5117194.520623386837542, 7426004.831747022457421 ], [ 5117137.622867179103196, 7426124.934473252855241 ], [ 5117079.528379263356328, 7426189.428815418854356 ], [ 5116990.624193223193288, 7426206.124853994697332 ], [ 5116969.428439891897142, 7426251.131487955339253 ], [ 5117009.821441951207817, 7426413.932797734625638 ], [ 5117165.729759128764272, 7426763.932241022586823 ], [ 5117163.030538196675479, 7426987.331903511658311 ], [ 5117224.824554231017828, 7427112.423972858116031 ], [ 5117299.12446974311024, 7427468.128360274247825 ], [ 5117465.023021198809147, 7427944.434569526463747 ], [ 5117464.528757535852492, 7428020.426534971222281 ], [ 5117430.225830626673996, 7428049.13229239359498 ], [ 5117408.924661820754409, 7428101.727949203923345 ], [ 5117424.526597456075251, 7428138.634973373264074 ], [ 5117507.329866860993207, 7428188.934432214125991 ], [ 5117508.42675453517586, 7428240.932154941372573 ], [ 5117429.327693172730505, 7428365.431251291185617 ], [ 5117485.121303281746805, 7428557.829218281432986 ], [ 5117419.930701153352857, 7428633.324438877403736 ], [ 5117428.8214629618451, 7428692.527035610750318 ], [ 5117506.621724061667919, 7428869.53127253241837 ], [ 5117540.727032649330795, 7429080.931343615055084 ], [ 5117676.325208366848528, 7429531.831954996101558 ], [ 5117737.624217682518065, 7429619.8294388493523 ], [ 5117820.426279055885971, 7429670.127551067620516 ], [ 5117942.123833237215877, 7429681.834727995097637 ], [ 5118075.622831905260682, 7429787.634735427796841 ], [ 5118149.827053852379322, 7429786.12589312158525 ], [ 5118195.030756481923163, 7429815.032010965980589 ], [ 5118226.022326359525323, 7429874.12501114141196 ], [ 5118339.723660147748888, 7429983.026685103774071 ], [ 5118489.822627927176654, 7430050.630581244826317 ], [ 5118600.622529459185898, 7430018.632030611857772 ], [ 5118716.930590240284801, 7429897.130815162323415 ], [ 5118971.724047761410475, 7429996.127778982743621 ], [ 5119138.031487530097365, 7430122.824393890798092 ], [ 5119272.929419727064669, 7430179.432162918150425 ], [ 5119466.428670314140618, 7430190.329558067023754 ], [ 5119944.227781277149916, 7430295.825076398439705 ], [ 5120352.727936005219817, 7430279.930293304845691 ], [ 5120568.926971373148263, 7430305.329013153910637 ], [ 5120860.327276227064431, 7430384.734761665575206 ], [ 5121086.226526588201523, 7430521.327640395611525 ], [ 5121326.328992101363838, 7430628.02622386906296 ], [ 5121589.723557232879102, 7430782.527801001444459 ], [ 5121878.229154879227281, 7431074.031401311978698 ], [ 5121932.223013038747013, 7431177.425783172249794 ], [ 5122106.129209206439555, 7431314.828979948535562 ], [ 5122204.830261319875717, 7431473.329714858904481 ], [ 5122387.726977188140154, 7431640.231965194456279 ], [ 5122494.523460114374757, 7431764.325337819755077 ], [ 5122604.730049695819616, 7432056.130809463560581 ], [ 5122843.431146466173232, 7432460.128295810893178 ], [ 5122930.125136541202664, 7432711.228994002565742 ], [ 5123075.626589805819094, 7432912.826990434899926 ], [ 5123099.527837877161801, 7432986.724326559342444 ], [ 5123118.424802536144853, 7433187.130588883534074 ], [ 5123196.127950089983642, 7433349.133439526893198 ], [ 5123205.229502242058516, 7433430.829508176073432 ], [ 5123156.325579336844385, 7433580.93027816619724 ], [ 5123193.031864681281149, 7433918.024814458563924 ], [ 5123138.332287402823567, 7434133.927041092887521 ], [ 5123156.023641093634069, 7434283.731717592105269 ], [ 5123130.33011781424284, 7434481.327167142182589 ], [ 5124445.229836692102253, 7434446.730760690756142 ], [ 5124516.534242709167302, 7435014.426754601299763 ], [ 5125678.828670970164239, 7435024.9304618248716 ], [ 5125983.327789737842977, 7435543.631100034341216 ], [ 5126304.034274412319064, 7436293.02720700763166 ], [ 5126329.032636065967381, 7436426.329123260453343 ], [ 5126412.926189134828746, 7436528.724921783432364 ], [ 5126416.030702777206898, 7436677.532081942074001 ], [ 5126448.029215450398624, 7436788.431751711294055 ], [ 5126562.725565820001066, 7436946.029280168935657 ], [ 5126687.425819084048271, 7437226.232359068468213 ], [ 5126735.629010071977973, 7437396.33455790579319 ], [ 5126757.227393744513392, 7437726.728465225547552 ], [ 5126737.928672936744988, 7437868.425964066758752 ], [ 5126793.532669040374458, 7438053.530145969241858 ], [ 5126968.133523417636752, 7438220.928877797909081 ], [ 5127114.530321466736495, 7438474.525224310345948 ], [ 5127147.032573647797108, 7438607.529501193203032 ], [ 5127150.134880099445581, 7438756.524903253652155 ], [ 5127116.42667109426111, 7438920.932017222046852 ], [ 5127024.332535295747221, 7439145.929716151207685 ], [ 5127011.432025737129152, 7439239.132314780727029 ], [ 5127043.432208238169551, 7439357.629869740456343 ], [ 5127175.330133362673223, 7439629.626704534515738 ], [ 5127177.434936108998954, 7439719.234463355503976 ], [ 5127216.028963434509933, 7439792.735329428687692 ], [ 5127284.427798581309617, 7440226.733514854684472 ], [ 5127315.32891602255404, 7440285.533819031901658 ], [ 5127368.335700656287372, 7440328.925516068935394 ], [ 5127375.028735875152051, 7440656.233077080920339 ], [ 5127598.431490186601877, 7441034.729134870693088 ], [ 5127671.630312968976796, 7441345.428802918642759 ], [ 5127777.836379035376012, 7441444.027657700702548 ], [ 5127869.536113862879574, 7441568.626309401355684 ], [ 5127924.128264871425927, 7441693.63072609808296 ], [ 5127941.028157196938992, 7441790.334136133082211 ], [ 5127907.330789878964424, 7441962.031259622424841 ], [ 5127953.732792092487216, 7442050.329351744614542 ], [ 5128104.22701390273869, 7442140.228070575743914 ], [ 5128135.434797583147883, 7442206.534669992513955 ], [ 5128144.534166127443314, 7442288.128972101956606 ], [ 5128072.629949161782861, 7442408.73344462364912 ], [ 5128135.631418925710022, 7442578.527895478531718 ], [ 5128137.034512284211814, 7442645.433288108557463 ], [ 5128051.828538271598518, 7442830.332800026983023 ], [ 5128759.033833544701338, 7442544.227747208438814 ], [ 5129076.429998993873596, 7442514.628809759393334 ], [ 5129814.936942882835865, 7442600.132309773936868 ], [ 5130250.127839385531843, 7442567.834762113168836 ], [ 5132367.424216046929359, 7442147.63022824563086 ], [ 5132393.408414482139051, 7442142.470696192234755 ], [ 5132399.523517183959484, 7442141.253413490019739 ], [ 5132407.080548166297376, 7442139.757499843835831 ], [ 5132589.308964408002794, 7442095.727040070109069 ], [ 5132741.608195474371314, 7442059.127169765532017 ], [ 5134580.335033527575433, 7441617.233765671029687 ] ], [ [ 5125917.352719580754638, 7426837.844783499836922 ], [ 5125956.619506992399693, 7426800.602132633328438 ], [ 5126092.559999565593898, 7426948.94810985121876 ], [ 5126055.708874985575676, 7426968.181027336977422 ], [ 5126001.281620390713215, 7427015.754770714789629 ], [ 5126094.68784811720252, 7427118.823022528551519 ], [ 5125988.869987569749355, 7427210.178462473675609 ], [ 5126133.313166477717459, 7427367.535500962287188 ], [ 5126043.429920572787523, 7427448.298911619931459 ], [ 5125798.410337950102985, 7427182.183184890076518 ], [ 5125793.556550755165517, 7427186.655220891349018 ], [ 5125674.331161538138986, 7427299.888742359355092 ], [ 5125733.741255762055516, 7427354.717106366530061 ], [ 5125670.155854144133627, 7427419.647598215378821 ], [ 5125611.574414239265025, 7427361.156464941799641 ], [ 5125590.459367187693715, 7427382.603435664437711 ], [ 5125474.922741699032485, 7427271.411142900586128 ], [ 5125496.084742741659284, 7427245.832103986293077 ], [ 5125507.913926439359784, 7427229.980227518826723 ], [ 5125289.748435362242162, 7427013.444392625242472 ], [ 5125245.899297163821757, 7427077.918550299480557 ], [ 5124984.29640894010663, 7426751.625505840405822 ], [ 5124975.850714414380491, 7426777.994065843522549 ], [ 5124731.711256233975291, 7426661.852205344475806 ], [ 5124768.29857680387795, 7426628.168982436880469 ], [ 5124778.124690288677812, 7426617.474379702471197 ], [ 5124831.682131256908178, 7426496.592000694945455 ], [ 5124809.294349379837513, 7426477.383883655071259 ], [ 5124788.432491754181683, 7426448.569984069094062 ], [ 5124768.334708263166249, 7426384.025401597842574 ], [ 5124767.415972353890538, 7426280.781763486564159 ], [ 5124773.403478749096394, 7426181.080188563093543 ], [ 5124787.890284788794816, 7426141.766986081376672 ], [ 5124817.957352957688272, 7426090.990708372555673 ], [ 5124872.811195503920317, 7426002.87479280680418 ], [ 5124936.502809221856296, 7425922.958989223465323 ], [ 5124970.707413202151656, 7425898.245625630021095 ], [ 5125011.646133282221854, 7425882.171144637279212 ], [ 5125072.137463979423046, 7425858.576482413336635 ], [ 5125108.77760845888406, 7425854.567891746759415 ], [ 5125135.346049060113728, 7425856.304621960036457 ], [ 5125199.293665194883943, 7425870.077276028692722 ], [ 5125256.336648691445589, 7425887.762828912585974 ], [ 5125297.338298911228776, 7425904.642010206356645 ], [ 5125353.725657237693667, 7425928.270175434648991 ], [ 5125405.301448160782456, 7425961.310192298144102 ], [ 5125428.818190097808838, 7426019.666190221905708 ], [ 5125470.34835131559521, 7426051.793919842690229 ], [ 5125498.148796518333256, 7426101.174223938956857 ], [ 5125518.747309199534357, 7426154.403818679973483 ], [ 5125540.021094676107168, 7426222.127886238507926 ], [ 5125545.619666430167854, 7426277.932370228692889 ], [ 5125547.299912271089852, 7426321.740021114237607 ], [ 5125541.256054530851543, 7426371.816280203871429 ], [ 5125534.79882391076535, 7426403.263985623605549 ], [ 5125603.914198873564601, 7426442.125772868283093 ], [ 5125536.285466405563056, 7426563.37396826967597 ], [ 5125557.640282510779798, 7426577.68253156915307 ], [ 5125570.397318987175822, 7426588.131332086399198 ], [ 5125584.791086924262345, 7426573.0995366955176 ], [ 5125653.233961361460388, 7426620.662517296150327 ], [ 5125640.988140163011849, 7426639.198791103437543 ], [ 5125697.780727797187865, 7426690.969844012521207 ], [ 5125668.970336844213307, 7426720.756894256919622 ], [ 5125735.093421361409128, 7426787.923868847079575 ], [ 5125844.858549209311604, 7426908.977518665604293 ], [ 5125917.352719580754638, 7426837.844783499836922 ] ] ] } }
]
}
