{
"type": "FeatureCollection",
"name": "4117404",
"crs": { "type": "name", "properties": { "name": "urn:ogc:def:crs:EPSG::5880" } },
"features": [
{ "type": "Feature", "properties": { "lv_id": "LOC_061921", "id": 388766.0, "CD_SETOR": "411740405000001", "SITUACAO": "Urbana", "CD_SIT": "1", "CD_TIPO": "0", "AREA_KM2": 0.275956626347168, "CD_REGIAO": "4", "NM_REGIAO": "Sul", "CD_UF": "41", "NM_UF": "Paraná", "CD_MUN": "4117404", "NM_MUN": "Ourizona", "CD_DIST": "411740405", "NM_DIST": "Ourizona", "CD_SUBDIST": "41174040500", "NM_SUBDIST": null, "CD_BAIRRO": null, "NM_BAIRRO": null, "CD_NU": "4117404001", "NM_NU": "Vila Rural Antônio Picoli", "CD_FCU": null, "NM_FCU": null, "CD_AGLOM": null, "NM_AGLOM": null, "CD_RGINT": "4104", "NM_RGINT": "Maringá", "CD_RGI": "410014", "NM_RGI": "Maringá", "CD_CONCURB": "4115200", "NM_CONCURB": "Maringá/PR", "mun_code_x": "4117404", "index_right": 59029, "dist_m": 0.0, "local_id": 664664, "ano": 2022, "cod_localidade_ibge": 4117404, "NR_ZONA": "102", "nr_cep": 87170000.0, "nm_localidade": "OURIZONA", "nm_locvot": "ESCOLA MUNICIPAL ROCHA POMBO - EDUCAÇÃO INFANTIL E ENSINO FUNDAMENTAL", "ds_endereco": "RUA XV DE NOVEMBRO, 297  - CENTRO", "ds_bairro": "CENTRO", "pred_long": -52.19574, "pred_lat": -23.40736, "pred_dist": 0.0, "tse_long": -52.1959336, "tse_lat": -23.4079992, "long": -52.1959336, "lat": -23.4079992, "ID_UNICO": "LOC_061921", "SG_UF": "PR", "CD_MUNICIPIO": "77291", "NR_LOCAL_VOTACAO": "1031", "QT_SECOES_AGREGADAS": 0, "QT_ELEITORES_TRANSFERIDOS": 8, "CIRO GOMES (PDT) (NÃO ELEITO) 1T": 38.0, "CONSTITUINTE EYMAEL (DC) (NÃO ELEITO) 1T": 0.0, "FELIPE D AVILA (NOVO) (NÃO ELEITO) 1T": 7.0, "JAIR BOLSONARO (PL) (2º TURNO) 1T": 905.0, "LULA (PT) (2º TURNO) 1T": 1178.0, "LÉO PÉRICLES (UP) (NÃO ELEITO) 1T": 0.0, "PADRE KELMON (PTB) (NÃO ELEITO) 1T": 2.0, "SIMONE TEBET (MDB) (NÃO ELEITO) 1T": 89.0, "SOFIA MANZANO (PCB) (NÃO ELEITO) 1T": 1.0, "SORAYA THRONICKE (UNIÃO) (NÃO ELEITO) 1T": 8.0, "VERA (PSTU) (NÃO ELEITO) 1T": 0.0, "Total_Votos_Validos 1T": 2228.0, "Votos_Brancos 1T": 29.0, "Votos_Nulos 1T": 65.0, "Abstenções 1T": 534.0, "Eleitores_Aptos 1T": 2856.0, "JAIR BOLSONARO (PL) (NÃO ELEITO) 2T": 1059.0, "LULA (PT) (ELEITO) 2T": 1207.0, "Total_Votos_Validos 2T": 2266.0, "Votos_Brancos 2T": 27.0, "Votos_Nulos 2T": 56.0, "Abstenções 2T": 507.0, "Eleitores_Aptos 2T": 2856.0, "mun_code_y": "4117404", "mun_code": "4117404" }, "geometry": { "type": "Polygon", "coordinates": [ [ [ 5182537.14413474034518, 7400642.012957971543074 ], [ 5182337.140090827830136, 7400491.908135717734694 ], [ 5182227.046376883052289, 7400376.109694370999932 ], [ 5182155.248182100243866, 7400264.012870231643319 ], [ 5181988.144347440451384, 7400074.913540607318282 ], [ 5181939.139528127387166, 7399957.813043652102351 ], [ 5181731.243763737380505, 7399745.814768563956022 ], [ 5181790.148051029071212, 7399604.906493717804551 ], [ 5181737.14575865585357, 7399484.010087471455336 ], [ 5181614.244646931067109, 7399426.915591510012746 ], [ 5181609.14916143938899, 7399271.010094260796905 ], [ 5181633.044405710883439, 7399130.01469499617815 ], [ 5181712.140868242830038, 7399036.91258065123111 ], [ 5181565.747210888192058, 7398689.013955757021904 ], [ 5181652.245570142753422, 7398590.014200544916093 ], [ 5181577.243773099035025, 7398488.813855954445899 ], [ 5181466.339409929700196, 7398424.811196131631732 ], [ 5181413.044620851054788, 7398274.809231329709291 ], [ 5181334.04815629683435, 7398142.709535708650947 ], [ 5181226.142336713150144, 7398088.806872241199017 ], [ 5181250.144772180356085, 7397949.816266607493162 ], [ 5181172.247429611161351, 7397852.716551865451038 ], [ 5181102.138589560985565, 7397708.81622844748199 ], [ 5181157.247508175671101, 7397566.915274036116898 ], [ 5181026.143104857765138, 7397548.8108552377671 ], [ 5181066.247530899941921, 7397277.808685287833214 ], [ 5181153.041101755574346, 7396994.81657949462533 ], [ 5181344.844424351118505, 7396889.408344625495374 ], [ 5181201.143213004805148, 7396741.609696639701724 ], [ 5181185.245068652555346, 7396622.912728087045252 ], [ 5181221.042006328701973, 7396504.707003861665726 ], [ 5181344.242581355385482, 7396423.714292509481311 ], [ 5181170.144700418226421, 7396292.712891823612154 ], [ 5180999.145016016438603, 7396257.716868180781603 ], [ 5181074.042559583671391, 7396126.707124926149845 ], [ 5181087.141837393864989, 7395990.809499459341168 ], [ 5181048.138631482608616, 7395828.707568047568202 ], [ 5180772.140168263576925, 7395770.706626525148749 ], [ 5180618.139303546398878, 7395777.8132328633219 ], [ 5180538.147619087249041, 7395882.61155042797327 ], [ 5180376.144036717712879, 7395858.611594435758889 ], [ 5180213.13900164142251, 7395774.710345981642604 ], [ 5180291.140909351408482, 7395636.70818424038589 ], [ 5180169.2413948494941, 7395482.815504418686032 ], [ 5180069.037633389234543, 7395414.717012498527765 ], [ 5180088.144550055265427, 7395281.716553054749966 ], [ 5180137.138341655023396, 7395156.71431552618742 ], [ 5180124.045087465085089, 7395018.713411459699273 ], [ 5179991.140911315567791, 7395071.615955833345652 ], [ 5179911.143020476214588, 7395196.710297010838985 ], [ 5179830.046046766452491, 7395101.716283112764359 ], [ 5179755.94651853479445, 7395045.107216455042362 ], [ 5179738.246690046973526, 7395031.606829908676445 ], [ 5179826.137638715095818, 7394781.606761447153986 ], [ 5179614.239915048703551, 7394591.706546060740948 ], [ 5179533.143331808969378, 7394460.511544017121196 ], [ 5179571.140761281363666, 7394304.709515346214175 ], [ 5179457.23730312846601, 7394253.606683006510139 ], [ 5179384.94101659860462, 7394420.509964127093554 ], [ 5179261.237294398248196, 7394455.609166436828673 ], [ 5179027.339677563868463, 7394410.613815728574991 ], [ 5178935.046904113143682, 7394328.716423701494932 ], [ 5178694.142902762629092, 7394302.616032609716058 ], [ 5178667.242015753872693, 7394182.611554803326726 ], [ 5178733.138712195679545, 7394008.710056936368346 ], [ 5178672.141609412617981, 7393878.606432970613241 ], [ 5178549.240156916901469, 7393779.916959212161601 ], [ 5178366.139638841152191, 7393675.710718530230224 ], [ 5178232.143949528224766, 7393662.716385964304209 ], [ 5178041.042451762594283, 7393799.611966596916318 ], [ 5177922.138486445881426, 7393775.716559547930956 ], [ 5177953.137847673147917, 7393542.808187991380692 ], [ 5177948.337443899363279, 7393379.708739704452455 ], [ 5177887.037978858686984, 7393272.7086360771209 ], [ 5177757.143623704090714, 7393261.610569283366203 ], [ 5177376.14522881899029, 7393416.613654414191842 ], [ 5177275.245882741175592, 7393326.811210457235575 ], [ 5177408.245254751294851, 7393275.615747652947903 ], [ 5177398.143716018646955, 7393108.514311433769763 ], [ 5177351.145549749955535, 7392991.510770766064525 ], [ 5177242.137748920358717, 7392927.512810165062547 ], [ 5177126.238038146868348, 7392931.807750647887588 ], [ 5176992.236056890338659, 7392896.509235594421625 ], [ 5176885.037445651367307, 7393185.71485073491931 ], [ 5176767.140045480802655, 7393009.511290324851871 ], [ 5176619.14120417740196, 7393006.511147198267281 ], [ 5176524.237082156352699, 7393118.613585280254483 ], [ 5176411.143629002384841, 7393151.71076937019825 ], [ 5176313.041870633140206, 7393037.514185176230967 ], [ 5176312.136198371648788, 7392905.515136243775487 ], [ 5176335.138459043577313, 7392769.715606881305575 ], [ 5176277.136746908538043, 7392666.6146135982126 ], [ 5176160.142619719728827, 7392581.508825246244669 ], [ 5176086.13986530713737, 7392486.610814774408937 ], [ 5176078.239594640210271, 7392359.515886584296823 ], [ 5176158.038711234927177, 7392211.609351797960699 ], [ 5176257.140142923220992, 7392130.416575904935598 ], [ 5176088.040102180093527, 7392011.511786969378591 ], [ 5175909.0387441823259, 7391955.416226152330637 ], [ 5175756.141136340796947, 7391986.516598206013441 ], [ 5175803.043404528871179, 7392098.517079835757613 ], [ 5175822.035662368871272, 7392263.517126552760601 ], [ 5175677.144506584852934, 7392235.506996678188443 ], [ 5175566.140028624795377, 7392252.506690643727779 ], [ 5175357.136727791279554, 7392510.51100055128336 ], [ 5175103.143546017818153, 7392591.412682831287384 ], [ 5174997.14333978202194, 7392517.412986506707966 ], [ 5174950.142441345378757, 7392184.916146729141474 ], [ 5175033.943442698568106, 7392080.513732813298702 ], [ 5175086.138000033795834, 7391952.611207894049585 ], [ 5175102.135413807816803, 7391824.510115884244442 ], [ 5175002.138006418943405, 7391770.516240174882114 ], [ 5174895.23477600235492, 7391848.513762019574642 ], [ 5174787.237248831428587, 7391772.608890870586038 ], [ 5174626.137167943641543, 7391394.516459610313177 ], [ 5174551.135728073306382, 7391280.510404461994767 ], [ 5174409.138875538483262, 7391302.414484575390816 ], [ 5174260.140780687332153, 7391385.407838448882103 ], [ 5174124.042769901454449, 7391176.517084325663745 ], [ 5174014.136003487743437, 7391162.51239275187254 ], [ 5173947.24281207844615, 7391306.607407265342772 ], [ 5173918.141991395503283, 7391505.509270295500755 ], [ 5173754.141677051782608, 7391527.5132314292714 ], [ 5173614.141848952509463, 7391474.517343115061522 ], [ 5173400.138110151514411, 7391095.412937007844448 ], [ 5173376.141811082139611, 7390975.312158115208149 ], [ 5173259.043665604665875, 7390939.215952173806727 ], [ 5173047.236058961600065, 7390982.509547829627991 ], [ 5172727.936002674512565, 7391441.807610910385847 ], [ 5172573.137114399112761, 7391629.413864421658218 ], [ 5171922.141193060204387, 7392251.609421933069825 ], [ 5171567.33738961815834, 7392695.416250692680478 ], [ 5171325.538354482501745, 7392917.210991142317653 ], [ 5171166.038909097202122, 7393041.111653111875057 ], [ 5171046.637021839618683, 7393106.715675290673971 ], [ 5171190.940066217444837, 7393265.311253264546394 ], [ 5171318.134557341225445, 7393294.913593890145421 ], [ 5171364.93717289250344, 7393477.816587692126632 ], [ 5171454.133702755905688, 7393574.10967886261642 ], [ 5171452.843811572529376, 7393630.510678624734282 ], [ 5171409.34341689851135, 7393692.314316197298467 ], [ 5171421.239931039512157, 7393719.409561085514724 ], [ 5171535.434442715719342, 7393705.817719530314207 ], [ 5171569.64159139059484, 7393733.715140832588077 ], [ 5171602.435977055691183, 7393809.217483093962073 ], [ 5171595.933914264664054, 7393886.111048361286521 ], [ 5171617.536925761029124, 7393903.209088845178485 ], [ 5171697.240666263736784, 7393845.312622720375657 ], [ 5171742.936103015206754, 7393879.312989617697895 ], [ 5171727.636118121445179, 7393923.413422496989369 ], [ 5171630.24362541269511, 7394029.017149968072772 ], [ 5171628.334795606322587, 7394061.31544401589781 ], [ 5171683.442479404620826, 7394132.511941154487431 ], [ 5171763.2407909585163, 7394138.312821608036757 ], [ 5171820.536483060568571, 7394113.918475314043462 ], [ 5171898.237144156359136, 7394126.313653803430498 ], [ 5171964.735974106006324, 7394035.208944114856422 ], [ 5172019.336056148633361, 7394050.013153339736164 ], [ 5171997.137705943547189, 7394155.312101258896291 ], [ 5172040.739157078787684, 7394209.114007989875972 ], [ 5172096.541891666129231, 7394253.210406744852662 ], [ 5172096.94184138532728, 7394274.213353859260678 ], [ 5172073.942893443629146, 7394309.618217591196299 ], [ 5172089.734334438107908, 7394374.317039832472801 ], [ 5172002.244011255912483, 7394488.415941530838609 ], [ 5171999.135723236016929, 7394575.917754348367453 ], [ 5172040.636894864030182, 7394601.213454429060221 ], [ 5172094.843350421637297, 7394611.014007046818733 ], [ 5172126.034650289453566, 7394679.210410607978702 ], [ 5172182.84055872540921, 7394721.610661642625928 ], [ 5172222.94442455470562, 7394727.011590151116252 ], [ 5172331.342362519353628, 7394696.618500428274274 ], [ 5172438.536844523623586, 7394756.618267394602299 ], [ 5172462.140285634435713, 7394752.617511348798871 ], [ 5172490.034468561410904, 7394713.209916994906962 ], [ 5172511.734628583304584, 7394745.307965458370745 ], [ 5172565.334858385846019, 7394746.914778528735042 ], [ 5172629.234780457802117, 7394820.109812885522842 ], [ 5172689.434506809338927, 7394840.108793027698994 ], [ 5172705.43799838796258, 7394889.613963112235069 ], [ 5172677.942326051183045, 7394973.215422206558287 ], [ 5172687.24426906183362, 7394999.110549342818558 ], [ 5172775.335687907412648, 7395048.71861831843853 ], [ 5172807.544531632214785, 7395034.012274784967303 ], [ 5172834.440696535632014, 7395044.209923576563597 ], [ 5172846.137283402495086, 7395093.012348733842373 ], [ 5172830.240714136511087, 7395159.11487952619791 ], [ 5172900.743552357889712, 7395261.116631974466145 ], [ 5172818.33688784763217, 7395306.608350483700633 ], [ 5172813.43856811709702, 7395375.317855874076486 ], [ 5172767.336280546151102, 7395401.810902439057827 ], [ 5172770.044634640216827, 7395416.714814137667418 ], [ 5172945.138890807516873, 7395514.912240456789732 ], [ 5173025.436094454489648, 7395474.918317580595613 ], [ 5173193.036118577234447, 7395506.510765972547233 ], [ 5173270.536427694372833, 7395606.611179871484637 ], [ 5173351.837922091595829, 7395591.112609418109059 ], [ 5173354.035223635844886, 7395611.108238310553133 ], [ 5173329.639016859233379, 7395630.210722727701068 ], [ 5173375.144376127980649, 7395662.912508334033191 ], [ 5173425.038641642779112, 7395666.909249129705131 ], [ 5173408.435060787014663, 7395705.908025494776666 ], [ 5173422.741683064028621, 7395731.710331590846181 ], [ 5173474.436031745746732, 7395705.714111611247063 ], [ 5173484.241886801086366, 7395762.815357768908143 ], [ 5173462.239468275569379, 7395841.810561334714293 ], [ 5173412.441739668138325, 7395865.014246022328734 ], [ 5173415.836032297462225, 7395900.718273496255279 ], [ 5173369.937218194827437, 7395979.009891651570797 ], [ 5173303.336703085340559, 7396014.112417690455914 ], [ 5173333.837178993970156, 7396039.612517416477203 ], [ 5173329.138018943369389, 7396055.911411535926163 ], [ 5173269.445186925120652, 7396068.916048964485526 ], [ 5173255.74329177942127, 7396172.908915471285582 ], [ 5173215.538447625935078, 7396212.917609436437488 ], [ 5173233.638820290565491, 7396251.217844678089023 ], [ 5173308.436924702487886, 7396230.411763750016689 ], [ 5173300.540414188988507, 7396271.711734363809228 ], [ 5173398.543036981485784, 7396304.513004438020289 ], [ 5173402.136678089387715, 7396363.117079683579504 ], [ 5173432.445049900561571, 7396369.716773757711053 ], [ 5173461.240739068947732, 7396343.4155363291502 ], [ 5173585.63577102124691, 7396434.117794608697295 ], [ 5173614.145394958555698, 7396428.517147820442915 ], [ 5173628.237087153829634, 7396378.312785956077278 ], [ 5173821.136187767609954, 7396398.718602517619729 ], [ 5173883.537239668890834, 7396469.311909962445498 ], [ 5173979.839765675365925, 7396483.415435247123241 ], [ 5174017.742573691532016, 7396566.210035203024745 ], [ 5174086.645476367324591, 7396587.308331117033958 ], [ 5174101.541892235167325, 7396636.814432592131197 ], [ 5174153.744009727612138, 7396695.517070148140192 ], [ 5174167.242628652602434, 7396779.509810046292841 ], [ 5174149.635605061426759, 7396832.016862185671926 ], [ 5174165.64179215952754, 7396882.916904686018825 ], [ 5174128.740984536707401, 7396964.616364028304815 ], [ 5174181.643885541707277, 7396994.513569434173405 ], [ 5174213.040260058827698, 7397057.308010809123516 ], [ 5174252.74378960672766, 7397060.215650465339422 ], [ 5174259.841870630159974, 7397093.714975902810693 ], [ 5174222.344197896309197, 7397145.815814247354865 ], [ 5174217.135874771513045, 7397198.308550553396344 ], [ 5174283.736001662909985, 7397257.415970738977194 ], [ 5174181.838702643290162, 7397382.413080176338553 ], [ 5174164.038173669017851, 7397487.508302233181894 ], [ 5174113.640792994759977, 7397523.40776495821774 ], [ 5174141.544557580724359, 7397596.515053108334541 ], [ 5174117.937300962395966, 7397605.71477825473994 ], [ 5174082.237496227957308, 7397570.217041718773544 ], [ 5174070.040647308342159, 7397580.41141358576715 ], [ 5174080.038698293268681, 7397641.410293715074658 ], [ 5174065.636669845320284, 7397697.313863712362945 ], [ 5174150.445292855612934, 7397761.214056137017906 ], [ 5174154.145540736615658, 7397820.814032739028335 ], [ 5174003.943187665194273, 7397906.417173048481345 ], [ 5174012.837929044850171, 7397978.608918884769082 ], [ 5173964.245300107635558, 7398005.810615870170295 ], [ 5173919.943953272886574, 7398009.017306074500084 ], [ 5173924.74170455429703, 7398052.71547649987042 ], [ 5173885.63836432620883, 7398056.713583316653967 ], [ 5173903.143779011443257, 7398195.316704642027617 ], [ 5173844.540988323278725, 7398235.511579910293221 ], [ 5173845.440662385895848, 7398280.408266933634877 ], [ 5173897.838065601885319, 7398288.008649092167616 ], [ 5173961.439746918156743, 7398349.812473790720105 ], [ 5174022.041753057390451, 7398324.008560577407479 ], [ 5174035.140609323047101, 7398356.217965472489595 ], [ 5174013.340199530124664, 7398390.414702089503407 ], [ 5174031.23637143522501, 7398440.417146937921643 ], [ 5173991.044797224923968, 7398480.216869603842497 ], [ 5174014.343256953172386, 7398586.109430130571127 ], [ 5173978.744088768027723, 7398611.816216496750712 ], [ 5173996.543855428695679, 7398686.417510306462646 ], [ 5173954.041324362158775, 7398684.716525103896856 ], [ 5173947.038467864505947, 7398702.317066203802824 ], [ 5174008.942338721826673, 7398803.408552290871739 ], [ 5174004.337615448981524, 7398820.81448039226234 ], [ 5173917.442756275646389, 7398839.018658330664039 ], [ 5173912.739725064486265, 7398878.308757190592587 ], [ 5173968.939233487471938, 7398904.013062452897429 ], [ 5173970.838084747083485, 7398922.017751706764102 ], [ 5173942.640328746289015, 7398941.409654542803764 ], [ 5173954.236662316136062, 7398962.313161050900817 ], [ 5174005.84181840158999, 7398976.116463540121913 ], [ 5174145.63777965400368, 7399088.615775188431144 ], [ 5174185.2412628242746, 7399100.710535833612084 ], [ 5174263.243029632605612, 7399076.715892588719726 ], [ 5174356.04577337577939, 7399108.610000919550657 ], [ 5174422.541354304179549, 7399217.512316734530032 ], [ 5174516.445385211147368, 7399302.410454815253615 ], [ 5174487.645255678333342, 7399347.615988552570343 ], [ 5174521.443484240211546, 7399419.511473087593913 ], [ 5174493.639414115808904, 7399460.018293051049113 ], [ 5174499.543237440288067, 7399482.318722331896424 ], [ 5174585.242507800459862, 7399493.011264935135841 ], [ 5174645.145694077014923, 7399554.114272771403193 ], [ 5174695.238921917974949, 7399540.211035039275885 ], [ 5174743.045913976617157, 7399556.516920078545809 ], [ 5174826.542614592239261, 7399680.716333786025643 ], [ 5174837.841665832325816, 7399743.416800613515079 ], [ 5174871.144891941919923, 7399786.40965230576694 ], [ 5174857.345913524739444, 7399840.611487043090165 ], [ 5174877.337731631472707, 7399899.817893071100116 ], [ 5174812.340886080637574, 7399955.91471978276968 ], [ 5174866.945112710818648, 7400031.617134870961308 ], [ 5174829.738156693056226, 7400103.515535810962319 ], [ 5174873.439051547087729, 7400196.909678855910897 ], [ 5174867.743715105578303, 7400250.516349922865629 ], [ 5174890.542075793258846, 7400294.011047329753637 ], [ 5174943.739045454189181, 7400308.911578596569598 ], [ 5175095.540039090439677, 7400418.213117230683565 ], [ 5175121.341473744250834, 7400457.317242471501231 ], [ 5175131.041902233846486, 7400538.318741666153073 ], [ 5175162.345688458532095, 7400603.616956959478557 ], [ 5175132.842159328982234, 7400679.014132669195533 ], [ 5175267.238343552686274, 7400855.811061806045473 ], [ 5175322.241925795562565, 7400984.215277086943388 ], [ 5175348.143664850853384, 7401106.91705767903477 ], [ 5175333.637116668745875, 7401185.71441650390625 ], [ 5175282.442392359487712, 7401255.010747727006674 ], [ 5175322.944818964228034, 7401341.018416408449411 ], [ 5175401.939252407290041, 7401371.908467885106802 ], [ 5175453.139867058955133, 7401435.716598097234964 ], [ 5175486.940143617801368, 7401603.718944536522031 ], [ 5175470.846513777971268, 7401719.010964258573949 ], [ 5175588.839323443360627, 7401818.208416361361742 ], [ 5175593.945555037818849, 7401883.010165633633733 ], [ 5175652.739824939519167, 7401952.809975014068186 ], [ 5175616.339905945584178, 7402059.912954274564981 ], [ 5175628.437548590824008, 7402091.612508058547974 ], [ 5175698.741641636937857, 7402137.009254992008209 ], [ 5175659.245134199969471, 7402209.014408350922167 ], [ 5175672.747145330533385, 7402229.118469655513763 ], [ 5175751.537767102941871, 7402242.514015579596162 ], [ 5175825.245947392657399, 7402317.010144567117095 ], [ 5175888.143476621247828, 7402344.41200786922127 ], [ 5175921.644699474796653, 7402394.713510056957603 ], [ 5175970.839447813108563, 7402426.212504198774695 ], [ 5175989.446517670527101, 7402481.811205654405057 ], [ 5176070.547177752479911, 7402455.909643155522645 ], [ 5176099.542047194205225, 7402466.010790090076625 ], [ 5176125.247000383213162, 7402571.617435813881457 ], [ 5176157.244884023442864, 7402610.612641477957368 ], [ 5176146.94261896237731, 7402663.211455458775163 ], [ 5176190.444801796227694, 7402774.610143242403865 ], [ 5176222.841384603641927, 7402775.218996863812208 ], [ 5176259.44070953130722, 7402736.908383373171091 ], [ 5176305.738912040367723, 7402755.909520154818892 ], [ 5176263.540939431637526, 7402836.015055047348142 ], [ 5176309.746867582201958, 7402962.317031973041594 ], [ 5176399.94418206717819, 7403108.511751064099371 ], [ 5176424.447462137788534, 7403215.916355570778251 ], [ 5176411.946333343163133, 7403266.613803995773196 ], [ 5176350.84060887247324, 7403325.11852758936584 ], [ 5176371.24707296397537, 7403355.909112193621695 ], [ 5176428.245348633266985, 7403327.214761395007372 ], [ 5176444.740100746974349, 7403372.611453347839415 ], [ 5176400.847264672629535, 7403418.01254428178072 ], [ 5176397.943162912502885, 7403460.417694259434938 ], [ 5176351.047633640468121, 7403483.8163081118837 ], [ 5176350.346005418337882, 7403508.810344466939569 ], [ 5176420.045472052879632, 7403566.111530450172722 ], [ 5176428.041260619647801, 7403643.210659498348832 ], [ 5176355.544368392787874, 7403702.018127889372408 ], [ 5176330.042860145680606, 7403669.017178267240524 ], [ 5176303.144277708604932, 7403679.710669904947281 ], [ 5176289.639557287096977, 7403735.417077725753188 ], [ 5176224.646790942177176, 7403723.010777125135064 ], [ 5176155.442971195094287, 7403810.308914002031088 ], [ 5176083.845381944440305, 7403766.015064910054207 ], [ 5176047.438101840205491, 7403767.714092218317091 ], [ 5176058.039954157546163, 7403810.012784030288458 ], [ 5176210.042053111828864, 7403918.915505465120077 ], [ 5176233.740597906522453, 7403977.112224233336747 ], [ 5176201.041284762322903, 7403995.808326457627118 ], [ 5176059.043287853710353, 7403936.51308443211019 ], [ 5176020.543471611104906, 7403944.408664228394628 ], [ 5176003.539558215066791, 7403969.110211232677102 ], [ 5176038.345867571420968, 7404140.11342906486243 ], [ 5176075.547995775938034, 7404186.813820161856711 ], [ 5175939.239023517817259, 7404256.410107635892928 ], [ 5175964.347651774995029, 7404315.50997462682426 ], [ 5176090.245446524582803, 7404446.609598813578486 ], [ 5176083.842328576371074, 7404497.311087807640433 ], [ 5176051.544370204210281, 7404548.810018745251 ], [ 5176069.542367031797767, 7404596.017299765720963 ], [ 5176059.547198886051774, 7404649.709047438576818 ], [ 5175994.940693142823875, 7404710.912764963693917 ], [ 5176016.341808489523828, 7404822.210787864401937 ], [ 5175986.245686951093376, 7404887.012451585382223 ], [ 5176011.040247631259263, 7404918.914500240236521 ], [ 5176037.245689244940877, 7405043.118693247437477 ], [ 5176083.448239955119789, 7405043.319282738491893 ], [ 5176098.447749574668705, 7404991.916636816225946 ], [ 5176123.344933974556625, 7404988.815371319651604 ], [ 5176227.938423002138734, 7405107.615529105067253 ], [ 5176178.339776270091534, 7405205.315183004364371 ], [ 5176173.845790739171207, 7405273.810547688044608 ], [ 5176172.6426303954795, 7405291.109852017834783 ], [ 5176171.747481503523886, 7405305.114689270034432 ], [ 5176261.94283009134233, 7405393.916097033768892 ], [ 5176266.1460180869326, 7405418.917784329503775 ], [ 5176200.647031194530427, 7405488.609093338251114 ], [ 5176265.04102273657918, 7405548.512396829202771 ], [ 5176257.939665481448174, 7405564.818664588034153 ], [ 5176213.342860075645149, 7405565.718357822857797 ], [ 5176232.141288736835122, 7405669.413169883191586 ], [ 5176110.43998134508729, 7405685.816951564513147 ], [ 5176304.642710161395371, 7405857.515343252569437 ], [ 5176398.248251720331609, 7405868.116525713354349 ], [ 5176423.344921462237835, 7405811.617612972855568 ], [ 5176455.246395371854305, 7405821.517496734857559 ], [ 5176458.546846807003021, 7405867.515630036592484 ], [ 5176396.24212200846523, 7405915.618661382235587 ], [ 5176470.346311119385064, 7406067.5134994154796 ], [ 5176447.248283677734435, 7406090.415891051292419 ], [ 5176446.73935948126018, 7406131.517964914441109 ], [ 5176512.146371399052441, 7406223.618055053986609 ], [ 5176568.747386923059821, 7406186.419349504634738 ], [ 5176598.739432215690613, 7406187.012465853244066 ], [ 5176607.847581980749965, 7406211.910929167643189 ], [ 5176561.947457150556147, 7406248.316639766097069 ], [ 5176582.439816640689969, 7406274.009299320168793 ], [ 5176641.538682172074914, 7406238.010244147852063 ], [ 5176704.940873138606548, 7406240.418236861005425 ], [ 5176754.540533106774092, 7406286.613979735411704 ], [ 5176766.947689354419708, 7406341.111980747431517 ], [ 5176826.543215404264629, 7406377.11569488979876 ], [ 5176828.946357373148203, 7406396.809384478256106 ], [ 5176756.447421945631504, 7406446.310475280508399 ], [ 5176934.840780465863645, 7406655.819508103653789 ], [ 5176927.940622040070593, 7406684.610934009775519 ], [ 5176874.846648319624364, 7406708.417289001867175 ], [ 5176867.845455540344119, 7406732.212769916281104 ], [ 5176892.239519064314663, 7406767.819204920902848 ], [ 5176970.1402144478634, 7406798.616518581286073 ], [ 5177022.246612009592354, 7406959.61546818818897 ], [ 5177137.540227022022009, 7407024.011570736765862 ], [ 5177206.540684023872018, 7407104.919309203512967 ], [ 5177252.846670782193542, 7407122.511240711435676 ], [ 5177366.941629280336201, 7407096.517544060945511 ], [ 5177467.539028102532029, 7407020.814003355801105 ], [ 5177557.540318214334548, 7407032.71500756777823 ], [ 5177627.642514430917799, 7407142.914594700559974 ], [ 5177725.840652371756732, 7407192.011478627100587 ], [ 5177825.449008882977068, 7407309.610263185575604 ], [ 5177811.148186160251498, 7407339.909797759726644 ], [ 5177760.743792546913028, 7407370.7115806825459 ], [ 5177765.645200471393764, 7407433.011375870555639 ], [ 5177815.747513313777745, 7407443.209718936122954 ], [ 5177950.540852463804185, 7407424.817549313418567 ], [ 5178046.04356980510056, 7407522.110450717620552 ], [ 5178153.841755859553814, 7407552.518393237143755 ], [ 5178157.440479371696711, 7407603.310579683631659 ], [ 5178116.243344087153673, 7407656.816206404939294 ], [ 5178102.639809994958341, 7407775.216884698718786 ], [ 5178256.148923389613628, 7407811.608785374090075 ], [ 5178276.743061302229762, 7407836.012905024923384 ], [ 5178294.246293624863029, 7407947.910035524517298 ], [ 5178334.843717180192471, 7407992.614591155201197 ], [ 5178356.544136787764728, 7408088.117646612226963 ], [ 5178409.846839174628258, 7408131.116999331861734 ], [ 5178393.749298769980669, 7408251.919376336038113 ], [ 5178513.442379212938249, 7408295.111652426421642 ], [ 5178586.245484441518784, 7408375.812655989080667 ], [ 5178594.144680050201714, 7408394.209704538807273 ], [ 5178561.141175328753889, 7408427.218591634184122 ], [ 5178563.245928592048585, 7408471.015112638473511 ], [ 5178757.849196626804769, 7408486.816035700030625 ], [ 5178842.64443732984364, 7408607.115034138783813 ], [ 5178983.146389597095549, 7408636.311832490377128 ], [ 5179033.442965961992741, 7408709.217879332602024 ], [ 5179059.840996410697699, 7408835.90929295308888 ], [ 5179086.74450174625963, 7408878.817274011671543 ], [ 5179193.14330327976495, 7408904.116460500285029 ], [ 5179283.848789784125984, 7408953.516873126849532 ], [ 5179307.343042984604836, 7409043.811650975607336 ], [ 5179256.745927103795111, 7409180.912873180583119 ], [ 5179303.947229843586683, 7409352.912735464051366 ], [ 5179268.445973708294332, 7409442.019245486706495 ], [ 5179312.944661950692534, 7409544.712154556065798 ], [ 5179467.747555494308472, 7409655.414318574592471 ], [ 5179632.444894792512059, 7409912.718507992103696 ], [ 5179676.743314900435507, 7409941.618859950453043 ], [ 5179794.848399282433093, 7409935.314981808885932 ], [ 5179894.94268626626581, 7409862.914810445159674 ], [ 5179914.850729452446103, 7409867.513956112787127 ], [ 5179938.350362452678382, 7409919.315297739580274 ], [ 5179933.541431800462306, 7409986.819267632439733 ], [ 5180001.948201855644584, 7410035.213771665468812 ], [ 5180007.946380318142474, 7410088.61369330342859 ], [ 5180034.744036691263318, 7410119.111716264858842 ], [ 5180082.049155430868268, 7410114.51196975260973 ], [ 5180128.243665254674852, 7410065.017475364729762 ], [ 5180235.646414595656097, 7410017.711038876324892 ], [ 5180336.546385443769395, 7410166.814062023535371 ], [ 5180405.651252547279, 7410377.413037455640733 ], [ 5180429.548841836862266, 7410390.516694912686944 ], [ 5180534.847565888427198, 7410378.314015252515674 ], [ 5180538.143898433074355, 7410450.516870914027095 ], [ 5180582.043818733654916, 7410475.818549552932382 ], [ 5180636.141365775838494, 7410479.011995488777757 ], [ 5180723.346272016875446, 7410592.812675664201379 ], [ 5180881.651439272798598, 7410725.619168746285141 ], [ 5180909.05058160237968, 7410772.418584562838078 ], [ 5180929.845838319510221, 7410883.409370529465377 ], [ 5181022.647522374987602, 7410923.910456493496895 ], [ 5181127.842295725829899, 7411013.710092912428081 ], [ 5181224.050583598203957, 7411029.31512255128473 ], [ 5181338.141453112475574, 7410936.112931940704584 ], [ 5181464.544770255684853, 7410954.713568297214806 ], [ 5181520.043521059677005, 7410928.712269118055701 ], [ 5181636.949524624273181, 7411010.408752519637346 ], [ 5181758.149710964411497, 7411160.915615542791784 ], [ 5181787.642175745218992, 7411242.912170143797994 ], [ 5181883.950898154638708, 7411273.115687400102615 ], [ 5181951.646061990410089, 7411237.112044038251042 ], [ 5181967.542663858272135, 7411187.30939203966409 ], [ 5182047.651392508298159, 7411170.609188982285559 ], [ 5182151.648446717299521, 7411082.411396290175617 ], [ 5182338.148300347849727, 7411012.617068815045059 ], [ 5182412.943664925172925, 7411013.609284116886556 ], [ 5182457.751878486946225, 7411042.517798578366637 ], [ 5182552.352100457064807, 7411173.414212588220835 ], [ 5182554.54645929671824, 7411264.013276796787977 ], [ 5182577.943826548755169, 7411318.216931710019708 ], [ 5182696.342400537803769, 7411374.413479713723063 ], [ 5182760.948223067447543, 7411365.613323498517275 ], [ 5182792.947659227065742, 7411408.518979834392667 ], [ 5182800.442446903325617, 7411468.016332197003067 ], [ 5182853.144297357648611, 7411489.413237145170569 ], [ 5183020.044695158489048, 7411755.7106679584831 ], [ 5183284.347516935318708, 7411889.716299265623093 ], [ 5183403.746132667176425, 7411978.914871376007795 ], [ 5183519.245787940919399, 7412089.911891048774123 ], [ 5183707.34768888540566, 7412329.013847462832928 ], [ 5183798.944993352517486, 7412363.408428026363254 ], [ 5183796.152886938303709, 7412466.812355334870517 ], [ 5183877.644652150571346, 7412559.914501897990704 ], [ 5183874.748220860958099, 7412627.818115514703095 ], [ 5183852.649132435210049, 7412652.115691957063973 ], [ 5183863.846877627074718, 7412692.508377866819501 ], [ 5183927.352290921844542, 7412708.216044016182423 ], [ 5183976.148711550049484, 7412775.109922774136066 ], [ 5184035.946873627603054, 7412762.408835681155324 ], [ 5184057.550291486084461, 7412777.918035412207246 ], [ 5184071.543569539673626, 7412884.215349691919982 ], [ 5184315.748419694602489, 7413021.912359034642577 ], [ 5184411.245633801445365, 7413109.418835263699293 ], [ 5184444.548255720175803, 7413347.708770392462611 ], [ 5184475.251977776177227, 7413358.217308970168233 ], [ 5184498.846351206302643, 7413298.908109920099378 ], [ 5184534.053040965460241, 7413335.111210430040956 ], [ 5184557.348246157169342, 7413665.116988638415933 ], [ 5184647.651174671016634, 7413766.116719262674451 ], [ 5184638.046070617623627, 7413846.8137794341892 ], [ 5184589.253550491295755, 7413892.011331101879478 ], [ 5184590.952187662944198, 7413919.115017039701343 ], [ 5184604.645578036084771, 7413939.708624888211489 ], [ 5184709.144314974546432, 7413981.915135765448213 ], [ 5184820.153639697469771, 7414117.015552715398371 ], [ 5184820.550398307852447, 7414269.710251865908504 ], [ 5184928.253496136516333, 7414428.818442887626588 ], [ 5185030.150004467926919, 7414540.518968239426613 ], [ 5185100.751701859757304, 7414562.814939057454467 ], [ 5185159.853683426044881, 7414635.216518596746027 ], [ 5185247.24821861833334, 7414647.018713289871812 ], [ 5185359.945914442650974, 7414795.31360049918294 ], [ 5185383.252110495232046, 7414854.113385116681457 ], [ 5185455.350359013304114, 7414924.611279670149088 ], [ 5185455.145181495696306, 7414993.013635056093335 ], [ 5185587.653218736872077, 7415162.310853868722916 ], [ 5185703.445469445548952, 7415261.710895433090627 ], [ 5185904.752594890072942, 7415381.508769663050771 ], [ 5186017.04859833419323, 7415353.114841473288834 ], [ 5186090.248041025362909, 7415388.814463561400771 ], [ 5186158.049508131109178, 7415397.811221121810377 ], [ 5186168.751088934019208, 7415473.710907687433064 ], [ 5186202.345767230726779, 7415530.61830766685307 ], [ 5186266.551436237990856, 7415599.117975145578384 ], [ 5186346.949704192578793, 7415590.813643123954535 ], [ 5186428.545879123732448, 7415551.811780571937561 ], [ 5186663.449322801083326, 7415344.610611956566572 ], [ 5186731.645252797752619, 7415239.91334512270987 ], [ 5187196.851392596028745, 7414805.010324258357286 ], [ 5187284.050966968759894, 7414651.115116911008954 ], [ 5187372.75403278786689, 7414536.913015637546778 ], [ 5187474.24956358410418, 7414229.412958174943924 ], [ 5187585.454609510488808, 7414041.115618140436709 ], [ 5187723.148635469377041, 7413926.709657955914736 ], [ 5188533.553166495636106, 7413620.910584018565714 ], [ 5189309.547767734155059, 7413439.509914757683873 ], [ 5189114.9495216505602, 7413212.310949621722102 ], [ 5189079.248915481381118, 7413080.907556952908635 ], [ 5189036.055190063081682, 7412999.10870414134115 ], [ 5189020.750832428224385, 7412842.711904978379607 ], [ 5189059.955272824503481, 7412544.315706644207239 ], [ 5189018.847649672999978, 7412359.417249390855432 ], [ 5189046.450343163684011, 7412296.911949872970581 ], [ 5189260.047140720300376, 7412057.013572281226516 ], [ 5189377.851284843869507, 7411769.508161755278707 ], [ 5189505.95176443643868, 7411581.208191179670393 ], [ 5189624.845684168860316, 7411347.416641877032816 ], [ 5189642.846366100013256, 7411025.011565398424864 ], [ 5189715.348649139516056, 7410742.616223154589534 ], [ 5189659.552613792940974, 7410442.213254392147064 ], [ 5189606.750245835632086, 7410282.309350224211812 ], [ 5189438.450612312182784, 7409926.50745040550828 ], [ 5189409.244898311793804, 7409716.414192026481032 ], [ 5189318.551310213282704, 7409511.808864137157798 ], [ 5189219.147776067256927, 7409096.713584695011377 ], [ 5189133.751752397045493, 7408954.014288681559265 ], [ 5189129.348137409426272, 7408751.813287669792771 ], [ 5189172.253430331125855, 7408428.811703177168965 ], [ 5189159.35189760569483, 7408396.011972451582551 ], [ 5189217.148185510188341, 7408370.814627518877387 ], [ 5189129.846493441611528, 7408380.412202171981335 ], [ 5189021.051730215549469, 7408318.514745047315955 ], [ 5189005.049977702088654, 7408187.412735836580396 ], [ 5188894.147744588553905, 7408128.411442876793444 ], [ 5188877.951208599843085, 7407984.413845730014145 ], [ 5188667.950372260063887, 7407808.416124030016363 ], [ 5188599.047161535359919, 7407705.216771686449647 ], [ 5188462.148712168447673, 7407625.514153180643916 ], [ 5188301.8538390500471, 7407630.41181375272572 ], [ 5188014.047034895978868, 7407520.410789558663964 ], [ 5187856.947183594107628, 7407429.514392866753042 ], [ 5187793.045587645843625, 7407316.408359805122018 ], [ 5187515.146792465820909, 7407305.51082282140851 ], [ 5187369.04644925519824, 7407251.312909552827477 ], [ 5187274.047987353056669, 7407137.414926871657372 ], [ 5187284.045725137926638, 7406999.310998337343335 ], [ 5187202.951577790081501, 7406907.308602021075785 ], [ 5187139.044340761378407, 7406755.406833034008741 ], [ 5187022.044220767915249, 7406769.314746973104775 ], [ 5186978.05210533272475, 7406635.409366574138403 ], [ 5186893.94529265165329, 7406485.3145702611655 ], [ 5186875.051694577559829, 7406367.212752775289118 ], [ 5186801.95078732073307, 7406210.407037910073996 ], [ 5186789.14812058582902, 7406075.307672103866935 ], [ 5186642.948175812140107, 7405948.415756577625871 ], [ 5186627.048010088503361, 7405824.414128455333412 ], [ 5186345.045085733756423, 7405766.312072869390249 ], [ 5186426.043640723451972, 7405651.510162554681301 ], [ 5186456.050449333153665, 7405502.416465096175671 ], [ 5186519.0437754355371, 7405374.212711395695806 ], [ 5186432.046553744934499, 7405249.217107797972858 ], [ 5186280.945209980942309, 7405179.106371203437448 ], [ 5186193.943525807000697, 7405042.209020277485251 ], [ 5186083.047099652700126, 7405026.215273042209446 ], [ 5185986.0426972405985, 7404952.314968628808856 ], [ 5185820.149269243702292, 7404874.109639653936028 ], [ 5185776.043648255988955, 7404763.206522743217647 ], [ 5185690.041853282600641, 7404656.411226510070264 ], [ 5185561.044642588123679, 7404625.306696333922446 ], [ 5185424.042397026903927, 7404545.214853732846677 ], [ 5185297.047595432959497, 7404568.311386592686176 ], [ 5185037.148534294217825, 7404208.117049952037632 ], [ 5185006.947914036922157, 7404076.117064086720347 ], [ 5184886.047636471688747, 7403964.316136542707682 ], [ 5184837.042230918072164, 7403631.107158672995865 ], [ 5184926.045759418979287, 7403519.215408830903471 ], [ 5184817.349815203808248, 7403411.415980454534292 ], [ 5184970.143766196444631, 7403154.20859008282423 ], [ 5184939.946105680428445, 7402997.110903836786747 ], [ 5185052.047245607711375, 7402916.108190557919443 ], [ 5185017.04864876717329, 7402625.206099507398903 ], [ 5185066.044449138455093, 7402497.206478092819452 ], [ 5184929.045550153590739, 7402405.111268818378448 ], [ 5184728.047252176329494, 7402226.016765866428614 ], [ 5184482.943569827824831, 7402159.010877405293286 ], [ 5184422.046052103862166, 7402025.212556133978069 ], [ 5184148.144586929120123, 7401892.910443631932139 ], [ 5184073.048741735517979, 7401799.012753438204527 ], [ 5183976.048570163547993, 7401736.913248755969107 ], [ 5183745.943575748242438, 7401535.012924053706229 ], [ 5183632.942402251064777, 7401555.916447962634265 ], [ 5183504.044792606495321, 7401500.007870433852077 ], [ 5183426.145451227203012, 7401388.114299601875246 ], [ 5183310.040579219348729, 7401382.106298977509141 ], [ 5183191.145422000437975, 7401439.911684687249362 ], [ 5183060.145122733898461, 7401383.117041709832847 ], [ 5182999.148644578643143, 7401276.207626882009208 ], [ 5182898.247817889787257, 7401157.008009638637304 ], [ 5182768.141981036402285, 7401152.112056346610188 ], [ 5182636.148426349274814, 7401103.016172086820006 ], [ 5182520.03967706579715, 7401094.01045529730618 ], [ 5182496.149419692344964, 7400934.116661277599633 ], [ 5182536.148906230926514, 7400792.110636312514544 ], [ 5182536.341440750285983, 7400763.210313864052296 ], [ 5182537.14413474034518, 7400642.012957971543074 ] ] ] } }
]
}
