{
"type": "FeatureCollection",
"name": "4122701",
"crs": { "type": "name", "properties": { "name": "urn:ogc:def:crs:EPSG::5880" } },
"features": [
{ "type": "Feature", "properties": { "lv_id": "LOC_062892", "id": 392787.0, "CD_SETOR": "412270105000001", "SITUACAO": "Urbana", "CD_SIT": "1", "CD_TIPO": "0", "AREA_KM2": 0.29001248839316901, "CD_REGIAO": "4", "NM_REGIAO": "Sul", "CD_UF": "41", "NM_UF": "Paraná", "CD_MUN": "4122701", "NM_MUN": "Sabáudia", "CD_DIST": "412270105", "NM_DIST": "Sabáudia", "CD_SUBDIST": "41227010500", "NM_SUBDIST": null, "CD_BAIRRO": null, "NM_BAIRRO": null, "CD_NU": null, "NM_NU": null, "CD_FCU": null, "NM_FCU": null, "CD_AGLOM": null, "NM_AGLOM": null, "CD_RGINT": "4105", "NM_RGINT": "Londrina", "CD_RGI": "410021", "NM_RGI": "Londrina", "CD_CONCURB": null, "NM_CONCURB": null, "mun_code_x": "4122701", "index_right": 59839, "dist_m": 105.63541732139895, "local_id": 672837, "ano": 2022, "cod_localidade_ibge": 4122701, "NR_ZONA": "61", "nr_cep": 86720000.0, "nm_localidade": "SABÁUDIA", "nm_locvot": "COLÉGIO ESTADUAL HERMÍNIA ROLIM LUPION", "ds_endereco": "RUA JÁCOMO MASQUETTI, 148 - ZONA URBANA", "ds_bairro": "CENTRO", "pred_long": -51.552862, "pred_lat": -23.318365, "pred_dist": 0.0, "tse_long": -51.55256655, "tse_lat": -23.31860847, "long": -51.55256655, "lat": -23.31860847, "ID_UNICO": "LOC_062892", "SG_UF": "PR", "CD_MUNICIPIO": "78310", "NR_LOCAL_VOTACAO": "1015", "QT_SECOES_AGREGADAS": 0, "QT_ELEITORES_TRANSFERIDOS": 4, "CIRO GOMES (PDT) (NÃO ELEITO) 1T": 35.0, "CONSTITUINTE EYMAEL (DC) (NÃO ELEITO) 1T": 1.0, "FELIPE D AVILA (NOVO) (NÃO ELEITO) 1T": 11.0, "JAIR BOLSONARO (PL) (2º TURNO) 1T": 1851.0, "LULA (PT) (2º TURNO) 1T": 709.0, "LÉO PÉRICLES (UP) (NÃO ELEITO) 1T": 0.0, "PADRE KELMON (PTB) (NÃO ELEITO) 1T": 3.0, "SIMONE TEBET (MDB) (NÃO ELEITO) 1T": 81.0, "SOFIA MANZANO (PCB) (NÃO ELEITO) 1T": 0.0, "SORAYA THRONICKE (UNIÃO) (NÃO ELEITO) 1T": 7.0, "VERA (PSTU) (NÃO ELEITO) 1T": 0.0, "Total_Votos_Validos 1T": 2698.0, "Votos_Brancos 1T": 44.0, "Votos_Nulos 1T": 83.0, "Abstenções 1T": 594.0, "Eleitores_Aptos 1T": 3419.0, "JAIR BOLSONARO (PL) (NÃO ELEITO) 2T": 2034.0, "LULA (PT) (ELEITO) 2T": 774.0, "Total_Votos_Validos 2T": 2808.0, "Votos_Brancos 2T": 32.0, "Votos_Nulos 2T": 69.0, "Abstenções 2T": 510.0, "Eleitores_Aptos 2T": 3419.0, "mun_code_y": "4122701", "mun_code": "4122701" }, "geometry": { "type": "Polygon", "coordinates": [ [ [ 5254568.58071715850383, 7414066.691002640873194 ], [ 5254374.580747739411891, 7413889.794432379305363 ], [ 5253996.684948322363198, 7413672.692379193380475 ], [ 5253614.583825835958123, 7413301.689795155078173 ], [ 5253526.579246102832258, 7413117.69848089851439 ], [ 5253353.375740612857044, 7412654.798528220504522 ], [ 5253095.678356783464551, 7412492.69375716894865 ], [ 5252581.680244766175747, 7412328.697271551005542 ], [ 5252351.582188077270985, 7412210.693746656179428 ], [ 5252227.580306100659072, 7412052.797097260132432 ], [ 5252060.579443660564721, 7411574.79397214576602 ], [ 5251969.380655728280544, 7411443.494541415944695 ], [ 5251582.977403705939651, 7411061.793315775692463 ], [ 5251370.680786133743823, 7410874.989577120169997 ], [ 5250939.479789279401302, 7410632.591139749623835 ], [ 5250790.476169106550515, 7410604.695799864828587 ], [ 5250493.373866100795567, 7410672.595398046076298 ], [ 5250296.581912023946643, 7410603.693338945508003 ], [ 5250082.780222876928747, 7410152.996212526224554 ], [ 5250103.68174175452441, 7409921.595150764100254 ], [ 5249986.478121853433549, 7409748.592714361846447 ], [ 5249932.573396784253418, 7409574.49485748168081 ], [ 5249950.579580990597606, 7409424.39682699367404 ], [ 5249904.578117951750755, 7409237.594507317058742 ], [ 5249776.474354608915746, 7408903.498901350423694 ], [ 5249610.775994965806603, 7408808.590154801495373 ], [ 5249393.575491544790566, 7408599.399491978809237 ], [ 5249212.579023687168956, 7408305.491920428350568 ], [ 5249092.576929721981287, 7408264.499302204698324 ], [ 5248950.577700855210423, 7408089.194193 ], [ 5248847.778689565137029, 7408007.393480228260159 ], [ 5248722.473806697875261, 7407866.390045136213303 ], [ 5248573.574790087528527, 7407774.291783183813095 ], [ 5248523.67296015098691, 7407667.198757084086537 ], [ 5248325.576180402189493, 7407744.297902420163155 ], [ 5248192.579398602247238, 7407774.395022600889206 ], [ 5248095.570772081613541, 7407717.389047145843506 ], [ 5248050.471452279016376, 7407587.489765167236328 ], [ 5247890.572314509190619, 7407517.396797433495522 ], [ 5247666.477257546037436, 7407207.494611785747111 ], [ 5247589.779557344503701, 7407036.390800054185092 ], [ 5247502.673912562429905, 7406760.398609360679984 ], [ 5247323.670395659282804, 7406557.491746373474598 ], [ 5247089.674696846865118, 7406488.292032223194838 ], [ 5246904.775248409248888, 7406323.39024022128433 ], [ 5246715.976637662388384, 7406278.789560481905937 ], [ 5246425.670430014841259, 7406039.19579141959548 ], [ 5246302.773446902632713, 7406105.300207816064358 ], [ 5246215.277443331666291, 7406199.898250196129084 ], [ 5245889.273625231347978, 7406185.292828575707972 ], [ 5245761.676267324015498, 7406203.296271154657006 ], [ 5245682.569712874479592, 7406058.396661073900759 ], [ 5245739.576571514829993, 7405877.295161239802837 ], [ 5245475.678269508294761, 7405377.394636180251837 ], [ 5245369.671693559736013, 7405322.296993226744235 ], [ 5245208.675640876404941, 7405384.194522798061371 ], [ 5245065.668746244162321, 7405336.295432200655341 ], [ 5244947.67838594596833, 7405410.398793714120984 ], [ 5244842.77004854567349, 7405373.29198771994561 ], [ 5244812.675404872745275, 7405511.298697354272008 ], [ 5245040.478385359048843, 7405897.293016860261559 ], [ 5245141.672837319783866, 7406167.295995706692338 ], [ 5245144.770784796215594, 7406299.396871387027204 ], [ 5245031.771883341483772, 7406493.398214384913445 ], [ 5245031.670633552595973, 7406710.394782347604632 ], [ 5244858.675184877589345, 7406733.390420541167259 ], [ 5244724.669464288279414, 7406704.391837578266859 ], [ 5244665.67183524556458, 7406559.197866240516305 ], [ 5244643.572613476775587, 7406429.297429714351892 ], [ 5244413.670689919032156, 7406226.396111601963639 ], [ 5244294.469324012286961, 7406075.294480845332146 ], [ 5244160.673774739727378, 7406086.29262547660619 ], [ 5244159.569932268932462, 7406297.795488395728171 ], [ 5244158.673067490570247, 7406469.390036460012197 ], [ 5244254.87364028673619, 7406610.399306993931532 ], [ 5244137.777906234376132, 7406736.300565361045301 ], [ 5244090.573504566214979, 7406953.400085989385843 ], [ 5243927.677288989536464, 7407091.497348570264876 ], [ 5243781.671103712171316, 7407164.50114775262773 ], [ 5243243.770941510796547, 7407108.292468468658626 ], [ 5243127.669629774056375, 7407122.390977950766683 ], [ 5243068.775243993848562, 7406961.494714366272092 ], [ 5243141.670198664069176, 7406755.492872191593051 ], [ 5243253.575308544561267, 7406632.291027227416635 ], [ 5243215.873597671277821, 7406259.296138307079673 ], [ 5243108.669080861844122, 7406146.296414416283369 ], [ 5242925.576639706268907, 7406071.193861149251461 ], [ 5242812.67165865842253, 7406077.190606005489826 ], [ 5242691.669360285624862, 7406133.300229717046022 ], [ 5242607.874503389000893, 7406249.19555675983429 ], [ 5242627.876617456786335, 7406389.396005004644394 ], [ 5242559.071223828010261, 7406558.493551470339298 ], [ 5242568.668134516105056, 7406977.497526166960597 ], [ 5242350.77201016433537, 7407161.395873207598925 ], [ 5242660.574599280022085, 7407542.59249166958034 ], [ 5242574.673429887741804, 7407669.594694700092077 ], [ 5242686.777952102012932, 7407949.495583625510335 ], [ 5242472.674712521955371, 7408209.493412644602358 ], [ 5242181.573564015328884, 7408276.397069169208407 ], [ 5241899.572383428923786, 7408406.493110191076994 ], [ 5241711.572289353236556, 7408402.394496072083712 ], [ 5241560.776029583066702, 7408528.291810529306531 ], [ 5241493.57505870424211, 7408629.596192538738251 ], [ 5241345.770917253568769, 7409098.493474771268666 ], [ 5241236.673765054903924, 7409170.598335875198245 ], [ 5241187.859087500721216, 7409117.515627696178854 ], [ 5241154.375820667482913, 7409081.096832973882556 ], [ 5240972.670682979747653, 7408883.39591913856566 ], [ 5240834.668921770527959, 7408908.29630545899272 ], [ 5240558.569776361808181, 7409254.401576394215226 ], [ 5240515.670972337946296, 7409436.696242395788431 ], [ 5240468.670305829495192, 7409636.493182698264718 ], [ 5240528.57274860702455, 7409841.097618211060762 ], [ 5240596.668867068365216, 7409999.501748487353325 ], [ 5240485.569311328232288, 7410149.500025545246899 ], [ 5240331.670914214104414, 7410309.59403579402715 ], [ 5240052.769510379992425, 7410070.60201128013432 ], [ 5239833.667959953658283, 7409715.500790122896433 ], [ 5239816.673114272765815, 7409560.597108958289027 ], [ 5239674.568669954314828, 7409365.596056122332811 ], [ 5239646.671529745683074, 7409203.398730278015137 ], [ 5239336.671789763495326, 7408843.495716096833348 ], [ 5239266.566941215656698, 7408721.498645072802901 ], [ 5239218.472603711299598, 7408555.394603450782597 ], [ 5239096.676434830762446, 7408399.497712224721909 ], [ 5238966.66787472832948, 7408444.402307914569974 ], [ 5238977.568098803982139, 7408584.596396142616868 ], [ 5238885.767227883450687, 7408665.292301459237933 ], [ 5238739.66792013682425, 7408660.498745357617736 ], [ 5238602.774832157418132, 7408756.49862646125257 ], [ 5238644.870118193328381, 7408920.595091354101896 ], [ 5238783.673722792416811, 7409059.294520213268697 ], [ 5239108.668286407366395, 7409667.495692519471049 ], [ 5238956.568973507732153, 7409900.701151829212904 ], [ 5238915.672033539041877, 7410030.594537753611803 ], [ 5238754.67089554015547, 7410096.392535867169499 ], [ 5238129.568765390664339, 7410090.502977414056659 ], [ 5237870.769250031560659, 7410231.50129759311676 ], [ 5237925.676326269283891, 7410443.597399414516985 ], [ 5238016.571965668350458, 7410655.600563200190663 ], [ 5237963.57403211388737, 7410900.594493439421058 ], [ 5237850.871488583274186, 7411070.602043936029077 ], [ 5237575.668878990225494, 7411122.497392651624978 ], [ 5237425.570793800055981, 7411001.502924164757133 ], [ 5237205.673898042179644, 7410896.393400434404612 ], [ 5237015.674962808378041, 7410750.499040508642793 ], [ 5236903.774938680231571, 7410838.596583834849298 ], [ 5236744.569712664932013, 7411009.795482421293855 ], [ 5236622.676010944880545, 7411191.599975354969501 ], [ 5236563.668127457611263, 7411395.594082994386554 ], [ 5236560.570043112151325, 7411603.60197021253407 ], [ 5236411.671412731520832, 7411687.499395756982267 ], [ 5236150.975037219934165, 7411741.495070774108171 ], [ 5236131.867612784728408, 7411745.502800259739161 ], [ 5236235.869563652202487, 7412057.70377304404974 ], [ 5236241.670876096002758, 7412215.801478050649166 ], [ 5236351.675502706319094, 7412196.794140450656414 ], [ 5236393.471108907833695, 7412321.695473693311214 ], [ 5236519.773968810215592, 7412222.798545274883509 ], [ 5236671.667213462293148, 7412284.596221191808581 ], [ 5236750.77374202478677, 7412126.699682079255581 ], [ 5236903.574586630798876, 7412064.693991594947875 ], [ 5237170.676751499995589, 7412033.703806514851749 ], [ 5237522.870909025892615, 7412139.403097092173994 ], [ 5237608.570780751295388, 7412257.798638118430972 ], [ 5237678.5753403166309, 7412425.70414512604475 ], [ 5237899.667562188580632, 7412738.694297254085541 ], [ 5238065.667845688760281, 7412802.701091317459941 ], [ 5237996.672090331092477, 7412925.594237988814712 ], [ 5238105.672096480615437, 7413014.693713161163032 ], [ 5238252.573667047545314, 7413092.595821105875075 ], [ 5238363.769836231134832, 7413121.803950908593833 ], [ 5238601.677653347142041, 7413101.801808219403028 ], [ 5238706.674647749401629, 7413244.099443532526493 ], [ 5238722.677890970371664, 7413363.69374755769968 ], [ 5238769.57560399826616, 7413485.903353725560009 ], [ 5238921.573937556706369, 7413733.692885886877775 ], [ 5239011.568994338624179, 7413840.795536106452346 ], [ 5239002.670840131118894, 7413998.800171136856079 ], [ 5239047.677271600812674, 7414149.903005106374621 ], [ 5239362.47476689517498, 7414489.902019152417779 ], [ 5239447.675753498449922, 7414628.903077945113182 ], [ 5239847.773248028941453, 7414801.702739485539496 ], [ 5239977.670338598079979, 7414924.801725862547755 ], [ 5240050.771123540587723, 7415024.802691370248795 ], [ 5240159.675726353190839, 7415074.89689370431006 ], [ 5240228.674488969147205, 7415167.803386444225907 ], [ 5240459.67180956248194, 7415366.80104282964021 ], [ 5240554.578277297317982, 7415653.902425518259406 ], [ 5240678.669385755434632, 7415745.002015344798565 ], [ 5240656.778129769489169, 7415923.903693518601358 ], [ 5240688.676864512264729, 7416143.795181850902736 ], [ 5240769.669847216457129, 7416275.000364745035768 ], [ 5240940.771077052690089, 7416483.901588853448629 ], [ 5241155.677628603763878, 7416601.994076175615191 ], [ 5241311.67794849164784, 7416744.898251249454916 ], [ 5241447.676381071098149, 7416733.102301836945117 ], [ 5241583.771685040555894, 7416893.897537020035088 ], [ 5241597.874701410531998, 7417029.095509320497513 ], [ 5241763.57644153572619, 7417107.902910273522139 ], [ 5241919.775221827439964, 7417269.797095376998186 ], [ 5242019.672833891585469, 7417507.097732536494732 ], [ 5242138.678673252463341, 7417659.201336080208421 ], [ 5242196.670778174884617, 7417856.994944555684924 ], [ 5242320.672377594746649, 7417977.203625643625855 ], [ 5242438.778265988454223, 7418057.094400007277727 ], [ 5242589.67457883618772, 7418125.99442183226347 ], [ 5242749.681224388070405, 7418158.99646844342351 ], [ 5242850.672229503281415, 7418285.99660830013454 ], [ 5242933.776302132755518, 7418448.094803705811501 ], [ 5243076.678885704837739, 7418507.001597927883267 ], [ 5243220.773499852046371, 7418804.102983310818672 ], [ 5243315.674008456990123, 7418903.001988738775253 ], [ 5243441.672601468861103, 7419133.094593957066536 ], [ 5243564.877458206377923, 7419311.900353620760143 ], [ 5243708.672466245479882, 7419605.99959597364068 ], [ 5243794.681900708936155, 7419828.102256650105119 ], [ 5244123.574159244075418, 7420389.501560865901411 ], [ 5244220.472785136662424, 7420613.097027775831521 ], [ 5244272.374319582246244, 7420683.193311201408505 ], [ 5244432.079919440671802, 7420818.894314299337566 ], [ 5244489.182224594056606, 7421011.299226889386773 ], [ 5244652.580966501496732, 7421423.196560457348824 ], [ 5244878.877293934114277, 7421858.89450298063457 ], [ 5244885.981498248875141, 7421909.898942228406668 ], [ 5244893.707846259698272, 7421965.737036483362317 ], [ 5244938.976578638888896, 7422293.002229926176369 ], [ 5246385.776395795866847, 7422076.394185405224562 ], [ 5246442.278656827285886, 7422025.297228308394551 ], [ 5246991.57924691028893, 7421528.198428014293313 ], [ 5247171.680961669422686, 7421422.097788366489112 ], [ 5247299.674706425517797, 7421427.30111654382199 ], [ 5247509.57900835480541, 7421597.096470114775002 ], [ 5247747.683768861927092, 7421895.300421934574842 ], [ 5247855.576356346718967, 7422063.393134796060622 ], [ 5247932.580260180868208, 7422251.100797610357404 ], [ 5248099.479359964840114, 7422501.296937463805079 ], [ 5248242.475695183500648, 7422913.297110422514379 ], [ 5248348.485163322649896, 7423001.198433114215732 ], [ 5248526.583422398194671, 7423077.294511590152979 ], [ 5248682.583540509454906, 7423056.501073762774467 ], [ 5249122.682117517106235, 7422829.29326468333602 ], [ 5249305.481821584515274, 7422761.198188295587897 ], [ 5249462.47662984393537, 7422592.296615168452263 ], [ 5249902.578735965304077, 7422756.19366610981524 ], [ 5250058.482394063845277, 7422902.392171723768115 ], [ 5250394.578331311233342, 7422910.201789347454906 ], [ 5250561.686609104275703, 7422883.292382394894958 ], [ 5250716.680393322370946, 7423010.301026621833444 ], [ 5250815.481400260701776, 7423130.299477707594633 ], [ 5251329.684894843958318, 7423598.296603943221271 ], [ 5251438.584575021639466, 7423805.293285069987178 ], [ 5251660.579951703548431, 7423834.297454593703151 ], [ 5251784.378443383611739, 7423921.398769296705723 ], [ 5251845.48386391159147, 7424026.401416776701808 ], [ 5251890.480246596969664, 7424171.095723990350962 ], [ 5252170.68095158226788, 7424207.296876395121217 ], [ 5252276.479534673504531, 7424124.300759320147336 ], [ 5252444.579755704849958, 7424132.194950418546796 ], [ 5252539.485304583795369, 7424024.396206034347415 ], [ 5252649.479621277190745, 7423842.391048759222031 ], [ 5252727.787704729475081, 7423568.396957919001579 ], [ 5252927.687909532338381, 7423269.494235567748547 ], [ 5252978.583529359661043, 7423129.397028312087059 ], [ 5253118.581425745971501, 7422984.198906711302698 ], [ 5253391.686857420951128, 7422487.398383636958897 ], [ 5253450.685609119944274, 7422247.094115222804248 ], [ 5253569.577876749448478, 7422074.194228660315275 ], [ 5253653.584985285997391, 7421996.391374396160245 ], [ 5253667.682635537348688, 7421843.096562679857016 ], [ 5253801.479895487427711, 7421724.190209828317165 ], [ 5253839.584477487020195, 7421461.194589087739587 ], [ 5253849.678310755640268, 7421009.098466938361526 ], [ 5254151.585296712815762, 7420414.298688286915421 ], [ 5254142.479748363606632, 7420220.994515389204025 ], [ 5254406.483120754361153, 7419843.19930399954319 ], [ 5254529.579094267450273, 7419578.096634407527745 ], [ 5254589.578150749206543, 7419281.99615865573287 ], [ 5254511.584597353823483, 7419032.09874823410064 ], [ 5254420.687293697148561, 7418886.092827853746712 ], [ 5254377.485831686295569, 7418671.092460259795189 ], [ 5254270.58568923547864, 7418385.297872774302959 ], [ 5254326.68113121856004, 7418197.98999728821218 ], [ 5254420.477063533850014, 7418030.098227937705815 ], [ 5254546.583528928458691, 7417932.895515751093626 ], [ 5254673.584390036761761, 7417863.999246910214424 ], [ 5254751.478881374001503, 7417738.9904222227633 ], [ 5254787.580068393610418, 7417580.989956750534475 ], [ 5254975.586453618481755, 7417237.896129377186298 ], [ 5255184.479206820949912, 7417010.990645686164498 ], [ 5255609.487003263086081, 7416792.897890949621797 ], [ 5255108.210037115029991, 7415715.223286977037787 ], [ 5255045.679874978028238, 7415580.793677540495992 ], [ 5255367.48267475515604, 7415451.792087655514479 ], [ 5255539.945245639421046, 7415364.840095765888691 ], [ 5255601.022567383944988, 7415338.043894110247493 ], [ 5255571.184428673237562, 7415289.883386903442442 ], [ 5255526.416845546104014, 7415217.615013843402267 ], [ 5255510.182466375641525, 7415191.390236357226968 ], [ 5255375.961152762174606, 7414982.098988881334662 ], [ 5255057.910991553217173, 7414486.117957543581724 ], [ 5255039.382141256704926, 7414457.227569326758385 ], [ 5254963.186085203662515, 7414338.398289675824344 ], [ 5254890.685139485634863, 7414288.489632410928607 ], [ 5254568.58071715850383, 7414066.691002640873194 ] ] ] } }
]
}
