{
"type": "FeatureCollection",
"name": "4125308",
"crs": { "type": "name", "properties": { "name": "urn:ogc:def:crs:EPSG::5880" } },
"features": [
{ "type": "Feature", "properties": { "lv_id": "LOC_063105", "id": 393624.0, "CD_SETOR": "412530805000001", "SITUACAO": "Urbana", "CD_SIT": "1", "CD_TIPO": "0", "AREA_KM2": 0.29267406482997699, "CD_REGIAO": "4", "NM_REGIAO": "Sul", "CD_UF": "41", "NM_UF": "Paraná", "CD_MUN": "4125308", "NM_MUN": "São Jorge do Ivaí", "CD_DIST": "412530805", "NM_DIST": "São Jorge do Ivaí", "CD_SUBDIST": "41253080500", "NM_SUBDIST": null, "CD_BAIRRO": null, "NM_BAIRRO": null, "CD_NU": "4125308002", "NM_NU": "Aparecida", "CD_FCU": null, "NM_FCU": null, "CD_AGLOM": null, "NM_AGLOM": null, "CD_RGINT": "4104", "NM_RGINT": "Maringá", "CD_RGI": "410014", "NM_RGI": "Maringá", "CD_CONCURB": null, "NM_CONCURB": null, "mun_code_x": "4125308", "index_right": 59996, "dist_m": 0.0, "local_id": 674506, "ano": 2022, "cod_localidade_ibge": 4125308, "NR_ZONA": "102", "nr_cep": 87190000.0, "nm_localidade": "SÃO JORGE DO IVAÍ", "nm_locvot": "COLÉGIO ESTADUAL MARCIA VAZ TOSTES DE ABREU-ENSINO FUNDAMENTAL E MÉDIO", "ds_endereco": "RUA XV DE NOVEMBRO, 603 - CENTRO", "ds_bairro": "CENTRO", "pred_long": -52.295122, "pred_lat": -23.434854, "pred_dist": 0.0, "tse_long": -52.2951084, "tse_lat": -23.4348462, "long": -52.2951084, "lat": -23.4348462, "ID_UNICO": "LOC_063105", "SG_UF": "PR", "CD_MUNICIPIO": "78794", "NR_LOCAL_VOTACAO": "1015", "QT_SECOES_AGREGADAS": 0, "QT_ELEITORES_TRANSFERIDOS": 8, "CIRO GOMES (PDT) (NÃO ELEITO) 1T": 29.0, "CONSTITUINTE EYMAEL (DC) (NÃO ELEITO) 1T": 0.0, "FELIPE D AVILA (NOVO) (NÃO ELEITO) 1T": 4.0, "JAIR BOLSONARO (PL) (2º TURNO) 1T": 1160.0, "LULA (PT) (2º TURNO) 1T": 693.0, "LÉO PÉRICLES (UP) (NÃO ELEITO) 1T": 0.0, "PADRE KELMON (PTB) (NÃO ELEITO) 1T": 2.0, "SIMONE TEBET (MDB) (NÃO ELEITO) 1T": 73.0, "SOFIA MANZANO (PCB) (NÃO ELEITO) 1T": 1.0, "SORAYA THRONICKE (UNIÃO) (NÃO ELEITO) 1T": 5.0, "VERA (PSTU) (NÃO ELEITO) 1T": 0.0, "Total_Votos_Validos 1T": 1967.0, "Votos_Brancos 1T": 17.0, "Votos_Nulos 1T": 34.0, "Abstenções 1T": 521.0, "Eleitores_Aptos 1T": 2539.0, "JAIR BOLSONARO (PL) (NÃO ELEITO) 2T": 1297.0, "LULA (PT) (ELEITO) 2T": 711.0, "Total_Votos_Validos 2T": 2008.0, "Votos_Brancos 2T": 16.0, "Votos_Nulos 2T": 42.0, "Abstenções 2T": 473.0, "Eleitores_Aptos 2T": 2539.0, "mun_code_y": "4125308", "mun_code": "4125308" }, "geometry": { "type": "Polygon", "coordinates": [ [ [ 5174857.345913524739444, 7399840.611487043090165 ], [ 5174871.144891941919923, 7399786.40965230576694 ], [ 5174837.841665832325816, 7399743.416800613515079 ], [ 5174826.542614592239261, 7399680.716333786025643 ], [ 5174743.045913976617157, 7399556.516920078545809 ], [ 5174695.238921917974949, 7399540.211035039275885 ], [ 5174645.145694077014923, 7399554.114272771403193 ], [ 5174585.242507800459862, 7399493.011264935135841 ], [ 5174499.543237440288067, 7399482.318722331896424 ], [ 5174493.639414115808904, 7399460.018293051049113 ], [ 5174521.443484240211546, 7399419.511473087593913 ], [ 5174487.645255678333342, 7399347.615988552570343 ], [ 5174516.445385211147368, 7399302.410454815253615 ], [ 5174422.541354304179549, 7399217.512316734530032 ], [ 5174356.04577337577939, 7399108.610000919550657 ], [ 5174263.243029632605612, 7399076.715892588719726 ], [ 5174185.2412628242746, 7399100.710535833612084 ], [ 5174145.63777965400368, 7399088.615775188431144 ], [ 5174005.84181840158999, 7398976.116463540121913 ], [ 5173954.236662316136062, 7398962.313161050900817 ], [ 5173942.640328746289015, 7398941.409654542803764 ], [ 5173970.838084747083485, 7398922.017751706764102 ], [ 5173968.939233487471938, 7398904.013062452897429 ], [ 5173912.739725064486265, 7398878.308757190592587 ], [ 5173917.442756275646389, 7398839.018658330664039 ], [ 5174004.337615448981524, 7398820.81448039226234 ], [ 5174008.942338721826673, 7398803.408552290871739 ], [ 5173947.038467864505947, 7398702.317066203802824 ], [ 5173954.041324362158775, 7398684.716525103896856 ], [ 5173996.543855428695679, 7398686.417510306462646 ], [ 5173978.744088768027723, 7398611.816216496750712 ], [ 5174014.343256953172386, 7398586.109430130571127 ], [ 5173991.044797224923968, 7398480.216869603842497 ], [ 5174031.23637143522501, 7398440.417146937921643 ], [ 5174013.340199530124664, 7398390.414702089503407 ], [ 5174035.140609323047101, 7398356.217965472489595 ], [ 5174022.041753057390451, 7398324.008560577407479 ], [ 5173961.439746918156743, 7398349.812473790720105 ], [ 5173897.838065601885319, 7398288.008649092167616 ], [ 5173845.440662385895848, 7398280.408266933634877 ], [ 5173844.540988323278725, 7398235.511579910293221 ], [ 5173903.143779011443257, 7398195.316704642027617 ], [ 5173885.63836432620883, 7398056.713583316653967 ], [ 5173924.74170455429703, 7398052.71547649987042 ], [ 5173919.943953272886574, 7398009.017306074500084 ], [ 5173964.245300107635558, 7398005.810615870170295 ], [ 5174012.837929044850171, 7397978.608918884769082 ], [ 5174003.943187665194273, 7397906.417173048481345 ], [ 5174154.145540736615658, 7397820.814032739028335 ], [ 5174150.445292855612934, 7397761.214056137017906 ], [ 5174065.636669845320284, 7397697.313863712362945 ], [ 5174080.038698293268681, 7397641.410293715074658 ], [ 5174070.040647308342159, 7397580.41141358576715 ], [ 5174082.237496227957308, 7397570.217041718773544 ], [ 5174117.937300962395966, 7397605.71477825473994 ], [ 5174141.544557580724359, 7397596.515053108334541 ], [ 5174113.640792994759977, 7397523.40776495821774 ], [ 5174164.038173669017851, 7397487.508302233181894 ], [ 5174181.838702643290162, 7397382.413080176338553 ], [ 5174283.736001662909985, 7397257.415970738977194 ], [ 5174217.135874771513045, 7397198.308550553396344 ], [ 5174222.344197896309197, 7397145.815814247354865 ], [ 5174259.841870630159974, 7397093.714975902810693 ], [ 5174252.74378960672766, 7397060.215650465339422 ], [ 5174213.040260058827698, 7397057.308010809123516 ], [ 5174181.643885541707277, 7396994.513569434173405 ], [ 5174128.740984536707401, 7396964.616364028304815 ], [ 5174165.64179215952754, 7396882.916904686018825 ], [ 5174149.635605061426759, 7396832.016862185671926 ], [ 5174167.242628652602434, 7396779.509810046292841 ], [ 5174153.744009727612138, 7396695.517070148140192 ], [ 5174101.541892235167325, 7396636.814432592131197 ], [ 5174086.645476367324591, 7396587.308331117033958 ], [ 5174017.742573691532016, 7396566.210035203024745 ], [ 5173979.839765675365925, 7396483.415435247123241 ], [ 5173883.537239668890834, 7396469.311909962445498 ], [ 5173821.136187767609954, 7396398.718602517619729 ], [ 5173628.237087153829634, 7396378.312785956077278 ], [ 5173614.145394958555698, 7396428.517147820442915 ], [ 5173585.63577102124691, 7396434.117794608697295 ], [ 5173461.240739068947732, 7396343.4155363291502 ], [ 5173432.445049900561571, 7396369.716773757711053 ], [ 5173402.136678089387715, 7396363.117079683579504 ], [ 5173398.543036981485784, 7396304.513004438020289 ], [ 5173300.540414188988507, 7396271.711734363809228 ], [ 5173308.436924702487886, 7396230.411763750016689 ], [ 5173233.638820290565491, 7396251.217844678089023 ], [ 5173215.538447625935078, 7396212.917609436437488 ], [ 5173255.74329177942127, 7396172.908915471285582 ], [ 5173269.445186925120652, 7396068.916048964485526 ], [ 5173329.138018943369389, 7396055.911411535926163 ], [ 5173333.837178993970156, 7396039.612517416477203 ], [ 5173303.336703085340559, 7396014.112417690455914 ], [ 5173369.937218194827437, 7395979.009891651570797 ], [ 5173415.836032297462225, 7395900.718273496255279 ], [ 5173412.441739668138325, 7395865.014246022328734 ], [ 5173462.239468275569379, 7395841.810561334714293 ], [ 5173484.241886801086366, 7395762.815357768908143 ], [ 5173474.436031745746732, 7395705.714111611247063 ], [ 5173422.741683064028621, 7395731.710331590846181 ], [ 5173408.435060787014663, 7395705.908025494776666 ], [ 5173425.038641642779112, 7395666.909249129705131 ], [ 5173375.144376127980649, 7395662.912508334033191 ], [ 5173329.639016859233379, 7395630.210722727701068 ], [ 5173354.035223635844886, 7395611.108238310553133 ], [ 5173351.837922091595829, 7395591.112609418109059 ], [ 5173270.536427694372833, 7395606.611179871484637 ], [ 5173193.036118577234447, 7395506.510765972547233 ], [ 5173025.436094454489648, 7395474.918317580595613 ], [ 5172945.138890807516873, 7395514.912240456789732 ], [ 5172770.044634640216827, 7395416.714814137667418 ], [ 5172767.336280546151102, 7395401.810902439057827 ], [ 5172813.43856811709702, 7395375.317855874076486 ], [ 5172818.33688784763217, 7395306.608350483700633 ], [ 5172900.743552357889712, 7395261.116631974466145 ], [ 5172830.240714136511087, 7395159.11487952619791 ], [ 5172846.137283402495086, 7395093.012348733842373 ], [ 5172834.440696535632014, 7395044.209923576563597 ], [ 5172807.544531632214785, 7395034.012274784967303 ], [ 5172775.335687907412648, 7395048.71861831843853 ], [ 5172687.24426906183362, 7394999.110549342818558 ], [ 5172677.942326051183045, 7394973.215422206558287 ], [ 5172705.43799838796258, 7394889.613963112235069 ], [ 5172689.434506809338927, 7394840.108793027698994 ], [ 5172629.234780457802117, 7394820.109812885522842 ], [ 5172565.334858385846019, 7394746.914778528735042 ], [ 5172511.734628583304584, 7394745.307965458370745 ], [ 5172490.034468561410904, 7394713.209916994906962 ], [ 5172462.140285634435713, 7394752.617511348798871 ], [ 5172438.536844523623586, 7394756.618267394602299 ], [ 5172331.342362519353628, 7394696.618500428274274 ], [ 5172222.94442455470562, 7394727.011590151116252 ], [ 5172182.84055872540921, 7394721.610661642625928 ], [ 5172126.034650289453566, 7394679.210410607978702 ], [ 5172094.843350421637297, 7394611.014007046818733 ], [ 5172040.636894864030182, 7394601.213454429060221 ], [ 5171999.135723236016929, 7394575.917754348367453 ], [ 5172002.244011255912483, 7394488.415941530838609 ], [ 5172089.734334438107908, 7394374.317039832472801 ], [ 5172073.942893443629146, 7394309.618217591196299 ], [ 5172096.94184138532728, 7394274.213353859260678 ], [ 5172096.541891666129231, 7394253.210406744852662 ], [ 5172040.739157078787684, 7394209.114007989875972 ], [ 5171997.137705943547189, 7394155.312101258896291 ], [ 5172019.336056148633361, 7394050.013153339736164 ], [ 5171964.735974106006324, 7394035.208944114856422 ], [ 5171898.237144156359136, 7394126.313653803430498 ], [ 5171820.536483060568571, 7394113.918475314043462 ], [ 5171763.2407909585163, 7394138.312821608036757 ], [ 5171683.442479404620826, 7394132.511941154487431 ], [ 5171628.334795606322587, 7394061.31544401589781 ], [ 5171630.24362541269511, 7394029.017149968072772 ], [ 5171727.636118121445179, 7393923.413422496989369 ], [ 5171742.936103015206754, 7393879.312989617697895 ], [ 5171697.240666263736784, 7393845.312622720375657 ], [ 5171617.536925761029124, 7393903.209088845178485 ], [ 5171595.933914264664054, 7393886.111048361286521 ], [ 5171602.435977055691183, 7393809.217483093962073 ], [ 5171569.64159139059484, 7393733.715140832588077 ], [ 5171535.434442715719342, 7393705.817719530314207 ], [ 5171421.239931039512157, 7393719.409561085514724 ], [ 5171409.34341689851135, 7393692.314316197298467 ], [ 5171452.843811572529376, 7393630.510678624734282 ], [ 5171454.133702755905688, 7393574.10967886261642 ], [ 5171364.93717289250344, 7393477.816587692126632 ], [ 5171318.134557341225445, 7393294.913593890145421 ], [ 5171190.940066217444837, 7393265.311253264546394 ], [ 5171046.637021839618683, 7393106.715675290673971 ], [ 5170732.838574362918735, 7393279.613846695050597 ], [ 5170499.142167137935758, 7393348.617579085752368 ], [ 5170246.237401717342436, 7393475.611358998343349 ], [ 5169951.142399918287992, 7393511.614810043945909 ], [ 5169358.336343239061534, 7393479.6162901930511 ], [ 5169190.133772186934948, 7393419.613773198798299 ], [ 5168751.342106916941702, 7393325.514004376716912 ], [ 5168539.041185048408806, 7393303.418007000349462 ], [ 5168377.237332497723401, 7393266.61150917224586 ], [ 5168126.034362786449492, 7393124.40905948355794 ], [ 5167566.233597804792225, 7392764.509390714578331 ], [ 5167429.342104285955429, 7392747.417776959948242 ], [ 5167174.238546599633992, 7392765.413475736044347 ], [ 5167025.238408433273435, 7392855.719230349175632 ], [ 5166767.234109223820269, 7393092.509589955210686 ], [ 5166697.138709548860788, 7393201.911261422559619 ], [ 5166263.241525395773351, 7393742.614669488742948 ], [ 5166151.135069094598293, 7393839.814998226240277 ], [ 5166041.341860069893301, 7393900.713330278173089 ], [ 5165945.935673527419567, 7393931.011933596804738 ], [ 5165849.236836388707161, 7393961.712315551936626 ], [ 5165532.241332883946598, 7393980.611309796571732 ], [ 5165193.236805106513202, 7393928.609531037509441 ], [ 5164849.24042434245348, 7393787.60959935747087 ], [ 5164545.236223015002906, 7393724.717920314520597 ], [ 5164346.135348865762353, 7393749.512146759778261 ], [ 5164197.133721400983632, 7393816.619762243703008 ], [ 5164113.239042330533266, 7393896.712661853991449 ], [ 5163948.036581407301128, 7394136.817807987332344 ], [ 5163826.134419939480722, 7394407.913285716436803 ], [ 5163604.23239651042968, 7394829.620524851605296 ], [ 5163388.236394907347858, 7395081.619257094338536 ], [ 5163282.136482978239655, 7395168.812294559553266 ], [ 5163157.340455704368651, 7395229.710561373271048 ], [ 5163074.138472955673933, 7395356.810004043392837 ], [ 5162701.136796061880887, 7395775.716243220493197 ], [ 5162535.331643388606608, 7396174.720917014405131 ], [ 5162537.13483708165586, 7396344.714882703498006 ], [ 5162569.236600888893008, 7396464.71479769423604 ], [ 5162662.137912232428789, 7396609.711201088503003 ], [ 5162789.134176858700812, 7396746.617272362112999 ], [ 5162994.234082963317633, 7396905.710622575134039 ], [ 5163670.341780324466527, 7397202.820059643127024 ], [ 5164038.133707283996046, 7397400.811354683712125 ], [ 5164273.332211868837476, 7397557.81212714780122 ], [ 5164370.34175867587328, 7397681.812899144366384 ], [ 5164410.238989578559995, 7397890.713152612559497 ], [ 5164306.935813602991402, 7398061.221003577113152 ], [ 5164175.340949757024646, 7398234.814450845122337 ], [ 5163869.238688827492297, 7398752.812244302593172 ], [ 5163684.133863483555615, 7398948.912983914837241 ], [ 5163592.133487078361213, 7399082.914549451321363 ], [ 5163456.235480513423681, 7399167.1147795394063 ], [ 5163315.137040718458593, 7399203.619126939214766 ], [ 5162821.236062906682491, 7399167.016364536248147 ], [ 5162200.236544630490243, 7399184.019619831815362 ], [ 5162085.63925870321691, 7399204.519539929926395 ], [ 5161861.131894167512655, 7399327.91754085291177 ], [ 5161771.234484692104161, 7399470.015371741726995 ], [ 5161731.236184004694223, 7399640.911979643628001 ], [ 5161721.334588658995926, 7399810.313508591614664 ], [ 5161732.336193797178566, 7400034.715242281556129 ], [ 5161862.133382310159504, 7400680.817174391821027 ], [ 5161887.234022510237992, 7400907.013319624587893 ], [ 5161899.335370047949255, 7401471.117342289537191 ], [ 5161887.135955770500004, 7401662.015722023323178 ], [ 5161857.135615835897624, 7401822.021547376178205 ], [ 5161793.141508320346475, 7401928.013203347101808 ], [ 5161706.940526745282114, 7402032.620253555476665 ], [ 5161373.14023763872683, 7402437.316225746646523 ], [ 5161214.834638806059957, 7402559.917585774324834 ], [ 5161256.233649937435985, 7404307.717410715296865 ], [ 5161333.532190664671361, 7404361.512653938494623 ], [ 5161388.738221848383546, 7404459.922416476532817 ], [ 5161444.738954390399158, 7404491.016730210743845 ], [ 5161522.935660193674266, 7404494.312976511195302 ], [ 5161545.334528647363186, 7404518.518953584134579 ], [ 5161526.83875919226557, 7404574.317864246666431 ], [ 5161530.334252682514489, 7404705.613169363699853 ], [ 5161635.94172831159085, 7404965.015540306456387 ], [ 5161686.438855083659291, 7404987.915489856153727 ], [ 5161781.038347437977791, 7404975.319857915863395 ], [ 5161817.235440852120519, 7405038.716282520443201 ], [ 5161933.142519118264318, 7405139.514489205554128 ], [ 5161983.342006808146834, 7405221.613403238356113 ], [ 5162027.037571549415588, 7405242.91418026573956 ], [ 5162107.635338467545807, 7405216.111962264403701 ], [ 5162468.239699915982783, 7405268.816379653289914 ], [ 5162525.836842212826014, 7405229.314058277755976 ], [ 5162610.634460438042879, 7405259.919985415413976 ], [ 5162678.934878995642066, 7405258.721840530633926 ], [ 5162779.533628666773438, 7405173.11830578930676 ], [ 5162877.136661052703857, 7405144.716532539576292 ], [ 5162952.334775244817138, 7405150.021849785000086 ], [ 5162992.138726689852774, 7405058.818988962098956 ], [ 5163055.235928145237267, 7405031.717764351516962 ], [ 5163102.542854770086706, 7405045.917856859974563 ], [ 5163163.640759321860969, 7404991.516629099845886 ], [ 5163177.838556066155434, 7404946.720447767525911 ], [ 5163276.435434158891439, 7404943.621176437474787 ], [ 5163291.23859204724431, 7404891.716266890056431 ], [ 5163362.340977327898145, 7404884.412237465381622 ], [ 5163521.842780478298664, 7404797.816540978848934 ], [ 5163578.033789000473917, 7404837.22163431532681 ], [ 5163653.443304419517517, 7404781.717286765575409 ], [ 5163713.435209554620087, 7404819.218265494331717 ], [ 5163897.535855262540281, 7404776.218927917070687 ], [ 5163960.435345573350787, 7404882.013192532584071 ], [ 5164105.838563077151775, 7404904.112979592755437 ], [ 5164193.335959220305085, 7404886.21846042945981 ], [ 5164235.142500672489405, 7404853.422089429572225 ], [ 5164333.938035645522177, 7404859.021885027177632 ], [ 5164360.738889001309872, 7404836.818475442007184 ], [ 5164443.434805577620864, 7404871.215541611425579 ], [ 5164482.53746887203306, 7404857.117480091750622 ], [ 5164594.043333705514669, 7404928.318766819313169 ], [ 5164630.238835403695703, 7404917.421556645072997 ], [ 5164738.038261588662863, 7405034.421377761289477 ], [ 5164815.337531714700162, 7405029.312233124859631 ], [ 5165002.439412290230393, 7405272.214934768155217 ], [ 5164982.338274437002838, 7405290.411191456019878 ], [ 5165007.84046518150717, 7405314.621888168156147 ], [ 5164985.8339420016855, 7405348.81607161834836 ], [ 5165020.139963345602155, 7405351.611184897832572 ], [ 5165006.937482982873917, 7405379.912111517041922 ], [ 5165022.534837292507291, 7405439.422178693115711 ], [ 5165246.235217368230224, 7405692.814030571840703 ], [ 5165316.337654800154269, 7405708.114107078872621 ], [ 5165342.737987103872001, 7405666.613018908537924 ], [ 5165407.741979484446347, 7405732.015872834250331 ], [ 5165459.940454953350127, 7405758.219265533611178 ], [ 5165514.44152048882097, 7405755.612133681774139 ], [ 5165539.743538931943476, 7405808.220945534296334 ], [ 5165672.343720800243318, 7405905.712938193231821 ], [ 5165768.841563834808767, 7406025.115756716579199 ], [ 5165982.239480126649141, 7406075.316304601728916 ], [ 5166157.734598961658776, 7406205.215563084930182 ], [ 5166264.739007796160877, 7406240.913164135068655 ], [ 5166461.038428129628301, 7406202.021512378007174 ], [ 5166540.743325602263212, 7406238.313909318298101 ], [ 5166638.043489783070982, 7406249.920992294326425 ], [ 5166766.93910363689065, 7406321.619446096941829 ], [ 5166938.537665742449462, 7406260.221699833869934 ], [ 5167223.540321231819689, 7406254.416436305269599 ], [ 5167282.840205113403499, 7406336.71747743152082 ], [ 5167421.341055776923895, 7406425.917837973684072 ], [ 5167488.137584010139108, 7406304.612371268682182 ], [ 5168124.943698180839419, 7406300.411301324144006 ], [ 5168893.537012888118625, 7406214.521155003458261 ], [ 5169125.74538292363286, 7406297.811092818155885 ], [ 5169756.242431436665356, 7406281.712402034550905 ], [ 5170615.137915270403028, 7406455.019614299759269 ], [ 5172040.741402211599052, 7405979.015641327947378 ], [ 5173382.19575031939894, 7405631.820162506774068 ], [ 5173786.866561155766249, 7405517.898825827986002 ], [ 5173891.686123095452785, 7405797.315246625803411 ], [ 5173891.828521745279431, 7405797.258164579048753 ], [ 5173960.283022602088749, 7405975.766823478043079 ], [ 5173980.760579168796539, 7406029.162735758349299 ], [ 5174110.061204410158098, 7406372.363885920494795 ], [ 5174154.484085202217102, 7406494.80355130136013 ], [ 5174251.194108426570892, 7406559.429758770391345 ], [ 5174547.524714617989957, 7406559.487365290522575 ], [ 5174547.536205895245075, 7406553.55945342592895 ], [ 5174640.597789177671075, 7406553.386591306887567 ], [ 5174764.707217341288924, 7406467.052444191649556 ], [ 5174777.718063409440219, 7406449.901319692842662 ], [ 5174860.841586137190461, 7406039.830470124259591 ], [ 5174871.522099473513663, 7405977.965939627960324 ], [ 5174884.114913851954043, 7405905.031926803290844 ], [ 5174898.027241235598922, 7405824.470258716493845 ], [ 5174891.298483879305422, 7405794.002698890864849 ], [ 5174867.322090035304427, 7405685.493224105797708 ], [ 5174836.118876964785159, 7405588.858681928366423 ], [ 5174829.965353601612151, 7405569.807732550427318 ], [ 5174928.953310671262443, 7405541.707084509544075 ], [ 5174949.460393820889294, 7405548.321827130392194 ], [ 5175005.36645223852247, 7405609.871281360276043 ], [ 5175080.435464356094599, 7405784.06451877579093 ], [ 5175452.562387944199145, 7405580.336887774989009 ], [ 5175533.698792546987534, 7405707.565229750238359 ], [ 5176172.6426303954795, 7405291.109852017834783 ], [ 5176173.845790739171207, 7405273.810547688044608 ], [ 5176178.339776270091534, 7405205.315183004364371 ], [ 5176227.938423002138734, 7405107.615529105067253 ], [ 5176123.344933974556625, 7404988.815371319651604 ], [ 5176098.447749574668705, 7404991.916636816225946 ], [ 5176083.448239955119789, 7405043.319282738491893 ], [ 5176037.245689244940877, 7405043.118693247437477 ], [ 5176011.040247631259263, 7404918.914500240236521 ], [ 5175986.245686951093376, 7404887.012451585382223 ], [ 5176016.341808489523828, 7404822.210787864401937 ], [ 5175994.940693142823875, 7404710.912764963693917 ], [ 5176059.547198886051774, 7404649.709047438576818 ], [ 5176069.542367031797767, 7404596.017299765720963 ], [ 5176051.544370204210281, 7404548.810018745251 ], [ 5176083.842328576371074, 7404497.311087807640433 ], [ 5176090.245446524582803, 7404446.609598813578486 ], [ 5175964.347651774995029, 7404315.50997462682426 ], [ 5175939.239023517817259, 7404256.410107635892928 ], [ 5176075.547995775938034, 7404186.813820161856711 ], [ 5176038.345867571420968, 7404140.11342906486243 ], [ 5176003.539558215066791, 7403969.110211232677102 ], [ 5176020.543471611104906, 7403944.408664228394628 ], [ 5176059.043287853710353, 7403936.51308443211019 ], [ 5176201.041284762322903, 7403995.808326457627118 ], [ 5176233.740597906522453, 7403977.112224233336747 ], [ 5176210.042053111828864, 7403918.915505465120077 ], [ 5176058.039954157546163, 7403810.012784030288458 ], [ 5176047.438101840205491, 7403767.714092218317091 ], [ 5176083.845381944440305, 7403766.015064910054207 ], [ 5176155.442971195094287, 7403810.308914002031088 ], [ 5176224.646790942177176, 7403723.010777125135064 ], [ 5176289.639557287096977, 7403735.417077725753188 ], [ 5176303.144277708604932, 7403679.710669904947281 ], [ 5176330.042860145680606, 7403669.017178267240524 ], [ 5176355.544368392787874, 7403702.018127889372408 ], [ 5176428.041260619647801, 7403643.210659498348832 ], [ 5176420.045472052879632, 7403566.111530450172722 ], [ 5176350.346005418337882, 7403508.810344466939569 ], [ 5176351.047633640468121, 7403483.8163081118837 ], [ 5176397.943162912502885, 7403460.417694259434938 ], [ 5176400.847264672629535, 7403418.01254428178072 ], [ 5176444.740100746974349, 7403372.611453347839415 ], [ 5176428.245348633266985, 7403327.214761395007372 ], [ 5176371.24707296397537, 7403355.909112193621695 ], [ 5176350.84060887247324, 7403325.11852758936584 ], [ 5176411.946333343163133, 7403266.613803995773196 ], [ 5176424.447462137788534, 7403215.916355570778251 ], [ 5176399.94418206717819, 7403108.511751064099371 ], [ 5176309.746867582201958, 7402962.317031973041594 ], [ 5176263.540939431637526, 7402836.015055047348142 ], [ 5176305.738912040367723, 7402755.909520154818892 ], [ 5176259.44070953130722, 7402736.908383373171091 ], [ 5176222.841384603641927, 7402775.218996863812208 ], [ 5176190.444801796227694, 7402774.610143242403865 ], [ 5176146.94261896237731, 7402663.211455458775163 ], [ 5176157.244884023442864, 7402610.612641477957368 ], [ 5176125.247000383213162, 7402571.617435813881457 ], [ 5176099.542047194205225, 7402466.010790090076625 ], [ 5176070.547177752479911, 7402455.909643155522645 ], [ 5175989.446517670527101, 7402481.811205654405057 ], [ 5175970.839447813108563, 7402426.212504198774695 ], [ 5175921.644699474796653, 7402394.713510056957603 ], [ 5175888.143476621247828, 7402344.41200786922127 ], [ 5175825.245947392657399, 7402317.010144567117095 ], [ 5175751.537767102941871, 7402242.514015579596162 ], [ 5175672.747145330533385, 7402229.118469655513763 ], [ 5175659.245134199969471, 7402209.014408350922167 ], [ 5175698.741641636937857, 7402137.009254992008209 ], [ 5175628.437548590824008, 7402091.612508058547974 ], [ 5175616.339905945584178, 7402059.912954274564981 ], [ 5175652.739824939519167, 7401952.809975014068186 ], [ 5175593.945555037818849, 7401883.010165633633733 ], [ 5175588.839323443360627, 7401818.208416361361742 ], [ 5175470.846513777971268, 7401719.010964258573949 ], [ 5175486.940143617801368, 7401603.718944536522031 ], [ 5175453.139867058955133, 7401435.716598097234964 ], [ 5175401.939252407290041, 7401371.908467885106802 ], [ 5175322.944818964228034, 7401341.018416408449411 ], [ 5175282.442392359487712, 7401255.010747727006674 ], [ 5175333.637116668745875, 7401185.71441650390625 ], [ 5175348.143664850853384, 7401106.91705767903477 ], [ 5175322.241925795562565, 7400984.215277086943388 ], [ 5175267.238343552686274, 7400855.811061806045473 ], [ 5175132.842159328982234, 7400679.014132669195533 ], [ 5175162.345688458532095, 7400603.616956959478557 ], [ 5175131.041902233846486, 7400538.318741666153073 ], [ 5175121.341473744250834, 7400457.317242471501231 ], [ 5175095.540039090439677, 7400418.213117230683565 ], [ 5174943.739045454189181, 7400308.911578596569598 ], [ 5174890.542075793258846, 7400294.011047329753637 ], [ 5174867.743715105578303, 7400250.516349922865629 ], [ 5174873.439051547087729, 7400196.909678855910897 ], [ 5174829.738156693056226, 7400103.515535810962319 ], [ 5174866.945112710818648, 7400031.617134870961308 ], [ 5174812.340886080637574, 7399955.91471978276968 ], [ 5174877.337731631472707, 7399899.817893071100116 ], [ 5174857.345913524739444, 7399840.611487043090165 ] ] ] } },
{ "type": "Feature", "properties": { "lv_id": "LOC_063106", "id": 393625.0, "CD_SETOR": "412530805000002", "SITUACAO": "Urbana", "CD_SIT": "1", "CD_TIPO": "0", "AREA_KM2": 0.23751368486195501, "CD_REGIAO": "4", "NM_REGIAO": "Sul", "CD_UF": "41", "NM_UF": "Paraná", "CD_MUN": "4125308", "NM_MUN": "São Jorge do Ivaí", "CD_DIST": "412530805", "NM_DIST": "São Jorge do Ivaí", "CD_SUBDIST": "41253080500", "NM_SUBDIST": null, "CD_BAIRRO": null, "NM_BAIRRO": null, "CD_NU": null, "NM_NU": null, "CD_FCU": null, "NM_FCU": null, "CD_AGLOM": "412530800001", "NM_AGLOM": "Comunidade Km 14", "CD_RGINT": "4104", "NM_RGINT": "Maringá", "CD_RGI": "410014", "NM_RGI": "Maringá", "CD_CONCURB": null, "NM_CONCURB": null, "mun_code_x": "4125308", "index_right": 59997, "dist_m": 0.0, "local_id": 674507, "ano": 2022, "cod_localidade_ibge": 4125308, "NR_ZONA": "102", "nr_cep": 87190000.0, "nm_localidade": "SÃO JORGE DO IVAÍ", "nm_locvot": "ESCOLA MUNICIPAL SÃO JORGE - ENSINO FUNDAMENTAL", "ds_endereco": "RUA JOSÉ FERREIRA DE CASTILHO, 110 - CENTRO", "ds_bairro": "CENTRO", "pred_long": -52.29316, "pred_lat": -23.42934, "pred_dist": 0.0, "tse_long": -52.2937045, "tse_lat": -23.4297459, "long": -52.2937045, "lat": -23.4297459, "ID_UNICO": "LOC_063106", "SG_UF": "PR", "CD_MUNICIPIO": "78794", "NR_LOCAL_VOTACAO": "1040", "QT_SECOES_AGREGADAS": 0, "QT_ELEITORES_TRANSFERIDOS": 0, "CIRO GOMES (PDT) (NÃO ELEITO) 1T": 25.0, "CONSTITUINTE EYMAEL (DC) (NÃO ELEITO) 1T": 0.0, "FELIPE D AVILA (NOVO) (NÃO ELEITO) 1T": 1.0, "JAIR BOLSONARO (PL) (2º TURNO) 1T": 1027.0, "LULA (PT) (2º TURNO) 1T": 635.0, "LÉO PÉRICLES (UP) (NÃO ELEITO) 1T": 1.0, "PADRE KELMON (PTB) (NÃO ELEITO) 1T": 0.0, "SIMONE TEBET (MDB) (NÃO ELEITO) 1T": 68.0, "SOFIA MANZANO (PCB) (NÃO ELEITO) 1T": 1.0, "SORAYA THRONICKE (UNIÃO) (NÃO ELEITO) 1T": 4.0, "VERA (PSTU) (NÃO ELEITO) 1T": 0.0, "Total_Votos_Validos 1T": 1762.0, "Votos_Brancos 1T": 19.0, "Votos_Nulos 1T": 40.0, "Abstenções 1T": 433.0, "Eleitores_Aptos 1T": 2254.0, "JAIR BOLSONARO (PL) (NÃO ELEITO) 2T": 1167.0, "LULA (PT) (ELEITO) 2T": 642.0, "Total_Votos_Validos 2T": 1809.0, "Votos_Brancos 2T": 16.0, "Votos_Nulos 2T": 36.0, "Abstenções 2T": 393.0, "Eleitores_Aptos 2T": 2254.0, "mun_code_y": "4125308", "mun_code": "4125308" }, "geometry": { "type": "Polygon", "coordinates": [ [ [ 5174891.298483879305422, 7405794.002698890864849 ], [ 5174898.027241235598922, 7405824.470258716493845 ], [ 5174884.114913851954043, 7405905.031926803290844 ], [ 5174871.522099473513663, 7405977.965939627960324 ], [ 5174860.841586137190461, 7406039.830470124259591 ], [ 5174777.718063409440219, 7406449.901319692842662 ], [ 5174764.707217341288924, 7406467.052444191649556 ], [ 5174640.597789177671075, 7406553.386591306887567 ], [ 5174547.536205895245075, 7406553.55945342592895 ], [ 5174547.524714617989957, 7406559.487365290522575 ], [ 5174251.194108426570892, 7406559.429758770391345 ], [ 5174154.484085202217102, 7406494.80355130136013 ], [ 5174110.061204410158098, 7406372.363885920494795 ], [ 5173980.760579168796539, 7406029.162735758349299 ], [ 5173960.283022602088749, 7405975.766823478043079 ], [ 5173891.828521745279431, 7405797.258164579048753 ], [ 5173891.686123095452785, 7405797.315246625803411 ], [ 5173786.866561155766249, 7405517.898825827986002 ], [ 5173382.19575031939894, 7405631.820162506774068 ], [ 5172040.741402211599052, 7405979.015641327947378 ], [ 5170615.137915270403028, 7406455.019614299759269 ], [ 5169756.242431436665356, 7406281.712402034550905 ], [ 5169125.74538292363286, 7406297.811092818155885 ], [ 5168893.537012888118625, 7406214.521155003458261 ], [ 5168124.943698180839419, 7406300.411301324144006 ], [ 5167488.137584010139108, 7406304.612371268682182 ], [ 5167421.341055776923895, 7406425.917837973684072 ], [ 5167282.840205113403499, 7406336.71747743152082 ], [ 5167223.540321231819689, 7406254.416436305269599 ], [ 5166938.537665742449462, 7406260.221699833869934 ], [ 5166766.93910363689065, 7406321.619446096941829 ], [ 5166638.043489783070982, 7406249.920992294326425 ], [ 5166540.743325602263212, 7406238.313909318298101 ], [ 5166461.038428129628301, 7406202.021512378007174 ], [ 5166264.739007796160877, 7406240.913164135068655 ], [ 5166157.734598961658776, 7406205.215563084930182 ], [ 5165982.239480126649141, 7406075.316304601728916 ], [ 5165768.841563834808767, 7406025.115756716579199 ], [ 5165672.343720800243318, 7405905.712938193231821 ], [ 5165539.743538931943476, 7405808.220945534296334 ], [ 5165514.44152048882097, 7405755.612133681774139 ], [ 5165459.940454953350127, 7405758.219265533611178 ], [ 5165407.741979484446347, 7405732.015872834250331 ], [ 5165342.737987103872001, 7405666.613018908537924 ], [ 5165316.337654800154269, 7405708.114107078872621 ], [ 5165246.235217368230224, 7405692.814030571840703 ], [ 5165022.534837292507291, 7405439.422178693115711 ], [ 5165006.937482982873917, 7405379.912111517041922 ], [ 5165020.139963345602155, 7405351.611184897832572 ], [ 5164985.8339420016855, 7405348.81607161834836 ], [ 5165007.84046518150717, 7405314.621888168156147 ], [ 5164982.338274437002838, 7405290.411191456019878 ], [ 5165002.439412290230393, 7405272.214934768155217 ], [ 5164815.337531714700162, 7405029.312233124859631 ], [ 5164738.038261588662863, 7405034.421377761289477 ], [ 5164630.238835403695703, 7404917.421556645072997 ], [ 5164594.043333705514669, 7404928.318766819313169 ], [ 5164482.53746887203306, 7404857.117480091750622 ], [ 5164443.434805577620864, 7404871.215541611425579 ], [ 5164360.738889001309872, 7404836.818475442007184 ], [ 5164333.938035645522177, 7404859.021885027177632 ], [ 5164235.142500672489405, 7404853.422089429572225 ], [ 5164193.335959220305085, 7404886.21846042945981 ], [ 5164105.838563077151775, 7404904.112979592755437 ], [ 5163960.435345573350787, 7404882.013192532584071 ], [ 5163897.535855262540281, 7404776.218927917070687 ], [ 5163713.435209554620087, 7404819.218265494331717 ], [ 5163653.443304419517517, 7404781.717286765575409 ], [ 5163578.033789000473917, 7404837.22163431532681 ], [ 5163521.842780478298664, 7404797.816540978848934 ], [ 5163362.340977327898145, 7404884.412237465381622 ], [ 5163291.23859204724431, 7404891.716266890056431 ], [ 5163276.435434158891439, 7404943.621176437474787 ], [ 5163177.838556066155434, 7404946.720447767525911 ], [ 5163163.640759321860969, 7404991.516629099845886 ], [ 5163102.542854770086706, 7405045.917856859974563 ], [ 5163055.235928145237267, 7405031.717764351516962 ], [ 5162992.138726689852774, 7405058.818988962098956 ], [ 5162952.334775244817138, 7405150.021849785000086 ], [ 5162877.136661052703857, 7405144.716532539576292 ], [ 5162779.533628666773438, 7405173.11830578930676 ], [ 5162678.934878995642066, 7405258.721840530633926 ], [ 5162610.634460438042879, 7405259.919985415413976 ], [ 5162525.836842212826014, 7405229.314058277755976 ], [ 5162468.239699915982783, 7405268.816379653289914 ], [ 5162107.635338467545807, 7405216.111962264403701 ], [ 5162027.037571549415588, 7405242.91418026573956 ], [ 5161983.342006808146834, 7405221.613403238356113 ], [ 5161933.142519118264318, 7405139.514489205554128 ], [ 5161817.235440852120519, 7405038.716282520443201 ], [ 5161781.038347437977791, 7404975.319857915863395 ], [ 5161686.438855083659291, 7404987.915489856153727 ], [ 5161635.94172831159085, 7404965.015540306456387 ], [ 5161530.334252682514489, 7404705.613169363699853 ], [ 5161526.83875919226557, 7404574.317864246666431 ], [ 5161545.334528647363186, 7404518.518953584134579 ], [ 5161522.935660193674266, 7404494.312976511195302 ], [ 5161444.738954390399158, 7404491.016730210743845 ], [ 5161388.738221848383546, 7404459.922416476532817 ], [ 5161333.532190664671361, 7404361.512653938494623 ], [ 5161256.233649937435985, 7404307.717410715296865 ], [ 5161362.839770533144474, 7408808.91767717897892 ], [ 5161500.141652042977512, 7408828.320080891251564 ], [ 5161613.335048417560756, 7408815.412733357399702 ], [ 5161775.239609632641077, 7409027.520755757577717 ], [ 5161880.340910756960511, 7409076.223248233087361 ], [ 5162078.134382988326252, 7409279.414214177057147 ], [ 5162209.036770475097001, 7409335.420100439339876 ], [ 5162337.237718834541738, 7409359.513162773102522 ], [ 5162453.235786143690348, 7409285.422302456572652 ], [ 5162569.338203999213874, 7409266.315683270804584 ], [ 5162686.137977517209947, 7409306.718273814767599 ], [ 5162947.341599797829986, 7409294.41560810059309 ], [ 5163187.241758088581264, 7409384.517431822605431 ], [ 5163337.243906245566905, 7409358.415078738704324 ], [ 5163448.341598902828991, 7409378.422610897570848 ], [ 5163571.039300890639424, 7409466.416239501908422 ], [ 5163662.740478090941906, 7409578.817384674213827 ], [ 5163686.242519502528012, 7409607.517783746123314 ], [ 5163816.235604563727975, 7409583.616028691641986 ], [ 5163969.234259587712586, 7409512.514083733782172 ], [ 5164119.037077658809721, 7409479.514650265686214 ], [ 5164247.14255406614393, 7409473.512055711820722 ], [ 5164314.241824517957866, 7409342.615083795040846 ], [ 5164455.341582050547004, 7409307.615069910883904 ], [ 5164525.244114940054715, 7409196.418006321415305 ], [ 5164800.142886755988002, 7409160.418974652886391 ], [ 5164872.3353630611673, 7409047.720849024131894 ], [ 5164965.336300736293197, 7408950.422398639842868 ], [ 5165082.235474418848753, 7408957.312186327762902 ], [ 5165333.235222371295094, 7409067.519620712846518 ], [ 5165452.437541476450861, 7409076.419330552220345 ], [ 5165585.24153873603791, 7409021.314540453255177 ], [ 5165695.239401650615036, 7409003.414818746969104 ], [ 5165714.142228556796908, 7408857.319352548569441 ], [ 5165837.237895014695823, 7408765.415606209076941 ], [ 5165973.235976406373084, 7408709.31822288222611 ], [ 5166155.339343118481338, 7408707.421184523031116 ], [ 5166207.141009898856282, 7408824.312577752396464 ], [ 5166499.336939743719995, 7408989.422289883717895 ], [ 5166535.439154674299061, 7409148.614275250583887 ], [ 5166832.236965958960354, 7409336.511974068358541 ], [ 5166949.244182425551116, 7409370.619434287771583 ], [ 5167062.143754178658128, 7409361.518180552870035 ], [ 5167162.238331303931773, 7409427.514144621789455 ], [ 5167282.240084499120712, 7409434.418143043294549 ], [ 5167433.138145267963409, 7409507.513880337588489 ], [ 5167541.144739825278521, 7409536.41197233274579 ], [ 5167568.244279647246003, 7409663.319085219874978 ], [ 5167684.337926325388253, 7409617.614446102641523 ], [ 5167798.243740926496685, 7409681.52146556507796 ], [ 5167840.243415486067533, 7409836.622264681383967 ], [ 5168205.243135953322053, 7410239.514378612861037 ], [ 5168281.341015607118607, 7410380.320436668582261 ], [ 5168620.237218777649105, 7410494.51324175670743 ], [ 5168744.13873097114265, 7410639.512699062936008 ], [ 5168858.342866320163012, 7410726.620679897256196 ], [ 5168992.244855161756277, 7410737.618091459386051 ], [ 5169124.242581919766963, 7410837.516657384112477 ], [ 5169263.243561806157231, 7410837.517664548940957 ], [ 5169360.138942431658506, 7410896.512293096631765 ], [ 5169413.246508691459894, 7411081.618834796361625 ], [ 5169533.239221058785915, 7411140.712826359085739 ], [ 5169623.14241998642683, 7411254.619311787188053 ], [ 5169760.246337546035647, 7411350.620523937046528 ], [ 5169883.238848350942135, 7411466.615611066110432 ], [ 5170006.238750305958092, 7411531.621238736435771 ], [ 5170042.144458878785372, 7411649.715256778523326 ], [ 5170117.241305533796549, 7411755.712740998715162 ], [ 5170175.24301116168499, 7411907.621654031798244 ], [ 5170738.138455428183079, 7411909.418289323337376 ], [ 5170844.138630806468427, 7411998.712421029806137 ], [ 5171144.047394338995218, 7411958.619003500789404 ], [ 5171318.041251513175666, 7411971.513390926644206 ], [ 5171500.040350700728595, 7412026.615058016031981 ], [ 5171672.137971289455891, 7412121.61703310161829 ], [ 5171958.138407775200903, 7412320.714151116088033 ], [ 5172434.140960614196956, 7412422.61223285458982 ], [ 5172591.140460080467165, 7412483.72142188064754 ], [ 5172695.141328510828316, 7412652.512991713359952 ], [ 5172807.241959157399833, 7412790.717628065496683 ], [ 5173057.046175130642951, 7413052.720110388472676 ], [ 5173045.141670256853104, 7413256.616818614304066 ], [ 5173136.947291632182896, 7413521.621612412855029 ], [ 5173147.243645692244172, 7413684.717143254354596 ], [ 5173216.144300862215459, 7413781.920936377719045 ], [ 5173077.245092664845288, 7414020.811606132425368 ], [ 5173065.040750712156296, 7414216.711974359117448 ], [ 5173194.144025916233659, 7414536.711697790771723 ], [ 5173201.244442166760564, 7414676.621357074007392 ], [ 5173240.04267939273268, 7414839.91440989356488 ], [ 5173258.248794269748032, 7415137.713472360745072 ], [ 5173220.144368642941117, 7415298.916459243744612 ], [ 5173222.147011359222233, 7415427.916808504611254 ], [ 5173412.041048322804272, 7415471.017287043854594 ], [ 5173454.047634587623179, 7415647.712072210386395 ], [ 5173533.148202944546938, 7415795.817655384540558 ], [ 5173728.143479563295841, 7416036.717344865202904 ], [ 5173885.145025994628668, 7416324.818461121991277 ], [ 5174293.149940768256783, 7416486.820905323140323 ], [ 5174561.049673824571073, 7416768.92165981605649 ], [ 5174675.142378316260874, 7416845.919888878241181 ], [ 5174904.142546568065882, 7416925.813468102365732 ], [ 5175020.142918677069247, 7416939.919672476127744 ], [ 5175192.141422914341092, 7417026.012327200733125 ], [ 5175276.050270993262529, 7417167.915026688948274 ], [ 5175258.149715083651245, 7417305.816453059203923 ], [ 5175383.14516912586987, 7417559.913945158943534 ], [ 5175581.144579028710723, 7417704.018857261165977 ], [ 5175806.344703022390604, 7418010.916085062548518 ], [ 5175862.148832382634282, 7418158.113838935270905 ], [ 5176054.043056705035269, 7418309.01133172865957 ], [ 5176146.049026364460588, 7418421.019922862760723 ], [ 5176269.048573173582554, 7418504.715433180332184 ], [ 5176433.146583664231002, 7418663.019689341075718 ], [ 5176503.144505008123815, 7418805.813854700885713 ], [ 5176905.015682764351368, 7419013.119102579541504 ], [ 5176944.743434180505574, 7419033.618561359122396 ], [ 5177200.150504139252007, 7419146.116017259657383 ], [ 5177351.142566033639014, 7419167.021739015355706 ], [ 5177508.143543086946011, 7419253.114826642908156 ], [ 5177771.049748043529689, 7419330.112631175667048 ], [ 5178021.149613408371806, 7419366.917762231081724 ], [ 5178473.151833939366043, 7419380.921218901872635 ], [ 5178683.944892643019557, 7419433.014211884699762 ], [ 5179046.143126753158867, 7419482.011032670736313 ], [ 5179197.142610372044146, 7419535.119099020026624 ], [ 5179350.045600460842252, 7419540.912980122491717 ], [ 5179472.148982577957213, 7419518.015657963231206 ], [ 5179618.248730178922415, 7419576.020962192676961 ], [ 5180127.151611314155161, 7419578.015783710405231 ], [ 5180167.746734287589788, 7419554.120696555823088 ], [ 5180280.04629822075367, 7419457.010555054992437 ], [ 5180463.252725040540099, 7419345.716998626478016 ], [ 5180615.950410082936287, 7419298.71447488386184 ], [ 5180770.250380368903279, 7419212.112471058033407 ], [ 5181164.248728099279106, 7419122.809950805269182 ], [ 5182279.8519382532686, 7418151.317424452863634 ], [ 5182384.650990053080022, 7418060.10986839607358 ], [ 5182491.648840153589845, 7418212.019517565146089 ], [ 5183443.245574704371393, 7417963.012957927770913 ], [ 5185249.24727485422045, 7417366.413048181682825 ], [ 5185060.944842630065978, 7417224.115072476677597 ], [ 5185595.447259130887687, 7416883.209471199661493 ], [ 5185693.954000136815012, 7416803.113305501639843 ], [ 5185719.553630799986422, 7416501.813062867149711 ], [ 5185819.453753680922091, 7416018.512799732387066 ], [ 5185927.35474643483758, 7415806.117163117043674 ], [ 5186055.153436407446861, 7415610.810983279719949 ], [ 5186178.851619249209762, 7415571.712699269875884 ], [ 5186202.345767230726779, 7415530.61830766685307 ], [ 5186168.751088934019208, 7415473.710907687433064 ], [ 5186158.049508131109178, 7415397.811221121810377 ], [ 5186090.248041025362909, 7415388.814463561400771 ], [ 5186017.04859833419323, 7415353.114841473288834 ], [ 5185904.752594890072942, 7415381.508769663050771 ], [ 5185703.445469445548952, 7415261.710895433090627 ], [ 5185587.653218736872077, 7415162.310853868722916 ], [ 5185455.145181495696306, 7414993.013635056093335 ], [ 5185455.350359013304114, 7414924.611279670149088 ], [ 5185383.252110495232046, 7414854.113385116681457 ], [ 5185359.945914442650974, 7414795.31360049918294 ], [ 5185247.24821861833334, 7414647.018713289871812 ], [ 5185159.853683426044881, 7414635.216518596746027 ], [ 5185100.751701859757304, 7414562.814939057454467 ], [ 5185030.150004467926919, 7414540.518968239426613 ], [ 5184928.253496136516333, 7414428.818442887626588 ], [ 5184820.550398307852447, 7414269.710251865908504 ], [ 5184820.153639697469771, 7414117.015552715398371 ], [ 5184709.144314974546432, 7413981.915135765448213 ], [ 5184604.645578036084771, 7413939.708624888211489 ], [ 5184590.952187662944198, 7413919.115017039701343 ], [ 5184589.253550491295755, 7413892.011331101879478 ], [ 5184638.046070617623627, 7413846.8137794341892 ], [ 5184647.651174671016634, 7413766.116719262674451 ], [ 5184557.348246157169342, 7413665.116988638415933 ], [ 5184534.053040965460241, 7413335.111210430040956 ], [ 5184498.846351206302643, 7413298.908109920099378 ], [ 5184475.251977776177227, 7413358.217308970168233 ], [ 5184444.548255720175803, 7413347.708770392462611 ], [ 5184411.245633801445365, 7413109.418835263699293 ], [ 5184315.748419694602489, 7413021.912359034642577 ], [ 5184071.543569539673626, 7412884.215349691919982 ], [ 5184057.550291486084461, 7412777.918035412207246 ], [ 5184035.946873627603054, 7412762.408835681155324 ], [ 5183976.148711550049484, 7412775.109922774136066 ], [ 5183927.352290921844542, 7412708.216044016182423 ], [ 5183863.846877627074718, 7412692.508377866819501 ], [ 5183852.649132435210049, 7412652.115691957063973 ], [ 5183874.748220860958099, 7412627.818115514703095 ], [ 5183877.644652150571346, 7412559.914501897990704 ], [ 5183796.152886938303709, 7412466.812355334870517 ], [ 5183798.944993352517486, 7412363.408428026363254 ], [ 5183707.34768888540566, 7412329.013847462832928 ], [ 5183519.245787940919399, 7412089.911891048774123 ], [ 5183403.746132667176425, 7411978.914871376007795 ], [ 5183284.347516935318708, 7411889.716299265623093 ], [ 5183020.044695158489048, 7411755.7106679584831 ], [ 5182853.144297357648611, 7411489.413237145170569 ], [ 5182800.442446903325617, 7411468.016332197003067 ], [ 5182792.947659227065742, 7411408.518979834392667 ], [ 5182760.948223067447543, 7411365.613323498517275 ], [ 5182696.342400537803769, 7411374.413479713723063 ], [ 5182577.943826548755169, 7411318.216931710019708 ], [ 5182554.54645929671824, 7411264.013276796787977 ], [ 5182552.352100457064807, 7411173.414212588220835 ], [ 5182457.751878486946225, 7411042.517798578366637 ], [ 5182412.943664925172925, 7411013.609284116886556 ], [ 5182338.148300347849727, 7411012.617068815045059 ], [ 5182151.648446717299521, 7411082.411396290175617 ], [ 5182047.651392508298159, 7411170.609188982285559 ], [ 5181967.542663858272135, 7411187.30939203966409 ], [ 5181951.646061990410089, 7411237.112044038251042 ], [ 5181883.950898154638708, 7411273.115687400102615 ], [ 5181787.642175745218992, 7411242.912170143797994 ], [ 5181758.149710964411497, 7411160.915615542791784 ], [ 5181636.949524624273181, 7411010.408752519637346 ], [ 5181520.043521059677005, 7410928.712269118055701 ], [ 5181464.544770255684853, 7410954.713568297214806 ], [ 5181338.141453112475574, 7410936.112931940704584 ], [ 5181224.050583598203957, 7411029.31512255128473 ], [ 5181127.842295725829899, 7411013.710092912428081 ], [ 5181022.647522374987602, 7410923.910456493496895 ], [ 5180929.845838319510221, 7410883.409370529465377 ], [ 5180909.05058160237968, 7410772.418584562838078 ], [ 5180881.651439272798598, 7410725.619168746285141 ], [ 5180723.346272016875446, 7410592.812675664201379 ], [ 5180636.141365775838494, 7410479.011995488777757 ], [ 5180582.043818733654916, 7410475.818549552932382 ], [ 5180538.143898433074355, 7410450.516870914027095 ], [ 5180534.847565888427198, 7410378.314015252515674 ], [ 5180429.548841836862266, 7410390.516694912686944 ], [ 5180405.651252547279, 7410377.413037455640733 ], [ 5180336.546385443769395, 7410166.814062023535371 ], [ 5180235.646414595656097, 7410017.711038876324892 ], [ 5180128.243665254674852, 7410065.017475364729762 ], [ 5180082.049155430868268, 7410114.51196975260973 ], [ 5180034.744036691263318, 7410119.111716264858842 ], [ 5180007.946380318142474, 7410088.61369330342859 ], [ 5180001.948201855644584, 7410035.213771665468812 ], [ 5179933.541431800462306, 7409986.819267632439733 ], [ 5179938.350362452678382, 7409919.315297739580274 ], [ 5179914.850729452446103, 7409867.513956112787127 ], [ 5179894.94268626626581, 7409862.914810445159674 ], [ 5179794.848399282433093, 7409935.314981808885932 ], [ 5179676.743314900435507, 7409941.618859950453043 ], [ 5179632.444894792512059, 7409912.718507992103696 ], [ 5179467.747555494308472, 7409655.414318574592471 ], [ 5179312.944661950692534, 7409544.712154556065798 ], [ 5179268.445973708294332, 7409442.019245486706495 ], [ 5179303.947229843586683, 7409352.912735464051366 ], [ 5179256.745927103795111, 7409180.912873180583119 ], [ 5179307.343042984604836, 7409043.811650975607336 ], [ 5179283.848789784125984, 7408953.516873126849532 ], [ 5179193.14330327976495, 7408904.116460500285029 ], [ 5179086.74450174625963, 7408878.817274011671543 ], [ 5179059.840996410697699, 7408835.90929295308888 ], [ 5179033.442965961992741, 7408709.217879332602024 ], [ 5178983.146389597095549, 7408636.311832490377128 ], [ 5178842.64443732984364, 7408607.115034138783813 ], [ 5178757.849196626804769, 7408486.816035700030625 ], [ 5178563.245928592048585, 7408471.015112638473511 ], [ 5178561.141175328753889, 7408427.218591634184122 ], [ 5178594.144680050201714, 7408394.209704538807273 ], [ 5178586.245484441518784, 7408375.812655989080667 ], [ 5178513.442379212938249, 7408295.111652426421642 ], [ 5178393.749298769980669, 7408251.919376336038113 ], [ 5178409.846839174628258, 7408131.116999331861734 ], [ 5178356.544136787764728, 7408088.117646612226963 ], [ 5178334.843717180192471, 7407992.614591155201197 ], [ 5178294.246293624863029, 7407947.910035524517298 ], [ 5178276.743061302229762, 7407836.012905024923384 ], [ 5178256.148923389613628, 7407811.608785374090075 ], [ 5178102.639809994958341, 7407775.216884698718786 ], [ 5178116.243344087153673, 7407656.816206404939294 ], [ 5178157.440479371696711, 7407603.310579683631659 ], [ 5178153.841755859553814, 7407552.518393237143755 ], [ 5178046.04356980510056, 7407522.110450717620552 ], [ 5177950.540852463804185, 7407424.817549313418567 ], [ 5177815.747513313777745, 7407443.209718936122954 ], [ 5177765.645200471393764, 7407433.011375870555639 ], [ 5177760.743792546913028, 7407370.7115806825459 ], [ 5177811.148186160251498, 7407339.909797759726644 ], [ 5177825.449008882977068, 7407309.610263185575604 ], [ 5177725.840652371756732, 7407192.011478627100587 ], [ 5177627.642514430917799, 7407142.914594700559974 ], [ 5177557.540318214334548, 7407032.71500756777823 ], [ 5177467.539028102532029, 7407020.814003355801105 ], [ 5177366.941629280336201, 7407096.517544060945511 ], [ 5177252.846670782193542, 7407122.511240711435676 ], [ 5177206.540684023872018, 7407104.919309203512967 ], [ 5177137.540227022022009, 7407024.011570736765862 ], [ 5177022.246612009592354, 7406959.61546818818897 ], [ 5176970.1402144478634, 7406798.616518581286073 ], [ 5176892.239519064314663, 7406767.819204920902848 ], [ 5176867.845455540344119, 7406732.212769916281104 ], [ 5176874.846648319624364, 7406708.417289001867175 ], [ 5176927.940622040070593, 7406684.610934009775519 ], [ 5176934.840780465863645, 7406655.819508103653789 ], [ 5176756.447421945631504, 7406446.310475280508399 ], [ 5176828.946357373148203, 7406396.809384478256106 ], [ 5176826.543215404264629, 7406377.11569488979876 ], [ 5176766.947689354419708, 7406341.111980747431517 ], [ 5176754.540533106774092, 7406286.613979735411704 ], [ 5176704.940873138606548, 7406240.418236861005425 ], [ 5176641.538682172074914, 7406238.010244147852063 ], [ 5176582.439816640689969, 7406274.009299320168793 ], [ 5176561.947457150556147, 7406248.316639766097069 ], [ 5176607.847581980749965, 7406211.910929167643189 ], [ 5176598.739432215690613, 7406187.012465853244066 ], [ 5176568.747386923059821, 7406186.419349504634738 ], [ 5176512.146371399052441, 7406223.618055053986609 ], [ 5176446.73935948126018, 7406131.517964914441109 ], [ 5176447.248283677734435, 7406090.415891051292419 ], [ 5176470.346311119385064, 7406067.5134994154796 ], [ 5176396.24212200846523, 7405915.618661382235587 ], [ 5176458.546846807003021, 7405867.515630036592484 ], [ 5176455.246395371854305, 7405821.517496734857559 ], [ 5176423.344921462237835, 7405811.617612972855568 ], [ 5176398.248251720331609, 7405868.116525713354349 ], [ 5176304.642710161395371, 7405857.515343252569437 ], [ 5176110.43998134508729, 7405685.816951564513147 ], [ 5176232.141288736835122, 7405669.413169883191586 ], [ 5176213.342860075645149, 7405565.718357822857797 ], [ 5176257.939665481448174, 7405564.818664588034153 ], [ 5176265.04102273657918, 7405548.512396829202771 ], [ 5176200.647031194530427, 7405488.609093338251114 ], [ 5176266.1460180869326, 7405418.917784329503775 ], [ 5176261.94283009134233, 7405393.916097033768892 ], [ 5176171.747481503523886, 7405305.114689270034432 ], [ 5176172.6426303954795, 7405291.109852017834783 ], [ 5175533.698792546987534, 7405707.565229750238359 ], [ 5175452.562387944199145, 7405580.336887774989009 ], [ 5175080.435464356094599, 7405784.06451877579093 ], [ 5175005.36645223852247, 7405609.871281360276043 ], [ 5174949.460393820889294, 7405548.321827130392194 ], [ 5174928.953310671262443, 7405541.707084509544075 ], [ 5174829.965353601612151, 7405569.807732550427318 ], [ 5174836.118876964785159, 7405588.858681928366423 ], [ 5174867.322090035304427, 7405685.493224105797708 ], [ 5174891.298483879305422, 7405794.002698890864849 ] ] ] } }
]
}
