{
"type": "FeatureCollection",
"name": "4300851",
"crs": { "type": "name", "properties": { "name": "urn:ogc:def:crs:EPSG::5880" } },
"features": [
{ "type": "Feature", "properties": { "lv_id": "LOC_070692", "id": 414163.0, "CD_SETOR": "430085120000001", "SITUACAO": "Urbana", "CD_SIT": "1", "CD_TIPO": "0", "AREA_KM2": 0.420125808065692, "CD_REGIAO": "4", "NM_REGIAO": "Sul", "CD_UF": "43", "NM_UF": "Rio Grande do Sul", "CD_MUN": "4300851", "NM_MUN": "Arambaré", "CD_DIST": "430085120", "NM_DIST": "Santa Rita do Sul", "CD_SUBDIST": "43008512000", "NM_SUBDIST": null, "CD_BAIRRO": null, "NM_BAIRRO": null, "CD_NU": null, "NM_NU": null, "CD_FCU": null, "NM_FCU": null, "CD_AGLOM": null, "NM_AGLOM": null, "CD_RGINT": "4301", "NM_RGINT": "Porto Alegre", "CD_RGI": "430005", "NM_RGI": "Camaquã", "CD_CONCURB": null, "NM_CONCURB": null, "mun_code_x": "4300851", "index_right": 70264, "dist_m": 0.0, "local_id": 738889, "ano": 2022, "cod_localidade_ibge": 4300851, "NR_ZONA": "12", "nr_cep": 96178000.0, "nm_localidade": "ARAMBARÉ", "nm_locvot": "ESCOLA ESTADUAL DE ENS. FUND. LAURO SILVA AZAMBUJA", "ds_endereco": "SANTA RITA DO SUL", "ds_bairro": "SANTA RITA DO SUL", "pred_long": -51.511151, "pred_lat": -31.055519, "pred_dist": 0.0, "tse_long": -51.50629, "tse_lat": -31.053734, "long": -51.50629, "lat": -31.053734, "ID_UNICO": "LOC_070692", "SG_UF": "RS", "CD_MUNICIPIO": "86320", "NR_LOCAL_VOTACAO": "1066", "QT_SECOES_AGREGADAS": 0, "QT_ELEITORES_TRANSFERIDOS": 0, "CIRO GOMES (PDT) (NÃO ELEITO) 1T": 16.0, "CONSTITUINTE EYMAEL (DC) (NÃO ELEITO) 1T": 0.0, "FELIPE D AVILA (NOVO) (NÃO ELEITO) 1T": 0.0, "JAIR BOLSONARO (PL) (2º TURNO) 1T": 251.0, "LULA (PT) (2º TURNO) 1T": 262.0, "LÉO PÉRICLES (UP) (NÃO ELEITO) 1T": 1.0, "PADRE KELMON (PTB) (NÃO ELEITO) 1T": 0.0, "SIMONE TEBET (MDB) (NÃO ELEITO) 1T": 13.0, "SOFIA MANZANO (PCB) (NÃO ELEITO) 1T": 0.0, "SORAYA THRONICKE (UNIÃO) (NÃO ELEITO) 1T": 3.0, "VERA (PSTU) (NÃO ELEITO) 1T": 0.0, "Total_Votos_Validos 1T": 546.0, "Votos_Brancos 1T": 13.0, "Votos_Nulos 1T": 5.0, "Abstenções 1T": 174.0, "Eleitores_Aptos 1T": 738.0, "JAIR BOLSONARO (PL) (NÃO ELEITO) 2T": 280.0, "LULA (PT) (ELEITO) 2T": 250.0, "Total_Votos_Validos 2T": 530.0, "Votos_Brancos 2T": 7.0, "Votos_Nulos 2T": 25.0, "Abstenções 2T": 176.0, "Eleitores_Aptos 2T": 738.0, "mun_code_y": "4300851", "mun_code": "4300851" }, "geometry": { "type": "Polygon", "coordinates": [ [ [ 5238851.069097883068025, 6571499.894641813822091 ], [ 5238821.913393552415073, 6571247.926435151137412 ], [ 5238797.689795445650816, 6570991.697015509940684 ], [ 5238780.893971906043589, 6570928.474414482712746 ], [ 5238804.336646551266313, 6570864.570614225231111 ], [ 5238794.130929741077125, 6570789.237035119906068 ], [ 5238771.850298079662025, 6570737.112937058322132 ], [ 5238787.224945271387696, 6570669.728041850030422 ], [ 5238775.734037767164409, 6570535.839750587940216 ], [ 5238784.262562572024763, 6570361.007377944886684 ], [ 5238765.480126104317605, 6570173.892775127664208 ], [ 5238813.206636450253427, 6569693.42104846611619 ], [ 5238830.607275768183172, 6569402.309251397848129 ], [ 5238872.214706938713789, 6569028.465268366038799 ], [ 5238934.734369455836713, 6568673.793252116069198 ], [ 5238964.310489192605019, 6568544.707937968894839 ], [ 5239051.413321442902088, 6568051.406177776865661 ], [ 5239108.826305136084557, 6567608.853995280340314 ], [ 5239211.438854346051812, 6567147.993240540847182 ], [ 5239438.007559127174318, 6565899.814339511096478 ], [ 5239867.243342048488557, 6564148.072432665154338 ], [ 5240105.544703449122608, 6563400.591540321707726 ], [ 5240274.304863874800503, 6562869.018690953031182 ], [ 5240737.303564707748592, 6561702.31015018094331 ], [ 5241036.533141098916531, 6560912.061353816650808 ], [ 5241435.506088421680033, 6559969.018032883293927 ], [ 5241632.401438442058861, 6559587.612194524146616 ], [ 5241730.030815036036074, 6559362.960823765955865 ], [ 5241845.902261083945632, 6559055.212041266262531 ], [ 5242056.500990992411971, 6558729.027554382570088 ], [ 5242473.031034359708428, 6557996.332834228873253 ], [ 5242798.601620990782976, 6557523.787648456171155 ], [ 5243114.905331565067172, 6557126.63202684558928 ], [ 5243560.948061110451818, 6556748.898663071915507 ], [ 5243910.199468769133091, 6556583.24103080201894 ], [ 5244058.319610580801964, 6556527.443500207737088 ], [ 5244071.261970438994467, 6556449.624219371005893 ], [ 5244014.45112503413111, 6556442.000010429881513 ], [ 5243967.019776556640863, 6556425.569327669218183 ], [ 5243937.029920208267868, 6556381.568151332437992 ], [ 5243702.974805878475308, 6556294.278997827321291 ], [ 5243257.667655400000513, 6556220.643318776041269 ], [ 5242619.646214740350842, 6556037.38752712868154 ], [ 5242505.570903656072915, 6555877.881656669080257 ], [ 5242171.372883068397641, 6555689.732163278385997 ], [ 5241585.026073843240738, 6555468.967393774539232 ], [ 5241288.884044285863638, 6555394.132597114890814 ], [ 5241099.453891961835325, 6555390.804326264187694 ], [ 5239861.261152699589729, 6555091.549199676141143 ], [ 5239625.776840172708035, 6555048.687766695395112 ], [ 5239577.231169631704688, 6555085.278047412633896 ], [ 5239136.509612458758056, 6555012.271255556493998 ], [ 5238820.55441124457866, 6554936.286476967856288 ], [ 5238472.03489732183516, 6554917.858233014121652 ], [ 5237973.395375663414598, 6554906.281446773558855 ], [ 5237338.77927522175014, 6554762.064567550085485 ], [ 5236811.711897283792496, 6554600.732868123799562 ], [ 5235955.303615473210812, 6554260.368239529430866 ], [ 5235489.180061942897737, 6554103.340944233350456 ], [ 5235288.016507089138031, 6554039.19181140884757 ], [ 5235126.34725128300488, 6553942.810737004503608 ], [ 5235005.747132383286953, 6553836.969767783768475 ], [ 5234910.851847866550088, 6553703.978251557797194 ], [ 5234851.991456341929734, 6553669.607529086060822 ], [ 5234850.350363763980567, 6553839.767420433461666 ], [ 5234762.184228485450149, 6554134.108566561713815 ], [ 5234528.368115806020796, 6554776.019621020182967 ], [ 5234516.456364207901061, 6554884.804913876578212 ], [ 5234478.010515926405787, 6554991.182029370218515 ], [ 5233173.414669605903327, 6556127.267580112442374 ], [ 5231394.664597434923053, 6557706.770608345977962 ], [ 5231020.097506935708225, 6557993.351331146433949 ], [ 5230845.104264482855797, 6558071.994491674005985 ], [ 5227798.165195718407631, 6559277.729981748387218 ], [ 5227492.008118139579892, 6559398.870694377459586 ], [ 5227554.952145166695118, 6559457.396745976060629 ], [ 5227585.587646683678031, 6559545.046241536736488 ], [ 5227646.858210375532508, 6559731.375181263312697 ], [ 5228584.515882232226431, 6561264.824780557304621 ], [ 5228850.60105639602989, 6562320.911625195294619 ], [ 5228857.906373402103782, 6562922.530745922587812 ], [ 5228922.61075852997601, 6563588.659308771602809 ], [ 5228934.534099203534424, 6564052.467549756169319 ], [ 5228971.991314938291907, 6564325.682164156809449 ], [ 5228978.942529636435211, 6564831.320987429469824 ], [ 5229155.53107653837651, 6565324.288971609435976 ], [ 5229189.414994264021516, 6565604.227158504538238 ], [ 5229320.129340409301221, 6565961.604987901635468 ], [ 5229430.514853660948575, 6566418.98077380284667 ], [ 5229487.219868117012084, 6566822.37597524933517 ], [ 5229710.109472435899079, 6567454.400729670189321 ], [ 5230013.512366038747132, 6568222.75703460816294 ], [ 5230028.09136763215065, 6568485.90055295266211 ], [ 5229957.785168435424566, 6568749.40473198145628 ], [ 5229854.67002201359719, 6569144.50329720415175 ], [ 5229761.027829801663756, 6569398.211896215565503 ], [ 5229644.048849538899958, 6569517.065712455660105 ], [ 5229572.352038681507111, 6569645.73757846839726 ], [ 5229493.368335068225861, 6569796.382126994431019 ], [ 5229360.09814750123769, 6570274.638430209830403 ], [ 5229277.09321169462055, 6570562.344352512620389 ], [ 5229291.915792853571475, 6570969.482585628516972 ], [ 5229287.979507775977254, 6571747.141936964355409 ], [ 5229081.280478231608868, 6572218.638611316680908 ], [ 5228495.443240315653384, 6572805.289341988041997 ], [ 5228461.173487696796656, 6572884.421898050233722 ], [ 5228135.288617641665041, 6573463.357618371024728 ], [ 5226819.191827022470534, 6575116.249406086280942 ], [ 5224232.879804061725736, 6578354.038943206891418 ], [ 5224045.507965140044689, 6578597.05227242782712 ], [ 5224080.341178706847131, 6578600.881102229468524 ], [ 5224172.341153535991907, 6578600.956529373303056 ], [ 5224315.459984336048365, 6578593.45404053106904 ], [ 5224533.615082149393857, 6578577.468685578554869 ], [ 5224628.610904614441097, 6578571.307671347633004 ], [ 5224711.141164277680218, 6578580.820925069972873 ], [ 5224762.479780068621039, 6578600.489098264835775 ], [ 5224831.786821157671511, 6578629.631713889539242 ], [ 5224898.844741625711322, 6578661.395631102845073 ], [ 5224950.044561603106558, 6578622.733452134765685 ], [ 5225018.485768642276525, 6578578.591992009431124 ], [ 5225774.393588489852846, 6578102.215624979697168 ], [ 5226804.753272055648267, 6577452.702659521251917 ], [ 5227122.492765501141548, 6576669.394579605199397 ], [ 5227520.81724232621491, 6575687.21342913992703 ], [ 5228087.254749143496156, 6575071.168511365540326 ], [ 5228925.742436479777098, 6574145.520587792620063 ], [ 5229246.112561670131981, 6573792.149937948212028 ], [ 5229387.934055588208139, 6573636.451177833601832 ], [ 5229499.53245067037642, 6573518.75280521903187 ], [ 5229598.50234611146152, 6573418.846928955055773 ], [ 5230176.994991582818329, 6573357.021583162248135 ], [ 5230896.316881037317216, 6573277.374888087622821 ], [ 5232162.369884128682315, 6573135.069992223754525 ], [ 5233535.459942772053182, 6572983.118409439921379 ], [ 5234608.353591995313764, 6572797.346528075635433 ], [ 5235052.640040407888591, 6572685.175554650835693 ], [ 5236929.364603281952441, 6572210.878286719322205 ], [ 5237523.188498503528535, 6572073.897008401341736 ], [ 5237966.051137390546501, 6571948.0037911105901 ], [ 5238064.246017809957266, 6571938.927413993515074 ], [ 5238252.445399453863502, 6571884.522495225071907 ], [ 5238592.877123141661286, 6571791.667712848633528 ], [ 5238734.567282634787261, 6571754.032630115747452 ], [ 5238828.849743717350066, 6571707.416406149044633 ], [ 5238916.827456256374717, 6571645.226814560592175 ], [ 5238893.52337409555912, 6571576.546205790713429 ], [ 5238851.069097883068025, 6571499.894641813822091 ] ] ] } },
{ "type": "Feature", "properties": { "lv_id": "LOC_070693", "id": 414160.0, "CD_SETOR": "430085105000010", "SITUACAO": "Rural", "CD_SIT": "8", "CD_TIPO": "0", "AREA_KM2": 154.20962026668352, "CD_REGIAO": "4", "NM_REGIAO": "Sul", "CD_UF": "43", "NM_UF": "Rio Grande do Sul", "CD_MUN": "4300851", "NM_MUN": "Arambaré", "CD_DIST": "430085105", "NM_DIST": "Arambaré", "CD_SUBDIST": "43008510500", "NM_SUBDIST": null, "CD_BAIRRO": null, "NM_BAIRRO": null, "CD_NU": null, "NM_NU": null, "CD_FCU": null, "NM_FCU": null, "CD_AGLOM": null, "NM_AGLOM": null, "CD_RGINT": "4301", "NM_RGINT": "Porto Alegre", "CD_RGI": "430005", "NM_RGI": "Camaquã", "CD_CONCURB": null, "NM_CONCURB": null, "mun_code_x": "4300851", "index_right": 70266, "dist_m": 0.0, "local_id": 738891, "ano": 2022, "cod_localidade_ibge": 4300851, "NR_ZONA": "12", "nr_cep": 96178000.0, "nm_localidade": "ARAMBARÉ", "nm_locvot": "ESCOLA MUNICIPAL DE ENS. FUND. GUSTAVO  XAVIER", "ds_endereco": "PARADA BONITA", "ds_bairro": "PARADA BONITA", "pred_long": -51.58976, "pred_lat": -30.88222, "pred_dist": 0.0, "tse_long": -51.505108, "tse_lat": -30.909733, "long": -51.505108, "lat": -30.909733, "ID_UNICO": "LOC_070693", "SG_UF": "RS", "CD_MUNICIPIO": "86320", "NR_LOCAL_VOTACAO": "1058", "QT_SECOES_AGREGADAS": 0, "QT_ELEITORES_TRANSFERIDOS": 0, "CIRO GOMES (PDT) (NÃO ELEITO) 1T": 3.0, "CONSTITUINTE EYMAEL (DC) (NÃO ELEITO) 1T": 0.0, "FELIPE D AVILA (NOVO) (NÃO ELEITO) 1T": 0.0, "JAIR BOLSONARO (PL) (2º TURNO) 1T": 56.0, "LULA (PT) (2º TURNO) 1T": 78.0, "LÉO PÉRICLES (UP) (NÃO ELEITO) 1T": 0.0, "PADRE KELMON (PTB) (NÃO ELEITO) 1T": 1.0, "SIMONE TEBET (MDB) (NÃO ELEITO) 1T": 5.0, "SOFIA MANZANO (PCB) (NÃO ELEITO) 1T": 0.0, "SORAYA THRONICKE (UNIÃO) (NÃO ELEITO) 1T": 1.0, "VERA (PSTU) (NÃO ELEITO) 1T": 0.0, "Total_Votos_Validos 1T": 144.0, "Votos_Brancos 1T": 3.0, "Votos_Nulos 1T": 2.0, "Abstenções 1T": 40.0, "Eleitores_Aptos 1T": 189.0, "JAIR BOLSONARO (PL) (NÃO ELEITO) 2T": 68.0, "LULA (PT) (ELEITO) 2T": 72.0, "Total_Votos_Validos 2T": 140.0, "Votos_Brancos 2T": 4.0, "Votos_Nulos 2T": 1.0, "Abstenções 2T": 44.0, "Eleitores_Aptos 2T": 189.0, "mun_code_y": "4300851", "mun_code": "4300851" }, "geometry": { "type": "Polygon", "coordinates": [ [ [ 5238381.947259111329913, 6576443.874657334759831 ], [ 5238465.540737933479249, 6576401.710548635572195 ], [ 5238497.610174088738859, 6576384.569025142118335 ], [ 5238476.855111820623279, 6576369.341726690530777 ], [ 5238367.345352883450687, 6576289.004975283518434 ], [ 5237769.595604659989476, 6576089.254008967429399 ], [ 5237789.764112282544374, 6575980.516740346327424 ], [ 5238209.834988126531243, 6575664.68375800922513 ], [ 5238077.905354732647538, 6575399.93117193877697 ], [ 5237975.271484193392098, 6575188.089895784854889 ], [ 5238215.525743320584297, 6575107.792069680988789 ], [ 5238033.748820554465055, 6574344.695975868031383 ], [ 5238501.434662267565727, 6574401.151843167841434 ], [ 5238418.882293314673007, 6573914.526641990989447 ], [ 5238805.790370776318014, 6573997.767120944336057 ], [ 5238864.026027915067971, 6574011.3206751588732 ], [ 5238861.436119625344872, 6573962.749871784821153 ], [ 5238879.728879988193512, 6573917.361759042367339 ], [ 5238852.773245427757502, 6573752.903288150206208 ], [ 5238839.18340864777565, 6573727.062547363340855 ], [ 5238840.746132985688746, 6573671.840023876167834 ], [ 5238856.551420835778117, 6573638.748141828924417 ], [ 5238821.250311782583594, 6573482.777671391144395 ], [ 5238819.6792834084481, 6573436.159335531294346 ], [ 5238832.163093216717243, 6573394.785583565011621 ], [ 5238818.064139249734581, 6573163.764839254319668 ], [ 5238810.453192370012403, 6572520.062443017959595 ], [ 5238843.508745544590056, 6572051.50798331387341 ], [ 5238861.311282332986593, 6571918.427319669164717 ], [ 5238881.69520034827292, 6571857.388801909983158 ], [ 5238899.799809129908681, 6571794.88103349134326 ], [ 5238925.119517563842237, 6571726.806763434782624 ], [ 5238916.827456256374717, 6571645.226814560592175 ], [ 5238828.849743717350066, 6571707.416406149044633 ], [ 5238734.567282634787261, 6571754.032630115747452 ], [ 5238592.877123141661286, 6571791.667712848633528 ], [ 5238252.445399453863502, 6571884.522495225071907 ], [ 5238064.246017809957266, 6571938.927413993515074 ], [ 5237966.051137390546501, 6571948.0037911105901 ], [ 5237523.188498503528535, 6572073.897008401341736 ], [ 5236929.364603281952441, 6572210.878286719322205 ], [ 5235052.640040407888591, 6572685.175554650835693 ], [ 5234608.353591995313764, 6572797.346528075635433 ], [ 5233535.459942772053182, 6572983.118409439921379 ], [ 5232162.369884128682315, 6573135.069992223754525 ], [ 5230896.316881037317216, 6573277.374888087622821 ], [ 5230176.994991582818329, 6573357.021583162248135 ], [ 5229598.50234611146152, 6573418.846928955055773 ], [ 5229499.53245067037642, 6573518.75280521903187 ], [ 5229387.934055588208139, 6573636.451177833601832 ], [ 5229246.112561670131981, 6573792.149937948212028 ], [ 5228925.742436479777098, 6574145.520587792620063 ], [ 5228087.254749143496156, 6575071.168511365540326 ], [ 5227520.81724232621491, 6575687.21342913992703 ], [ 5227122.492765501141548, 6576669.394579605199397 ], [ 5226804.753272055648267, 6577452.702659521251917 ], [ 5225774.393588489852846, 6578102.215624979697168 ], [ 5225018.485768642276525, 6578578.591992009431124 ], [ 5224950.044561603106558, 6578622.733452134765685 ], [ 5224898.844741625711322, 6578661.395631102845073 ], [ 5224831.786821157671511, 6578629.631713889539242 ], [ 5224762.479780068621039, 6578600.489098264835775 ], [ 5224711.141164277680218, 6578580.820925069972873 ], [ 5224628.610904614441097, 6578571.307671347633004 ], [ 5224533.615082149393857, 6578577.468685578554869 ], [ 5224315.459984336048365, 6578593.45404053106904 ], [ 5224172.341153535991907, 6578600.956529373303056 ], [ 5224080.341178706847131, 6578600.881102229468524 ], [ 5224045.507965140044689, 6578597.05227242782712 ], [ 5224005.360122696496546, 6578605.185535658150911 ], [ 5222905.304489457979798, 6578642.343064079061151 ], [ 5222743.13485055975616, 6578667.711603159084916 ], [ 5222404.061245472170413, 6578766.849186991341412 ], [ 5222092.435895496048033, 6578837.386965220794082 ], [ 5221840.533792746253312, 6578850.128977381624281 ], [ 5221610.996182638220489, 6578849.329525880515575 ], [ 5221394.724218430928886, 6578898.358710343018174 ], [ 5221319.227652737870812, 6578906.050090724602342 ], [ 5221213.578365372493863, 6578878.260361743159592 ], [ 5220706.126637829467654, 6578710.427970443852246 ], [ 5220641.681132717989385, 6578706.313083688728511 ], [ 5220549.025467717088759, 6578732.329155385494232 ], [ 5220075.37680272012949, 6578907.51532849483192 ], [ 5220003.421059839427471, 6578921.382294109091163 ], [ 5219743.62760981824249, 6578942.525810163468122 ], [ 5219675.781577620655298, 6578960.477854425087571 ], [ 5219613.621063550002873, 6578993.080792452208698 ], [ 5219516.149319985881448, 6579076.695625877007842 ], [ 5219415.330406465567648, 6579154.808244939893484 ], [ 5218718.180656842887402, 6579302.003756109625101 ], [ 5218361.83287035766989, 6579498.504611320793629 ], [ 5217671.220184072852135, 6579794.419413838535547 ], [ 5217577.426901148632169, 6579841.413245897740126 ], [ 5217510.001289374195039, 6579908.595228988677263 ], [ 5217482.01248515676707, 6579985.380720689892769 ], [ 5217477.199203607626259, 6580068.351176340132952 ], [ 5217480.92716552130878, 6580542.907685725949705 ], [ 5217448.981174496933818, 6580620.405935978516936 ], [ 5217404.111809948459268, 6580683.77639333344996 ], [ 5217164.914042407646775, 6580966.420336063951254 ], [ 5217097.744014074094594, 6581089.492598708719015 ], [ 5217060.963370286859572, 6581219.724440531805158 ], [ 5217053.102473664097488, 6581494.19715978577733 ], [ 5217028.198121072724462, 6581646.932918420061469 ], [ 5216918.107424691319466, 6581816.544471029192209 ], [ 5216780.075743436813354, 6581911.927522643469274 ], [ 5216778.218884198926389, 6581934.500017009675503 ], [ 5216766.032337711192667, 6581959.978363363072276 ], [ 5216715.583509004674852, 6582023.735685117542744 ], [ 5216696.739209476858377, 6582054.896730940788984 ], [ 5216690.358186561614275, 6582101.560359505936503 ], [ 5216645.917108040302992, 6582353.129351323470473 ], [ 5216281.870317588560283, 6582933.904705720022321 ], [ 5215670.092597973532975, 6583727.548640182241797 ], [ 5215655.943670868873596, 6583752.277130359783769 ], [ 5215627.250501777976751, 6583813.9246507268399 ], [ 5215609.248513760976493, 6583871.051399369724095 ], [ 5215657.86170148756355, 6584066.912200236693025 ], [ 5215774.554439934901893, 6584347.720156256109476 ], [ 5215786.481776926666498, 6584696.437616154551506 ], [ 5218087.715948351658881, 6585999.55731619335711 ], [ 5218502.836397363804281, 6586236.128357800655067 ], [ 5219963.564710912294686, 6587061.570428643375635 ], [ 5220648.72580542601645, 6587448.625577706843615 ], [ 5220693.020841121673584, 6587473.709231639280915 ], [ 5220742.99512967094779, 6587505.455007910728455 ], [ 5220819.758914289064705, 6587565.485407498665154 ], [ 5220883.931347946636379, 6587627.539425888098776 ], [ 5222763.437374642118812, 6589633.457822144962847 ], [ 5223747.170113016851246, 6590917.777310265228152 ], [ 5224158.603659925982356, 6591375.558858441188931 ], [ 5224304.888650293461978, 6591554.625523345544934 ], [ 5225878.95119546726346, 6593595.137448106892407 ], [ 5226395.094990302808583, 6594264.905267709866166 ], [ 5226457.870304548181593, 6594346.400797383859754 ], [ 5226513.355778160504997, 6594420.981795009225607 ], [ 5226896.426716633141041, 6594917.523100876249373 ], [ 5227043.539445290341973, 6594903.304078180342913 ], [ 5227070.248535647988319, 6594894.982746524736285 ], [ 5227093.561620344407856, 6594883.237967452034354 ], [ 5227461.316293004900217, 6594641.132331835106015 ], [ 5227659.015855952166021, 6594552.508901711553335 ], [ 5227856.611973399296403, 6594449.691827476024628 ], [ 5227918.965123110450804, 6594436.328027101233602 ], [ 5228029.917298808693886, 6594421.298487116582692 ], [ 5228136.136242507025599, 6594388.170763075351715 ], [ 5228190.818635388277471, 6594359.112058723345399 ], [ 5228234.073911006562412, 6594315.149926893413067 ], [ 5228304.39712034072727, 6594078.670213792473078 ], [ 5228448.959364609792829, 6593749.176249708980322 ], [ 5228480.699751893989742, 6593713.76909888908267 ], [ 5228520.420487972907722, 6593687.0465580644086 ], [ 5228730.603678205981851, 6593644.805798260495067 ], [ 5229670.849881061352789, 6593683.722297580912709 ], [ 5229695.582091673277318, 6593605.219063328579068 ], [ 5229711.221232827752829, 6593567.212217014282942 ], [ 5229739.140528651885688, 6593534.257408082485199 ], [ 5229807.539921624585986, 6593499.037045136094093 ], [ 5230206.725163412280381, 6593359.683390787802637 ], [ 5230449.079020387493074, 6593171.920978858135641 ], [ 5230672.978141020052135, 6593143.016748873516917 ], [ 5230691.440454653464258, 6593138.957778561860323 ], [ 5230710.028103807009757, 6593128.260443817824125 ], [ 5231252.546282689087093, 6592675.347130225971341 ], [ 5231294.733683212660253, 6592594.764684712514281 ], [ 5231352.552280708216131, 6592503.269796987995505 ], [ 5231548.511601280421019, 6592310.255147533491254 ], [ 5231587.605991763994098, 6592240.046634613536298 ], [ 5231594.139816589653492, 6592194.532010417431593 ], [ 5231575.749968751333654, 6591987.281031038612127 ], [ 5231566.811798699200153, 6591787.149485299363732 ], [ 5231592.159783218055964, 6591727.41319383867085 ], [ 5231623.454285226762295, 6591676.569743840955198 ], [ 5231828.711299167945981, 6591514.21761027071625 ], [ 5231915.049322563223541, 6591480.125365955755115 ], [ 5231997.225389639846981, 6591427.18072203360498 ], [ 5232492.407651793211699, 6590974.3624263163656 ], [ 5232745.308472881093621, 6590832.705811211839318 ], [ 5232978.797677522525191, 6590599.551513386890292 ], [ 5233393.23242165055126, 6590160.513606414198875 ], [ 5233526.588199679739773, 6590065.22742922976613 ], [ 5233882.531181707046926, 6589870.814968483522534 ], [ 5234180.516671211458743, 6589885.043862028978765 ], [ 5234308.810136993415654, 6589843.288578771054745 ], [ 5234399.43638120777905, 6589735.298389628529549 ], [ 5234540.071927124634385, 6589500.474730445072055 ], [ 5234920.485302785411477, 6589232.715781910344958 ], [ 5235112.474328556098044, 6589060.429751334711909 ], [ 5235164.928906611166894, 6589003.937980104237795 ], [ 5235420.467876109294593, 6588753.02669564448297 ], [ 5235815.578116385266185, 6588541.968727527186275 ], [ 5235936.396819768473506, 6588426.118356613442302 ], [ 5235976.312094828113914, 6588247.510403911583126 ], [ 5236025.919628447853029, 6588134.781711436808109 ], [ 5236045.095699835568666, 6588083.246436404064298 ], [ 5236065.795106296427548, 6587944.08944896236062 ], [ 5236082.616385855711997, 6587613.051997918635607 ], [ 5236152.170482453890145, 6587442.79954796563834 ], [ 5236152.415901819244027, 6587431.797058488242328 ], [ 5235952.213617548346519, 6587002.689107867889106 ], [ 5236289.918683752417564, 6586865.890670460648835 ], [ 5236338.024856785312295, 6586847.772140612825751 ], [ 5236343.399512184783816, 6586758.300585347227752 ], [ 5236347.239479403942823, 6586735.422573091462255 ], [ 5236357.80943588167429, 6586720.851780153810978 ], [ 5236357.262666911818087, 6586704.329363524913788 ], [ 5236358.304861999116838, 6586670.9155348315835 ], [ 5236472.735035294666886, 6586238.711436815559864 ], [ 5236886.850112454965711, 6585111.921594552695751 ], [ 5236917.148647370748222, 6585038.109647468663752 ], [ 5236976.732845275662839, 6584873.773443646728992 ], [ 5236995.394632709212601, 6584812.958485651761293 ], [ 5236988.096669894643128, 6584804.475636476650834 ], [ 5236904.212651211768389, 6584628.681810631416738 ], [ 5237074.915233671665192, 6584537.996644170954823 ], [ 5237127.461408579722047, 6584513.083513585850596 ], [ 5237180.132859307341278, 6584425.235738823190331 ], [ 5237203.207048228010535, 6584402.529599941335618 ], [ 5237229.979218606837094, 6584385.201109694316983 ], [ 5237473.57811017986387, 6584269.86451531201601 ], [ 5237724.781667441129684, 6584195.101503033190966 ], [ 5237869.286767661571503, 6583970.487528763711452 ], [ 5238198.824717564508319, 6583534.874951247125864 ], [ 5238583.46051002945751, 6583159.531558575108647 ], [ 5238707.086020799353719, 6583057.527922142297029 ], [ 5238849.76156701054424, 6582854.633305309340358 ], [ 5239036.58206994086504, 6582672.133122080937028 ], [ 5239303.378892781212926, 6581751.974922535009682 ], [ 5239376.283846215344965, 6581533.71017839666456 ], [ 5239436.363246315158904, 6581211.173035597428679 ], [ 5239487.58397388830781, 6581066.702139662578702 ], [ 5239511.824976566247642, 6581039.857690801844001 ], [ 5239795.697801099158823, 6580801.750802474096417 ], [ 5239818.019814439117908, 6580804.101460548117757 ], [ 5239847.342568178661168, 6580809.368783004581928 ], [ 5239900.974227730184793, 6580830.058992493897676 ], [ 5239961.751482345163822, 6580857.546423746272922 ], [ 5239972.378962106071413, 6580867.328516921028495 ], [ 5239983.452641751617193, 6580889.729409851133823 ], [ 5240016.5597541667521, 6580853.529030203819275 ], [ 5240025.194982726126909, 6580805.738151108846068 ], [ 5240011.19703843165189, 6580747.713792733848095 ], [ 5240009.958804059773684, 6580701.132539306767285 ], [ 5240026.792647344060242, 6580674.664094055071473 ], [ 5240057.510052368044853, 6580655.174441965296865 ], [ 5240171.511223240755498, 6580654.197403460741043 ], [ 5240270.146904126740992, 6580621.626571450382471 ], [ 5240351.382643086835742, 6580566.130813170224428 ], [ 5240385.630072133615613, 6580511.426173281855881 ], [ 5240382.090271883644164, 6580447.240607122890651 ], [ 5240262.720387927256525, 6580298.80302899889648 ], [ 5240259.006341291591525, 6580279.55489569529891 ], [ 5240262.564446019008756, 6580255.315701226703823 ], [ 5240258.017840191721916, 6580237.75092164054513 ], [ 5240223.380281137302518, 6580191.344197547063231 ], [ 5240163.572861734777689, 6580164.746656382456422 ], [ 5240160.844832546077669, 6580157.006544556468725 ], [ 5240163.150595499202609, 6580151.927532973699272 ], [ 5240164.052858441136777, 6580143.56196834333241 ], [ 5240162.138044902123511, 6580116.693792223930359 ], [ 5240183.538194985128939, 6580059.415638102218509 ], [ 5240232.305553974583745, 6579969.904906461015344 ], [ 5240258.681051925756037, 6579919.52812796831131 ], [ 5240299.021426942199469, 6579896.358516586944461 ], [ 5240317.139852945692837, 6579868.839525654911995 ], [ 5240346.721104984171689, 6579843.625880312174559 ], [ 5240417.842767646536231, 6579804.392590718343854 ], [ 5240478.001755122095346, 6579783.383682589046657 ], [ 5240503.98988695256412, 6579765.985437674447894 ], [ 5240545.318065477535129, 6579753.168669591657817 ], [ 5240576.318960071541369, 6579730.71887774579227 ], [ 5240592.200987218879163, 6579700.353300757706165 ], [ 5240595.849766040220857, 6579658.966253032907844 ], [ 5240603.099031763151288, 6579637.284823564812541 ], [ 5240616.574963129125535, 6579623.242331307381392 ], [ 5240656.566345319151878, 6579613.950917537324131 ], [ 5240713.1316326148808, 6579542.228399520739913 ], [ 5240718.564828141592443, 6579538.854285480454564 ], [ 5240725.430170770734549, 6579537.91150570474565 ], [ 5240731.945114425383508, 6579540.516723895445466 ], [ 5240746.666812464594841, 6579561.791439274325967 ], [ 5240760.70262158010155, 6579568.344146981835365 ], [ 5240775.34526642318815, 6579568.72403965704143 ], [ 5240790.981537759304047, 6579559.726307932287455 ], [ 5240803.155637695454061, 6579542.261602295562625 ], [ 5240825.806124715134501, 6579536.379302968271077 ], [ 5240836.483843252062798, 6579528.902773879468441 ], [ 5240839.487790782004595, 6579514.940916374325752 ], [ 5240837.60915763489902, 6579501.200221469625831 ], [ 5240843.915077892132103, 6579480.128029027022421 ], [ 5240862.366009012795985, 6579440.737185196951032 ], [ 5240871.269412738271058, 6579414.401612074114382 ], [ 5240886.82103294506669, 6579388.104615096002817 ], [ 5240926.70279243029654, 6579363.411227987147868 ], [ 5240960.524453642778099, 6579337.200987923890352 ], [ 5240998.544839310459793, 6579328.784995019435883 ], [ 5241037.318056921474636, 6579338.884711829945445 ], [ 5241069.496417154558003, 6579338.60173106007278 ], [ 5241176.500827025622129, 6579326.151728004217148 ], [ 5241269.556529154069722, 6579339.362795382738113 ], [ 5241382.283426147885621, 6579426.015604315325618 ], [ 5241421.44510958250612, 6579502.313184147700667 ], [ 5241498.327884209342301, 6579569.178731804713607 ], [ 5241809.055468339473009, 6579847.705708243884146 ], [ 5242162.758530423045158, 6580257.899710369296372 ], [ 5242340.553640084341168, 6580373.907778872177005 ], [ 5242505.184077717363834, 6580450.471650782972574 ], [ 5242585.990392433479428, 6580563.562864001840353 ], [ 5242724.553871909156442, 6580632.337285168468952 ], [ 5242884.145815551280975, 6580654.887144926004112 ], [ 5242988.324115819297731, 6580611.455227511003613 ], [ 5243141.472418609075248, 6580646.333185099065304 ], [ 5243379.20118866302073, 6580665.597818930633366 ], [ 5243416.687170845456421, 6580651.63683086168021 ], [ 5243499.272529758512974, 6580676.543481516651809 ], [ 5243613.795190647244453, 6580616.588987603783607 ], [ 5243663.364475785754621, 6580627.876144748181105 ], [ 5243702.023486226797104, 6580561.383960643783212 ], [ 5243739.771031366661191, 6580513.234765553846955 ], [ 5243784.744848967529833, 6580480.368450248613954 ], [ 5243843.939453015103936, 6580460.771852778270841 ], [ 5243896.386147771961987, 6580415.038494180887938 ], [ 5243951.339311781339347, 6580409.532428966835141 ], [ 5243929.282812650315464, 6580373.602491777390242 ], [ 5243836.862726826220751, 6580340.212169042788446 ], [ 5243559.26657020766288, 6580212.577494068071246 ], [ 5243283.4539436083287, 6580052.934131376445293 ], [ 5243045.763986826874316, 6579911.65970276389271 ], [ 5242706.681418595835567, 6579676.558762398548424 ], [ 5242464.198504845611751, 6579480.21534682251513 ], [ 5242027.244380020536482, 6579138.184509200975299 ], [ 5241591.626070095226169, 6578837.890189044177532 ], [ 5241165.108963468112051, 6578498.69942793995142 ], [ 5240848.15400022175163, 6578163.956474219448864 ], [ 5240702.542328663170338, 6577997.04079508036375 ], [ 5240645.06698155682534, 6577931.342044107615948 ], [ 5240573.026710155420005, 6577969.932966124266386 ], [ 5239945.338443489745259, 6578324.552718866616488 ], [ 5239403.952639643102884, 6577398.975421043112874 ], [ 5239402.582358428277075, 6577396.720118464902043 ], [ 5239295.762858246453106, 6577400.82670227997005 ], [ 5239273.810102058574557, 6577393.728685049340129 ], [ 5239241.894765976816416, 6577363.261085879988968 ], [ 5239209.903981453739107, 6577329.42149131000042 ], [ 5239176.50796118658036, 6577297.300138858146966 ], [ 5239145.659533591940999, 6577281.97849179059267 ], [ 5239113.724860332906246, 6577284.314862882718444 ], [ 5239120.339113170281053, 6577253.892879508435726 ], [ 5239085.858923714607954, 6577238.652518252842128 ], [ 5239059.350249012932181, 6577222.389939034357667 ], [ 5239032.700434984639287, 6577232.253689737059176 ], [ 5239000.390545474365354, 6577248.991438049823046 ], [ 5238950.298054620623589, 6577250.114079677499831 ], [ 5238933.987275355495512, 6577235.309474121779203 ], [ 5238916.733104319311678, 6577210.405186533927917 ], [ 5238923.459198573604226, 6577186.661474645137787 ], [ 5238939.684706657193601, 6577165.223992442712188 ], [ 5238934.967807034961879, 6577149.316187062300742 ], [ 5238922.864427392370999, 6577127.670094499364495 ], [ 5238903.497501777485013, 6577106.19783702865243 ], [ 5238878.744038716889918, 6577103.378830188885331 ], [ 5238863.999609285034239, 6577093.599448060616851 ], [ 5238851.745391746982932, 6577065.209472812712193 ], [ 5238842.227087473496795, 6577029.178702861070633 ], [ 5238844.943966590799391, 6576988.66795084439218 ], [ 5238840.831037167459726, 6576966.842790556140244 ], [ 5238829.558103109709918, 6576950.238414829596877 ], [ 5238822.407827096991241, 6576922.588587073609233 ], [ 5238823.769049317575991, 6576891.99595588631928 ], [ 5238732.869663846679032, 6576815.096218867227435 ], [ 5238622.378052696585655, 6576502.726859888061881 ], [ 5238680.012363749556243, 6576402.5480339480564 ], [ 5238589.585485498420894, 6576375.175465235486627 ], [ 5238527.368580762296915, 6576407.740283463150263 ], [ 5238524.580921970307827, 6576405.372341313399374 ], [ 5238392.719759207218885, 6576469.368471762165427 ], [ 5238387.566288569942117, 6576456.555324587039649 ], [ 5238381.947259111329913, 6576443.874657334759831 ] ] ] } },
{ "type": "Feature", "properties": { "lv_id": "LOC_070694", "id": 414151.0, "CD_SETOR": "430085105000001", "SITUACAO": "Urbana", "CD_SIT": "1", "CD_TIPO": "0", "AREA_KM2": 0.41006041080920602, "CD_REGIAO": "4", "NM_REGIAO": "Sul", "CD_UF": "43", "NM_UF": "Rio Grande do Sul", "CD_MUN": "4300851", "NM_MUN": "Arambaré", "CD_DIST": "430085105", "NM_DIST": "Arambaré", "CD_SUBDIST": "43008510500", "NM_SUBDIST": null, "CD_BAIRRO": null, "NM_BAIRRO": null, "CD_NU": null, "NM_NU": null, "CD_FCU": null, "NM_FCU": null, "CD_AGLOM": null, "NM_AGLOM": null, "CD_RGINT": "4301", "NM_RGINT": "Porto Alegre", "CD_RGI": "430005", "NM_RGI": "Camaquã", "CD_CONCURB": null, "NM_CONCURB": null, "mun_code_x": "4300851", "index_right": 70263, "dist_m": 14.580335776371252, "local_id": 738888, "ano": 2022, "cod_localidade_ibge": 4300851, "NR_ZONA": "12", "nr_cep": 96178000.0, "nm_localidade": "ARAMBARÉ", "nm_locvot": "ESCOLA ESTADUAL DE ENS. MÉDIO DR. DONÁRIO LOPES", "ds_endereco": "RUA JUSTINO GONCALVES DA SILVA, S/N   F. 3676-1322", "ds_bairro": "CENTRO", "pred_long": -51.500144, "pred_lat": -30.911838, "pred_dist": 0.0, "tse_long": -51.503023, "tse_lat": -30.914003, "long": -51.503023, "lat": -30.914003, "ID_UNICO": "LOC_070694", "SG_UF": "RS", "CD_MUNICIPIO": "86320", "NR_LOCAL_VOTACAO": "1023", "QT_SECOES_AGREGADAS": 0, "QT_ELEITORES_TRANSFERIDOS": 0, "CIRO GOMES (PDT) (NÃO ELEITO) 1T": 37.0, "CONSTITUINTE EYMAEL (DC) (NÃO ELEITO) 1T": 0.0, "FELIPE D AVILA (NOVO) (NÃO ELEITO) 1T": 0.0, "JAIR BOLSONARO (PL) (2º TURNO) 1T": 393.0, "LULA (PT) (2º TURNO) 1T": 397.0, "LÉO PÉRICLES (UP) (NÃO ELEITO) 1T": 0.0, "PADRE KELMON (PTB) (NÃO ELEITO) 1T": 0.0, "SIMONE TEBET (MDB) (NÃO ELEITO) 1T": 35.0, "SOFIA MANZANO (PCB) (NÃO ELEITO) 1T": 1.0, "SORAYA THRONICKE (UNIÃO) (NÃO ELEITO) 1T": 2.0, "VERA (PSTU) (NÃO ELEITO) 1T": 0.0, "Total_Votos_Validos 1T": 865.0, "Votos_Brancos 1T": 12.0, "Votos_Nulos 1T": 20.0, "Abstenções 1T": 273.0, "Eleitores_Aptos 1T": 1170.0, "JAIR BOLSONARO (PL) (NÃO ELEITO) 2T": 460.0, "LULA (PT) (ELEITO) 2T": 409.0, "Total_Votos_Validos 2T": 869.0, "Votos_Brancos 2T": 16.0, "Votos_Nulos 2T": 22.0, "Abstenções 2T": 263.0, "Eleitores_Aptos 2T": 1170.0, "mun_code_y": "4300851", "mun_code": "4300851" }, "geometry": { "type": "Polygon", "coordinates": [ [ [ 5238902.503837050870061, 6574289.280322032049298 ], [ 5238874.978025208227336, 6574177.447534263134003 ], [ 5238879.409898557700217, 6574070.258064057677984 ], [ 5238864.026027915067971, 6574011.3206751588732 ], [ 5238805.790370776318014, 6573997.767120944336057 ], [ 5238418.882293314673007, 6573914.526641990989447 ], [ 5238501.434662267565727, 6574401.151843167841434 ], [ 5238033.748820554465055, 6574344.695975868031383 ], [ 5238215.525743320584297, 6575107.792069680988789 ], [ 5237975.271484193392098, 6575188.089895784854889 ], [ 5238077.905354732647538, 6575399.93117193877697 ], [ 5238209.834988126531243, 6575664.68375800922513 ], [ 5237789.764112282544374, 6575980.516740346327424 ], [ 5237769.595604659989476, 6576089.254008967429399 ], [ 5238367.345352883450687, 6576289.004975283518434 ], [ 5238476.855111820623279, 6576369.341726690530777 ], [ 5238497.610174088738859, 6576384.569025142118335 ], [ 5238465.540737933479249, 6576401.710548635572195 ], [ 5238381.947259111329913, 6576443.874657334759831 ], [ 5238387.566288569942117, 6576456.555324587039649 ], [ 5238392.719759207218885, 6576469.368471762165427 ], [ 5238524.580921970307827, 6576405.372341313399374 ], [ 5238527.368580762296915, 6576407.740283463150263 ], [ 5238589.585485498420894, 6576375.175465235486627 ], [ 5238680.012363749556243, 6576402.5480339480564 ], [ 5238622.378052696585655, 6576502.726859888061881 ], [ 5238732.869663846679032, 6576815.096218867227435 ], [ 5238823.769049317575991, 6576891.99595588631928 ], [ 5238836.316459727473557, 6576869.442473543807864 ], [ 5238857.502535976469517, 6576855.606624227017164 ], [ 5238878.313179335556924, 6576859.590418130159378 ], [ 5238902.281354156322777, 6576867.076774196699262 ], [ 5238931.093466266058385, 6576864.133968831971288 ], [ 5238969.725079326890409, 6576862.003051282837987 ], [ 5239016.68758031912148, 6576868.074851837940514 ], [ 5239030.637845260091126, 6576873.998830661177635 ], [ 5239049.055098789744079, 6576873.585908096283674 ], [ 5239058.019502226263285, 6576862.698128877207637 ], [ 5239061.442380576394498, 6576843.911187322810292 ], [ 5239059.929488121531904, 6576810.974776091054082 ], [ 5239050.107071937993169, 6576783.584721799939871 ], [ 5239023.216827659867704, 6576748.542826382443309 ], [ 5239003.756024670787156, 6576736.516756447032094 ], [ 5238994.093148610554636, 6576716.236511024646461 ], [ 5238991.330935294739902, 6576695.812664745375514 ], [ 5238995.466580151580274, 6576681.948101816698909 ], [ 5239014.620120126754045, 6576673.018107703886926 ], [ 5239066.732165570370853, 6576661.440294401720166 ], [ 5239094.154322471469641, 6576659.649003657512367 ], [ 5239153.482852823100984, 6576635.157995818182826 ], [ 5239178.340518292039633, 6576614.103437419049442 ], [ 5239189.208258114755154, 6576585.350384474731982 ], [ 5239188.768866444006562, 6576565.762231171131134 ], [ 5239178.261316205374897, 6576541.938815966248512 ], [ 5239157.866588744334877, 6576522.798365050926805 ], [ 5239105.387860871851444, 6576521.400962637737393 ], [ 5239074.081773865967989, 6576517.553161645308137 ], [ 5239044.48375563044101, 6576498.618908416479826 ], [ 5239028.78525339346379, 6576482.935190288349986 ], [ 5239018.36852088663727, 6576463.570766121149063 ], [ 5239021.681752847507596, 6576440.325128458440304 ], [ 5239030.415625945664942, 6576418.744620906189084 ], [ 5239049.157496036030352, 6576398.726357034407556 ], [ 5239073.569782014936209, 6576391.942145405337214 ], [ 5239099.106013764627278, 6576401.168404370546341 ], [ 5239110.857606367208064, 6576412.257450740784407 ], [ 5239121.099702783860266, 6576423.40254145488143 ], [ 5239136.848018380813301, 6576441.304492114111781 ], [ 5239157.607836125418544, 6576442.625449268147349 ], [ 5239181.375522211194038, 6576441.204404836520553 ], [ 5239207.891269761137664, 6576425.461475060321391 ], [ 5239276.067075863480568, 6576350.877139835618436 ], [ 5239317.571227978914976, 6576318.761683259159327 ], [ 5239365.49003944080323, 6576275.526648473925889 ], [ 5239409.837763854302466, 6576238.919053150340915 ], [ 5239462.12595578096807, 6576196.129152434878051 ], [ 5239454.318952408619225, 6576130.785294936969876 ], [ 5239452.227094598114491, 6576125.771859252825379 ], [ 5239434.727779964916408, 6576115.910940798930824 ], [ 5239405.944309167563915, 6576100.022309051826596 ], [ 5239385.12665591109544, 6576082.045947153121233 ], [ 5239377.383130823262036, 6575896.870600579306483 ], [ 5239360.109473803080618, 6575874.897230776026845 ], [ 5239295.22296441718936, 6575759.764738844707608 ], [ 5239152.840321111492813, 6575473.995140248909593 ], [ 5239060.861413219943643, 6575135.889958382584155 ], [ 5239019.718570661731064, 6574943.074321625754237 ], [ 5238980.515080440789461, 6574774.01904683932662 ], [ 5238941.371181293390691, 6574570.060982819646597 ], [ 5238901.622034176252782, 6574363.3642523791641 ], [ 5238902.503837050870061, 6574289.280322032049298 ] ] ] } },
{ "type": "Feature", "properties": { "lv_id": "LOC_070695", "id": 414156.0, "CD_SETOR": "430085105000006", "SITUACAO": "Urbana", "CD_SIT": "1", "CD_TIPO": "0", "AREA_KM2": 0.44533444990771398, "CD_REGIAO": "4", "NM_REGIAO": "Sul", "CD_UF": "43", "NM_UF": "Rio Grande do Sul", "CD_MUN": "4300851", "NM_MUN": "Arambaré", "CD_DIST": "430085105", "NM_DIST": "Arambaré", "CD_SUBDIST": "43008510500", "NM_SUBDIST": null, "CD_BAIRRO": "4300851001", "NM_BAIRRO": "Caramuru", "CD_NU": null, "NM_NU": null, "CD_FCU": null, "NM_FCU": null, "CD_AGLOM": null, "NM_AGLOM": null, "CD_RGINT": "4301", "NM_RGINT": "Porto Alegre", "CD_RGI": "430005", "NM_RGI": "Camaquã", "CD_CONCURB": null, "NM_CONCURB": null, "mun_code_x": "4300851", "index_right": 70267, "dist_m": 12.489062975634702, "local_id": 738892, "ano": 2022, "cod_localidade_ibge": 4300851, "NR_ZONA": "12", "nr_cep": 96178000.0, "nm_localidade": "ARAMBARÉ", "nm_locvot": "ESC. MUN. DE ENS. FUND. IRINEU ATHAUALPA CIBILS", "ds_endereco": "RUA ORMEZINDA RAMOS LOUREIRO, S/N", "ds_bairro": "CARAMURU", "pred_long": -51.495685, "pred_lat": -30.905442, "pred_dist": 0.0, "tse_long": -51.495774, "tse_lat": -30.905514, "long": -51.495774, "lat": -30.905514, "ID_UNICO": "LOC_070695", "SG_UF": "RS", "CD_MUNICIPIO": "86320", "NR_LOCAL_VOTACAO": "1090", "QT_SECOES_AGREGADAS": 0, "QT_ELEITORES_TRANSFERIDOS": 2, "CIRO GOMES (PDT) (NÃO ELEITO) 1T": 7.0, "CONSTITUINTE EYMAEL (DC) (NÃO ELEITO) 1T": 1.0, "FELIPE D AVILA (NOVO) (NÃO ELEITO) 1T": 0.0, "JAIR BOLSONARO (PL) (2º TURNO) 1T": 196.0, "LULA (PT) (2º TURNO) 1T": 146.0, "LÉO PÉRICLES (UP) (NÃO ELEITO) 1T": 0.0, "PADRE KELMON (PTB) (NÃO ELEITO) 1T": 0.0, "SIMONE TEBET (MDB) (NÃO ELEITO) 1T": 25.0, "SOFIA MANZANO (PCB) (NÃO ELEITO) 1T": 0.0, "SORAYA THRONICKE (UNIÃO) (NÃO ELEITO) 1T": 6.0, "VERA (PSTU) (NÃO ELEITO) 1T": 0.0, "Total_Votos_Validos 1T": 381.0, "Votos_Brancos 1T": 6.0, "Votos_Nulos 1T": 7.0, "Abstenções 1T": 141.0, "Eleitores_Aptos 1T": 535.0, "JAIR BOLSONARO (PL) (NÃO ELEITO) 2T": 220.0, "LULA (PT) (ELEITO) 2T": 167.0, "Total_Votos_Validos 2T": 387.0, "Votos_Brancos 2T": 7.0, "Votos_Nulos 2T": 10.0, "Abstenções 2T": 131.0, "Eleitores_Aptos 2T": 535.0, "mun_code_y": "4300851", "mun_code": "4300851" }, "geometry": { "type": "Polygon", "coordinates": [ [ [ 5239655.111726984381676, 6576640.361765671521425 ], [ 5239575.448024719953537, 6576498.129774013534188 ], [ 5239539.995931645855308, 6576410.613062499091029 ], [ 5239525.903004214167595, 6576365.552323238924146 ], [ 5239513.849173506721854, 6576298.461736186407506 ], [ 5239491.66955869551748, 6576276.066070476546884 ], [ 5239473.511107643134892, 6576247.088028997182846 ], [ 5239462.12595578096807, 6576196.129152434878051 ], [ 5239409.837763854302466, 6576238.919053150340915 ], [ 5239365.49003944080323, 6576275.526648473925889 ], [ 5239317.571227978914976, 6576318.761683259159327 ], [ 5239276.067075863480568, 6576350.877139835618436 ], [ 5239207.891269761137664, 6576425.461475060321391 ], [ 5239181.375522211194038, 6576441.204404836520553 ], [ 5239157.607836125418544, 6576442.625449268147349 ], [ 5239136.848018380813301, 6576441.304492114111781 ], [ 5239121.099702783860266, 6576423.40254145488143 ], [ 5239110.857606367208064, 6576412.257450740784407 ], [ 5239099.106013764627278, 6576401.168404370546341 ], [ 5239073.569782014936209, 6576391.942145405337214 ], [ 5239049.157496036030352, 6576398.726357034407556 ], [ 5239030.415625945664942, 6576418.744620906189084 ], [ 5239021.681752847507596, 6576440.325128458440304 ], [ 5239018.36852088663727, 6576463.570766121149063 ], [ 5239028.78525339346379, 6576482.935190288349986 ], [ 5239044.48375563044101, 6576498.618908416479826 ], [ 5239074.081773865967989, 6576517.553161645308137 ], [ 5239105.387860871851444, 6576521.400962637737393 ], [ 5239157.866588744334877, 6576522.798365050926805 ], [ 5239178.261316205374897, 6576541.938815966248512 ], [ 5239188.768866444006562, 6576565.762231171131134 ], [ 5239189.208258114755154, 6576585.350384474731982 ], [ 5239178.340518292039633, 6576614.103437419049442 ], [ 5239153.482852823100984, 6576635.157995818182826 ], [ 5239094.154322471469641, 6576659.649003657512367 ], [ 5239066.732165570370853, 6576661.440294401720166 ], [ 5239014.620120126754045, 6576673.018107703886926 ], [ 5238995.466580151580274, 6576681.948101816698909 ], [ 5238991.330935294739902, 6576695.812664745375514 ], [ 5238994.093148610554636, 6576716.236511024646461 ], [ 5239003.756024670787156, 6576736.516756447032094 ], [ 5239023.216827659867704, 6576748.542826382443309 ], [ 5239050.107071937993169, 6576783.584721799939871 ], [ 5239059.929488121531904, 6576810.974776091054082 ], [ 5239061.442380576394498, 6576843.911187322810292 ], [ 5239058.019502226263285, 6576862.698128877207637 ], [ 5239049.055098789744079, 6576873.585908096283674 ], [ 5239030.637845260091126, 6576873.998830661177635 ], [ 5239016.68758031912148, 6576868.074851837940514 ], [ 5238969.725079326890409, 6576862.003051282837987 ], [ 5238931.093466266058385, 6576864.133968831971288 ], [ 5238902.281354156322777, 6576867.076774196699262 ], [ 5238878.313179335556924, 6576859.590418130159378 ], [ 5238857.502535976469517, 6576855.606624227017164 ], [ 5238836.316459727473557, 6576869.442473543807864 ], [ 5238823.769049317575991, 6576891.99595588631928 ], [ 5238822.407827096991241, 6576922.588587073609233 ], [ 5238829.558103109709918, 6576950.238414829596877 ], [ 5238840.831037167459726, 6576966.842790556140244 ], [ 5238844.943966590799391, 6576988.66795084439218 ], [ 5238842.227087473496795, 6577029.178702861070633 ], [ 5238851.745391746982932, 6577065.209472812712193 ], [ 5238863.999609285034239, 6577093.599448060616851 ], [ 5238878.744038716889918, 6577103.378830188885331 ], [ 5238903.497501777485013, 6577106.19783702865243 ], [ 5238922.864427392370999, 6577127.670094499364495 ], [ 5238934.967807034961879, 6577149.316187062300742 ], [ 5238939.684706657193601, 6577165.223992442712188 ], [ 5238923.459198573604226, 6577186.661474645137787 ], [ 5238916.733104319311678, 6577210.405186533927917 ], [ 5238933.987275355495512, 6577235.309474121779203 ], [ 5238950.298054620623589, 6577250.114079677499831 ], [ 5239000.390545474365354, 6577248.991438049823046 ], [ 5239032.700434984639287, 6577232.253689737059176 ], [ 5239059.350249012932181, 6577222.389939034357667 ], [ 5239085.858923714607954, 6577238.652518252842128 ], [ 5239120.339113170281053, 6577253.892879508435726 ], [ 5239113.724860332906246, 6577284.314862882718444 ], [ 5239145.659533591940999, 6577281.97849179059267 ], [ 5239176.50796118658036, 6577297.300138858146966 ], [ 5239209.903981453739107, 6577329.42149131000042 ], [ 5239241.894765976816416, 6577363.261085879988968 ], [ 5239273.810102058574557, 6577393.728685049340129 ], [ 5239295.762858246453106, 6577400.82670227997005 ], [ 5239402.582358428277075, 6577396.720118464902043 ], [ 5239403.952639643102884, 6577398.975421043112874 ], [ 5239945.338443489745259, 6578324.552718866616488 ], [ 5240573.026710155420005, 6577969.932966124266386 ], [ 5240645.06698155682534, 6577931.342044107615948 ], [ 5240498.571601117961109, 6577757.197345428168774 ], [ 5240172.093147940002382, 6577418.124654410406947 ], [ 5239831.189132953993976, 6576926.123367981985211 ], [ 5239714.357220057398081, 6576730.483823975548148 ], [ 5239787.348348256200552, 6576682.566009651869535 ], [ 5239764.880673167295754, 6576641.888686029240489 ], [ 5239688.73201151471585, 6576687.580184519290924 ], [ 5239666.107214864343405, 6576649.680578157305717 ], [ 5239655.111726984381676, 6576640.361765671521425 ] ] ] } }
]
}
