{
"type": "FeatureCollection",
"name": "4302378",
"crs": { "type": "name", "properties": { "name": "urn:ogc:def:crs:EPSG::5880" } },
"features": [
{ "type": "Feature", "properties": { "lv_id": "LOC_070866", "id": 415401.0, "CD_SETOR": "430237805000001", "SITUACAO": "Urbana", "CD_SIT": "1", "CD_TIPO": "0", "AREA_KM2": 0.41436843531985001, "CD_REGIAO": "4", "NM_REGIAO": "Sul", "CD_UF": "43", "NM_UF": "Rio Grande do Sul", "CD_MUN": "4302378", "NM_MUN": "Bom Progresso", "CD_DIST": "430237805", "NM_DIST": "Bom Progresso", "CD_SUBDIST": "43023780500", "NM_SUBDIST": null, "CD_BAIRRO": null, "NM_BAIRRO": null, "CD_NU": null, "NM_NU": null, "CD_FCU": null, "NM_FCU": null, "CD_AGLOM": null, "NM_AGLOM": null, "CD_RGINT": "4305", "NM_RGINT": "Ijuí", "CD_RGI": "430021", "NM_RGI": "Três Passos", "CD_CONCURB": null, "NM_CONCURB": null, "mun_code_x": "4302378", "index_right": 70446, "dist_m": 0.0, "local_id": 740687, "ano": 2022, "cod_localidade_ibge": 4302378, "NR_ZONA": "86", "nr_cep": 98600000.0, "nm_localidade": "BOM PROGRESSO", "nm_locvot": "ESCOLA ESTADUAL JOSE DE ANCHIETA", "ds_endereco": "AV. CASTELO BRANCO, S/N.", "ds_bairro": "CENTRO", "pred_long": -53.865921, "pred_lat": -27.54444, "pred_dist": 0.0, "tse_long": -53.865835, "tse_lat": -27.544104, "long": -53.865835, "lat": -27.544104, "ID_UNICO": "LOC_070866", "SG_UF": "RS", "CD_MUNICIPIO": "86444", "NR_LOCAL_VOTACAO": "1031", "QT_SECOES_AGREGADAS": 0, "QT_ELEITORES_TRANSFERIDOS": 0, "CIRO GOMES (PDT) (NÃO ELEITO) 1T": 19.0, "CONSTITUINTE EYMAEL (DC) (NÃO ELEITO) 1T": 1.0, "FELIPE D AVILA (NOVO) (NÃO ELEITO) 1T": 1.0, "JAIR BOLSONARO (PL) (2º TURNO) 1T": 439.0, "LULA (PT) (2º TURNO) 1T": 453.0, "LÉO PÉRICLES (UP) (NÃO ELEITO) 1T": 0.0, "PADRE KELMON (PTB) (NÃO ELEITO) 1T": 1.0, "SIMONE TEBET (MDB) (NÃO ELEITO) 1T": 24.0, "SOFIA MANZANO (PCB) (NÃO ELEITO) 1T": 0.0, "SORAYA THRONICKE (UNIÃO) (NÃO ELEITO) 1T": 0.0, "VERA (PSTU) (NÃO ELEITO) 1T": 0.0, "Total_Votos_Validos 1T": 938.0, "Votos_Brancos 1T": 18.0, "Votos_Nulos 1T": 14.0, "Abstenções 1T": 199.0, "Eleitores_Aptos 1T": 1169.0, "JAIR BOLSONARO (PL) (NÃO ELEITO) 2T": 483.0, "LULA (PT) (ELEITO) 2T": 428.0, "Total_Votos_Validos 2T": 911.0, "Votos_Brancos 2T": 16.0, "Votos_Nulos 2T": 16.0, "Abstenções 2T": 226.0, "Eleitores_Aptos 2T": 1169.0, "mun_code_y": "4302378", "mun_code": "4302378" }, "geometry": { "type": "Polygon", "coordinates": [ [ [ 5013560.857119291089475, 6951507.267026998102665 ], [ 5013485.243902431800961, 6951501.69915833696723 ], [ 5013345.224606869742274, 6951469.47325755096972 ], [ 5013260.777186254039407, 6951441.352203728631139 ], [ 5013200.496120267547667, 6951420.130301905795932 ], [ 5013161.236375990323722, 6951402.087991015985608 ], [ 5013053.807320709340274, 6951328.235713596455753 ], [ 5013023.290548328310251, 6951320.987851787358522 ], [ 5013008.485916023142636, 6951358.613377556204796 ], [ 5012967.350266287103295, 6951452.570662628859282 ], [ 5012800.1243303893134, 6951837.565271468833089 ], [ 5012789.276698772795498, 6951863.440240614116192 ], [ 5012729.272927929647267, 6952005.553272625431418 ], [ 5012700.684696378186345, 6952002.136709173209965 ], [ 5012679.747972527518868, 6952005.017380695790052 ], [ 5012664.619259188883007, 6952008.102550726383924 ], [ 5012647.498489622026682, 6952014.237102633342147 ], [ 5012638.344904289580882, 6952016.762001302093267 ], [ 5012619.619023578241467, 6952027.652024488896132 ], [ 5012549.353977492079139, 6952193.012066774070263 ], [ 5012522.262896215543151, 6952243.780809408985078 ], [ 5012382.561480211094022, 6952121.56390764657408 ], [ 5012347.951251815073192, 6952121.454820847138762 ], [ 5012297.228909185156226, 6952128.974648006260395 ], [ 5012279.384196229279041, 6952132.571805899962783 ], [ 5012259.943720899522305, 6952140.536544593982399 ], [ 5012206.902464336715639, 6952190.067294245585799 ], [ 5012155.447324567474425, 6952225.910905558615923 ], [ 5012107.286415103822947, 6952237.20609949529171 ], [ 5012028.98998667858541, 6952259.135502453893423 ], [ 5011962.00305000692606, 6952271.058079581707716 ], [ 5011867.817733499221504, 6952287.350537195801735 ], [ 5011823.945646545849741, 6952301.244543701410294 ], [ 5011772.074007405899465, 6952326.759222792461514 ], [ 5011665.012692959979177, 6952379.320288937538862 ], [ 5011590.181431531906128, 6952432.381832865998149 ], [ 5011471.782082740217447, 6952498.858869504183531 ], [ 5011352.996897578239441, 6952544.768345597200096 ], [ 5011278.048447672277689, 6952569.692828547209501 ], [ 5011209.585795038379729, 6952612.318715182133019 ], [ 5011176.828502224758267, 6952641.702841670252383 ], [ 5011114.894395677372813, 6952727.949016615748405 ], [ 5011065.038975196890533, 6952791.146086780354381 ], [ 5010993.445889270864427, 6952814.935492027550936 ], [ 5010830.226288042962551, 6952839.969410318881273 ], [ 5010779.852583452127874, 6952866.442589079029858 ], [ 5010745.933807699941099, 6952879.958258025348186 ], [ 5010675.56821193639189, 6952930.716412579640746 ], [ 5010633.744742611423135, 6952953.280935300514102 ], [ 5010564.216275610029697, 6952944.930484807118773 ], [ 5010514.264373399317265, 6952934.634709425270557 ], [ 5010489.240255628712475, 6952930.87747984752059 ], [ 5010467.184372371993959, 6952932.76908415928483 ], [ 5010405.619347872212529, 6952961.134086027741432 ], [ 5010335.207936023361981, 6952983.245358648709953 ], [ 5010300.101194581948221, 6952994.633195793256164 ], [ 5010261.580865348689258, 6953011.121154209598899 ], [ 5010234.081497397273779, 6953024.220011094585061 ], [ 5010174.121971146203578, 6953060.106646160595119 ], [ 5010114.360112722031772, 6953096.546882085502148 ], [ 5010057.16610412299633, 6953108.805499790236354 ], [ 5010052.290421941317618, 6953185.990173799917102 ], [ 5010023.792365907691419, 6953246.89373380318284 ], [ 5009965.386740840040147, 6953288.584613397717476 ], [ 5009831.087451383471489, 6953270.785944344475865 ], [ 5009669.293791120871902, 6953298.385114412754774 ], [ 5009594.790437889285386, 6953334.291446265764534 ], [ 5009525.190024166367948, 6953374.991672659292817 ], [ 5009498.492547959089279, 6953532.487484460696578 ], [ 5009414.986781584098935, 6953605.3887550663203 ], [ 5009253.388855211436749, 6953663.788000680506229 ], [ 5010595.790529375895858, 6954639.585688963532448 ], [ 5010584.292277992703021, 6954835.488995395600796 ], [ 5010881.091741965152323, 6955357.684973386116326 ], [ 5011621.591217992827296, 6955762.986491460353136 ], [ 5011753.490691998042166, 6955699.188212886452675 ], [ 5011945.684024228714406, 6955520.484443196095526 ], [ 5012053.048227882944047, 6955377.431953642517328 ], [ 5012055.075381156988442, 6955339.055791959166527 ], [ 5012116.071115667931736, 6955306.206382568925619 ], [ 5012150.108160973526537, 6955277.162115363404155 ], [ 5012213.297088977880776, 6955215.011363733559847 ], [ 5012287.267165058292449, 6955106.563314871862531 ], [ 5012330.897061314433813, 6954989.790148116648197 ], [ 5012341.847893957979977, 6954895.888121817260981 ], [ 5012301.396635436452925, 6954616.06197758205235 ], [ 5012269.251674268394709, 6954391.577918861061335 ], [ 5012265.512994266115129, 6954229.374942540191114 ], [ 5012282.239488278515637, 6954063.217595061287284 ], [ 5012401.496606156229973, 6954111.245282741263509 ], [ 5012428.066370784305036, 6954106.774784571491182 ], [ 5012462.994965979829431, 6953957.9518485320732 ], [ 5012528.152343608438969, 6953665.152880749665201 ], [ 5012539.24819845892489, 6953609.447318492457271 ], [ 5012541.643159214407206, 6953555.833925768733025 ], [ 5012584.249406374059618, 6953440.866871183738112 ], [ 5012611.44916180241853, 6953349.39663821645081 ], [ 5012666.175429876893759, 6953120.65690585039556 ], [ 5012700.976962772198021, 6952978.703566354699433 ], [ 5012712.840550230816007, 6952940.749123646877706 ], [ 5012738.606875779107213, 6952907.15729424264282 ], [ 5012781.091063686646521, 6952849.54601932130754 ], [ 5012840.963406364433467, 6952748.211982200853527 ], [ 5013026.569694181904197, 6952573.719131104648113 ], [ 5013073.526356674730778, 6952525.753800813108683 ], [ 5013098.956832603551447, 6952456.978613858111203 ], [ 5013136.522022919729352, 6952328.805984495207667 ], [ 5013140.665246538817883, 6952314.650792924687266 ], [ 5013161.718135621398687, 6952244.882840238511562 ], [ 5013166.364642933011055, 6952230.350334674119949 ], [ 5013191.260620729997754, 6952152.43347342684865 ], [ 5013196.487871427088976, 6952136.094085699878633 ], [ 5013312.774205822497606, 6952218.301779875531793 ], [ 5013380.163203550502658, 6952096.755697011947632 ], [ 5013405.614380449987948, 6952112.396724386140704 ], [ 5013463.366535338573158, 6952147.870878499001265 ], [ 5013522.087875667959452, 6951996.403078996576369 ], [ 5013465.537790639325976, 6951957.758638524450362 ], [ 5013542.888392736203969, 6951567.214347908273339 ], [ 5013560.857119291089475, 6951507.267026998102665 ] ] ] } },
{ "type": "Feature", "properties": { "lv_id": "LOC_070868", "id": 415402.0, "CD_SETOR": "430237805000002", "SITUACAO": "Urbana", "CD_SIT": "1", "CD_TIPO": "0", "AREA_KM2": 0.14907527200224599, "CD_REGIAO": "4", "NM_REGIAO": "Sul", "CD_UF": "43", "NM_UF": "Rio Grande do Sul", "CD_MUN": "4302378", "NM_MUN": "Bom Progresso", "CD_DIST": "430237805", "NM_DIST": "Bom Progresso", "CD_SUBDIST": "43023780500", "NM_SUBDIST": null, "CD_BAIRRO": null, "NM_BAIRRO": null, "CD_NU": null, "NM_NU": null, "CD_FCU": null, "NM_FCU": null, "CD_AGLOM": null, "NM_AGLOM": null, "CD_RGINT": "4305", "NM_RGINT": "Ijuí", "CD_RGI": "430021", "NM_RGI": "Três Passos", "CD_CONCURB": null, "NM_CONCURB": null, "mun_code_x": "4302378", "index_right": 70449, "dist_m": 306.68575233505959, "local_id": 740690, "ano": 2022, "cod_localidade_ibge": 4302378, "NR_ZONA": "86", "nr_cep": 98575000.0, "nm_localidade": "BOM PROGRESSO", "nm_locvot": "ESCOLA MUNICIPAL ONIRO SOLANO BONES", "ds_endereco": "RUA SEIS, 120", "ds_bairro": "CENTRO", "pred_long": -53.861682, "pred_lat": -27.55455, "pred_dist": 0.0, "tse_long": -53.862122, "tse_lat": -27.554126, "long": -53.862122, "lat": -27.554126, "ID_UNICO": "LOC_070868", "SG_UF": "RS", "CD_MUNICIPIO": "86444", "NR_LOCAL_VOTACAO": "1066", "QT_SECOES_AGREGADAS": 0, "QT_ELEITORES_TRANSFERIDOS": 2, "CIRO GOMES (PDT) (NÃO ELEITO) 1T": 10.0, "CONSTITUINTE EYMAEL (DC) (NÃO ELEITO) 1T": 0.0, "FELIPE D AVILA (NOVO) (NÃO ELEITO) 1T": 2.0, "JAIR BOLSONARO (PL) (2º TURNO) 1T": 261.0, "LULA (PT) (2º TURNO) 1T": 332.0, "LÉO PÉRICLES (UP) (NÃO ELEITO) 1T": 0.0, "PADRE KELMON (PTB) (NÃO ELEITO) 1T": 0.0, "SIMONE TEBET (MDB) (NÃO ELEITO) 1T": 14.0, "SOFIA MANZANO (PCB) (NÃO ELEITO) 1T": 0.0, "SORAYA THRONICKE (UNIÃO) (NÃO ELEITO) 1T": 0.0, "VERA (PSTU) (NÃO ELEITO) 1T": 0.0, "Total_Votos_Validos 1T": 619.0, "Votos_Brancos 1T": 5.0, "Votos_Nulos 1T": 7.0, "Abstenções 1T": 151.0, "Eleitores_Aptos 1T": 782.0, "JAIR BOLSONARO (PL) (NÃO ELEITO) 2T": 291.0, "LULA (PT) (ELEITO) 2T": 311.0, "Total_Votos_Validos 2T": 602.0, "Votos_Brancos 2T": 6.0, "Votos_Nulos 2T": 17.0, "Abstenções 2T": 157.0, "Eleitores_Aptos 2T": 782.0, "mun_code_y": "4302378", "mun_code": "4302378" }, "geometry": { "type": "Polygon", "coordinates": [ [ [ 5012048.791456954553723, 6946624.995850779116154 ], [ 5011952.190320012159646, 6946609.887207449413836 ], [ 5011169.487077525816858, 6946628.890154847875237 ], [ 5010418.589408722706139, 6946610.19478459469974 ], [ 5010297.788634368218482, 6946567.58986984193325 ], [ 5010236.389132239855826, 6946425.789608672261238 ], [ 5010098.486815949901938, 6946401.592025935649872 ], [ 5010572.389157329685986, 6949257.992971278727055 ], [ 5010604.793355552479625, 6949388.192025559954345 ], [ 5010696.985568880103528, 6949600.595077744685113 ], [ 5010761.791354423388839, 6949840.990640044212341 ], [ 5010841.787659160792828, 6950047.086907362565398 ], [ 5010862.390755742788315, 6950161.094817515462637 ], [ 5010858.291118466295302, 6950237.592405788600445 ], [ 5010839.287879686802626, 6950313.094808416441083 ], [ 5010711.694119216874242, 6950552.495903825387359 ], [ 5010591.29091436881572, 6950707.195336513221264 ], [ 5010436.988901886157691, 6950745.790998918935657 ], [ 5010209.889410168863833, 6950691.185877930372953 ], [ 5010328.485495738685131, 6950823.595913397148252 ], [ 5010456.790475311689079, 6951080.594044916331768 ], [ 5010487.790143359452486, 6951192.78729161247611 ], [ 5010493.793660568073392, 6951329.291997823864222 ], [ 5010583.392080775462091, 6951394.594157105311751 ], [ 5010521.789606597274542, 6951519.388831123709679 ], [ 5010409.585349863395095, 6951863.590497856959701 ], [ 5010385.089853091165423, 6952282.293525377288461 ], [ 5010265.28876705467701, 6952544.288320384919643 ], [ 5010275.692202154546976, 6952723.485149265266955 ], [ 5010258.087021335959435, 6952802.486867705360055 ], [ 5010113.189503707922995, 6952923.093540030531585 ], [ 5010079.890333124436438, 6952970.393483684398234 ], [ 5010059.087016258388758, 6953078.286250483244658 ], [ 5010057.16610412299633, 6953108.805499790236354 ], [ 5010114.360112722031772, 6953096.546882085502148 ], [ 5010174.121971146203578, 6953060.106646160595119 ], [ 5010234.081497397273779, 6953024.220011094585061 ], [ 5010261.580865348689258, 6953011.121154209598899 ], [ 5010300.101194581948221, 6952994.633195793256164 ], [ 5010335.207936023361981, 6952983.245358648709953 ], [ 5010405.619347872212529, 6952961.134086027741432 ], [ 5010467.184372371993959, 6952932.76908415928483 ], [ 5010489.240255628712475, 6952930.87747984752059 ], [ 5010514.264373399317265, 6952934.634709425270557 ], [ 5010564.216275610029697, 6952944.930484807118773 ], [ 5010633.744742611423135, 6952953.280935300514102 ], [ 5010675.56821193639189, 6952930.716412579640746 ], [ 5010745.933807699941099, 6952879.958258025348186 ], [ 5010779.852583452127874, 6952866.442589079029858 ], [ 5010830.226288042962551, 6952839.969410318881273 ], [ 5010993.445889270864427, 6952814.935492027550936 ], [ 5011065.038975196890533, 6952791.146086780354381 ], [ 5011114.894395677372813, 6952727.949016615748405 ], [ 5011176.828502224758267, 6952641.702841670252383 ], [ 5011209.585795038379729, 6952612.318715182133019 ], [ 5011278.048447672277689, 6952569.692828547209501 ], [ 5011352.996897578239441, 6952544.768345597200096 ], [ 5011471.782082740217447, 6952498.858869504183531 ], [ 5011590.181431531906128, 6952432.381832865998149 ], [ 5011665.012692959979177, 6952379.320288937538862 ], [ 5011772.074007405899465, 6952326.759222792461514 ], [ 5011823.945646545849741, 6952301.244543701410294 ], [ 5011867.817733499221504, 6952287.350537195801735 ], [ 5011962.00305000692606, 6952271.058079581707716 ], [ 5012028.98998667858541, 6952259.135502453893423 ], [ 5012107.286415103822947, 6952237.20609949529171 ], [ 5012155.447324567474425, 6952225.910905558615923 ], [ 5012206.902464336715639, 6952190.067294245585799 ], [ 5012259.943720899522305, 6952140.536544593982399 ], [ 5012279.384196229279041, 6952132.571805899962783 ], [ 5012297.228909185156226, 6952128.974648006260395 ], [ 5012347.951251815073192, 6952121.454820847138762 ], [ 5012382.561480211094022, 6952121.56390764657408 ], [ 5012522.262896215543151, 6952243.780809408985078 ], [ 5012549.353977492079139, 6952193.012066774070263 ], [ 5012619.619023578241467, 6952027.652024488896132 ], [ 5012638.344904289580882, 6952016.762001302093267 ], [ 5012647.498489622026682, 6952014.237102633342147 ], [ 5012664.619259188883007, 6952008.102550726383924 ], [ 5012679.747972527518868, 6952005.017380695790052 ], [ 5012700.684696378186345, 6952002.136709173209965 ], [ 5012729.272927929647267, 6952005.553272625431418 ], [ 5012789.276698772795498, 6951863.440240614116192 ], [ 5012800.1243303893134, 6951837.565271468833089 ], [ 5012967.350266287103295, 6951452.570662628859282 ], [ 5013008.485916023142636, 6951358.613377556204796 ], [ 5013023.290548328310251, 6951320.987851787358522 ], [ 5013053.807320709340274, 6951328.235713596455753 ], [ 5013161.236375990323722, 6951402.087991015985608 ], [ 5013200.496120267547667, 6951420.130301905795932 ], [ 5013260.777186254039407, 6951441.352203728631139 ], [ 5013345.224606869742274, 6951469.47325755096972 ], [ 5013485.243902431800961, 6951501.69915833696723 ], [ 5013560.857119291089475, 6951507.267026998102665 ], [ 5013542.888392736203969, 6951567.214347908273339 ], [ 5013465.537790639325976, 6951957.758638524450362 ], [ 5013522.087875667959452, 6951996.403078996576369 ], [ 5013463.366535338573158, 6952147.870878499001265 ], [ 5013405.614380449987948, 6952112.396724386140704 ], [ 5013380.163203550502658, 6952096.755697011947632 ], [ 5013312.774205822497606, 6952218.301779875531793 ], [ 5013378.46549918781966, 6952269.525219145230949 ], [ 5013428.32456180639565, 6952303.490029933862388 ], [ 5013491.811700336635113, 6952316.684456380084157 ], [ 5013634.492071179673076, 6952290.285958712920547 ], [ 5013710.888439366593957, 6952302.788906177505851 ], [ 5013822.485214738175273, 6952373.793881747871637 ], [ 5013953.786549950018525, 6952494.585574978962541 ], [ 5014006.687088023871183, 6952516.986830472946167 ], [ 5014064.185051032342017, 6952508.587805211544037 ], [ 5014147.192670223303139, 6952368.39198555983603 ], [ 5014280.083594742231071, 6952231.894008259288967 ], [ 5014317.484926361590624, 6952261.891572341322899 ], [ 5014472.285017005167902, 6952479.888155920431018 ], [ 5014465.090232669375837, 6952844.391945961862803 ], [ 5014432.083368034102023, 6953100.086125052534044 ], [ 5014441.688008848577738, 6953278.593479799106717 ], [ 5014479.185846280306578, 6953420.58842395991087 ], [ 5014557.288042546249926, 6953506.885092210024595 ], [ 5014674.784262931905687, 6953599.284194204956293 ], [ 5014742.688978276215494, 6953697.592860357835889 ], [ 5014765.792197873815894, 6953785.38375429622829 ], [ 5014767.786945953033864, 6954087.887708740308881 ], [ 5014825.784375248476863, 6954200.790700349025428 ], [ 5015299.285003995522857, 6954722.987117627635598 ], [ 5015466.986214984208345, 6954830.984612284228206 ], [ 5015837.592048132792115, 6954995.887190797366202 ], [ 5016112.388069087639451, 6955193.99345634598285 ], [ 5016295.384848531335592, 6955396.892256285995245 ], [ 5016474.382645720615983, 6955530.990446908399463 ], [ 5016625.28370177000761, 6955605.784290336072445 ], [ 5016952.483292327262461, 6955812.288732359185815 ], [ 5017042.540580190718174, 6955924.771083458326757 ], [ 5017093.907639637589455, 6955952.313921315595508 ], [ 5017121.341061073355377, 6955970.315837077796459 ], [ 5017150.22057920973748, 6955920.188394775614142 ], [ 5017198.09721592720598, 6955868.239080560393631 ], [ 5017260.347402699291706, 6955828.979488236829638 ], [ 5017329.837518424727023, 6955809.323085568845272 ], [ 5017537.699110172688961, 6955747.050170897506177 ], [ 5017651.886571695096791, 6955727.438701219856739 ], [ 5017723.036171070300043, 6955674.179420215077698 ], [ 5017764.558240255340934, 6955623.444895029067993 ], [ 5017793.259059745818377, 6955609.130648045800626 ], [ 5017855.434515888802707, 6955547.916211813688278 ], [ 5017932.970211339183152, 6955498.425075806677341 ], [ 5017970.634446796029806, 6955459.009402828291059 ], [ 5018014.492706102319062, 6955419.263150604441762 ], [ 5018156.093042401596904, 6955332.809001071378589 ], [ 5018286.649837757460773, 6955275.601952474564314 ], [ 5018381.290688181295991, 6955243.70154887996614 ], [ 5018530.195325451903045, 6955181.976448243483901 ], [ 5018653.908456172794104, 6955161.388184043578804 ], [ 5018705.541396637447178, 6955136.288048894144595 ], [ 5018799.951078364625573, 6955116.108686275780201 ], [ 5018888.742433566600084, 6955117.457008978351951 ], [ 5018962.729436875320971, 6955115.89108304027468 ], [ 5019026.123456126078963, 6955100.389891755767167 ], [ 5019068.977503078058362, 6955065.927121302112937 ], [ 5019086.150525099597871, 6955035.559962287545204 ], [ 5019137.138028440065682, 6954990.302232510410249 ], [ 5019151.647099810652435, 6954956.060704916715622 ], [ 5019135.715329399332404, 6954920.703211912885308 ], [ 5019106.442341152578592, 6954889.178456144407392 ], [ 5018952.194195282645524, 6954819.883284649811685 ], [ 5018803.928805288858712, 6954740.282526925206184 ], [ 5018641.011322353035212, 6954658.774149859324098 ], [ 5018502.188079020939767, 6954568.362254906445742 ], [ 5018456.736667730845511, 6954531.186782016418874 ], [ 5018348.920131079852581, 6954422.974251978099346 ], [ 5018195.346059295348823, 6954255.278248529881239 ], [ 5018052.187955057248473, 6954080.472969632595778 ], [ 5017994.830944709479809, 6954006.468194499611855 ], [ 5017968.499830935150385, 6953943.155391108244658 ], [ 5017947.956836554221809, 6953872.354206777177751 ], [ 5017934.246848792769015, 6953799.315648041665554 ], [ 5017928.725667846389115, 6953725.777507118880749 ], [ 5017936.603336396627128, 6953614.133491687476635 ], [ 5017953.851169276982546, 6953519.75138601846993 ], [ 5017975.73241772595793, 6953446.051135710440576 ], [ 5018020.567518339492381, 6953363.507481252774596 ], [ 5018053.262564977630973, 6953234.706241853535175 ], [ 5018071.156798137351871, 6953191.08618969656527 ], [ 5018113.072753960266709, 6953159.586729718372226 ], [ 5018167.121877293102443, 6953096.842145439237356 ], [ 5018198.598845105618238, 6953067.175197066739202 ], [ 5018252.278303448110819, 6953041.951912561431527 ], [ 5018311.170670949853957, 6953041.487206760793924 ], [ 5018351.153605283237994, 6953078.693610435351729 ], [ 5018364.57903412822634, 6953118.931688228622079 ], [ 5018401.012953715398908, 6953239.474299630150199 ], [ 5018448.757275953888893, 6953418.364716898649931 ], [ 5018508.520724599249661, 6953613.947282306849957 ], [ 5018549.15019569825381, 6953717.672797977924347 ], [ 5018594.584420112892985, 6953803.871420844458044 ], [ 5018658.983740897849202, 6953849.361726496368647 ], [ 5018715.815314383246005, 6953868.279346479102969 ], [ 5018760.076799090951681, 6953858.471205594018102 ], [ 5018795.750558527186513, 6953840.243256507441401 ], [ 5018897.019878372550011, 6953765.10058459546417 ], [ 5019023.809569927863777, 6953686.947663407772779 ], [ 5019320.501013541594148, 6953497.691783534362912 ], [ 5019677.581948216073215, 6953304.032165372744203 ], [ 5019771.577343330718577, 6953281.729294074699283 ], [ 5019868.094405462965369, 6953291.745656363666058 ], [ 5020010.675340826623142, 6953344.847589849494398 ], [ 5020076.19846567697823, 6953423.30649727396667 ], [ 5020432.627735729329288, 6953498.712225926108658 ], [ 5020534.189673334360123, 6953535.032940111123025 ], [ 5020755.727403544820845, 6953583.450247831642628 ], [ 5020842.688157497905195, 6953589.363992941565812 ], [ 5020932.178099845536053, 6953583.836929360404611 ], [ 5021007.424526737071574, 6953567.595905622467399 ], [ 5021077.399238740094006, 6953541.9665761962533 ], [ 5021185.097142610698938, 6953520.68198199570179 ], [ 5021235.624902642332017, 6953486.164948338642716 ], [ 5021267.361783153377473, 6953439.20284135825932 ], [ 5021290.429758548736572, 6953383.490436481311917 ], [ 5021306.242718618363142, 6953262.965150514617562 ], [ 5021330.425472176633775, 6953144.342304389923811 ], [ 5021329.438548566773534, 6953059.80495426338166 ], [ 5021291.607181800529361, 6952969.92406495846808 ], [ 5021254.112633240409195, 6952908.731902946718037 ], [ 5021221.228958346880972, 6952891.690534957684577 ], [ 5021147.078415506519377, 6952870.720092535950243 ], [ 5021003.820087106898427, 6952842.775950741022825 ], [ 5020893.086162282153964, 6952812.392194574698806 ], [ 5020745.946053955703974, 6952743.029848352074623 ], [ 5020662.013847518712282, 6952690.225455986335874 ], [ 5020603.261287979781628, 6952631.870738629251719 ], [ 5020502.426691166125238, 6952541.882756387814879 ], [ 5020433.567912661470473, 6952493.639195303432643 ], [ 5020367.197439093142748, 6952462.367629252374172 ], [ 5020287.72476620413363, 6952410.284622019156814 ], [ 5020224.979902774095535, 6952354.937736179679632 ], [ 5020093.85981837566942, 6952225.026222413405776 ], [ 5019981.143332799896598, 6952118.941271435469389 ], [ 5019875.988769029267132, 6952009.164017266593874 ], [ 5019824.585616579279304, 6951983.549900012090802 ], [ 5019715.319930394180119, 6951968.888581169769168 ], [ 5019527.78998798597604, 6951968.103297827765346 ], [ 5019419.235830660909414, 6951972.03259271197021 ], [ 5019312.279573158361018, 6951968.345563213340938 ], [ 5019219.102991277351975, 6951996.683025912381709 ], [ 5019098.262059318833053, 6952020.142891518771648 ], [ 5018992.914139543659985, 6952002.864912576973438 ], [ 5018886.664245799183846, 6951919.354624945670366 ], [ 5018816.382120641879737, 6951748.390112335793674 ], [ 5017620.088683092966676, 6951626.49310608394444 ], [ 5017414.591462813317776, 6951433.685014508664608 ], [ 5017137.882055955938995, 6951319.595084335654974 ], [ 5017038.289075220935047, 6951215.692087540403008 ], [ 5017041.782453462481499, 6951064.693731469102204 ], [ 5017093.582603998482227, 6950844.192625113762915 ], [ 5017137.291222663596272, 6950763.891896825283766 ], [ 5017179.283624484203756, 6950727.78557457216084 ], [ 5017427.387111032381654, 6950598.492747101932764 ], [ 5017474.483787978999317, 6950541.489890920929611 ], [ 5017495.382302976213396, 6950459.192520550452173 ], [ 5017621.889859699644148, 6950374.294426285661757 ], [ 5017662.588814251124859, 6949991.587510652840137 ], [ 5017627.189604535698891, 6949946.992039984092116 ], [ 5017133.884349409490824, 6949742.090821163728833 ], [ 5017021.890971899963915, 6949716.29484479688108 ], [ 5016899.187094204127789, 6949778.985729228705168 ], [ 5016733.48290734551847, 6949833.589539051987231 ], [ 5016654.687695502303541, 6949819.989555654115975 ], [ 5016545.582690241746604, 6949731.78651631437242 ], [ 5016515.285952740348876, 6949652.086473392322659 ], [ 5016514.683326267637312, 6949571.493016581982374 ], [ 5016687.689038596116006, 6949347.892344038002193 ], [ 5016706.083912799134851, 6949281.091294651851058 ], [ 5016713.082046827301383, 6949213.696325307711959 ], [ 5016684.287901502102613, 6949019.292002368718386 ], [ 5016565.483340507373214, 6948836.68958879634738 ], [ 5016452.388374457135797, 6948704.387461436912417 ], [ 5016433.990992507897317, 6948534.690860325470567 ], [ 5016096.887681827880442, 6948182.188627108931541 ], [ 5016014.689879545941949, 6948080.09365779813379 ], [ 5015951.486382682807744, 6947951.788195818662643 ], [ 5015493.486881131306291, 6947666.789825949817896 ], [ 5015962.486141981557012, 6947460.694007567130029 ], [ 5016112.989251649938524, 6947431.086588924750686 ], [ 5016265.684344336390495, 6947364.994662333279848 ], [ 5016434.3854716764763, 6947256.991861063987017 ], [ 5016557.390169783495367, 6947221.997130879200995 ], [ 5016468.290433657355607, 6947102.993261119350791 ], [ 5016347.484179734252393, 6946854.490410299040377 ], [ 5016219.090121369808912, 6946702.293218563310802 ], [ 5016076.684441559948027, 6946613.587023708969355 ], [ 5015979.786931729875505, 6946579.495027567259967 ], [ 5015944.690525221638381, 6946580.693359773606062 ], [ 5015843.188848106190562, 6946634.791568294167519 ], [ 5015688.689360853284597, 6946628.187081188894808 ], [ 5015588.986151825636625, 6946653.790744358673692 ], [ 5015233.09041903167963, 6946640.188716291449964 ], [ 5015094.68564510717988, 6946634.897471360862255 ], [ 5014661.590168034657836, 6946699.497341013513505 ], [ 5014332.491023963317275, 6946720.986837780103087 ], [ 5014243.792603340931237, 6946695.791939198970795 ], [ 5014118.990906275808811, 6946629.293759757652879 ], [ 5013813.99088382627815, 6946439.89700405113399 ], [ 5013671.688341571949422, 6946407.289663339965045 ], [ 5013608.388919984921813, 6946411.194507101550698 ], [ 5013434.183979758992791, 6946428.197769338265061 ], [ 5013332.984525716863573, 6946451.590547060593963 ], [ 5013140.187376861460507, 6946541.192567614838481 ], [ 5012981.892315068282187, 6946583.592786785215139 ], [ 5012693.192159624770284, 6946632.587590074166656 ], [ 5012641.193371811881661, 6946653.297104948200285 ], [ 5012428.588569033890963, 6946835.891643233597279 ], [ 5012229.387017541565001, 6946675.192012723535299 ], [ 5012048.791456954553723, 6946624.995850779116154 ] ] ] } },
{ "type": "Feature", "properties": { "lv_id": "LOC_070869", "id": 415409.0, "CD_SETOR": "430237805000012", "SITUACAO": "Rural", "CD_SIT": "8", "CD_TIPO": "0", "AREA_KM2": 10.800154005746419, "CD_REGIAO": "4", "NM_REGIAO": "Sul", "CD_UF": "43", "NM_UF": "Rio Grande do Sul", "CD_MUN": "4302378", "NM_MUN": "Bom Progresso", "CD_DIST": "430237805", "NM_DIST": "Bom Progresso", "CD_SUBDIST": "43023780500", "NM_SUBDIST": null, "CD_BAIRRO": null, "NM_BAIRRO": null, "CD_NU": null, "NM_NU": null, "CD_FCU": null, "NM_FCU": null, "CD_AGLOM": null, "NM_AGLOM": null, "CD_RGINT": "4305", "NM_RGINT": "Ijuí", "CD_RGI": "430021", "NM_RGI": "Três Passos", "CD_CONCURB": null, "NM_CONCURB": null, "mun_code_x": "4302378", "index_right": 70447, "dist_m": 0.0, "local_id": 740688, "ano": 2022, "cod_localidade_ibge": 4302378, "NR_ZONA": "86", "nr_cep": 98575000.0, "nm_localidade": "BOM PROGRESSO", "nm_locvot": "ESCOLA MUNICIPAL ROMILDO DOEBBER", "ds_endereco": "LAJEADO PESSEGUEIRO", "ds_bairro": "INTERIOR", "pred_long": -53.816796, "pred_lat": -27.557019, "pred_dist": 0.0, "tse_long": -53.816881, "tse_lat": -27.556909, "long": -53.816881, "lat": -27.556909, "ID_UNICO": "LOC_070869", "SG_UF": "RS", "CD_MUNICIPIO": "86444", "NR_LOCAL_VOTACAO": "1040", "QT_SECOES_AGREGADAS": 0, "QT_ELEITORES_TRANSFERIDOS": 0, "CIRO GOMES (PDT) (NÃO ELEITO) 1T": 2.0, "CONSTITUINTE EYMAEL (DC) (NÃO ELEITO) 1T": 0.0, "FELIPE D AVILA (NOVO) (NÃO ELEITO) 1T": 0.0, "JAIR BOLSONARO (PL) (2º TURNO) 1T": 39.0, "LULA (PT) (2º TURNO) 1T": 109.0, "LÉO PÉRICLES (UP) (NÃO ELEITO) 1T": 0.0, "PADRE KELMON (PTB) (NÃO ELEITO) 1T": 0.0, "SIMONE TEBET (MDB) (NÃO ELEITO) 1T": 2.0, "SOFIA MANZANO (PCB) (NÃO ELEITO) 1T": 0.0, "SORAYA THRONICKE (UNIÃO) (NÃO ELEITO) 1T": 2.0, "VERA (PSTU) (NÃO ELEITO) 1T": 0.0, "Total_Votos_Validos 1T": 154.0, "Votos_Brancos 1T": 1.0, "Votos_Nulos 1T": 2.0, "Abstenções 1T": 58.0, "Eleitores_Aptos 1T": 215.0, "JAIR BOLSONARO (PL) (NÃO ELEITO) 2T": 39.0, "LULA (PT) (ELEITO) 2T": 99.0, "Total_Votos_Validos 2T": 138.0, "Votos_Brancos 2T": 3.0, "Votos_Nulos 2T": 6.0, "Abstenções 2T": 68.0, "Eleitores_Aptos 2T": 215.0, "mun_code_y": "4302378", "mun_code": "4302378" }, "geometry": { "type": "Polygon", "coordinates": [ [ [ 5020973.080919411964715, 6949818.486776899546385 ], [ 5020878.787857482209802, 6949753.689436086453497 ], [ 5020121.085321896709502, 6949849.195305512286723 ], [ 5019390.789184243418276, 6949293.095889007672668 ], [ 5018951.887082384899259, 6949652.586030954495072 ], [ 5018571.985696639865637, 6949264.392261458560824 ], [ 5018256.781679888255894, 6949169.689657343551517 ], [ 5017671.08480008598417, 6949317.18930303119123 ], [ 5017485.99031996820122, 6949174.794695355929434 ], [ 5017483.386078248731792, 6948803.895847706124187 ], [ 5017636.789177075028419, 6948660.493773494847119 ], [ 5018119.490372067317367, 6948490.287800235673785 ], [ 5018671.387374077923596, 6948501.391673887148499 ], [ 5018714.688822812400758, 6948393.193854679353535 ], [ 5018640.588067930191755, 6948189.98688805103302 ], [ 5018498.789407966658473, 6948023.095907047390938 ], [ 5018415.084301050752401, 6947896.59596299380064 ], [ 5018349.284542032517493, 6947824.289525967091322 ], [ 5017941.690313978120685, 6947635.093794287182391 ], [ 5017758.886120679788291, 6947483.989866479299963 ], [ 5017653.085970050655305, 6947453.392504497431219 ], [ 5017394.881680367514491, 6947459.691401875577867 ], [ 5017279.786707769148052, 6947425.591262528672814 ], [ 5017069.186130677349865, 6947271.491133138537407 ], [ 5016958.084311132319272, 6947138.991225384175777 ], [ 5016896.890037335455418, 6947096.490458741784096 ], [ 5016842.883436108008027, 6947082.292288346216083 ], [ 5016793.584502057172358, 6947124.092472977936268 ], [ 5016730.491544749587774, 6947230.293898195959628 ], [ 5016684.282455862499774, 6947265.196806966327131 ], [ 5016575.584403688088059, 6947234.793556173332036 ], [ 5016557.390169783495367, 6947221.997130879200995 ], [ 5016434.3854716764763, 6947256.991861063987017 ], [ 5016265.684344336390495, 6947364.994662333279848 ], [ 5016112.989251649938524, 6947431.086588924750686 ], [ 5015962.486141981557012, 6947460.694007567130029 ], [ 5015493.486881131306291, 6947666.789825949817896 ], [ 5015951.486382682807744, 6947951.788195818662643 ], [ 5016014.689879545941949, 6948080.09365779813379 ], [ 5016096.887681827880442, 6948182.188627108931541 ], [ 5016433.990992507897317, 6948534.690860325470567 ], [ 5016452.388374457135797, 6948704.387461436912417 ], [ 5016565.483340507373214, 6948836.68958879634738 ], [ 5016684.287901502102613, 6949019.292002368718386 ], [ 5016713.082046827301383, 6949213.696325307711959 ], [ 5016706.083912799134851, 6949281.091294651851058 ], [ 5016687.689038596116006, 6949347.892344038002193 ], [ 5016514.683326267637312, 6949571.493016581982374 ], [ 5016515.285952740348876, 6949652.086473392322659 ], [ 5016545.582690241746604, 6949731.78651631437242 ], [ 5016654.687695502303541, 6949819.989555654115975 ], [ 5016733.48290734551847, 6949833.589539051987231 ], [ 5016899.187094204127789, 6949778.985729228705168 ], [ 5017021.890971899963915, 6949716.29484479688108 ], [ 5017133.884349409490824, 6949742.090821163728833 ], [ 5017627.189604535698891, 6949946.992039984092116 ], [ 5017662.588814251124859, 6949991.587510652840137 ], [ 5017621.889859699644148, 6950374.294426285661757 ], [ 5017495.382302976213396, 6950459.192520550452173 ], [ 5017474.483787978999317, 6950541.489890920929611 ], [ 5017427.387111032381654, 6950598.492747101932764 ], [ 5017179.283624484203756, 6950727.78557457216084 ], [ 5017137.291222663596272, 6950763.891896825283766 ], [ 5017093.582603998482227, 6950844.192625113762915 ], [ 5017041.782453462481499, 6951064.693731469102204 ], [ 5017038.289075220935047, 6951215.692087540403008 ], [ 5017137.882055955938995, 6951319.595084335654974 ], [ 5017414.591462813317776, 6951433.685014508664608 ], [ 5017620.088683092966676, 6951626.49310608394444 ], [ 5018816.382120641879737, 6951748.390112335793674 ], [ 5018790.38775129429996, 6951672.490042397752404 ], [ 5018836.487317605875432, 6951411.887116531841457 ], [ 5018987.786830853670835, 6951174.790722442790866 ], [ 5019499.881622466258705, 6951059.991931518539786 ], [ 5020201.684164184145629, 6951460.694181392900646 ], [ 5020600.482852437533438, 6951609.194537024945021 ], [ 5021026.383611324243248, 6951590.795405648648739 ], [ 5021489.28672206774354, 6951187.086058449931443 ], [ 5021383.684301631525159, 6951078.585640158504248 ], [ 5020669.284427803009748, 6951029.792530788108706 ], [ 5020493.889562947675586, 6950959.688108370639384 ], [ 5020362.788807887583971, 6950757.085946459323168 ], [ 5020522.085635014809668, 6950388.08918166346848 ], [ 5021020.28215850610286, 6949850.896162860095501 ], [ 5020973.080919411964715, 6949818.486776899546385 ] ] ] } },
{ "type": "Feature", "properties": { "lv_id": "LOC_070871", "id": 415411.0, "CD_SETOR": "430237805000015", "SITUACAO": "Rural", "CD_SIT": "8", "CD_TIPO": "0", "AREA_KM2": 19.453955788654749, "CD_REGIAO": "4", "NM_REGIAO": "Sul", "CD_UF": "43", "NM_UF": "Rio Grande do Sul", "CD_MUN": "4302378", "NM_MUN": "Bom Progresso", "CD_DIST": "430237805", "NM_DIST": "Bom Progresso", "CD_SUBDIST": "43023780500", "NM_SUBDIST": null, "CD_BAIRRO": null, "NM_BAIRRO": null, "CD_NU": null, "NM_NU": null, "CD_FCU": null, "NM_FCU": null, "CD_AGLOM": null, "NM_AGLOM": null, "CD_RGINT": "4305", "NM_RGINT": "Ijuí", "CD_RGI": "430021", "NM_RGI": "Três Passos", "CD_CONCURB": null, "NM_CONCURB": null, "mun_code_x": "4302378", "index_right": 70448, "dist_m": 0.0, "local_id": 740689, "ano": 2022, "cod_localidade_ibge": 4302378, "NR_ZONA": "86", "nr_cep": 98575000.0, "nm_localidade": "BOM PROGRESSO", "nm_locvot": "SOCIEDADE DE DAMAS TRÊS UNIDAS", "ds_endereco": "PINHALZINHO", "ds_bairro": "INTERIOR", "pred_long": -53.846875, "pred_lat": -27.5030175, "pred_dist": 0.0, "tse_long": -53.845239, "tse_lat": -27.507309, "long": -53.845239, "lat": -27.507309, "ID_UNICO": "LOC_070871", "SG_UF": "RS", "CD_MUNICIPIO": "86444", "NR_LOCAL_VOTACAO": "1023", "QT_SECOES_AGREGADAS": 0, "QT_ELEITORES_TRANSFERIDOS": 0, "CIRO GOMES (PDT) (NÃO ELEITO) 1T": 2.0, "CONSTITUINTE EYMAEL (DC) (NÃO ELEITO) 1T": 0.0, "FELIPE D AVILA (NOVO) (NÃO ELEITO) 1T": 1.0, "JAIR BOLSONARO (PL) (2º TURNO) 1T": 49.0, "LULA (PT) (2º TURNO) 1T": 89.0, "LÉO PÉRICLES (UP) (NÃO ELEITO) 1T": 0.0, "PADRE KELMON (PTB) (NÃO ELEITO) 1T": 0.0, "SIMONE TEBET (MDB) (NÃO ELEITO) 1T": 1.0, "SOFIA MANZANO (PCB) (NÃO ELEITO) 1T": 0.0, "SORAYA THRONICKE (UNIÃO) (NÃO ELEITO) 1T": 1.0, "VERA (PSTU) (NÃO ELEITO) 1T": 0.0, "Total_Votos_Validos 1T": 143.0, "Votos_Brancos 1T": 1.0, "Votos_Nulos 1T": 0.0, "Abstenções 1T": 23.0, "Eleitores_Aptos 1T": 167.0, "JAIR BOLSONARO (PL) (NÃO ELEITO) 2T": 47.0, "LULA (PT) (ELEITO) 2T": 83.0, "Total_Votos_Validos 2T": 130.0, "Votos_Brancos 2T": 1.0, "Votos_Nulos 2T": 2.0, "Abstenções 2T": 34.0, "Eleitores_Aptos 2T": 167.0, "mun_code_y": "4302378", "mun_code": "4302378" }, "geometry": { "type": "Polygon", "coordinates": [ [ [ 5018653.708679102361202, 6957133.667566137388349 ], [ 5018648.494157629087567, 6957096.553472233936191 ], [ 5018639.697711320593953, 6957062.702693729661405 ], [ 5018612.060294737108052, 6957004.524037903174758 ], [ 5018591.3207001183182, 6956953.171962711960077 ], [ 5018576.144800648093224, 6956895.572704015299678 ], [ 5018553.003059789538383, 6956830.261880087666214 ], [ 5018505.944917381741107, 6956735.821398238651454 ], [ 5018400.464031890034676, 6956583.957089809700847 ], [ 5018306.819041131064296, 6956475.78956183232367 ], [ 5018240.636280620470643, 6956362.305825242772698 ], [ 5018176.147289422340691, 6956304.12553433701396 ], [ 5018044.879852626472712, 6956208.588900435715914 ], [ 5017891.376926115714014, 6956135.810903884470463 ], [ 5017763.272773674689233, 6956106.731747018173337 ], [ 5017299.29949594847858, 6956055.734777139499784 ], [ 5017194.376839333213866, 6956033.442970069125295 ], [ 5017141.606625107116997, 6956020.341329202055931 ], [ 5017124.379696074873209, 6955995.355123159475625 ], [ 5017121.341061073355377, 6955970.315837077796459 ], [ 5017093.907639637589455, 6955952.313921315595508 ], [ 5017042.540580190718174, 6955924.771083458326757 ], [ 5016952.483292327262461, 6955812.288732359185815 ], [ 5016625.28370177000761, 6955605.784290336072445 ], [ 5016474.382645720615983, 6955530.990446908399463 ], [ 5016295.384848531335592, 6955396.892256285995245 ], [ 5016112.388069087639451, 6955193.99345634598285 ], [ 5015837.592048132792115, 6954995.887190797366202 ], [ 5015466.986214984208345, 6954830.984612284228206 ], [ 5015299.285003995522857, 6954722.987117627635598 ], [ 5014825.784375248476863, 6954200.790700349025428 ], [ 5014767.786945953033864, 6954087.887708740308881 ], [ 5014765.792197873815894, 6953785.38375429622829 ], [ 5014742.688978276215494, 6953697.592860357835889 ], [ 5014674.784262931905687, 6953599.284194204956293 ], [ 5014557.288042546249926, 6953506.885092210024595 ], [ 5014479.185846280306578, 6953420.58842395991087 ], [ 5014441.688008848577738, 6953278.593479799106717 ], [ 5014432.083368034102023, 6953100.086125052534044 ], [ 5014465.090232669375837, 6952844.391945961862803 ], [ 5014472.285017005167902, 6952479.888155920431018 ], [ 5014317.484926361590624, 6952261.891572341322899 ], [ 5014280.083594742231071, 6952231.894008259288967 ], [ 5014147.192670223303139, 6952368.39198555983603 ], [ 5014064.185051032342017, 6952508.587805211544037 ], [ 5014006.687088023871183, 6952516.986830472946167 ], [ 5013953.786549950018525, 6952494.585574978962541 ], [ 5013822.485214738175273, 6952373.793881747871637 ], [ 5013710.888439366593957, 6952302.788906177505851 ], [ 5013634.492071179673076, 6952290.285958712920547 ], [ 5013491.811700336635113, 6952316.684456380084157 ], [ 5013428.32456180639565, 6952303.490029933862388 ], [ 5013378.46549918781966, 6952269.525219145230949 ], [ 5013312.774205822497606, 6952218.301779875531793 ], [ 5013196.487871427088976, 6952136.094085699878633 ], [ 5013191.260620729997754, 6952152.43347342684865 ], [ 5013166.364642933011055, 6952230.350334674119949 ], [ 5013161.718135621398687, 6952244.882840238511562 ], [ 5013140.665246538817883, 6952314.650792924687266 ], [ 5013136.522022919729352, 6952328.805984495207667 ], [ 5013098.956832603551447, 6952456.978613858111203 ], [ 5013073.526356674730778, 6952525.753800813108683 ], [ 5013026.569694181904197, 6952573.719131104648113 ], [ 5012840.963406364433467, 6952748.211982200853527 ], [ 5012781.091063686646521, 6952849.54601932130754 ], [ 5012738.606875779107213, 6952907.15729424264282 ], [ 5012712.840550230816007, 6952940.749123646877706 ], [ 5012700.976962772198021, 6952978.703566354699433 ], [ 5012666.175429876893759, 6953120.65690585039556 ], [ 5012611.44916180241853, 6953349.39663821645081 ], [ 5012584.249406374059618, 6953440.866871183738112 ], [ 5012541.643159214407206, 6953555.833925768733025 ], [ 5012539.24819845892489, 6953609.447318492457271 ], [ 5012528.152343608438969, 6953665.152880749665201 ], [ 5012462.994965979829431, 6953957.9518485320732 ], [ 5012428.066370784305036, 6954106.774784571491182 ], [ 5012401.496606156229973, 6954111.245282741263509 ], [ 5012282.239488278515637, 6954063.217595061287284 ], [ 5012265.512994266115129, 6954229.374942540191114 ], [ 5012269.251674268394709, 6954391.577918861061335 ], [ 5012301.396635436452925, 6954616.06197758205235 ], [ 5012341.847893957979977, 6954895.888121817260981 ], [ 5012330.897061314433813, 6954989.790148116648197 ], [ 5012287.267165058292449, 6955106.563314871862531 ], [ 5012213.297088977880776, 6955215.011363733559847 ], [ 5012150.108160973526537, 6955277.162115363404155 ], [ 5012116.071115667931736, 6955306.206382568925619 ], [ 5012055.075381156988442, 6955339.055791959166527 ], [ 5012053.048227882944047, 6955377.431953642517328 ], [ 5011945.684024228714406, 6955520.484443196095526 ], [ 5011753.490691998042166, 6955699.188212886452675 ], [ 5011621.591217992827296, 6955762.986491460353136 ], [ 5011395.247052107006311, 6955755.098694633692503 ], [ 5011336.878658573143184, 6955877.023671668022871 ], [ 5011302.139531552791595, 6956016.490249356254935 ], [ 5011320.229651127941906, 6956207.978474177420139 ], [ 5011339.004694334231317, 6956359.551603762432933 ], [ 5011354.728130322881043, 6956362.994375769048929 ], [ 5011365.968590090982616, 6956369.532932825386524 ], [ 5011366.918145500123501, 6956391.927105818875134 ], [ 5011365.238428029231727, 6956434.569020540453494 ], [ 5011367.411340236663818, 6956465.605372491292655 ], [ 5011375.069092315621674, 6956476.3802505787462 ], [ 5011389.015221174806356, 6956480.988151011988521 ], [ 5012035.412691494449973, 6956504.505373656749725 ], [ 5012415.345431027933955, 6956518.321467004716396 ], [ 5012437.860546219162643, 6956524.736807696521282 ], [ 5012476.028592471033335, 6956552.146098015829921 ], [ 5012502.765753664076328, 6956561.316235155798495 ], [ 5012528.482057647779584, 6956557.721841981634498 ], [ 5012554.796438885852695, 6956549.594580952078104 ], [ 5012558.437530182301998, 6956573.692410889081657 ], [ 5012577.723367328755558, 6956600.932333213277161 ], [ 5012608.24857034906745, 6956623.074410889297724 ], [ 5012636.641367555595934, 6956646.936192887835205 ], [ 5012663.551502024754882, 6956660.626921236515045 ], [ 5012680.579546498134732, 6956692.301482589915395 ], [ 5012685.449991947039962, 6956729.640004219487309 ], [ 5012715.419893521815538, 6956768.448474938049912 ], [ 5012752.715494240634143, 6956791.735609823837876 ], [ 5012829.813352453522384, 6956825.452754507772624 ], [ 5012887.88001284468919, 6956886.848044256679714 ], [ 5012915.805217080749571, 6956906.598553431220353 ], [ 5012945.240718955174088, 6956906.102100752294064 ], [ 5012976.926661198958755, 6956903.276149246841669 ], [ 5012998.291413283906877, 6956923.476659807376564 ], [ 5013031.774738839827478, 6956938.278808254748583 ], [ 5013068.149688335135579, 6956949.653701173141599 ], [ 5013119.904689897783101, 6956947.04975988343358 ], [ 5013184.799400369636714, 6956969.896014766767621 ], [ 5013271.579723398201168, 6956963.885042600333691 ], [ 5013390.579994947649539, 6957000.71137385815382 ], [ 5013534.16562020406127, 6957028.589094007387757 ], [ 5013720.451506308279932, 6957058.711231622844934 ], [ 5013903.655916429124773, 6957071.913082347251475 ], [ 5014083.963069194927812, 6957082.999021178111434 ], [ 5014288.4201227016747, 6957034.382051296532154 ], [ 5014434.542742408812046, 6957058.046516317874193 ], [ 5014584.44681447558105, 6957045.402802667580545 ], [ 5014692.383394707925618, 6957056.344040393829346 ], [ 5014800.234370639547706, 6957012.576644286513329 ], [ 5014883.199695194140077, 6956989.981420340016484 ], [ 5015003.83507292624563, 6956986.077873262576759 ], [ 5015067.373383245430887, 6956987.62889146246016 ], [ 5015132.754692968912423, 6957009.300733918324113 ], [ 5015228.939562426880002, 6956977.999196231365204 ], [ 5015268.824342871084809, 6957020.966746741905808 ], [ 5015306.482929111458361, 6957037.641298864036798 ], [ 5015346.869084910489619, 6957022.919329579919577 ], [ 5015386.670229814015329, 6956967.297309406101704 ], [ 5015515.979314137250185, 6956907.440007738769054 ], [ 5015618.363840152509511, 6956826.505995701998472 ], [ 5015697.43492036126554, 6956782.058096555061638 ], [ 5015723.941356710158288, 6956778.544636856764555 ], [ 5015752.283447660505772, 6956788.69186766911298 ], [ 5015780.636908639222383, 6956769.252242961898446 ], [ 5015794.29817533865571, 6956742.938987863250077 ], [ 5015808.758444763720036, 6956715.616297693923116 ], [ 5015828.613046084530652, 6956718.416383316740394 ], [ 5015837.916602552868426, 6956730.327729063108563 ], [ 5015848.204575808718801, 6956754.659809414297342 ], [ 5015833.446736333891749, 6956804.023415178060532 ], [ 5015807.862643272615969, 6956825.520691936835647 ], [ 5015803.954990454949439, 6956844.939972251653671 ], [ 5015835.247924090363085, 6956867.416570533066988 ], [ 5015857.945088090375066, 6956905.739227537065744 ], [ 5015878.247270937077701, 6956925.814227135851979 ], [ 5015906.06300184968859, 6956941.169943263754249 ], [ 5015954.849119291640818, 6956950.747189829126 ], [ 5015985.198004713281989, 6957006.612251965329051 ], [ 5016005.477273426018655, 6957008.84635903313756 ], [ 5016026.449645225889981, 6957004.597032018005848 ], [ 5016047.339940861798823, 6957013.146548109129071 ], [ 5016065.508570028468966, 6957025.921527495607734 ], [ 5016084.995174850337207, 6957056.60194962285459 ], [ 5016094.481523928232491, 6957086.94087246991694 ], [ 5016121.887151894159615, 6957120.580595687031746 ], [ 5016141.492973000742495, 6957151.526717778295279 ], [ 5016179.327015107497573, 6957187.634764997288585 ], [ 5016210.521771007217467, 6957209.412419961765409 ], [ 5016258.58899606205523, 6957219.853745561093092 ], [ 5016292.204273565672338, 6957256.011362373828888 ], [ 5016344.287297974340618, 6957291.446170995011926 ], [ 5016383.154631545767188, 6957316.193997362628579 ], [ 5016426.438306956551969, 6957355.053215166553855 ], [ 5016471.108912693336606, 6957359.536582388915122 ], [ 5016522.51263873372227, 6957366.803175685927272 ], [ 5016582.738747171126306, 6957365.347815148532391 ], [ 5016603.638247814029455, 6957394.551702747121453 ], [ 5016632.744347715750337, 6957419.987904611974955 ], [ 5016685.57706783246249, 6957453.2261753808707 ], [ 5016724.500376367941499, 6957489.153761372901499 ], [ 5016758.481572266668081, 6957531.215872874483466 ], [ 5016783.245403259992599, 6957574.77538548130542 ], [ 5016808.737144693732262, 6957630.190714977681637 ], [ 5016814.209390579722822, 6957686.209672905504704 ], [ 5016832.366809482686222, 6957754.311871903948486 ], [ 5016862.156660427339375, 6957780.16767243668437 ], [ 5016896.255823043175042, 6957792.165988533757627 ], [ 5016922.758203586563468, 6957805.859033664688468 ], [ 5016948.640241810120642, 6957842.568491600453854 ], [ 5016998.704556185752153, 6957887.089879343286157 ], [ 5017026.060396598652005, 6957903.152891401201487 ], [ 5017040.489587838761508, 6957939.789397219195962 ], [ 5017070.720105204731226, 6957947.914190869778395 ], [ 5017089.678001809865236, 6957979.280774087645113 ], [ 5017100.836900569498539, 6958023.290747115388513 ], [ 5017098.29259764123708, 6958062.52166666649282 ], [ 5017074.487662811763585, 6958134.294370910152793 ], [ 5017068.417200574651361, 6958146.481032872572541 ], [ 5017062.332713244482875, 6958155.697955662384629 ], [ 5017096.781196217983961, 6958162.187885684892535 ], [ 5017134.385288172401488, 6958156.783208608627319 ], [ 5017206.972353216260672, 6958158.465672273188829 ], [ 5017308.168509557843208, 6958167.232570460066199 ], [ 5017351.10447355452925, 6958179.649320228025317 ], [ 5017449.66346672270447, 6958196.142364197410643 ], [ 5017508.480091765522957, 6958201.399684675037861 ], [ 5017551.395873905159533, 6958206.391373858787119 ], [ 5017594.853420942090452, 6958217.022456274367869 ], [ 5017651.82989064604044, 6958234.471026944927871 ], [ 5017701.402958072721958, 6958257.559258062392473 ], [ 5017741.175593310967088, 6958282.456617929972708 ], [ 5017846.16322847828269, 6958342.308919925242662 ], [ 5017930.982947079464793, 6958382.576133893802762 ], [ 5018023.220532389357686, 6958419.862111635506153 ], [ 5018114.38417826872319, 6958445.580232813023031 ], [ 5018192.536689163185656, 6958467.106131407432258 ], [ 5018268.624160145409405, 6958488.712176932021976 ], [ 5018304.509625686332583, 6958503.463143473491073 ], [ 5018382.539783833548427, 6958522.007180213928223 ], [ 5018464.820453753694892, 6958547.647361680865288 ], [ 5018581.099122564308345, 6958561.389767720364034 ], [ 5018736.460521050728858, 6958566.72731976211071 ], [ 5018818.596146325580776, 6958555.110422952100635 ], [ 5018884.985453767701983, 6958528.49113963637501 ], [ 5018926.911935850046575, 6958499.659778114408255 ], [ 5018964.736753712408245, 6958457.880707588978112 ], [ 5018980.842445730231702, 6958430.59608562104404 ], [ 5018991.331824927590787, 6958401.347685663029552 ], [ 5018990.223860354162753, 6958368.693146824836731 ], [ 5018969.479500344954431, 6958272.008646348491311 ], [ 5018957.742220346815884, 6958222.715506884269416 ], [ 5018940.554617105983198, 6958176.378366608172655 ], [ 5018907.216083065606654, 6958095.659013669937849 ], [ 5018789.754114186391234, 6957848.717881476506591 ], [ 5018729.205998661927879, 6957744.248357530683279 ], [ 5018698.883913720026612, 6957663.50164230633527 ], [ 5018660.002864013426006, 6957555.607862781733274 ], [ 5018647.197891528718174, 6957465.758840262889862 ], [ 5018644.422269681468606, 6957382.000290942378342 ], [ 5018644.781603423878551, 6957273.880490239709616 ], [ 5018651.966968497261405, 6957183.934543563053012 ], [ 5018653.708679102361202, 6957133.667566137388349 ] ] ] } }
]
}
