{
"type": "FeatureCollection",
"name": "4305959",
"crs": { "type": "name", "properties": { "name": "urn:ogc:def:crs:EPSG::5880" } },
"features": [
{ "type": "Feature", "properties": { "lv_id": "LOC_076502", "id": 419549.0, "CD_SETOR": "430595905000001", "SITUACAO": "Urbana", "CD_SIT": "1", "CD_TIPO": "0", "AREA_KM2": 1.040138208589694, "CD_REGIAO": "4", "NM_REGIAO": "Sul", "CD_UF": "43", "NM_UF": "Rio Grande do Sul", "CD_MUN": "4305959", "NM_MUN": "Cotiporã", "CD_DIST": "430595905", "NM_DIST": "Cotiporã", "CD_SUBDIST": "43059590500", "NM_SUBDIST": null, "CD_BAIRRO": null, "NM_BAIRRO": null, "CD_NU": null, "NM_NU": null, "CD_FCU": null, "NM_FCU": null, "CD_AGLOM": null, "NM_AGLOM": null, "CD_RGINT": "4307", "NM_RGINT": "Caxias do Sul", "CD_RGI": "430037", "NM_RGI": "Bento Gonçalves", "CD_CONCURB": null, "NM_CONCURB": null, "mun_code_x": "4305959", "index_right": 75905, "dist_m": 0.0, "local_id": 794038, "ano": 2022, "cod_localidade_ibge": 4305959, "NR_ZONA": "88", "nr_cep": 95335000.0, "nm_localidade": "COTIPORÃ", "nm_locvot": "SALÃO PAROQUIAL - SEDE", "ds_endereco": "PRAÇA MAURICIO CARDOSO, 172", "ds_bairro": "CENTRO", "pred_long": -51.696732, "pred_lat": -28.995362, "pred_dist": 0.0, "tse_long": -51.6964735, "tse_lat": -28.9957688, "long": -51.6964735, "lat": -28.9957688, "ID_UNICO": "LOC_076502", "SG_UF": "RS", "CD_MUNICIPIO": "89770", "NR_LOCAL_VOTACAO": "1031", "QT_SECOES_AGREGADAS": 0, "QT_ELEITORES_TRANSFERIDOS": 0, "CIRO GOMES (PDT) (NÃO ELEITO) 1T": 32.0, "CONSTITUINTE EYMAEL (DC) (NÃO ELEITO) 1T": 0.0, "FELIPE D AVILA (NOVO) (NÃO ELEITO) 1T": 13.0, "JAIR BOLSONARO (PL) (2º TURNO) 1T": 645.0, "LULA (PT) (2º TURNO) 1T": 198.0, "LÉO PÉRICLES (UP) (NÃO ELEITO) 1T": 1.0, "PADRE KELMON (PTB) (NÃO ELEITO) 1T": 2.0, "SIMONE TEBET (MDB) (NÃO ELEITO) 1T": 42.0, "SOFIA MANZANO (PCB) (NÃO ELEITO) 1T": 1.0, "SORAYA THRONICKE (UNIÃO) (NÃO ELEITO) 1T": 5.0, "VERA (PSTU) (NÃO ELEITO) 1T": 0.0, "Total_Votos_Validos 1T": 939.0, "Votos_Brancos 1T": 23.0, "Votos_Nulos 1T": 12.0, "Abstenções 1T": 177.0, "Eleitores_Aptos 1T": 1151.0, "JAIR BOLSONARO (PL) (NÃO ELEITO) 2T": 728.0, "LULA (PT) (ELEITO) 2T": 221.0, "Total_Votos_Validos 2T": 949.0, "Votos_Brancos 2T": 17.0, "Votos_Nulos 2T": 23.0, "Abstenções 2T": 162.0, "Eleitores_Aptos 2T": 1151.0, "mun_code_y": "4305959", "mun_code": "4305959" }, "geometry": { "type": "Polygon", "coordinates": [ [ [ 5225439.50370825920254, 6792797.490744015201926 ], [ 5225452.811771687120199, 6792760.092601584270597 ], [ 5225441.187403401359916, 6792715.539111955091357 ], [ 5225442.97672066744417, 6792621.538856439292431 ], [ 5225456.624651106074452, 6792555.16020231321454 ], [ 5225494.702114447019994, 6792469.257797675207257 ], [ 5225497.068955298513174, 6792402.833441911265254 ], [ 5225495.703046071343124, 6792362.893545849248767 ], [ 5225505.948829586617649, 6792319.498596618883312 ], [ 5225550.671315985731781, 6792298.76803414337337 ], [ 5225619.838271874003112, 6792289.705354664474726 ], [ 5225650.035609872080386, 6792276.502088670618832 ], [ 5225651.335784355178475, 6792257.75232190079987 ], [ 5225653.206971364095807, 6792226.334713105112314 ], [ 5225626.263673779554665, 6792169.668551256880164 ], [ 5225590.976622382178903, 6792118.035269379615784 ], [ 5225507.057194185443223, 6791986.344046825543046 ], [ 5225425.43726094160229, 6791889.904019300825894 ], [ 5225334.550895451568067, 6791719.80128969065845 ], [ 5225308.266139831393957, 6791671.762826422229409 ], [ 5225297.877460401505232, 6791587.617839420214295 ], [ 5225382.244982331059873, 6791458.248296799138188 ], [ 5225347.059870639815927, 6791419.657388294115663 ], [ 5225321.311529319733381, 6791395.546317306347191 ], [ 5225289.882510481402278, 6791372.056498609483242 ], [ 5225254.452618425711989, 6791353.836130984127522 ], [ 5225193.720863752998412, 6791321.856093394570053 ], [ 5225085.207034425809979, 6791269.045407734811306 ], [ 5225015.441705064848065, 6791235.166619869880378 ], [ 5224979.229994335211813, 6791205.812707575038075 ], [ 5224940.478180152364075, 6791180.656894822604954 ], [ 5224922.436049709096551, 6791171.735645739361644 ], [ 5224926.872263789176941, 6791130.817325612530112 ], [ 5224921.427297086454928, 6791081.572764300741255 ], [ 5224908.396041929721832, 6791043.19168115966022 ], [ 5224870.82832925952971, 6791014.740270809270442 ], [ 5224848.737972093746066, 6791003.657226969487965 ], [ 5224807.665068371221423, 6790982.894613360986114 ], [ 5224807.229613173753023, 6790901.09547231439501 ], [ 5224807.148508427664638, 6790878.446043655276299 ], [ 5224807.079407337121665, 6790860.910051237791777 ], [ 5224806.854753486812115, 6790837.398201921954751 ], [ 5224806.985386773943901, 6790834.600327622145414 ], [ 5224807.661749852821231, 6790819.30158088169992 ], [ 5224811.065157034434378, 6790752.912743961438537 ], [ 5224810.871836478821933, 6790628.568859454244375 ], [ 5224856.92737269308418, 6790625.496034637093544 ], [ 5225012.651322041638196, 6790610.897557619959116 ], [ 5225014.161618715152144, 6790364.756884016096592 ], [ 5225017.599549450911582, 6790218.356313719414175 ], [ 5224900.241111924871802, 6790219.727262368425727 ], [ 5224890.024732605554163, 6790202.17857176810503 ], [ 5224877.096235102042556, 6790185.503665801137686 ], [ 5224876.763881974853575, 6790184.95552436914295 ], [ 5224758.820123417302966, 6789971.917089111171663 ], [ 5224745.493143922649324, 6789926.797394325956702 ], [ 5224737.627661870792508, 6789890.334269412793219 ], [ 5224713.997368699871004, 6789824.672454956918955 ], [ 5224705.450566514395177, 6789662.821074351668358 ], [ 5225006.620958304032683, 6789656.198447417467833 ], [ 5225001.379913511686027, 6789279.085854984819889 ], [ 5225001.320992656983435, 6789275.071483602747321 ], [ 5225519.077637284062803, 6789279.520009066909552 ], [ 5225618.240254333242774, 6789278.664842756465077 ], [ 5225617.745863724499941, 6789182.268273414112628 ], [ 5225616.763866689056158, 6789127.656186038628221 ], [ 5225617.765347216278315, 6788986.72654683701694 ], [ 5225578.784139141440392, 6788968.488516164943576 ], [ 5225530.296497376635671, 6788951.534728704020381 ], [ 5225485.806823972612619, 6788930.198514945805073 ], [ 5225469.181377878412604, 6788930.768097677268088 ], [ 5225419.902529732324183, 6788950.057936365716159 ], [ 5225386.629991573281586, 6788957.564481621608138 ], [ 5225337.960510922595859, 6788948.733282528817654 ], [ 5225311.512410419993103, 6788957.348434129729867 ], [ 5225294.112463779747486, 6788968.648397879675031 ], [ 5225284.110809158533812, 6788990.463613351806998 ], [ 5225262.473189298994839, 6789012.828129475936294 ], [ 5225242.518849970772862, 6789017.111968182958663 ], [ 5225213.809550401754677, 6789023.241986567154527 ], [ 5225203.642315813340247, 6789030.617756061255932 ], [ 5225197.145874377340078, 6789040.306643994525075 ], [ 5225201.516676413826644, 6788912.933299688622355 ], [ 5225009.555646709166467, 6788911.81628034170717 ], [ 5225010.754843452945352, 6788548.698331221938133 ], [ 5225108.728662132285535, 6788548.18084510229528 ], [ 5225105.499937844462693, 6788353.102502187713981 ], [ 5225082.915861789137125, 6788325.002741080708802 ], [ 5225075.47788626793772, 6788317.416600623168051 ], [ 5225064.408607982099056, 6788310.522634774446487 ], [ 5225080.312397130765021, 6788297.011483507230878 ], [ 5225083.674715058878064, 6788291.532543818466365 ], [ 5225094.931311359629035, 6788283.580892819911242 ], [ 5225114.916179197840393, 6788269.45744420401752 ], [ 5225141.068688574247062, 6788234.836174132302403 ], [ 5225151.218736293725669, 6788177.27765866741538 ], [ 5225146.285261265933514, 6788126.325846985913813 ], [ 5225128.92497350089252, 6788084.269325859844685 ], [ 5225111.30245521850884, 6788035.773094978183508 ], [ 5225109.063776860013604, 6788003.515126647427678 ], [ 5225113.55417571682483, 6787972.501048866659403 ], [ 5225119.195969605818391, 6787933.588676946237683 ], [ 5225120.156482739374042, 6787926.392956828698516 ], [ 5225128.643861741758883, 6787861.567983780987561 ], [ 5225124.826057508587837, 6787785.935403140261769 ], [ 5225103.169930439442396, 6787718.028307273052633 ], [ 5225087.989676522091031, 6787667.321240352466702 ], [ 5225086.936861757189035, 6787663.814371063373983 ], [ 5225086.012172220274806, 6787659.384307169355452 ], [ 5225071.687465997412801, 6787591.123036402277648 ], [ 5225044.332350948825479, 6787488.38551134057343 ], [ 5225040.787166765891016, 6787478.515831083059311 ], [ 5225025.698542380705476, 6787436.4591776560992 ], [ 5224994.410243891179562, 6787388.218947745859623 ], [ 5224949.035194993950427, 6787331.701591789722443 ], [ 5224926.207284774631262, 6787300.489416930824518 ], [ 5224887.389885616488755, 6787247.404427023604512 ], [ 5224868.361141307279468, 6787209.129561420530081 ], [ 5224866.383244283497334, 6787205.15267985034734 ], [ 5224865.656637310050428, 6787194.895105552859604 ], [ 5224859.543068205006421, 6787108.913593627512455 ], [ 5224860.372408533468843, 6787029.662740709260106 ], [ 5224856.413723185658455, 6786972.18044338747859 ], [ 5224856.384493064135313, 6786971.681846234947443 ], [ 5224854.280231931246817, 6786888.417310993187129 ], [ 5224855.30118072591722, 6786770.105529213324189 ], [ 5224858.462548128329217, 6786711.973808027803898 ], [ 5224858.045997387729585, 6786593.412769144400954 ], [ 5224859.712409986183047, 6786483.219218062236905 ], [ 5224863.553567664697766, 6786422.988759139552712 ], [ 5224867.006912532262504, 6786368.84463787637651 ], [ 5224867.387659531086683, 6786312.04287217836827 ], [ 5224867.622807576321065, 6786278.205717477947474 ], [ 5224884.379369038157165, 6786135.981045166030526 ], [ 5224886.543089358136058, 6786075.694580386392772 ], [ 5224886.607215846888721, 6786005.698719393461943 ], [ 5224884.318242903798819, 6785938.943540547043085 ], [ 5224883.271984663791955, 6785908.348283868283033 ], [ 5224865.081156797707081, 6785855.525768963620067 ], [ 5224859.205137031152844, 6785842.52913435921073 ], [ 5224834.692518877796829, 6785788.288296778686345 ], [ 5224824.418155532330275, 6785768.100851124152541 ], [ 5224814.863295297138393, 6785749.330286277458072 ], [ 5224782.534699976444244, 6785656.085102484561503 ], [ 5224758.182434359565377, 6785556.161503819748759 ], [ 5224747.6100939437747, 6785523.201107511296868 ], [ 5224730.261998403817415, 6785469.075235855765641 ], [ 5224725.118123302236199, 6785425.215602422133088 ], [ 5224724.706648575142026, 6785331.346582656726241 ], [ 5224727.315832819789648, 6785293.846817845478654 ], [ 5224732.370623003691435, 6785235.411797484382987 ], [ 5224734.366390959359705, 6785229.349485244601965 ], [ 5224754.867779577150941, 6785167.140547644346952 ], [ 5224787.947463751770556, 6785101.967962799593806 ], [ 5224813.314048387110233, 6785073.862418481148779 ], [ 5224839.109657065942883, 6785045.282526096329093 ], [ 5224849.704529347829521, 6785033.550075437873602 ], [ 5224773.800083034671843, 6785031.140604494139552 ], [ 5224754.966984217986465, 6785035.113856529816985 ], [ 5224739.842795160599053, 6785041.920860538259149 ], [ 5224708.426295354962349, 6785043.621941208839417 ], [ 5224661.155152489431202, 6785015.238869965076447 ], [ 5224639.857537205331028, 6784998.28389429859817 ], [ 5224544.35905799921602, 6784989.300642196089029 ], [ 5224454.004221694543958, 6784999.750326318666339 ], [ 5224313.398610272444785, 6784975.361646003089845 ], [ 5224231.475698226131499, 6784978.046640292741358 ], [ 5224200.834751790389419, 6784971.045707929879427 ], [ 5224161.018777107819915, 6784982.670579020865262 ], [ 5224097.859059013426304, 6784969.791940650902689 ], [ 5224018.747363372705877, 6784970.246482986956835 ], [ 5223979.864696718752384, 6784980.776548348367214 ], [ 5223944.672700039111078, 6784984.712152755819261 ], [ 5223921.156533969566226, 6784996.362565129995346 ], [ 5223839.591625479981303, 6784990.918013770133257 ], [ 5223839.399866314604878, 6784991.077042968943715 ], [ 5223778.111842874437571, 6784997.261658767238259 ], [ 5223685.051099332980812, 6785045.439371806569397 ], [ 5223595.194981725886464, 6785097.125755371525884 ], [ 5223535.938518737442791, 6785111.123050026595592 ], [ 5223502.525820817798376, 6785100.358314221724868 ], [ 5223484.22587837651372, 6785092.1838304605335 ], [ 5223480.399397149682045, 6785090.805076511576772 ], [ 5223444.529487396590412, 6785082.938723552972078 ], [ 5223420.847475352697074, 6785056.998637654818594 ], [ 5223377.459142989479005, 6785049.278173035010695 ], [ 5223344.175497982650995, 6785045.643001296557486 ], [ 5223320.950897418893874, 6785043.243310179561377 ], [ 5223281.114443808794022, 6785024.760302336886525 ], [ 5223268.877931883558631, 6785024.276897992938757 ], [ 5223240.056019482202828, 6785024.12659283913672 ], [ 5223217.25113826431334, 6785011.724178405478597 ], [ 5223188.512323329225183, 6785015.853850138373673 ], [ 5223158.192331907339394, 6785017.828908409923315 ], [ 5223102.833740842528641, 6784992.192383535206318 ], [ 5223074.843406521715224, 6784970.616971745155752 ], [ 5223048.109504659660161, 6784949.017126513645053 ], [ 5223029.780266307294369, 6784940.809256916865706 ], [ 5222996.58005444612354, 6784941.453208634629846 ], [ 5222922.078216973692179, 6784935.432639380916953 ], [ 5222889.88677082862705, 6784932.828807071782649 ], [ 5222870.992481344379485, 6784916.0682357493788 ], [ 5222826.126275748945773, 6784876.272713912650943 ], [ 5222771.967686023563147, 6784829.524614978581667 ], [ 5222676.290678198449314, 6784807.118761610239744 ], [ 5222631.771803602576256, 6784805.840053754858673 ], [ 5222584.612048638984561, 6784797.479834224097431 ], [ 5222538.543021654710174, 6784780.534919741563499 ], [ 5222501.708090853877366, 6784776.078740181401372 ], [ 5222436.7980837225914, 6784768.238916765898466 ], [ 5222362.834688832052052, 6784766.807805450633168 ], [ 5222297.397298807278275, 6784768.971718024462461 ], [ 5222257.419555131345987, 6784760.682081506587565 ], [ 5222210.198387201875448, 6784755.671476381830871 ], [ 5222172.092654313892126, 6784729.297949792817235 ], [ 5222116.626592190936208, 6784712.533009948208928 ], [ 5222084.94856779742986, 6784694.59840727224946 ], [ 5222044.605736979283392, 6784649.721144612878561 ], [ 5221984.509757105261087, 6784587.388550719246268 ], [ 5221890.268809351138771, 6784485.227402267046273 ], [ 5221826.584473325870931, 6784399.414139902219176 ], [ 5221798.460380652919412, 6784370.706074355170131 ], [ 5221757.923854125663638, 6784339.919091321527958 ], [ 5221741.567321918904781, 6784271.749978387728333 ], [ 5221708.587235839106143, 6784238.742804585024714 ], [ 5221417.787638872861862, 6784120.346011677756906 ], [ 5221257.980473903939128, 6784271.650916702114046 ], [ 5221179.883258590474725, 6784660.843640158884227 ], [ 5221342.883669636212289, 6785956.44658650457859 ], [ 5221304.283997444435954, 6786095.943696539849043 ], [ 5220959.980333895422518, 6786320.94857341889292 ], [ 5220398.980906937271357, 6786506.946405380964279 ], [ 5220212.382059903815389, 6786677.846584639512002 ], [ 5220004.287383337505162, 6787069.745794994756579 ], [ 5219908.582154165953398, 6788005.441101964563131 ], [ 5220038.088307546451688, 6788402.841042207553983 ], [ 5220340.986163634806871, 6788609.541938792914152 ], [ 5220383.983142886310816, 6789072.441385894082487 ], [ 5220094.886143330484629, 6789235.147296536713839 ], [ 5219162.2826864477247, 6789265.245774808339775 ], [ 5218675.487586269155145, 6789001.74475722014904 ], [ 5218343.982648652046919, 6788984.941743280738592 ], [ 5218255.888578239828348, 6789051.245369922369719 ], [ 5218314.084008707664907, 6789646.840381906367838 ], [ 5219208.784885450266302, 6790717.740877546370029 ], [ 5219288.686286015436053, 6790938.639824928715825 ], [ 5219150.989743070676923, 6791371.245056862942874 ], [ 5218986.48440867010504, 6791501.642651125788689 ], [ 5218425.581877230666578, 6791688.938059473410249 ], [ 5218323.388719905167818, 6791715.043718777596951 ], [ 5218493.090167355723679, 6791857.244922835379839 ], [ 5218515.191447645425797, 6791872.255019851960242 ], [ 5218529.600232250057161, 6791882.06454473733902 ], [ 5218565.165693309158087, 6791906.413923056796193 ], [ 5219053.466604048386216, 6792239.635512651875615 ], [ 5219203.455718187615275, 6792341.982102360576391 ], [ 5219265.166466643102467, 6792393.817786823958158 ], [ 5219304.987895427271724, 6792440.334941319189966 ], [ 5219404.550007042475045, 6792483.729829628020525 ], [ 5219478.687315046787262, 6792507.642111482098699 ], [ 5219511.955888074822724, 6792514.063365880399942 ], [ 5219600.957400244660676, 6792581.827456697821617 ], [ 5219600.649319602176547, 6792631.182175633497536 ], [ 5219581.482018675655127, 6792663.403773123398423 ], [ 5219556.523799912072718, 6792705.363552117720246 ], [ 5219569.729812665842474, 6792727.684550895355642 ], [ 5219595.157443312928081, 6792763.116616958752275 ], [ 5219605.559852229431272, 6792778.480755176395178 ], [ 5219644.191172614693642, 6792829.944500943645835 ], [ 5219657.06509487144649, 6792878.837379595264792 ], [ 5219645.419664950110018, 6792947.697241988033056 ], [ 5219652.948901497758925, 6793013.884709598496556 ], [ 5219702.44564819522202, 6793036.878639988601208 ], [ 5219784.986362872645259, 6793023.193244252353907 ], [ 5219799.251828459091485, 6793020.747301030904055 ], [ 5219872.529024789109826, 6793000.338508846238256 ], [ 5219954.088833767920732, 6792985.33951261267066 ], [ 5219988.484193867072463, 6792963.342138569802046 ], [ 5219999.520523980259895, 6792897.410622524097562 ], [ 5219993.226080849766731, 6792852.618596356362104 ], [ 5219996.568956717848778, 6792830.071035237982869 ], [ 5220006.543199534527957, 6792830.62391560152173 ], [ 5220028.038465079851449, 6792839.730854963883758 ], [ 5220053.386776590719819, 6792853.544948647730052 ], [ 5220176.233727309852839, 6792873.29561478830874 ], [ 5220286.890451669692993, 6792898.44683482311666 ], [ 5220353.159763877280056, 6792944.555401924997568 ], [ 5220414.085635700263083, 6792951.821116999723017 ], [ 5220504.231692111119628, 6792931.107944117859006 ], [ 5220576.181524438783526, 6792963.219273266382515 ], [ 5220645.735415109433234, 6793008.176423870027065 ], [ 5220739.724422154016793, 6793068.039308551698923 ], [ 5220845.963447320275009, 6793147.954581843689084 ], [ 5220900.861406121402979, 6793190.639791446737945 ], [ 5220927.249682864174247, 6793247.4588966621086 ], [ 5220961.109632954932749, 6793232.16850696131587 ], [ 5221034.567185078747571, 6793222.719054469838738 ], [ 5221072.982240939512849, 6793183.636927355080843 ], [ 5221131.894276820123196, 6793118.305658243596554 ], [ 5221168.328623154200613, 6793077.652757848612964 ], [ 5221259.110287576913834, 6793054.503374963998795 ], [ 5221311.700709704309702, 6793014.460638722404838 ], [ 5221431.406558103859425, 6792979.551538806408644 ], [ 5221476.046986246481538, 6792988.078352988697588 ], [ 5221515.748822294175625, 6792987.182699804194272 ], [ 5221553.878922167234123, 6792955.724627040326595 ], [ 5221791.9820660892874, 6792922.973300831392407 ], [ 5221926.058416521176696, 6792964.186237801797688 ], [ 5221954.679952984675765, 6793041.05965943261981 ], [ 5221968.661480411887169, 6793078.593120466917753 ], [ 5221986.480417903512716, 6793114.399953790009022 ], [ 5222012.048249078914523, 6793164.788178032264113 ], [ 5222036.770332703366876, 6793180.850870484486222 ], [ 5222081.403903862461448, 6793188.954070331528783 ], [ 5222101.436827034689486, 6793184.774727458134294 ], [ 5222103.79205980245024, 6793162.278536280617118 ], [ 5222067.662730924785137, 6793122.908853228203952 ], [ 5222037.37826569005847, 6793059.977410905994475 ], [ 5222041.636335271410644, 6792893.732659222558141 ], [ 5222077.241630366072059, 6792807.691687578335404 ], [ 5222176.828671803697944, 6792741.304791025817394 ], [ 5222259.883352914825082, 6792747.435584280639887 ], [ 5222374.654530671425164, 6792769.858914077281952 ], [ 5222483.409605498425663, 6792803.334268137812614 ], [ 5222599.485432958230376, 6792828.137315604835749 ], [ 5222769.64658226352185, 6792853.214530512690544 ], [ 5222845.681647235527635, 6792844.136058555915952 ], [ 5223001.195701530203223, 6792854.862112672999501 ], [ 5223045.850261664949358, 6792830.294053809717298 ], [ 5223132.899369386956096, 6792793.879710655659437 ], [ 5223203.509578173980117, 6792794.687298592180014 ], [ 5223245.212579143233597, 6792780.857531023211777 ], [ 5223265.345048680901527, 6792737.05206716991961 ], [ 5223348.330158739350736, 6792687.692172912880778 ], [ 5223500.452132371254265, 6792563.193818788975477 ], [ 5223559.189464199356735, 6792542.521357268095016 ], [ 5223732.852475146763027, 6792545.664213139563799 ], [ 5223914.019930780865252, 6792542.147463295608759 ], [ 5224182.484038742259145, 6792515.222916536964476 ], [ 5224224.859886145219207, 6792536.106928650289774 ], [ 5224291.310817307792604, 6792519.61778780631721 ], [ 5224345.982899591326714, 6792485.997677718289196 ], [ 5224468.508188679814339, 6792409.814555129036307 ], [ 5224542.198675913736224, 6792373.649013457819819 ], [ 5224571.7403873950243, 6792420.826938565820456 ], [ 5224559.149737944826484, 6792460.140006264671683 ], [ 5224556.977339297533035, 6792544.840391383506358 ], [ 5224530.190852714702487, 6792638.694422928616405 ], [ 5224452.59392774105072, 6792670.598601183854043 ], [ 5224415.303900085389614, 6792714.72935338690877 ], [ 5224358.509774582460523, 6792737.542533840984106 ], [ 5224302.896901244297624, 6792821.108192473649979 ], [ 5224240.812927421182394, 6792865.731612345203757 ], [ 5223990.644711051136255, 6792853.222727234475315 ], [ 5223849.779789491556585, 6792868.980545667000115 ], [ 5223844.85515577159822, 6792900.567610951140523 ], [ 5223924.955219097435474, 6792958.268429135903716 ], [ 5223953.253014603629708, 6792978.606025669723749 ], [ 5224055.364970829337835, 6793001.991061283275485 ], [ 5224102.302253264002502, 6793012.193705717101693 ], [ 5224157.654849395155907, 6793070.129904635250568 ], [ 5224212.81583328358829, 6793073.538983549922705 ], [ 5224279.349098425358534, 6793026.522065514698625 ], [ 5224474.280091724358499, 6793033.988363724201918 ], [ 5224564.415356621146202, 6793044.047099375165999 ], [ 5224658.27336214762181, 6793009.462902684696019 ], [ 5224668.925083858892322, 6793005.727976375259459 ], [ 5224820.684834198094904, 6792942.138709705322981 ], [ 5225028.026944065466523, 6792851.195681883022189 ], [ 5225118.371888973750174, 6792860.047936894930899 ], [ 5225253.577764033339918, 6792858.106557566672564 ], [ 5225303.491293510422111, 6792857.430978001095355 ], [ 5225373.413552436977625, 6792851.916035044938326 ], [ 5225395.389959403313696, 6792819.051821026019752 ], [ 5225439.50370825920254, 6792797.490744015201926 ] ] ] } },
{ "type": "Feature", "properties": { "lv_id": "LOC_076504", "id": 419555.0, "CD_SETOR": "430595905000013", "SITUACAO": "Rural", "CD_SIT": "8", "CD_TIPO": "0", "AREA_KM2": 34.870537729442212, "CD_REGIAO": "4", "NM_REGIAO": "Sul", "CD_UF": "43", "NM_UF": "Rio Grande do Sul", "CD_MUN": "4305959", "NM_MUN": "Cotiporã", "CD_DIST": "430595905", "NM_DIST": "Cotiporã", "CD_SUBDIST": "43059590500", "NM_SUBDIST": null, "CD_BAIRRO": null, "NM_BAIRRO": null, "CD_NU": null, "NM_NU": null, "CD_FCU": null, "NM_FCU": null, "CD_AGLOM": null, "NM_AGLOM": null, "CD_RGINT": "4307", "NM_RGINT": "Caxias do Sul", "CD_RGI": "430037", "NM_RGI": "Bento Gonçalves", "CD_CONCURB": null, "NM_CONCURB": null, "mun_code_x": "4305959", "index_right": 75904, "dist_m": 0.0, "local_id": 794037, "ano": 2022, "cod_localidade_ibge": 4305959, "NR_ZONA": "88", "nr_cep": 95335000.0, "nm_localidade": "COTIPORÃ", "nm_locvot": "SALÃO COMUNITÁRIO N. S. DO ROSÁRIO", "ds_endereco": "LINHA ALMIRANTE TAMANDARÉ, S/N", "ds_bairro": "ÁREA RURAL - LINHA ALMIRANTE TAMANDARÉ", "pred_long": -51.706993333333301, "pred_lat": -29.050413333333299, "pred_dist": 0.0, "tse_long": -51.691436, "tse_lat": -29.051806, "long": -51.691436, "lat": -29.051806, "ID_UNICO": "LOC_076504", "SG_UF": "RS", "CD_MUNICIPIO": "89770", "NR_LOCAL_VOTACAO": "1058", "QT_SECOES_AGREGADAS": 1, "QT_ELEITORES_TRANSFERIDOS": 0, "CIRO GOMES (PDT) (NÃO ELEITO) 1T": 9.0, "CONSTITUINTE EYMAEL (DC) (NÃO ELEITO) 1T": 0.0, "FELIPE D AVILA (NOVO) (NÃO ELEITO) 1T": 0.0, "JAIR BOLSONARO (PL) (2º TURNO) 1T": 252.0, "LULA (PT) (2º TURNO) 1T": 38.0, "LÉO PÉRICLES (UP) (NÃO ELEITO) 1T": 0.0, "PADRE KELMON (PTB) (NÃO ELEITO) 1T": 1.0, "SIMONE TEBET (MDB) (NÃO ELEITO) 1T": 10.0, "SOFIA MANZANO (PCB) (NÃO ELEITO) 1T": 0.0, "SORAYA THRONICKE (UNIÃO) (NÃO ELEITO) 1T": 2.0, "VERA (PSTU) (NÃO ELEITO) 1T": 0.0, "Total_Votos_Validos 1T": 312.0, "Votos_Brancos 1T": 8.0, "Votos_Nulos 1T": 6.0, "Abstenções 1T": 48.0, "Eleitores_Aptos 1T": 374.0, "JAIR BOLSONARO (PL) (NÃO ELEITO) 2T": 282.0, "LULA (PT) (ELEITO) 2T": 43.0, "Total_Votos_Validos 2T": 325.0, "Votos_Brancos 2T": 9.0, "Votos_Nulos 2T": 4.0, "Abstenções 2T": 36.0, "Eleitores_Aptos 2T": 374.0, "mun_code_y": "4305959", "mun_code": "4305959" }, "geometry": { "type": "Polygon", "coordinates": [ [ [ 5224849.704529347829521, 6785033.550075437873602 ], [ 5224921.860403891652822, 6785032.094479431398213 ], [ 5224957.76060514524579, 6785002.107524585910141 ], [ 5224995.321603944525123, 6784989.791850319132209 ], [ 5225140.685789278708398, 6784977.462222287431359 ], [ 5225204.913269001990557, 6784968.672496194019914 ], [ 5225288.019801459275186, 6784965.236345218494534 ], [ 5225522.757564144209027, 6784925.282139564864337 ], [ 5226080.377304289489985, 6784652.442321088165045 ], [ 5226584.985495476052165, 6784344.644227162003517 ], [ 5226817.0510079190135, 6784197.713412459939718 ], [ 5227037.882358836010098, 6784054.948357712477446 ], [ 5227220.15534554515034, 6784017.457925371825695 ], [ 5227525.628209884278476, 6783891.556487280875444 ], [ 5227434.039377208799124, 6783623.434788325801492 ], [ 5227240.07277715485543, 6783309.061344888992608 ], [ 5226834.113595172762871, 6782810.305057425051928 ], [ 5226401.696603550575674, 6782475.322813467122614 ], [ 5226082.446514052338898, 6782077.865417176857591 ], [ 5225999.827793092466891, 6781825.299730596132576 ], [ 5226076.302692624740303, 6781446.993824473582208 ], [ 5226270.184705481864512, 6781299.744758941233158 ], [ 5226426.085101089440286, 6781304.547530482523143 ], [ 5226814.238474156707525, 6781444.477731820195913 ], [ 5227226.108572892844677, 6781510.058677304536104 ], [ 5227639.79071300290525, 6781590.63139318767935 ], [ 5228890.669633871875703, 6781729.001862755045295 ], [ 5229324.077561980113387, 6781697.337621668353677 ], [ 5229548.8492815727368, 6781633.432515025138855 ], [ 5229735.272122119553387, 6781526.18380995746702 ], [ 5229864.966227495111525, 6781386.810273393988609 ], [ 5229955.653184051625431, 6781218.442238967865705 ], [ 5230130.360370706766844, 6780894.527428644709289 ], [ 5230288.519819750450552, 6780635.203705227002501 ], [ 5230395.675561730749905, 6780319.460390252992511 ], [ 5230430.114267526194453, 6780002.213709162548184 ], [ 5230433.096733498387039, 6779653.039733806625009 ], [ 5230389.986447539180517, 6779236.878527166321874 ], [ 5230318.996708921156824, 6778908.43623283226043 ], [ 5230212.81732424814254, 6778669.711796145886183 ], [ 5230093.096056943759322, 6778605.732068950310349 ], [ 5229985.880751210264862, 6778575.356874950230122 ], [ 5229869.330698859877884, 6778655.944226847961545 ], [ 5229745.048352114856243, 6778696.217249967157841 ], [ 5229409.63227756600827, 6778686.23455551546067 ], [ 5228982.400824795477092, 6778760.130860751494765 ], [ 5228576.109872719272971, 6778958.179822272621095 ], [ 5228212.78016696870327, 6779289.994857051409781 ], [ 5227117.438803270459175, 6780355.184480250813067 ], [ 5226870.516164112836123, 6780491.584878582507372 ], [ 5226572.613405155017972, 6780593.94336967356503 ], [ 5226345.328445302322507, 6780635.743391562253237 ], [ 5226094.28644771873951, 6780597.328519020229578 ], [ 5225957.889770288951695, 6780483.461777687072754 ], [ 5225855.042640474624932, 6780284.761234508827329 ], [ 5225799.720970454625785, 6780101.78653503395617 ], [ 5225705.449150549247861, 6779613.360535212792456 ], [ 5225696.012893162667751, 6779166.705064657144248 ], [ 5225707.587317819707096, 6778840.747531099244952 ], [ 5225683.085181734524667, 6778647.548727100715041 ], [ 5225595.678054064512253, 6778326.943684353493154 ], [ 5225241.977378933690488, 6777884.64738623611629 ], [ 5224936.584145890548825, 6777763.995155304670334 ], [ 5224831.176723580807447, 6777722.345606366172433 ], [ 5224325.575888621620834, 6777757.749606508761644 ], [ 5223648.702370012179017, 6777902.851520753465593 ], [ 5223076.679252003319561, 6778025.451635155826807 ], [ 5222532.582630544900894, 6778522.653922881931067 ], [ 5222605.473758149892092, 6778629.969135439023376 ], [ 5222693.091116580180824, 6778758.961447644978762 ], [ 5222790.082730988971889, 6778901.747858000919223 ], [ 5222882.38539142627269, 6779644.346028353087604 ], [ 5222503.266667666845024, 6780715.96729770489037 ], [ 5222055.177969770506024, 6781984.651523748412728 ], [ 5222028.883612253703177, 6782511.542542671784759 ], [ 5222674.284445163793862, 6783003.149990082718432 ], [ 5222990.079427915625274, 6783471.642013857141137 ], [ 5222588.786880396306515, 6783924.641711947508156 ], [ 5222274.582687408663332, 6784100.847692081704736 ], [ 5221719.781808404251933, 6784243.340994220227003 ], [ 5221708.587235839106143, 6784238.742804585024714 ], [ 5221741.567321918904781, 6784271.749978387728333 ], [ 5221757.923854125663638, 6784339.919091321527958 ], [ 5221798.460380652919412, 6784370.706074355170131 ], [ 5221826.584473325870931, 6784399.414139902219176 ], [ 5221890.268809351138771, 6784485.227402267046273 ], [ 5221984.509757105261087, 6784587.388550719246268 ], [ 5222044.605736979283392, 6784649.721144612878561 ], [ 5222084.94856779742986, 6784694.59840727224946 ], [ 5222116.626592190936208, 6784712.533009948208928 ], [ 5222172.092654313892126, 6784729.297949792817235 ], [ 5222210.198387201875448, 6784755.671476381830871 ], [ 5222257.419555131345987, 6784760.682081506587565 ], [ 5222297.397298807278275, 6784768.971718024462461 ], [ 5222362.834688832052052, 6784766.807805450633168 ], [ 5222436.7980837225914, 6784768.238916765898466 ], [ 5222501.708090853877366, 6784776.078740181401372 ], [ 5222538.543021654710174, 6784780.534919741563499 ], [ 5222584.612048638984561, 6784797.479834224097431 ], [ 5222631.771803602576256, 6784805.840053754858673 ], [ 5222676.290678198449314, 6784807.118761610239744 ], [ 5222771.967686023563147, 6784829.524614978581667 ], [ 5222826.126275748945773, 6784876.272713912650943 ], [ 5222870.992481344379485, 6784916.0682357493788 ], [ 5222889.88677082862705, 6784932.828807071782649 ], [ 5222922.078216973692179, 6784935.432639380916953 ], [ 5222996.58005444612354, 6784941.453208634629846 ], [ 5223029.780266307294369, 6784940.809256916865706 ], [ 5223048.109504659660161, 6784949.017126513645053 ], [ 5223074.843406521715224, 6784970.616971745155752 ], [ 5223102.833740842528641, 6784992.192383535206318 ], [ 5223158.192331907339394, 6785017.828908409923315 ], [ 5223188.512323329225183, 6785015.853850138373673 ], [ 5223217.25113826431334, 6785011.724178405478597 ], [ 5223240.056019482202828, 6785024.12659283913672 ], [ 5223268.877931883558631, 6785024.276897992938757 ], [ 5223281.114443808794022, 6785024.760302336886525 ], [ 5223320.950897418893874, 6785043.243310179561377 ], [ 5223344.175497982650995, 6785045.643001296557486 ], [ 5223377.459142989479005, 6785049.278173035010695 ], [ 5223420.847475352697074, 6785056.998637654818594 ], [ 5223444.529487396590412, 6785082.938723552972078 ], [ 5223480.399397149682045, 6785090.805076511576772 ], [ 5223484.22587837651372, 6785092.1838304605335 ], [ 5223502.525820817798376, 6785100.358314221724868 ], [ 5223535.938518737442791, 6785111.123050026595592 ], [ 5223595.194981725886464, 6785097.125755371525884 ], [ 5223685.051099332980812, 6785045.439371806569397 ], [ 5223778.111842874437571, 6784997.261658767238259 ], [ 5223839.399866314604878, 6784991.077042968943715 ], [ 5223839.591625479981303, 6784990.918013770133257 ], [ 5223921.156533969566226, 6784996.362565129995346 ], [ 5223944.672700039111078, 6784984.712152755819261 ], [ 5223979.864696718752384, 6784980.776548348367214 ], [ 5224018.747363372705877, 6784970.246482986956835 ], [ 5224097.859059013426304, 6784969.791940650902689 ], [ 5224161.018777107819915, 6784982.670579020865262 ], [ 5224200.834751790389419, 6784971.045707929879427 ], [ 5224231.475698226131499, 6784978.046640292741358 ], [ 5224313.398610272444785, 6784975.361646003089845 ], [ 5224454.004221694543958, 6784999.750326318666339 ], [ 5224544.35905799921602, 6784989.300642196089029 ], [ 5224639.857537205331028, 6784998.28389429859817 ], [ 5224661.155152489431202, 6785015.238869965076447 ], [ 5224708.426295354962349, 6785043.621941208839417 ], [ 5224739.842795160599053, 6785041.920860538259149 ], [ 5224754.966984217986465, 6785035.113856529816985 ], [ 5224773.800083034671843, 6785031.140604494139552 ], [ 5224849.704529347829521, 6785033.550075437873602 ] ] ] } },
{ "type": "Feature", "properties": { "lv_id": "LOC_076506", "id": 419554.0, "CD_SETOR": "430595905000012", "SITUACAO": "Rural", "CD_SIT": "8", "CD_TIPO": "0", "AREA_KM2": 29.361390956919713, "CD_REGIAO": "4", "NM_REGIAO": "Sul", "CD_UF": "43", "NM_UF": "Rio Grande do Sul", "CD_MUN": "4305959", "NM_MUN": "Cotiporã", "CD_DIST": "430595905", "NM_DIST": "Cotiporã", "CD_SUBDIST": "43059590500", "NM_SUBDIST": null, "CD_BAIRRO": null, "NM_BAIRRO": null, "CD_NU": null, "NM_NU": null, "CD_FCU": null, "NM_FCU": null, "CD_AGLOM": null, "NM_AGLOM": null, "CD_RGINT": "4307", "NM_RGINT": "Caxias do Sul", "CD_RGI": "430037", "NM_RGI": "Bento Gonçalves", "CD_CONCURB": null, "NM_CONCURB": null, "mun_code_x": "4305959", "index_right": 75909, "dist_m": 572.88610074104395, "local_id": 794043, "ano": 2022, "cod_localidade_ibge": 4305959, "NR_ZONA": "88", "nr_cep": 95335000.0, "nm_localidade": "COTIPORÃ", "nm_locvot": "SALÃO PAROQUIAL LAGEADO BONITO", "ds_endereco": "LAGEADO BONITO, S/N", "ds_bairro": "LAJEADO BONITO - 2º DISTRITO", "pred_long": -51.662663, "pred_lat": -28.959539, "pred_dist": 0.0, "tse_long": -51.6624122, "tse_lat": -28.9592259, "long": -51.6624122, "lat": -28.9592259, "ID_UNICO": "LOC_076506", "SG_UF": "RS", "CD_MUNICIPIO": "89770", "NR_LOCAL_VOTACAO": "1023", "QT_SECOES_AGREGADAS": 0, "QT_ELEITORES_TRANSFERIDOS": 2, "CIRO GOMES (PDT) (NÃO ELEITO) 1T": 17.0, "CONSTITUINTE EYMAEL (DC) (NÃO ELEITO) 1T": 0.0, "FELIPE D AVILA (NOVO) (NÃO ELEITO) 1T": 2.0, "JAIR BOLSONARO (PL) (2º TURNO) 1T": 257.0, "LULA (PT) (2º TURNO) 1T": 54.0, "LÉO PÉRICLES (UP) (NÃO ELEITO) 1T": 0.0, "PADRE KELMON (PTB) (NÃO ELEITO) 1T": 1.0, "SIMONE TEBET (MDB) (NÃO ELEITO) 1T": 14.0, "SOFIA MANZANO (PCB) (NÃO ELEITO) 1T": 0.0, "SORAYA THRONICKE (UNIÃO) (NÃO ELEITO) 1T": 1.0, "VERA (PSTU) (NÃO ELEITO) 1T": 0.0, "Total_Votos_Validos 1T": 346.0, "Votos_Brancos 1T": 7.0, "Votos_Nulos 1T": 3.0, "Abstenções 1T": 53.0, "Eleitores_Aptos 1T": 409.0, "JAIR BOLSONARO (PL) (NÃO ELEITO) 2T": 281.0, "LULA (PT) (ELEITO) 2T": 71.0, "Total_Votos_Validos 2T": 352.0, "Votos_Brancos 2T": 6.0, "Votos_Nulos 2T": 9.0, "Abstenções 2T": 42.0, "Eleitores_Aptos 2T": 409.0, "mun_code_y": "4305959", "mun_code": "4305959" }, "geometry": { "type": "Polygon", "coordinates": [ [ [ 5228763.247940888628364, 6786881.183688933029771 ], [ 5228699.015807374380529, 6786822.514260718598962 ], [ 5228567.804882710799575, 6786702.688764523714781 ], [ 5228416.0636065620929, 6786575.892803655937314 ], [ 5228229.43936294130981, 6786213.663431437686086 ], [ 5228152.790946596302092, 6785723.645826023072004 ], [ 5227936.171851471066475, 6784969.319210914894938 ], [ 5227655.574022326618433, 6784157.143250059336424 ], [ 5227525.628209884278476, 6783891.556487280875444 ], [ 5227220.15534554515034, 6784017.457925371825695 ], [ 5227037.882358836010098, 6784054.948357712477446 ], [ 5226817.0510079190135, 6784197.713412459939718 ], [ 5226584.985495476052165, 6784344.644227162003517 ], [ 5226080.377304289489985, 6784652.442321088165045 ], [ 5225522.757564144209027, 6784925.282139564864337 ], [ 5225288.019801459275186, 6784965.236345218494534 ], [ 5225204.913269001990557, 6784968.672496194019914 ], [ 5225140.685789278708398, 6784977.462222287431359 ], [ 5224995.321603944525123, 6784989.791850319132209 ], [ 5224957.76060514524579, 6785002.107524585910141 ], [ 5224921.860403891652822, 6785032.094479431398213 ], [ 5224849.704529347829521, 6785033.550075437873602 ], [ 5224839.109657065942883, 6785045.282526096329093 ], [ 5224813.314048387110233, 6785073.862418481148779 ], [ 5224787.947463751770556, 6785101.967962799593806 ], [ 5224754.867779577150941, 6785167.140547644346952 ], [ 5224734.366390959359705, 6785229.349485244601965 ], [ 5224732.370623003691435, 6785235.411797484382987 ], [ 5224727.315832819789648, 6785293.846817845478654 ], [ 5224724.706648575142026, 6785331.346582656726241 ], [ 5224725.118123302236199, 6785425.215602422133088 ], [ 5224730.261998403817415, 6785469.075235855765641 ], [ 5224747.6100939437747, 6785523.201107511296868 ], [ 5224758.182434359565377, 6785556.161503819748759 ], [ 5224782.534699976444244, 6785656.085102484561503 ], [ 5224814.863295297138393, 6785749.330286277458072 ], [ 5224824.418155532330275, 6785768.100851124152541 ], [ 5224834.692518877796829, 6785788.288296778686345 ], [ 5224859.205137031152844, 6785842.52913435921073 ], [ 5224865.081156797707081, 6785855.525768963620067 ], [ 5224883.271984663791955, 6785908.348283868283033 ], [ 5224884.318242903798819, 6785938.943540547043085 ], [ 5224886.607215846888721, 6786005.698719393461943 ], [ 5224886.543089358136058, 6786075.694580386392772 ], [ 5224884.379369038157165, 6786135.981045166030526 ], [ 5224867.622807576321065, 6786278.205717477947474 ], [ 5224867.387659531086683, 6786312.04287217836827 ], [ 5224867.006912532262504, 6786368.84463787637651 ], [ 5224863.553567664697766, 6786422.988759139552712 ], [ 5224859.712409986183047, 6786483.219218062236905 ], [ 5224858.045997387729585, 6786593.412769144400954 ], [ 5224858.462548128329217, 6786711.973808027803898 ], [ 5224855.30118072591722, 6786770.105529213324189 ], [ 5224854.280231931246817, 6786888.417310993187129 ], [ 5224856.384493064135313, 6786971.681846234947443 ], [ 5224856.413723185658455, 6786972.18044338747859 ], [ 5224860.372408533468843, 6787029.662740709260106 ], [ 5224859.543068205006421, 6787108.913593627512455 ], [ 5224865.656637310050428, 6787194.895105552859604 ], [ 5224866.383244283497334, 6787205.15267985034734 ], [ 5224868.361141307279468, 6787209.129561420530081 ], [ 5224887.389885616488755, 6787247.404427023604512 ], [ 5224926.207284774631262, 6787300.489416930824518 ], [ 5224949.035194993950427, 6787331.701591789722443 ], [ 5224994.410243891179562, 6787388.218947745859623 ], [ 5225025.698542380705476, 6787436.4591776560992 ], [ 5225040.787166765891016, 6787478.515831083059311 ], [ 5225044.332350948825479, 6787488.38551134057343 ], [ 5225071.687465997412801, 6787591.123036402277648 ], [ 5225086.012172220274806, 6787659.384307169355452 ], [ 5225086.936861757189035, 6787663.814371063373983 ], [ 5225087.989676522091031, 6787667.321240352466702 ], [ 5225103.169930439442396, 6787718.028307273052633 ], [ 5225124.826057508587837, 6787785.935403140261769 ], [ 5225128.643861741758883, 6787861.567983780987561 ], [ 5225120.156482739374042, 6787926.392956828698516 ], [ 5225119.195969605818391, 6787933.588676946237683 ], [ 5225113.55417571682483, 6787972.501048866659403 ], [ 5225109.063776860013604, 6788003.515126647427678 ], [ 5225111.30245521850884, 6788035.773094978183508 ], [ 5225128.92497350089252, 6788084.269325859844685 ], [ 5225146.285261265933514, 6788126.325846985913813 ], [ 5225151.218736293725669, 6788177.27765866741538 ], [ 5225141.068688574247062, 6788234.836174132302403 ], [ 5225114.916179197840393, 6788269.45744420401752 ], [ 5225094.931311359629035, 6788283.580892819911242 ], [ 5225083.674715058878064, 6788291.532543818466365 ], [ 5225080.312397130765021, 6788297.011483507230878 ], [ 5225064.408607982099056, 6788310.522634774446487 ], [ 5225075.47788626793772, 6788317.416600623168051 ], [ 5225082.915861789137125, 6788325.002741080708802 ], [ 5225105.499937844462693, 6788353.102502187713981 ], [ 5225108.728662132285535, 6788548.18084510229528 ], [ 5225010.754843452945352, 6788548.698331221938133 ], [ 5225009.555646709166467, 6788911.81628034170717 ], [ 5225201.516676413826644, 6788912.933299688622355 ], [ 5225197.145874377340078, 6789040.306643994525075 ], [ 5225203.642315813340247, 6789030.617756061255932 ], [ 5225213.809550401754677, 6789023.241986567154527 ], [ 5225242.518849970772862, 6789017.111968182958663 ], [ 5225262.473189298994839, 6789012.828129475936294 ], [ 5225284.110809158533812, 6788990.463613351806998 ], [ 5225294.112463779747486, 6788968.648397879675031 ], [ 5225311.512410419993103, 6788957.348434129729867 ], [ 5225337.960510922595859, 6788948.733282528817654 ], [ 5225386.629991573281586, 6788957.564481621608138 ], [ 5225419.902529732324183, 6788950.057936365716159 ], [ 5225469.181377878412604, 6788930.768097677268088 ], [ 5225485.806823972612619, 6788930.198514945805073 ], [ 5225530.296497376635671, 6788951.534728704020381 ], [ 5225578.784139141440392, 6788968.488516164943576 ], [ 5225617.765347216278315, 6788986.72654683701694 ], [ 5225616.763866689056158, 6789127.656186038628221 ], [ 5225617.745863724499941, 6789182.268273414112628 ], [ 5225618.240254333242774, 6789278.664842756465077 ], [ 5225519.077637284062803, 6789279.520009066909552 ], [ 5225001.320992656983435, 6789275.071483602747321 ], [ 5225001.379913511686027, 6789279.085854984819889 ], [ 5225006.620958304032683, 6789656.198447417467833 ], [ 5224705.450566514395177, 6789662.821074351668358 ], [ 5224713.997368699871004, 6789824.672454956918955 ], [ 5224737.627661870792508, 6789890.334269412793219 ], [ 5224745.493143922649324, 6789926.797394325956702 ], [ 5224758.820123417302966, 6789971.917089111171663 ], [ 5224876.763881974853575, 6790184.95552436914295 ], [ 5224877.096235102042556, 6790185.503665801137686 ], [ 5224890.024732605554163, 6790202.17857176810503 ], [ 5224900.241111924871802, 6790219.727262368425727 ], [ 5225017.599549450911582, 6790218.356313719414175 ], [ 5225014.161618715152144, 6790364.756884016096592 ], [ 5225012.651322041638196, 6790610.897557619959116 ], [ 5224856.92737269308418, 6790625.496034637093544 ], [ 5224810.871836478821933, 6790628.568859454244375 ], [ 5224811.065157034434378, 6790752.912743961438537 ], [ 5224807.661749852821231, 6790819.30158088169992 ], [ 5224806.985386773943901, 6790834.600327622145414 ], [ 5224806.854753486812115, 6790837.398201921954751 ], [ 5224807.079407337121665, 6790860.910051237791777 ], [ 5224807.148508427664638, 6790878.446043655276299 ], [ 5224807.229613173753023, 6790901.09547231439501 ], [ 5224807.665068371221423, 6790982.894613360986114 ], [ 5224848.737972093746066, 6791003.657226969487965 ], [ 5224870.82832925952971, 6791014.740270809270442 ], [ 5224908.396041929721832, 6791043.19168115966022 ], [ 5224921.427297086454928, 6791081.572764300741255 ], [ 5224926.872263789176941, 6791130.817325612530112 ], [ 5224922.436049709096551, 6791171.735645739361644 ], [ 5224940.478180152364075, 6791180.656894822604954 ], [ 5224979.229994335211813, 6791205.812707575038075 ], [ 5225015.441705064848065, 6791235.166619869880378 ], [ 5225085.207034425809979, 6791269.045407734811306 ], [ 5225193.720863752998412, 6791321.856093394570053 ], [ 5225254.452618425711989, 6791353.836130984127522 ], [ 5225289.882510481402278, 6791372.056498609483242 ], [ 5225321.311529319733381, 6791395.546317306347191 ], [ 5225347.059870639815927, 6791419.657388294115663 ], [ 5225382.244982331059873, 6791458.248296799138188 ], [ 5225297.877460401505232, 6791587.617839420214295 ], [ 5225308.266139831393957, 6791671.762826422229409 ], [ 5225334.550895451568067, 6791719.80128969065845 ], [ 5225425.43726094160229, 6791889.904019300825894 ], [ 5225507.057194185443223, 6791986.344046825543046 ], [ 5225590.976622382178903, 6792118.035269379615784 ], [ 5225626.263673779554665, 6792169.668551256880164 ], [ 5225653.206971364095807, 6792226.334713105112314 ], [ 5225651.335784355178475, 6792257.75232190079987 ], [ 5225650.035609872080386, 6792276.502088670618832 ], [ 5225619.838271874003112, 6792289.705354664474726 ], [ 5225550.671315985731781, 6792298.76803414337337 ], [ 5225505.948829586617649, 6792319.498596618883312 ], [ 5225495.703046071343124, 6792362.893545849248767 ], [ 5225497.068955298513174, 6792402.833441911265254 ], [ 5225494.702114447019994, 6792469.257797675207257 ], [ 5225456.624651106074452, 6792555.16020231321454 ], [ 5225442.97672066744417, 6792621.538856439292431 ], [ 5225441.187403401359916, 6792715.539111955091357 ], [ 5225452.811771687120199, 6792760.092601584270597 ], [ 5225439.50370825920254, 6792797.490744015201926 ], [ 5225395.389959403313696, 6792819.051821026019752 ], [ 5225373.413552436977625, 6792851.916035044938326 ], [ 5225322.181969170458615, 6792907.891949633136392 ], [ 5225299.94594962708652, 6792970.91065819375217 ], [ 5225297.870970972813666, 6792987.468027273193002 ], [ 5225299.79198064096272, 6792995.472608827054501 ], [ 5225304.769498535431921, 6793006.223896266892552 ], [ 5225296.840518072247505, 6793040.03364313300699 ], [ 5225266.495613542385399, 6793049.300794176757336 ], [ 5225187.401711970567703, 6793053.019599663093686 ], [ 5225133.260724089108407, 6793064.925148364156485 ], [ 5225046.184771473519504, 6793100.279434243217111 ], [ 5224993.971968682482839, 6793162.074195001274347 ], [ 5224926.728973715566099, 6793236.09736536256969 ], [ 5224886.002462700009346, 6793251.001245399937034 ], [ 5224773.25358853302896, 6793351.423388823866844 ], [ 5224722.177851609885693, 6793374.126691554673016 ], [ 5224616.008839655667543, 6793457.591541429981589 ], [ 5224487.35509713832289, 6793562.113839834928513 ], [ 5224335.99466457683593, 6793676.848590690642595 ], [ 5224258.818637280724943, 6793764.415723156183958 ], [ 5224246.418339059688151, 6793780.064224744215608 ], [ 5224233.072137178853154, 6793804.738180488348007 ], [ 5224232.377444880083203, 6793842.743385382927954 ], [ 5224244.027557789348066, 6793877.790976682677865 ], [ 5224288.508265009149909, 6793908.3955969363451 ], [ 5224310.912502832710743, 6793932.374522660858929 ], [ 5224320.439669599756598, 6793946.476379236206412 ], [ 5224324.66608080919832, 6793952.72799992095679 ], [ 5224330.041508191265166, 6793968.430248526856303 ], [ 5224337.182082311250269, 6793992.17349162325263 ], [ 5224332.912379352375865, 6794018.301643684506416 ], [ 5224330.699848062358797, 6794051.444602676667273 ], [ 5224332.070816114544868, 6794121.966061571612954 ], [ 5224347.206914000213146, 6794161.260772230103612 ], [ 5224351.160343720577657, 6794171.522079341113567 ], [ 5224377.148036954924464, 6794193.722997548058629 ], [ 5224385.972767593339086, 6794201.271735601127148 ], [ 5224413.249674282968044, 6794224.578942401334643 ], [ 5224457.774354049004614, 6794257.356314827688038 ], [ 5224493.796598577871919, 6794294.636130741797388 ], [ 5224497.340810604393482, 6794310.418325548060238 ], [ 5224504.236555567011237, 6794341.099063828587532 ], [ 5224521.079081759788096, 6794373.338863368146122 ], [ 5224543.631570515222847, 6794404.369371366687119 ], [ 5224556.395971274934709, 6794418.940520511940122 ], [ 5224566.068919691257179, 6794429.97786015085876 ], [ 5224576.662223923951387, 6794435.195910451933742 ], [ 5224616.891469281166792, 6794443.098269643262029 ], [ 5224676.101574850268662, 6794446.293755338527262 ], [ 5224747.413906323723495, 6794434.04540622420609 ], [ 5224811.674585084430873, 6794451.240393610671163 ], [ 5224823.956932729110122, 6794451.056547671556473 ], [ 5224855.552240593358874, 6794451.206269659101963 ], [ 5224882.216775855980814, 6794448.512489898130298 ], [ 5224899.508142530918121, 6794454.686780042946339 ], [ 5224897.023017997853458, 6794474.269127617590129 ], [ 5224844.210784806869924, 6794505.691815054044127 ], [ 5224829.654124428518116, 6794512.76406685076654 ], [ 5224813.967403416521847, 6794520.390756049193442 ], [ 5224798.575571240857244, 6794533.646667828783393 ], [ 5224772.682285512797534, 6794555.925658547319472 ], [ 5224723.478849145583808, 6794576.417883597314358 ], [ 5224652.092400114051998, 6794585.406258754432201 ], [ 5224624.967581525444984, 6794613.066530816257 ], [ 5224592.134084403514862, 6794628.480810927227139 ], [ 5224576.751406810246408, 6794635.712996670976281 ], [ 5224541.228812171146274, 6794673.297857070341706 ], [ 5224521.092581268399954, 6794710.361384972929955 ], [ 5224510.831280080601573, 6794729.240756219252944 ], [ 5224492.304512133821845, 6794757.820438041351736 ], [ 5224461.241094025783241, 6794779.04559214413166 ], [ 5224417.516105321235955, 6794787.494330644607544 ], [ 5224363.171368758194149, 6794830.513820113614202 ], [ 5224352.713679144158959, 6794840.312110537663102 ], [ 5224338.784051792696118, 6794860.11672686226666 ], [ 5224343.300903407856822, 6794895.846471093595028 ], [ 5224391.385961702093482, 6794915.532501885667443 ], [ 5224434.641298569738865, 6794932.051087000407279 ], [ 5224454.292819394730031, 6794936.216812822036445 ], [ 5224481.581437444314361, 6794941.986567612737417 ], [ 5224493.131858673878014, 6794960.297408453188837 ], [ 5224503.233172996900976, 6794976.295918507501483 ], [ 5224514.153265072032809, 6794997.791451434604824 ], [ 5224543.163144446909428, 6795017.847972612828016 ], [ 5224546.54674815479666, 6795044.914329027757049 ], [ 5224561.362608188763261, 6795070.671187652274966 ], [ 5224595.709273235872388, 6795119.930077644065022 ], [ 5224619.857240743935108, 6795134.656829515472054 ], [ 5224661.266616111621261, 6795154.471772262826562 ], [ 5224675.672350333072245, 6795162.643821868114173 ], [ 5224683.452152262441814, 6795167.062476224265993 ], [ 5224690.762712305411696, 6795199.476592501625419 ], [ 5224692.45175963640213, 6795237.15814757719636 ], [ 5224690.294842664152384, 6795268.125973049551249 ], [ 5224670.275352125987411, 6795309.724232461303473 ], [ 5224663.174717143177986, 6795326.179478142410517 ], [ 5224670.283993989229202, 6795344.743016809225082 ], [ 5224673.242314391769469, 6795347.935529575683177 ], [ 5224674.520205101929605, 6795376.018993718549609 ], [ 5224694.230288530699909, 6795408.202840581536293 ], [ 5224734.959986020810902, 6795442.140470668673515 ], [ 5224820.841874885372818, 6795442.631100298836827 ], [ 5224864.20997653901577, 6795415.741166708990932 ], [ 5224953.268989507108927, 6795383.612418745644391 ], [ 5225249.78561448585242, 6795300.736780809238553 ], [ 5225296.918071698397398, 6795294.42591786198318 ], [ 5225279.272351704537868, 6795280.660641766153276 ], [ 5225242.653855234384537, 6795252.079941092059016 ], [ 5225188.865234762430191, 6795233.595566565170884 ], [ 5225113.845712038688362, 6795202.491358075290918 ], [ 5225134.194274446927011, 6795071.85720498021692 ], [ 5225214.140314823947847, 6795061.623079607263207 ], [ 5225260.85659284517169, 6795053.52341303601861 ], [ 5225313.025162904523313, 6795044.496263800188899 ], [ 5225358.291331567801535, 6795017.56718771904707 ], [ 5225374.61040095705539, 6794978.380261382088065 ], [ 5225398.399940214119852, 6794921.277146572247148 ], [ 5225417.808448130264878, 6794840.576948884874582 ], [ 5225462.297648996114731, 6794810.867225027643144 ], [ 5225508.220986039377749, 6794780.20860299281776 ], [ 5225559.882659909315407, 6794784.234972013160586 ], [ 5225590.878538737073541, 6794908.830810661427677 ], [ 5225592.70186136290431, 6795002.127949994057417 ], [ 5225622.62542871106416, 6795068.830456916242838 ], [ 5225668.665071843191981, 6795081.496534037403762 ], [ 5225682.580767366103828, 6795085.517253801226616 ], [ 5225795.28983713965863, 6795067.749891210347414 ], [ 5226362.564757362939417, 6795070.880663691088557 ], [ 5226786.52459882479161, 6795052.607585636898875 ], [ 5226871.575384224765003, 6795047.142339040525258 ], [ 5226910.214768623933196, 6795034.979469600133598 ], [ 5226963.207755921408534, 6795051.075634088367224 ], [ 5227107.017631067894399, 6795048.468534078449011 ], [ 5227214.228442569263279, 6795046.236352644860744 ], [ 5227151.489172886125743, 6796224.037768183276057 ], [ 5231322.78658448997885, 6796445.137119547463953 ], [ 5231377.588120234198868, 6796311.333591362461448 ], [ 5231344.284601628780365, 6795877.632040545344353 ], [ 5231179.886591300368309, 6795627.938196655362844 ], [ 5231055.183084510266781, 6795073.633051482960582 ], [ 5231184.282863270491362, 6794720.630684081465006 ], [ 5231027.181843847967684, 6794515.538938036188483 ], [ 5231048.882634464651346, 6794317.537951296195388 ], [ 5231416.778590113855898, 6794088.836847452446818 ], [ 5231654.887408760376275, 6794061.040343261323869 ], [ 5231791.584096655249596, 6793590.333263765089214 ], [ 5231902.087474974803627, 6793492.534186633303761 ], [ 5231601.379460048861802, 6793269.437281128950417 ], [ 5231719.080049796961248, 6792885.936996926553547 ], [ 5231628.883881253190339, 6792624.632077790796757 ], [ 5231786.480237066745758, 6792410.541121937334538 ], [ 5231699.486276486888528, 6792148.440232960507274 ], [ 5231895.786662726663053, 6791906.235565526410937 ], [ 5231880.07759561855346, 6791686.941033819690347 ], [ 5232296.381634219549596, 6791351.532860528677702 ], [ 5231972.485697288066149, 6791210.240179597400129 ], [ 5231908.881160599179566, 6791001.538247401826084 ], [ 5231970.384092797525227, 6790627.737167552113533 ], [ 5232153.184602649882436, 6790238.734533855691552 ], [ 5232028.284257958643138, 6789588.839451896026731 ], [ 5232100.184995363466442, 6789332.336490647867322 ], [ 5232080.980462556704879, 6788981.435722311958671 ], [ 5231895.078881504945457, 6788684.245226139202714 ], [ 5231898.582578869536519, 6788100.34065917134285 ], [ 5231655.681244164705276, 6787306.944434283301234 ], [ 5231624.4815295599401, 6787204.938356720842421 ], [ 5231459.976850707083941, 6787148.145425639115274 ], [ 5231373.682033476419747, 6787118.342926800251007 ], [ 5231266.682956511154771, 6786999.445309898816049 ], [ 5231332.876491655595601, 6786884.443217920139432 ], [ 5231538.885498056188226, 6786796.235652141273022 ], [ 5231601.68370643351227, 6786643.938136663287878 ], [ 5231503.379839058965445, 6786466.040645183995366 ], [ 5231204.878333820961416, 6786338.636969966813922 ], [ 5230934.587507509626448, 6786115.347601551562548 ], [ 5230831.640068843029439, 6786359.510240271687508 ], [ 5230673.584795924834907, 6786699.01243269816041 ], [ 5230501.120487491600215, 6786839.701386619359255 ], [ 5230204.283754907548428, 6786918.636249044910073 ], [ 5229685.668405200354755, 6786985.019715796224773 ], [ 5229125.310882298275828, 6786975.979664756916463 ], [ 5228982.735956892371178, 6786938.650098146870732 ], [ 5228763.247940888628364, 6786881.183688933029771 ] ] ] } },
{ "type": "Feature", "properties": { "lv_id": "LOC_076512", "id": 419551.0, "CD_SETOR": "430595905000004", "SITUACAO": "Rural", "CD_SIT": "8", "CD_TIPO": "0", "AREA_KM2": 26.739668652631078, "CD_REGIAO": "4", "NM_REGIAO": "Sul", "CD_UF": "43", "NM_UF": "Rio Grande do Sul", "CD_MUN": "4305959", "NM_MUN": "Cotiporã", "CD_DIST": "430595905", "NM_DIST": "Cotiporã", "CD_SUBDIST": "43059590500", "NM_SUBDIST": null, "CD_BAIRRO": null, "NM_BAIRRO": null, "CD_NU": null, "NM_NU": null, "CD_FCU": null, "NM_FCU": null, "CD_AGLOM": null, "NM_AGLOM": null, "CD_RGINT": "4307", "NM_RGINT": "Caxias do Sul", "CD_RGI": "430037", "NM_RGI": "Bento Gonçalves", "CD_CONCURB": null, "NM_CONCURB": null, "mun_code_x": "4305959", "index_right": 75907, "dist_m": 0.0, "local_id": 794041, "ano": 2022, "cod_localidade_ibge": 4305959, "NR_ZONA": "88", "nr_cep": 95335000.0, "nm_localidade": "COTIPORÃ", "nm_locvot": "SALÃO COMUNITÁRIO SANTO ANTÔNIO ZONA MORO", "ds_endereco": "LINHA JÚLIO DE CASTILHOS, S/N", "ds_bairro": "ÁREA RURAL - ZONA MORO", "pred_long": -51.720183305555601, "pred_lat": -28.941808333333299, "pred_dist": 0.0, "tse_long": -51.71985, "tse_lat": -28.941951, "long": -51.71985, "lat": -28.941951, "ID_UNICO": "LOC_076512", "SG_UF": "RS", "CD_MUNICIPIO": "89770", "NR_LOCAL_VOTACAO": "1066", "QT_SECOES_AGREGADAS": 0, "QT_ELEITORES_TRANSFERIDOS": 4, "CIRO GOMES (PDT) (NÃO ELEITO) 1T": 5.0, "CONSTITUINTE EYMAEL (DC) (NÃO ELEITO) 1T": 0.0, "FELIPE D AVILA (NOVO) (NÃO ELEITO) 1T": 0.0, "JAIR BOLSONARO (PL) (2º TURNO) 1T": 52.0, "LULA (PT) (2º TURNO) 1T": 28.0, "LÉO PÉRICLES (UP) (NÃO ELEITO) 1T": 0.0, "PADRE KELMON (PTB) (NÃO ELEITO) 1T": 1.0, "SIMONE TEBET (MDB) (NÃO ELEITO) 1T": 7.0, "SOFIA MANZANO (PCB) (NÃO ELEITO) 1T": 0.0, "SORAYA THRONICKE (UNIÃO) (NÃO ELEITO) 1T": 1.0, "VERA (PSTU) (NÃO ELEITO) 1T": 0.0, "Total_Votos_Validos 1T": 94.0, "Votos_Brancos 1T": 4.0, "Votos_Nulos 1T": 1.0, "Abstenções 1T": 15.0, "Eleitores_Aptos 1T": 114.0, "JAIR BOLSONARO (PL) (NÃO ELEITO) 2T": 65.0, "LULA (PT) (ELEITO) 2T": 31.0, "Total_Votos_Validos 2T": 96.0, "Votos_Brancos 2T": 6.0, "Votos_Nulos 2T": 0.0, "Abstenções 2T": 12.0, "Eleitores_Aptos 2T": 114.0, "mun_code_y": "4305959", "mun_code": "4305959" }, "geometry": { "type": "Polygon", "coordinates": [ [ [ 5226786.52459882479161, 6795052.607585636898875 ], [ 5226362.564757362939417, 6795070.880663691088557 ], [ 5225795.28983713965863, 6795067.749891210347414 ], [ 5225682.580767366103828, 6795085.517253801226616 ], [ 5225668.665071843191981, 6795081.496534037403762 ], [ 5225622.62542871106416, 6795068.830456916242838 ], [ 5225592.70186136290431, 6795002.127949994057417 ], [ 5225590.878538737073541, 6794908.830810661427677 ], [ 5225559.882659909315407, 6794784.234972013160586 ], [ 5225508.220986039377749, 6794780.20860299281776 ], [ 5225462.297648996114731, 6794810.867225027643144 ], [ 5225417.808448130264878, 6794840.576948884874582 ], [ 5225398.399940214119852, 6794921.277146572247148 ], [ 5225374.61040095705539, 6794978.380261382088065 ], [ 5225358.291331567801535, 6795017.56718771904707 ], [ 5225313.025162904523313, 6795044.496263800188899 ], [ 5225260.85659284517169, 6795053.52341303601861 ], [ 5225214.140314823947847, 6795061.623079607263207 ], [ 5225134.194274446927011, 6795071.85720498021692 ], [ 5225113.845712038688362, 6795202.491358075290918 ], [ 5225188.865234762430191, 6795233.595566565170884 ], [ 5225242.653855234384537, 6795252.079941092059016 ], [ 5225279.272351704537868, 6795280.660641766153276 ], [ 5225296.918071698397398, 6795294.42591786198318 ], [ 5225249.78561448585242, 6795300.736780809238553 ], [ 5224953.268989507108927, 6795383.612418745644391 ], [ 5224864.20997653901577, 6795415.741166708990932 ], [ 5224820.841874885372818, 6795442.631100298836827 ], [ 5224734.959986020810902, 6795442.140470668673515 ], [ 5224694.230288530699909, 6795408.202840581536293 ], [ 5224674.520205101929605, 6795376.018993718549609 ], [ 5224673.242314391769469, 6795347.935529575683177 ], [ 5224670.283993989229202, 6795344.743016809225082 ], [ 5224663.174717143177986, 6795326.179478142410517 ], [ 5224670.275352125987411, 6795309.724232461303473 ], [ 5224690.294842664152384, 6795268.125973049551249 ], [ 5224692.45175963640213, 6795237.15814757719636 ], [ 5224690.762712305411696, 6795199.476592501625419 ], [ 5224683.452152262441814, 6795167.062476224265993 ], [ 5224675.672350333072245, 6795162.643821868114173 ], [ 5224661.266616111621261, 6795154.471772262826562 ], [ 5224619.857240743935108, 6795134.656829515472054 ], [ 5224595.709273235872388, 6795119.930077644065022 ], [ 5224561.362608188763261, 6795070.671187652274966 ], [ 5224546.54674815479666, 6795044.914329027757049 ], [ 5224543.163144446909428, 6795017.847972612828016 ], [ 5224514.153265072032809, 6794997.791451434604824 ], [ 5224503.233172996900976, 6794976.295918507501483 ], [ 5224493.131858673878014, 6794960.297408453188837 ], [ 5224481.581437444314361, 6794941.986567612737417 ], [ 5224454.292819394730031, 6794936.216812822036445 ], [ 5224434.641298569738865, 6794932.051087000407279 ], [ 5224391.385961702093482, 6794915.532501885667443 ], [ 5224343.300903407856822, 6794895.846471093595028 ], [ 5224338.784051792696118, 6794860.11672686226666 ], [ 5224352.713679144158959, 6794840.312110537663102 ], [ 5224363.171368758194149, 6794830.513820113614202 ], [ 5224417.516105321235955, 6794787.494330644607544 ], [ 5224461.241094025783241, 6794779.04559214413166 ], [ 5224492.304512133821845, 6794757.820438041351736 ], [ 5224510.831280080601573, 6794729.240756219252944 ], [ 5224521.092581268399954, 6794710.361384972929955 ], [ 5224541.228812171146274, 6794673.297857070341706 ], [ 5224576.751406810246408, 6794635.712996670976281 ], [ 5224592.134084403514862, 6794628.480810927227139 ], [ 5224624.967581525444984, 6794613.066530816257 ], [ 5224652.092400114051998, 6794585.406258754432201 ], [ 5224723.478849145583808, 6794576.417883597314358 ], [ 5224772.682285512797534, 6794555.925658547319472 ], [ 5224798.575571240857244, 6794533.646667828783393 ], [ 5224813.967403416521847, 6794520.390756049193442 ], [ 5224829.654124428518116, 6794512.76406685076654 ], [ 5224844.210784806869924, 6794505.691815054044127 ], [ 5224897.023017997853458, 6794474.269127617590129 ], [ 5224899.508142530918121, 6794454.686780042946339 ], [ 5224882.216775855980814, 6794448.512489898130298 ], [ 5224855.552240593358874, 6794451.206269659101963 ], [ 5224823.956932729110122, 6794451.056547671556473 ], [ 5224811.674585084430873, 6794451.240393610671163 ], [ 5224747.413906323723495, 6794434.04540622420609 ], [ 5224676.101574850268662, 6794446.293755338527262 ], [ 5224616.891469281166792, 6794443.098269643262029 ], [ 5224576.662223923951387, 6794435.195910451933742 ], [ 5224566.068919691257179, 6794429.97786015085876 ], [ 5224556.395971274934709, 6794418.940520511940122 ], [ 5224543.631570515222847, 6794404.369371366687119 ], [ 5224521.079081759788096, 6794373.338863368146122 ], [ 5224504.236555567011237, 6794341.099063828587532 ], [ 5224497.340810604393482, 6794310.418325548060238 ], [ 5224493.796598577871919, 6794294.636130741797388 ], [ 5224457.774354049004614, 6794257.356314827688038 ], [ 5224413.249674282968044, 6794224.578942401334643 ], [ 5224385.972767593339086, 6794201.271735601127148 ], [ 5224377.148036954924464, 6794193.722997548058629 ], [ 5224351.160343720577657, 6794171.522079341113567 ], [ 5224347.206914000213146, 6794161.260772230103612 ], [ 5224332.070816114544868, 6794121.966061571612954 ], [ 5224330.699848062358797, 6794051.444602676667273 ], [ 5224332.912379352375865, 6794018.301643684506416 ], [ 5224337.182082311250269, 6793992.17349162325263 ], [ 5224330.041508191265166, 6793968.430248526856303 ], [ 5224324.66608080919832, 6793952.72799992095679 ], [ 5224320.439669599756598, 6793946.476379236206412 ], [ 5224310.912502832710743, 6793932.374522660858929 ], [ 5224288.508265009149909, 6793908.3955969363451 ], [ 5224244.027557789348066, 6793877.790976682677865 ], [ 5224232.377444880083203, 6793842.743385382927954 ], [ 5224233.072137178853154, 6793804.738180488348007 ], [ 5224246.418339059688151, 6793780.064224744215608 ], [ 5224258.818637280724943, 6793764.415723156183958 ], [ 5224335.99466457683593, 6793676.848590690642595 ], [ 5224487.35509713832289, 6793562.113839834928513 ], [ 5224616.008839655667543, 6793457.591541429981589 ], [ 5224722.177851609885693, 6793374.126691554673016 ], [ 5224773.25358853302896, 6793351.423388823866844 ], [ 5224886.002462700009346, 6793251.001245399937034 ], [ 5224926.728973715566099, 6793236.09736536256969 ], [ 5224993.971968682482839, 6793162.074195001274347 ], [ 5225046.184771473519504, 6793100.279434243217111 ], [ 5225133.260724089108407, 6793064.925148364156485 ], [ 5225187.401711970567703, 6793053.019599663093686 ], [ 5225266.495613542385399, 6793049.300794176757336 ], [ 5225296.840518072247505, 6793040.03364313300699 ], [ 5225304.769498535431921, 6793006.223896266892552 ], [ 5225299.79198064096272, 6792995.472608827054501 ], [ 5225297.870970972813666, 6792987.468027273193002 ], [ 5225299.94594962708652, 6792970.91065819375217 ], [ 5225322.181969170458615, 6792907.891949633136392 ], [ 5225373.413552436977625, 6792851.916035044938326 ], [ 5225303.491293510422111, 6792857.430978001095355 ], [ 5225253.577764033339918, 6792858.106557566672564 ], [ 5225118.371888973750174, 6792860.047936894930899 ], [ 5225028.026944065466523, 6792851.195681883022189 ], [ 5224820.684834198094904, 6792942.138709705322981 ], [ 5224668.925083858892322, 6793005.727976375259459 ], [ 5224658.27336214762181, 6793009.462902684696019 ], [ 5224564.415356621146202, 6793044.047099375165999 ], [ 5224474.280091724358499, 6793033.988363724201918 ], [ 5224279.349098425358534, 6793026.522065514698625 ], [ 5224212.81583328358829, 6793073.538983549922705 ], [ 5224157.654849395155907, 6793070.129904635250568 ], [ 5224102.302253264002502, 6793012.193705717101693 ], [ 5224055.364970829337835, 6793001.991061283275485 ], [ 5223953.253014603629708, 6792978.606025669723749 ], [ 5223924.955219097435474, 6792958.268429135903716 ], [ 5223844.85515577159822, 6792900.567610951140523 ], [ 5223849.779789491556585, 6792868.980545667000115 ], [ 5223990.644711051136255, 6792853.222727234475315 ], [ 5224240.812927421182394, 6792865.731612345203757 ], [ 5224302.896901244297624, 6792821.108192473649979 ], [ 5224358.509774582460523, 6792737.542533840984106 ], [ 5224415.303900085389614, 6792714.72935338690877 ], [ 5224452.59392774105072, 6792670.598601183854043 ], [ 5224530.190852714702487, 6792638.694422928616405 ], [ 5224556.977339297533035, 6792544.840391383506358 ], [ 5224559.149737944826484, 6792460.140006264671683 ], [ 5224571.7403873950243, 6792420.826938565820456 ], [ 5224542.198675913736224, 6792373.649013457819819 ], [ 5224468.508188679814339, 6792409.814555129036307 ], [ 5224345.982899591326714, 6792485.997677718289196 ], [ 5224291.310817307792604, 6792519.61778780631721 ], [ 5224224.859886145219207, 6792536.106928650289774 ], [ 5224182.484038742259145, 6792515.222916536964476 ], [ 5223914.019930780865252, 6792542.147463295608759 ], [ 5223732.852475146763027, 6792545.664213139563799 ], [ 5223559.189464199356735, 6792542.521357268095016 ], [ 5223500.452132371254265, 6792563.193818788975477 ], [ 5223348.330158739350736, 6792687.692172912880778 ], [ 5223265.345048680901527, 6792737.05206716991961 ], [ 5223245.212579143233597, 6792780.857531023211777 ], [ 5223203.509578173980117, 6792794.687298592180014 ], [ 5223132.899369386956096, 6792793.879710655659437 ], [ 5223045.850261664949358, 6792830.294053809717298 ], [ 5223001.195701530203223, 6792854.862112672999501 ], [ 5222845.681647235527635, 6792844.136058555915952 ], [ 5222769.64658226352185, 6792853.214530512690544 ], [ 5222599.485432958230376, 6792828.137315604835749 ], [ 5222483.409605498425663, 6792803.334268137812614 ], [ 5222374.654530671425164, 6792769.858914077281952 ], [ 5222259.883352914825082, 6792747.435584280639887 ], [ 5222176.828671803697944, 6792741.304791025817394 ], [ 5222077.241630366072059, 6792807.691687578335404 ], [ 5222041.636335271410644, 6792893.732659222558141 ], [ 5222037.37826569005847, 6793059.977410905994475 ], [ 5222067.662730924785137, 6793122.908853228203952 ], [ 5222103.79205980245024, 6793162.278536280617118 ], [ 5222101.436827034689486, 6793184.774727458134294 ], [ 5222081.403903862461448, 6793188.954070331528783 ], [ 5222036.770332703366876, 6793180.850870484486222 ], [ 5222012.048249078914523, 6793164.788178032264113 ], [ 5221986.480417903512716, 6793114.399953790009022 ], [ 5221968.661480411887169, 6793078.593120466917753 ], [ 5221954.679952984675765, 6793041.05965943261981 ], [ 5221926.058416521176696, 6792964.186237801797688 ], [ 5221791.9820660892874, 6792922.973300831392407 ], [ 5221553.878922167234123, 6792955.724627040326595 ], [ 5221515.748822294175625, 6792987.182699804194272 ], [ 5221476.046986246481538, 6792988.078352988697588 ], [ 5221431.406558103859425, 6792979.551538806408644 ], [ 5221311.700709704309702, 6793014.460638722404838 ], [ 5221259.110287576913834, 6793054.503374963998795 ], [ 5221168.328623154200613, 6793077.652757848612964 ], [ 5221131.894276820123196, 6793118.305658243596554 ], [ 5221072.982240939512849, 6793183.636927355080843 ], [ 5221034.567185078747571, 6793222.719054469838738 ], [ 5220961.109632954932749, 6793232.16850696131587 ], [ 5220927.249682864174247, 6793247.4588966621086 ], [ 5220900.861406121402979, 6793190.639791446737945 ], [ 5220845.963447320275009, 6793147.954581843689084 ], [ 5220739.724422154016793, 6793068.039308551698923 ], [ 5220645.735415109433234, 6793008.176423870027065 ], [ 5220576.181524438783526, 6792963.219273266382515 ], [ 5220504.231692111119628, 6792931.107944117859006 ], [ 5220414.085635700263083, 6792951.821116999723017 ], [ 5220353.159763877280056, 6792944.555401924997568 ], [ 5220286.890451669692993, 6792898.44683482311666 ], [ 5220176.233727309852839, 6792873.29561478830874 ], [ 5220053.386776590719819, 6792853.544948647730052 ], [ 5220028.038465079851449, 6792839.730854963883758 ], [ 5220006.543199534527957, 6792830.62391560152173 ], [ 5219996.568956717848778, 6792830.071035237982869 ], [ 5219993.226080849766731, 6792852.618596356362104 ], [ 5219999.520523980259895, 6792897.410622524097562 ], [ 5219988.484193867072463, 6792963.342138569802046 ], [ 5219954.088833767920732, 6792985.33951261267066 ], [ 5219872.529024789109826, 6793000.338508846238256 ], [ 5219799.251828459091485, 6793020.747301030904055 ], [ 5219784.986362872645259, 6793023.193244252353907 ], [ 5219702.44564819522202, 6793036.878639988601208 ], [ 5219652.948901497758925, 6793013.884709598496556 ], [ 5219645.419664950110018, 6792947.697241988033056 ], [ 5219657.06509487144649, 6792878.837379595264792 ], [ 5219644.191172614693642, 6792829.944500943645835 ], [ 5219605.559852229431272, 6792778.480755176395178 ], [ 5219595.157443312928081, 6792763.116616958752275 ], [ 5219569.729812665842474, 6792727.684550895355642 ], [ 5219556.523799912072718, 6792705.363552117720246 ], [ 5219581.482018675655127, 6792663.403773123398423 ], [ 5219600.649319602176547, 6792631.182175633497536 ], [ 5219600.957400244660676, 6792581.827456697821617 ], [ 5219511.955888074822724, 6792514.063365880399942 ], [ 5219478.687315046787262, 6792507.642111482098699 ], [ 5219404.550007042475045, 6792483.729829628020525 ], [ 5219304.987895427271724, 6792440.334941319189966 ], [ 5219265.166466643102467, 6792393.817786823958158 ], [ 5219203.455718187615275, 6792341.982102360576391 ], [ 5219053.466604048386216, 6792239.635512651875615 ], [ 5218565.165693309158087, 6791906.413923056796193 ], [ 5218529.600232250057161, 6791882.06454473733902 ], [ 5218515.191447645425797, 6791872.255019851960242 ], [ 5218493.090167355723679, 6791857.244922835379839 ], [ 5218323.388719905167818, 6791715.043718777596951 ], [ 5217468.189260089769959, 6791842.740059411153197 ], [ 5217101.388154565356672, 6791675.943383511155844 ], [ 5216874.587953269481659, 6791746.942038064822555 ], [ 5216608.190269809216261, 6792017.846359893679619 ], [ 5216483.088061038404703, 6792323.637149158865213 ], [ 5216536.285415785387158, 6792490.746776727028191 ], [ 5216889.491810647770762, 6792895.440300705842674 ], [ 5217075.389701231382787, 6792986.645161600783467 ], [ 5217338.989654083736241, 6792999.039040225557983 ], [ 5217772.589221554808319, 6792796.139337567612529 ], [ 5218651.584776455536485, 6792701.239918758161366 ], [ 5218812.983284874819219, 6792781.54618407599628 ], [ 5218910.189196456223726, 6792993.54510111361742 ], [ 5218882.188233218155801, 6793174.344736380502582 ], [ 5218800.49079433362931, 6793333.33553915284574 ], [ 5218626.99139788094908, 6793414.336467437446117 ], [ 5217769.891251222230494, 6793164.443816550076008 ], [ 5217619.091703454963863, 6793191.038241427391768 ], [ 5217427.884453172795475, 6793444.945419563911855 ], [ 5217386.084239051677287, 6793729.342993951402605 ], [ 5217435.18838641885668, 6794068.939825687557459 ], [ 5217628.286923839710653, 6794512.337287800386548 ], [ 5217627.989874891936779, 6794692.043349251151085 ], [ 5217627.488410166464746, 6794963.838428875431418 ], [ 5217031.689938383176923, 6795235.739980533719063 ], [ 5216509.288699049502611, 6795287.545333079993725 ], [ 5216342.686983841471374, 6795631.343649041838944 ], [ 5224814.801372111774981, 6796100.044868936762214 ], [ 5224856.487624908797443, 6796102.338983764871955 ], [ 5227151.489172886125743, 6796224.037768183276057 ], [ 5227214.228442569263279, 6795046.236352644860744 ], [ 5227107.017631067894399, 6795048.468534078449011 ], [ 5226963.207755921408534, 6795051.075634088367224 ], [ 5226910.214768623933196, 6795034.979469600133598 ], [ 5226871.575384224765003, 6795047.142339040525258 ], [ 5226786.52459882479161, 6795052.607585636898875 ] ] ] } }
]
}
