{
"type": "FeatureCollection",
"name": "4305603",
"crs": { "type": "name", "properties": { "name": "urn:ogc:def:crs:EPSG::5880" } },
"features": [
{ "type": "Feature", "properties": { "lv_id": "LOC_070350", "id": 419434.0, "CD_SETOR": "430560305000001", "SITUACAO": "Urbana", "CD_SIT": "1", "CD_TIPO": "0", "AREA_KM2": 1.1401276745303179, "CD_REGIAO": "4", "NM_REGIAO": "Sul", "CD_UF": "43", "NM_UF": "Rio Grande do Sul", "CD_MUN": "4305603", "NM_MUN": "Colorado", "CD_DIST": "430560305", "NM_DIST": "Colorado", "CD_SUBDIST": "43056030500", "NM_SUBDIST": null, "CD_BAIRRO": null, "NM_BAIRRO": null, "CD_NU": null, "NM_NU": null, "CD_FCU": null, "NM_FCU": null, "CD_AGLOM": null, "NM_AGLOM": null, "CD_RGINT": "4306", "NM_RGINT": "Passo Fundo", "CD_RGI": "430028", "NM_RGI": "Carazinho", "CD_CONCURB": null, "NM_CONCURB": null, "mun_code_x": "4305603", "index_right": 69986, "dist_m": 0.0, "local_id": 735984, "ano": 2022, "cod_localidade_ibge": 4305603, "NR_ZONA": "117", "nr_cep": 99460000.0, "nm_localidade": "COLORADO", "nm_locvot": "ESCOLA E.E.M. ARMINDO EDWINO SCHWENGBER (CENTRO)", "ds_endereco": "AV. BOA ESPERANCA, 264", "ds_bairro": "CENTRO", "pred_long": -52.994775, "pred_lat": -28.523497, "pred_dist": 0.0, "tse_long": -52.99455, "tse_lat": -28.523639, "long": -52.99455, "lat": -28.523639, "ID_UNICO": "LOC_070350", "SG_UF": "RS", "CD_MUNICIPIO": "86096", "NR_LOCAL_VOTACAO": "1023", "QT_SECOES_AGREGADAS": 0, "QT_ELEITORES_TRANSFERIDOS": 0, "CIRO GOMES (PDT) (NÃO ELEITO) 1T": 23.0, "CONSTITUINTE EYMAEL (DC) (NÃO ELEITO) 1T": 0.0, "FELIPE D AVILA (NOVO) (NÃO ELEITO) 1T": 5.0, "JAIR BOLSONARO (PL) (2º TURNO) 1T": 1051.0, "LULA (PT) (2º TURNO) 1T": 326.0, "LÉO PÉRICLES (UP) (NÃO ELEITO) 1T": 1.0, "PADRE KELMON (PTB) (NÃO ELEITO) 1T": 0.0, "SIMONE TEBET (MDB) (NÃO ELEITO) 1T": 93.0, "SOFIA MANZANO (PCB) (NÃO ELEITO) 1T": 0.0, "SORAYA THRONICKE (UNIÃO) (NÃO ELEITO) 1T": 2.0, "VERA (PSTU) (NÃO ELEITO) 1T": 0.0, "Total_Votos_Validos 1T": 1501.0, "Votos_Brancos 1T": 33.0, "Votos_Nulos 1T": 27.0, "Abstenções 1T": 303.0, "Eleitores_Aptos 1T": 1864.0, "JAIR BOLSONARO (PL) (NÃO ELEITO) 2T": 1187.0, "LULA (PT) (ELEITO) 2T": 354.0, "Total_Votos_Validos 2T": 1541.0, "Votos_Brancos 2T": 30.0, "Votos_Nulos 2T": 20.0, "Abstenções 2T": 273.0, "Eleitores_Aptos 2T": 1864.0, "mun_code_y": "4305603", "mun_code": "4305603" }, "geometry": { "type": "Polygon", "coordinates": [ [ [ 5099092.183329134248197, 6842769.13809597864747 ], [ 5098977.521995679475367, 6842665.633401118218899 ], [ 5098898.916080292314291, 6842621.84675588645041 ], [ 5098733.901111379265785, 6842564.088435652665794 ], [ 5098776.925718821585178, 6842455.408544906415045 ], [ 5098669.177196940407157, 6842415.578886708244681 ], [ 5098552.059884566813707, 6842371.958411186933517 ], [ 5098408.545744587667286, 6842323.703062875196338 ], [ 5098276.028350412845612, 6842285.252427889034152 ], [ 5098169.618948613293469, 6842260.02756061218679 ], [ 5098156.417486940510571, 6842255.626544278115034 ], [ 5098150.300622342154384, 6842253.34993617143482 ], [ 5098096.956567185930908, 6842238.089027747511864 ], [ 5098027.927797699347138, 6842221.085574839264154 ], [ 5097501.198333912529051, 6842071.652370540425181 ], [ 5097134.795267404988408, 6841968.622393494471908 ], [ 5096716.684819507412612, 6841761.447551535442472 ], [ 5096514.723215077072382, 6841658.106765420176089 ], [ 5096457.372980875894427, 6841628.760993307456374 ], [ 5096340.375491781160235, 6841544.094431618228555 ], [ 5096276.786916859447956, 6841449.722153475508094 ], [ 5096231.632890301756561, 6841333.217932397499681 ], [ 5095997.194066272117198, 6840825.973416330292821 ], [ 5095830.755551531910896, 6840384.155127661302686 ], [ 5095780.02607209328562, 6840054.828838723711669 ], [ 5095739.880373446270823, 6839794.20610025152564 ], [ 5095707.326999423094094, 6839509.257338851690292 ], [ 5095675.331528429873288, 6839293.737015642225742 ], [ 5095677.178572597913444, 6839235.872086394578218 ], [ 5095717.519719055853784, 6839048.403686242178082 ], [ 5095643.672103380784392, 6838938.139334401115775 ], [ 5095478.953333863057196, 6838799.085841158404946 ], [ 5095432.870821698568761, 6838842.923218033276498 ], [ 5095340.002459018491209, 6838850.240721458569169 ], [ 5095306.686111077666283, 6838990.076072106137872 ], [ 5095181.565327011048794, 6839046.880458205938339 ], [ 5094753.368412940762937, 6839025.153402114287019 ], [ 5094748.298045753501356, 6839249.000358680263162 ], [ 5094661.974334852769971, 6839358.380404459312558 ], [ 5094733.964665639214218, 6839434.603164215572178 ], [ 5094724.561348855495453, 6839565.519807860255241 ], [ 5094744.224465879611671, 6839624.152829276397824 ], [ 5094907.492497628554702, 6839514.704078800976276 ], [ 5094945.844812759198248, 6839687.920605704188347 ], [ 5095056.571498895063996, 6839833.050210296176374 ], [ 5094971.347347253002226, 6839969.669033198617399 ], [ 5094754.206349540501833, 6840051.853696206584573 ], [ 5094537.621625173836946, 6840673.463971262797713 ], [ 5094411.090223266743124, 6840567.407390672713518 ], [ 5094358.108995461836457, 6840127.217151132412255 ], [ 5094119.529387800954282, 6840077.668861804530025 ], [ 5094053.978662069886923, 6840168.687701765447855 ], [ 5093820.729030160233378, 6840162.696639021858573 ], [ 5093603.443468759767711, 6840114.120366301387548 ], [ 5093554.885393821634352, 6840164.442895404994488 ], [ 5093734.600079100579023, 6840321.681366883218288 ], [ 5093604.065080650150776, 6840369.876581313088536 ], [ 5093505.15742848161608, 6840302.551773412153125 ], [ 5093388.157327031716704, 6840429.590709397569299 ], [ 5093406.560253418982029, 6840618.266578247770667 ], [ 5093560.21822480019182, 6840819.72017658688128 ], [ 5093456.474965720437467, 6840921.037853012792766 ], [ 5093608.772810338996351, 6841069.185886587947607 ], [ 5093691.324084286578, 6841591.410305018536747 ], [ 5093767.821699717082083, 6841618.432763792574406 ], [ 5093863.590433267876506, 6841526.686726979911327 ], [ 5093893.880523594096303, 6841646.432838512584567 ], [ 5093829.210930588655174, 6841780.494517585262656 ], [ 5093627.59823935944587, 6841801.09191123675555 ], [ 5093593.783516999334097, 6842016.021353067830205 ], [ 5093311.253999774344265, 6842025.752447748556733 ], [ 5093131.024765592068434, 6841909.722834446467459 ], [ 5092937.797463095746934, 6841845.113988636061549 ], [ 5092747.511715951375663, 6841694.198304921388626 ], [ 5092680.174414288252592, 6841717.674766318872571 ], [ 5092715.622764649800956, 6841841.417452240362763 ], [ 5092635.735474303364754, 6841976.323765420354903 ], [ 5092655.701303845271468, 6842103.957433716394007 ], [ 5092518.85239592473954, 6842204.817823316901922 ], [ 5092453.756875807419419, 6842442.568328481167555 ], [ 5092587.650685723870993, 6842589.633001431822777 ], [ 5092496.143700419925153, 6842849.538749547675252 ], [ 5092406.847548120655119, 6842964.266071995720267 ], [ 5092238.939590144902468, 6842944.537037238478661 ], [ 5092182.690727109089494, 6843174.601068243384361 ], [ 5092211.821504226885736, 6843269.364811662584543 ], [ 5092297.276845874264836, 6843342.947276271879673 ], [ 5092330.325667361728847, 6843483.945822073146701 ], [ 5092341.863852078095078, 6843520.943177185021341 ], [ 5092304.1075539868325, 6843549.493818785995245 ], [ 5092212.743600692600012, 6843525.216362405568361 ], [ 5092112.135179196484387, 6843445.478411284275353 ], [ 5092007.097327956929803, 6843472.40519124828279 ], [ 5091983.118934568017721, 6843547.932892954908311 ], [ 5092079.090540810488164, 6843695.510871078819036 ], [ 5092098.043538914993405, 6843784.358022065833211 ], [ 5092034.805286752991378, 6843877.939464081078768 ], [ 5092046.947510630823672, 6844017.096160458400846 ], [ 5091902.110581361688673, 6843993.911192077212036 ], [ 5091824.358214289881289, 6844033.170048986561596 ], [ 5091807.075362917967141, 6844334.475835156626999 ], [ 5092043.410084421746433, 6844380.278072830289602 ], [ 5092064.608018303290009, 6844580.648684301413596 ], [ 5091909.750061644241214, 6844678.970247339457273 ], [ 5091767.748632439412177, 6844623.738760729320347 ], [ 5091482.661874189972878, 6844837.549015858210623 ], [ 5091354.937754130922258, 6844901.14644530788064 ], [ 5091336.143681105226278, 6845043.835901020094752 ], [ 5091161.306753883138299, 6845083.500504540279508 ], [ 5091118.869402760639787, 6845301.069488676264882 ], [ 5091003.066956995986402, 6845253.916545671410859 ], [ 5090931.448770137503743, 6845319.40224502235651 ], [ 5091030.78314321860671, 6845408.138465344905853 ], [ 5090995.075314710848033, 6845468.546880206093192 ], [ 5090889.426948075182736, 6845416.658802909776568 ], [ 5090807.610788585618138, 6845437.209515124559402 ], [ 5090776.044589029625058, 6845603.04046278540045 ], [ 5090715.486253717914224, 6845668.516878126189113 ], [ 5090592.205355191603303, 6845598.938777301460505 ], [ 5090480.489349614828825, 6845683.3852194622159 ], [ 5090473.027934833429754, 6845809.204029150307178 ], [ 5090544.751930668018758, 6845909.274228041060269 ], [ 5090423.451472993940115, 6846127.934757142327726 ], [ 5090506.952066355384886, 6846278.436392448842525 ], [ 5090256.194246642291546, 6846434.323327774181962 ], [ 5090227.586932392790914, 6846441.049295302480459 ], [ 5090212.71081970538944, 6846452.114611270837486 ], [ 5090204.012849781662226, 6846463.165766998194158 ], [ 5090199.148138315416873, 6846481.237053133547306 ], [ 5090181.362500575371087, 6846498.498534662649035 ], [ 5090174.613624477759004, 6846532.623070982284844 ], [ 5090164.469681642949581, 6846579.852968022227287 ], [ 5090158.473423156887293, 6846635.530449524521828 ], [ 5090187.512418205849826, 6846640.339991660788655 ], [ 5090226.631711402907968, 6846666.209660445339978 ], [ 5090234.361096732318401, 6846688.418475988321006 ], [ 5090292.212804556824267, 6846742.486439725384116 ], [ 5090286.477248720824718, 6846772.114160804077983 ], [ 5090290.503797360695899, 6846791.535987525247037 ], [ 5090312.455861662514508, 6846832.26806091889739 ], [ 5090318.903239222243428, 6846846.882920709438622 ], [ 5090398.245850226841867, 6846892.937722189351916 ], [ 5090441.91660594753921, 6846905.692385355010629 ], [ 5090474.480536499992013, 6846907.847183417528868 ], [ 5090497.61993204895407, 6846908.079263482242823 ], [ 5090509.49850763939321, 6846895.529224459081888 ], [ 5090509.197689062915742, 6846864.074612879194319 ], [ 5090509.01587744615972, 6846831.543917769566178 ], [ 5090520.830279506742954, 6846804.307805398479104 ], [ 5090556.62071624211967, 6846793.169754921458662 ], [ 5090600.200175687670708, 6846801.723619665019214 ], [ 5090682.020003953948617, 6846837.504572901874781 ], [ 5090691.627450448460877, 6846846.641452990472317 ], [ 5090696.554718729108572, 6846858.341616777703166 ], [ 5090692.04805152118206, 6846910.073053199797869 ], [ 5090720.318252144381404, 6846972.502878720872104 ], [ 5090720.916466785594821, 6847034.824683200567961 ], [ 5090715.566654901951551, 6847050.871522417291999 ], [ 5090706.080966116860509, 6847056.276179179549217 ], [ 5090678.586445017717779, 6847060.179228447377682 ], [ 5090660.14772760681808, 6847080.394844211637974 ], [ 5090663.245783401653171, 6847113.922806343063712 ], [ 5090678.391713140532374, 6847145.418154502287507 ], [ 5090711.91058670450002, 6847177.348176645115018 ], [ 5090720.901026537641883, 6847194.049215365201235 ], [ 5090717.72311697807163, 6847274.611449397169054 ], [ 5090723.776849037967622, 6847297.763965466059744 ], [ 5090728.386025622487068, 6847313.900245327502489 ], [ 5090764.834184965118766, 6847329.447271349839866 ], [ 5090773.22039507701993, 6847349.034825013019145 ], [ 5090764.098441883921623, 6847363.536831581965089 ], [ 5090709.326031518168747, 6847403.43013705406338 ], [ 5090701.220422914251685, 6847427.8445989433676 ], [ 5090768.424700588919222, 6847454.670900489203632 ], [ 5090765.283004158176482, 6847475.178721876814961 ], [ 5090717.667973550967872, 6847473.151844167150557 ], [ 5090698.632955441251397, 6847483.418489513918757 ], [ 5090686.912526259198785, 6847512.726764330640435 ], [ 5090682.124225514940917, 6847558.463769087567925 ], [ 5090664.318908722139895, 6847580.924557900056243 ], [ 5090631.327436837367713, 6847644.26994445733726 ], [ 5090623.861210444010794, 6847670.375287669710815 ], [ 5090637.061217753216624, 6847695.800461262464523 ], [ 5090662.523398447781801, 6847710.069114601239562 ], [ 5090736.991864616051316, 6847735.210277639329433 ], [ 5090754.613615720532835, 6847757.486567265354097 ], [ 5090746.439341574907303, 6847775.56142084300518 ], [ 5090731.786460793577135, 6847785.262256227433681 ], [ 5090669.580147922039032, 6847792.203926549293101 ], [ 5090652.325332292355597, 6847807.367044802755117 ], [ 5090649.129118025302887, 6847829.73737746104598 ], [ 5090676.237014506943524, 6847863.102453116327524 ], [ 5090691.554426992312074, 6847911.643931871280074 ], [ 5090693.329649821855128, 6847953.927472539246082 ], [ 5090706.194949650205672, 6847966.364497835747898 ], [ 5090772.384579872712493, 6847948.86196257174015 ], [ 5090790.072377281263471, 6847966.958959993906319 ], [ 5090795.757707352750003, 6847990.535476051270962 ], [ 5090791.675763861276209, 6848013.57773554418236 ], [ 5090742.057527529075742, 6848023.814359637908638 ], [ 5090735.814970704726875, 6848039.712879123166203 ], [ 5090748.823640645481646, 6848055.485093155875802 ], [ 5090784.308815269730985, 6848098.229041124694049 ], [ 5090789.01083262078464, 6848114.929870038293302 ], [ 5090782.242081014439464, 6848128.626721425913274 ], [ 5090749.469219685532153, 6848162.04339805804193 ], [ 5090734.831230822019279, 6848200.407780368812382 ], [ 5090729.180773311294615, 6848258.820618854835629 ], [ 5090739.171852814033628, 6848297.238914819434285 ], [ 5090742.579096867702901, 6848373.349831070750952 ], [ 5090704.349748185835779, 6848400.279843240976334 ], [ 5090692.338304380886257, 6848440.242188205942512 ], [ 5090701.991839529946446, 6848478.06456370651722 ], [ 5090700.419900611042976, 6848534.583779387176037 ], [ 5090722.633104554377496, 6848555.261873748153448 ], [ 5090743.035466702654958, 6848560.801830660551786 ], [ 5090766.84035540279001, 6848527.543076778762043 ], [ 5090795.491122097708285, 6848504.244804553687572 ], [ 5090837.316756885498762, 6848462.3674445329234 ], [ 5090865.448530693538487, 6848455.599503122270107 ], [ 5090891.180690763518214, 6848472.880523799918592 ], [ 5090923.818904422223568, 6848520.833471384830773 ], [ 5090943.065769624896348, 6848516.239988426677883 ], [ 5090967.421552856452763, 6848487.188535246066749 ], [ 5090998.158384825102985, 6848467.775256831198931 ], [ 5091040.930862310342491, 6848464.850720003247261 ], [ 5091082.971556690521538, 6848453.419038598425686 ], [ 5091112.417117539793253, 6848450.663891138508916 ], [ 5091127.128005144186318, 6848454.706547998823225 ], [ 5091193.558149595744908, 6848569.057342568412423 ], [ 5091188.042045065201819, 6848599.049554262310266 ], [ 5091164.690920018590987, 6848619.95789684727788 ], [ 5091124.307331211864948, 6848638.049696093425155 ], [ 5091077.949165122583508, 6848671.23990876507014 ], [ 5091043.794434159062803, 6848707.150907713919878 ], [ 5091025.873402927070856, 6848733.791802980005741 ], [ 5091024.337046381086111, 6848763.065913051366806 ], [ 5091039.799870840273798, 6848912.383169278502464 ], [ 5091040.437989772297442, 6848942.970555556938052 ], [ 5091022.40454239398241, 6848944.994344281032681 ], [ 5090985.608684421516955, 6848926.956717060878873 ], [ 5090952.71394648309797, 6848928.352637683972716 ], [ 5090930.186999833211303, 6848924.248210355639458 ], [ 5090907.192599901929498, 6848952.180603391490877 ], [ 5090894.590714814141393, 6848982.892408335581422 ], [ 5090890.53179079759866, 6849003.872832966968417 ], [ 5090895.035450734198093, 6849018.923607168719172 ], [ 5090993.512880236841738, 6849093.036264417693019 ], [ 5091012.581967403180897, 6849122.328388024121523 ], [ 5091023.619364471174777, 6849164.141204185783863 ], [ 5091027.850945350714028, 6849198.436156125739217 ], [ 5091011.637612400576472, 6849220.585774578154087 ], [ 5090968.072199133224785, 6849244.188209382817149 ], [ 5090920.490257524885237, 6849258.787905903533101 ], [ 5090894.819524389691651, 6849280.123664624989033 ], [ 5090871.022816501557827, 6849322.21661919541657 ], [ 5090851.470626350492239, 6849374.984059827402234 ], [ 5090853.983624546788633, 6849394.77206180151552 ], [ 5090860.093651166185737, 6849408.569020688533783 ], [ 5090877.254949600435793, 6849415.264391507953405 ], [ 5090904.579249017871916, 6849400.023290729150176 ], [ 5090985.168349234387279, 6849376.788977144286036 ], [ 5091029.651802813634276, 6849351.527858525514603 ], [ 5091039.707215525209904, 6849337.251274529844522 ], [ 5091040.802963599562645, 6849319.375119872391224 ], [ 5091031.947083171457052, 6849277.268346657976508 ], [ 5091033.329294752329588, 6849260.975012306123972 ], [ 5091043.542999118566513, 6849243.117009377107024 ], [ 5091056.767744833603501, 6849237.228776397183537 ], [ 5091076.157871347852051, 6849242.144229143857956 ], [ 5091127.543286398984492, 6849263.460421692579985 ], [ 5091149.331532291136682, 6849261.872949196025729 ], [ 5091165.607983697205782, 6849268.131384341046214 ], [ 5091186.544693967327476, 6849281.780093611218035 ], [ 5091249.31010306533426, 6849325.763417296111584 ], [ 5091283.319493417628109, 6849345.462333742529154 ], [ 5091313.943714619614184, 6849370.640830450691283 ], [ 5091315.514068300835788, 6849387.487681724131107 ], [ 5091313.095685758627951, 6849401.461419861763716 ], [ 5091299.259345265105367, 6849411.843772150576115 ], [ 5091271.940800610929728, 6849408.819040085189044 ], [ 5091246.805703866295516, 6849398.140324421226978 ], [ 5091203.492842658422887, 6849386.106044759973884 ], [ 5091174.271910618059337, 6849389.081281076185405 ], [ 5091157.861048475839198, 6849403.429368859156966 ], [ 5091148.38126203045249, 6849419.940600853413343 ], [ 5091157.67813731636852, 6849430.398573825135827 ], [ 5091172.916434960439801, 6849431.566325851716101 ], [ 5091194.841692478395998, 6849422.34072407335043 ], [ 5091229.244987925514579, 6849420.810557136312127 ], [ 5091254.137772416695952, 6849425.494651257060468 ], [ 5091277.712568189948797, 6849439.555040828883648 ], [ 5091286.324510158039629, 6849457.655223729088902 ], [ 5091280.171944072470069, 6849468.753854881972075 ], [ 5091266.98613493796438, 6849477.158137418329716 ], [ 5091196.141809834167361, 6849499.143962459638715 ], [ 5091172.491124905645847, 6849515.753897306509316 ], [ 5091162.192397838458419, 6849534.022776778787374 ], [ 5091162.414633565582335, 6849546.280147290788591 ], [ 5091168.565400898456573, 6849582.987620621919632 ], [ 5091182.496211566962302, 6849618.903278607875109 ], [ 5091207.396072892472148, 6849652.262175573036075 ], [ 5091226.103966948576272, 6849665.096786810085177 ], [ 5091244.204464646056294, 6849665.266870584338903 ], [ 5091255.837059393525124, 6849654.82409162260592 ], [ 5091269.545427024364471, 6849615.258173104375601 ], [ 5091286.707642431370914, 6849580.320804292336106 ], [ 5091299.987787287682295, 6849570.175557461567223 ], [ 5091313.134971999563277, 6849568.144941419363022 ], [ 5091333.853572019375861, 6849570.001537472009659 ], [ 5091354.453535386361182, 6849580.549011235125363 ], [ 5091365.323884479701519, 6849605.681150385178626 ], [ 5091369.117695708759129, 6849633.905268341302872 ], [ 5091379.985818265937269, 6849644.860752582550049 ], [ 5091397.776149090379477, 6849650.497505394741893 ], [ 5091455.257300998084247, 6849649.31955277454108 ], [ 5091465.744048544205725, 6849657.817236144095659 ], [ 5091463.793915855698287, 6849669.016322052106261 ], [ 5091447.719525943510234, 6849680.036939992569387 ], [ 5091430.398451199755073, 6849686.910650879144669 ], [ 5091413.940428663045168, 6849691.416704825125635 ], [ 5091399.795090962201357, 6849723.847985015250742 ], [ 5091398.845519658178091, 6849776.893129369243979 ], [ 5091377.327856003306806, 6849824.821856088936329 ], [ 5091380.50646498799324, 6849835.604253448545933 ], [ 5091396.187279629521072, 6849841.97786112036556 ], [ 5091411.892746899276972, 6849840.171137377619743 ], [ 5091426.117648805491626, 6849776.348852155730128 ], [ 5091437.11208395473659, 6849760.668034857138991 ], [ 5091452.546082822605968, 6849760.492734966799617 ], [ 5091465.278826954774559, 6849770.646684596315026 ], [ 5091473.151567520573735, 6849847.332350348122418 ], [ 5091474.744451137259603, 6849893.518814338371158 ], [ 5091490.680963058955967, 6849961.773258162662387 ], [ 5091507.215538604184985, 6849994.797529019415379 ], [ 5091522.326995838433504, 6849998.448695070110261 ], [ 5091533.653874469920993, 6849996.54284012876451 ], [ 5091553.610528319142759, 6849975.881954497657716 ], [ 5091566.337476711720228, 6849968.877543572336435 ], [ 5091580.075024131685495, 6849970.921030068770051 ], [ 5091573.297237046994269, 6849999.859109081327915 ], [ 5091569.317961039952934, 6850041.056684373877943 ], [ 5091569.099181143566966, 6850065.820432574488223 ], [ 5091577.974290612153709, 6850091.200674084946513 ], [ 5091604.214118771255016, 6850110.205439260229468 ], [ 5091627.568399014882743, 6850123.391242465004325 ], [ 5091653.05074514541775, 6850129.366806205362082 ], [ 5091674.132064617238939, 6850128.615232987329364 ], [ 5091707.884871313348413, 6850114.984879614785314 ], [ 5091759.282212917692959, 6850110.804753456264734 ], [ 5091784.398582275956869, 6850127.623215395957232 ], [ 5091781.205788368359208, 6850156.544561075977981 ], [ 5091754.620938984677196, 6850176.270989198237658 ], [ 5091741.142302223481238, 6850199.95205857232213 ], [ 5091745.827159469015896, 6850225.497840899974108 ], [ 5091763.810202429071069, 6850245.675013139843941 ], [ 5091786.454658753238618, 6850251.927349826321006 ], [ 5091827.415227974765003, 6850239.40431746840477 ], [ 5091854.15075492952019, 6850227.69041536282748 ], [ 5091876.969202168285847, 6850232.389435942284763 ], [ 5091887.611454938538373, 6850251.925397558137774 ], [ 5091922.498159746639431, 6850298.217765005305409 ], [ 5091926.19659355096519, 6850317.796812830492854 ], [ 5091912.398417976684868, 6850345.692563368007541 ], [ 5091877.165112432092428, 6850371.738232688978314 ], [ 5091855.352656856179237, 6850401.868932353332639 ], [ 5091847.719381022267044, 6850434.094756746664643 ], [ 5091858.614360365085304, 6850447.089107504114509 ], [ 5091878.726370044052601, 6850451.332629032433033 ], [ 5091904.454940394498408, 6850439.803834072314203 ], [ 5091928.159306071698666, 6850447.521836346946657 ], [ 5091951.383793022483587, 6850462.769697941839695 ], [ 5091960.761302917264402, 6850480.852362081408501 ], [ 5091950.484489454887807, 6850504.397818726487458 ], [ 5091927.371909283101559, 6850537.376345364376903 ], [ 5091914.233416787348688, 6850574.533304734155536 ], [ 5091910.236845145002007, 6850594.571437291800976 ], [ 5091917.435409765690565, 6850618.346237931400537 ], [ 5091943.323090044781566, 6850627.155597790144384 ], [ 5091947.907352637499571, 6850647.27084394544363 ], [ 5091922.000135048292577, 6850654.788638620637357 ], [ 5091903.091326248832047, 6850660.433960305526853 ], [ 5091901.091676217503846, 6850680.323492674157023 ], [ 5091900.30794669687748, 6850721.729005366563797 ], [ 5091906.448158566839993, 6850761.750385764986277 ], [ 5091905.098156061023474, 6850799.624461812898517 ], [ 5091895.221368846483529, 6850823.022630999796093 ], [ 5091882.512330451048911, 6850828.652786931023002 ], [ 5091863.610473850741982, 6850831.460431229323149 ], [ 5091847.023314202204347, 6850824.617848888039589 ], [ 5091836.147315052337945, 6850824.148448949679732 ], [ 5091812.688502625562251, 6850830.42763563990593 ], [ 5091792.892115391790867, 6850834.08453587628901 ], [ 5091776.270577906630933, 6850836.652583474293351 ], [ 5091770.248095122165978, 6850849.401968687772751 ], [ 5091763.607359254732728, 6850864.517095034010708 ], [ 5091751.182298356667161, 6850882.72542405128479 ], [ 5091748.002899883314967, 6850898.323447216302156 ], [ 5091744.697178089059889, 6850920.340185944922268 ], [ 5091716.755836557596922, 6850932.14074975810945 ], [ 5091706.36251487582922, 6850949.645985684357584 ], [ 5091713.754110580310225, 6850974.339375522918999 ], [ 5091725.327655087225139, 6850992.671136491000652 ], [ 5091747.263796533457935, 6851004.637452440336347 ], [ 5091762.353144600987434, 6851019.106671627610922 ], [ 5091780.114370452240109, 6851029.520416827872396 ], [ 5091789.273097168654203, 6851047.161548132076859 ], [ 5091785.180922068655491, 6851065.038945165462792 ], [ 5091762.771811066195369, 6851081.651360173709691 ], [ 5091757.965798608958721, 6851102.205589957535267 ], [ 5091772.238151152618229, 6851108.600806811824441 ], [ 5091792.782227836549282, 6851102.787803819403052 ], [ 5091805.265989904291928, 6851097.115177493542433 ], [ 5091813.267346427775919, 6851086.899715788662434 ], [ 5091819.782792017795146, 6851069.524374546483159 ], [ 5091830.9574478212744, 6851059.273078134283423 ], [ 5091848.243701726198196, 6851040.16220111772418 ], [ 5091872.532760762609541, 6851029.764256304129958 ], [ 5091891.269951932132244, 6851033.431049634702504 ], [ 5091907.441817686893046, 6851044.754824298433959 ], [ 5091926.375875280238688, 6851038.499693205580115 ], [ 5091940.637146038934588, 6851022.138987994752824 ], [ 5091967.243942492641509, 6851022.574157701805234 ], [ 5091985.716732678003609, 6851031.263996647670865 ], [ 5092004.378536138683558, 6851027.781907697208226 ], [ 5092014.317749893292785, 6851038.71085368655622 ], [ 5092020.992094584740698, 6851053.001635076478124 ], [ 5092013.771091432310641, 6851066.53640166670084 ], [ 5092013.278414716944098, 6851086.225743258371949 ], [ 5092009.030175886116922, 6851115.432472543790936 ], [ 5092004.257529316470027, 6851160.271977679803967 ], [ 5091994.168461893685162, 6851195.387842245399952 ], [ 5091978.917245894670486, 6851220.468491811305285 ], [ 5091960.264401490800083, 6851230.157594026997685 ], [ 5091939.548933635465801, 6851234.110080448910594 ], [ 5091926.837456600740552, 6851250.780117544345558 ], [ 5091927.115733381360769, 6851268.867308815941215 ], [ 5091942.605952840298414, 6851280.661898357793689 ], [ 5091953.503041251562536, 6851296.327445277012885 ], [ 5091970.340458498336375, 6851310.040129382163286 ], [ 5091991.854150106199086, 6851324.248314224183559 ], [ 5092015.096106814220548, 6851337.744659236632288 ], [ 5092035.021284150891006, 6851357.994964821264148 ], [ 5092056.201170739717782, 6851384.619916209951043 ], [ 5092066.231500803492963, 6851405.911812898702919 ], [ 5092075.649483022280037, 6851425.302010367624462 ], [ 5092084.680683077313006, 6851435.306931499391794 ], [ 5092097.765595494769514, 6851436.335229858756065 ], [ 5092111.208016247488558, 6851417.9412493230775 ], [ 5092122.84988952614367, 6851397.277992334216833 ], [ 5092142.584194490686059, 6851383.068922073580325 ], [ 5092153.758154662325978, 6851355.193492917343974 ], [ 5092171.674630836583674, 6851323.99546486325562 ], [ 5092189.264915239997208, 6851291.181667974218726 ], [ 5092210.912044706754386, 6851289.870569055899978 ], [ 5092225.386322723701596, 6851308.234582841396332 ], [ 5092231.332218557596207, 6851327.02004874125123 ], [ 5092241.031437677331269, 6851347.272487251088023 ], [ 5092232.603869616053998, 6851375.592040080577135 ], [ 5092214.410075888969004, 6851391.37424386665225 ], [ 5092191.307030131109059, 6851403.182365892454982 ], [ 5092170.435763893648982, 6851414.795632919296622 ], [ 5092152.779845779761672, 6851430.484854081645608 ], [ 5092132.583639857359231, 6851449.519165515899658 ], [ 5092120.177031896077096, 6851473.857270138338208 ], [ 5092111.068637608550489, 6851499.089558098465204 ], [ 5092102.184196394868195, 6851520.396289741620421 ], [ 5092103.73085773922503, 6851541.566047122702003 ], [ 5092110.355889733880758, 6851560.778538716956973 ], [ 5092119.710022079758346, 6851568.220467669889331 ], [ 5092133.337010343559086, 6851573.412141026929021 ], [ 5092153.84854855760932, 6851579.63619833253324 ], [ 5092164.662857633084059, 6851584.650321885943413 ], [ 5092176.707153607159853, 6851581.607703851535916 ], [ 5092214.555646822787821, 6851567.65581508167088 ], [ 5092237.648888222873211, 6851559.560935499146581 ], [ 5092255.94401746429503, 6851564.194963559508324 ], [ 5092274.847037137486041, 6851582.657252869568765 ], [ 5092285.129766520112753, 6851607.338757673278451 ], [ 5092281.660187328234315, 6851629.60078901052475 ], [ 5092283.350023860111833, 6851657.752439547330141 ], [ 5092288.277574739418924, 6851684.060923440381885 ], [ 5092298.181755089201033, 6851692.917182425968349 ], [ 5092308.454219874925911, 6851692.515262547880411 ], [ 5092312.49806803278625, 6851678.53968727402389 ], [ 5092315.91672187205404, 6851656.034193995408714 ], [ 5092331.182011961936951, 6851629.013276701793075 ], [ 5092367.846611380577087, 6851625.234364307485521 ], [ 5092404.395107978023589, 6851640.376940123736858 ], [ 5092445.287238813005388, 6851659.785985259339213 ], [ 5092464.218922493048012, 6851654.383520046249032 ], [ 5092483.374337388202548, 6851643.791870968416333 ], [ 5092493.245298125781119, 6851624.6939263548702 ], [ 5092493.208741062320769, 6851596.329792723059654 ], [ 5092498.594630850479007, 6851572.412179525010288 ], [ 5092513.624190427362919, 6851541.635317371226847 ], [ 5092540.608679290860891, 6851517.669977996498346 ], [ 5092565.424466358497739, 6851516.909728545695543 ], [ 5092586.989634131081402, 6851522.570549167692661 ], [ 5092605.529719036072493, 6851535.925367206335068 ], [ 5092618.614401337690651, 6851544.379499537870288 ], [ 5092631.919557228684425, 6851565.922309044748545 ], [ 5092662.759008473716676, 6851560.093357255682349 ], [ 5092683.639532272703946, 6851558.399488819763064 ], [ 5092693.648049280047417, 6851564.306208614259958 ], [ 5092701.898386871442199, 6851582.053584298118949 ], [ 5092694.651775205507874, 6851605.97486013546586 ], [ 5092695.678288223221898, 6851645.559502916410565 ], [ 5092690.175824980251491, 6851688.232577977702022 ], [ 5092694.181933357380331, 6851735.508368603885174 ], [ 5092706.92915800306946, 6851778.226285228505731 ], [ 5092723.547625136561692, 6851801.261462004855275 ], [ 5092742.306115282699466, 6851816.155063612386584 ], [ 5092756.518172588199377, 6851838.355655796825886 ], [ 5092757.206816917285323, 6851866.105037607252598 ], [ 5092761.050193191505969, 6851890.18288547731936 ], [ 5092771.065656586550176, 6851916.839089896529913 ], [ 5092786.373202019371092, 6851938.809340190142393 ], [ 5092804.884213204495609, 6851942.143991908989847 ], [ 5092817.989971874281764, 6851935.789278825744987 ], [ 5092825.26977657340467, 6851913.596807973459363 ], [ 5092842.79698415659368, 6851898.993848472833633 ], [ 5092861.046262350864708, 6851903.926596149802208 ], [ 5092872.734918398782611, 6851912.912421787157655 ], [ 5092873.535764554515481, 6851932.491871921345592 ], [ 5092869.979330978356302, 6851958.523410588502884 ], [ 5092854.348033130168915, 6851983.752287467941642 ], [ 5092840.886051244102418, 6852017.011168054305017 ], [ 5092835.137655854225159, 6852048.324948566034436 ], [ 5092830.546265627257526, 6852062.371531935408711 ], [ 5092835.52329729590565, 6852079.867503491230309 ], [ 5092847.322383152320981, 6852104.093243110924959 ], [ 5092852.785355233587325, 6852131.040189286693931 ], [ 5092858.502580026164651, 6852159.171137092635036 ], [ 5092863.891437321901321, 6852169.248532088473439 ], [ 5092868.156236154958606, 6852183.369426898658276 ], [ 5092881.478531091473997, 6852204.457390371710062 ], [ 5092903.378966921940446, 6852228.858391569927335 ], [ 5092924.881516670808196, 6852243.785512847825885 ], [ 5092940.751086637377739, 6852261.162292713299394 ], [ 5092961.038099925965071, 6852257.344493267126381 ], [ 5092978.304251425899565, 6852244.372786000370979 ], [ 5092987.418521433137357, 6852222.520440110936761 ], [ 5092985.216303594410419, 6852195.448060270398855 ], [ 5092999.456511336378753, 6852186.34640746191144 ], [ 5093013.148792251944542, 6852190.982372857630253 ], [ 5093023.520620641298592, 6852201.873849797993898 ], [ 5093011.063341378234327, 6852253.181135637685657 ], [ 5093000.799083963036537, 6852284.475219319574535 ], [ 5092995.506881761364639, 6852327.634473036974669 ], [ 5092994.603849017061293, 6852357.203125782310963 ], [ 5093014.330145466141403, 6852365.482513386756182 ], [ 5093020.201585608534515, 6852384.545309009961784 ], [ 5093014.262668140232563, 6852396.651779966428876 ], [ 5092994.104171956889331, 6852400.645995382219553 ], [ 5092969.358540084213018, 6852394.3902399064973 ], [ 5092958.174987500533462, 6852402.314978871494532 ], [ 5092953.176974174566567, 6852418.215869776904583 ], [ 5092955.332928157411516, 6852453.091876871883869 ], [ 5092955.532510190270841, 6852498.269435497000813 ], [ 5092942.790572962723672, 6852517.290629200637341 ], [ 5092933.273553059436381, 6852525.379542708396912 ], [ 5092921.053354221396148, 6852531.062325311824679 ], [ 5092906.718104279600084, 6852530.654384339228272 ], [ 5092892.822312361560762, 6852525.09990225173533 ], [ 5092887.556045688688755, 6852518.169459971599281 ], [ 5092876.89936317037791, 6852493.524639263749123 ], [ 5092871.118926629424095, 6852463.609650878235698 ], [ 5092857.883550440892577, 6852437.422265394590795 ], [ 5092840.109790481626987, 6852424.560552528128028 ], [ 5092816.559464409016073, 6852433.247619901783764 ], [ 5092804.824581609107554, 6852447.062249468639493 ], [ 5092805.346172063611448, 6852469.758540788665414 ], [ 5092807.210208766162395, 6852492.49968091212213 ], [ 5092802.957445817068219, 6852504.792271159589291 ], [ 5092791.123974073678255, 6852509.828990262933075 ], [ 5092763.513914340175688, 6852518.026950309053063 ], [ 5092741.968313166871667, 6852515.092947454191744 ], [ 5092712.165156239643693, 6852503.533874724060297 ], [ 5092694.11790157482028, 6852503.221382451243699 ], [ 5092677.870571667328477, 6852520.019757449626923 ], [ 5092658.497485913336277, 6852536.73184166662395 ], [ 5092643.300026136450469, 6852542.537495876662433 ], [ 5092618.182854640297592, 6852543.865494756028056 ], [ 5092584.626230793073773, 6852557.053298811428249 ], [ 5092581.839519148692489, 6852576.42815126106143 ], [ 5092601.147588077001274, 6852598.799496278166771 ], [ 5092584.23321177251637, 6852626.742562130093575 ], [ 5092582.996430526487529, 6852652.62272828258574 ], [ 5092607.114334694109857, 6852673.703771021217108 ], [ 5092631.497756178490818, 6852689.916729461401701 ], [ 5095699.165204984135926, 6852694.42630507890135 ], [ 5095494.661595693789423, 6851881.823392669670284 ], [ 5095482.724577487446368, 6851844.854310805909336 ], [ 5095491.804693887010217, 6851816.981356306001544 ], [ 5095510.374515827745199, 6851788.820868607610464 ], [ 5095595.295562881045043, 6851658.634495893493295 ], [ 5095602.016249093227088, 6851626.147348118945956 ], [ 5095597.184683486819267, 6851605.33701441064477 ], [ 5095592.36292827129364, 6851584.526599148288369 ], [ 5095504.328874159604311, 6851398.293048826977611 ], [ 5095455.924252263270319, 6851300.910898611880839 ], [ 5095389.94415445253253, 6851169.220948001369834 ], [ 5095385.094448504038155, 6851146.105150384828448 ], [ 5095561.478616834618151, 6851077.493656262755394 ], [ 5095701.158188124187291, 6851076.359638750553131 ], [ 5095874.655671103857458, 6851083.062465743161738 ], [ 5095955.083946927450597, 6851096.307275380939245 ], [ 5096019.167039733380079, 6851103.887699828483164 ], [ 5096063.191368683241308, 6851078.045927589759231 ], [ 5096165.043397721834481, 6851006.286334697157145 ], [ 5096277.461318047717214, 6850946.299668783321977 ], [ 5096457.302904318086803, 6850875.052460576407611 ], [ 5096636.726554216817021, 6850753.128285799175501 ], [ 5096679.104724824428558, 6850739.468209955841303 ], [ 5096721.482706684619188, 6850725.796895113773644 ], [ 5096841.562151395715773, 6850704.836171738803387 ], [ 5096907.486159386113286, 6850697.055846439674497 ], [ 5096998.09688513353467, 6850675.460280742496252 ], [ 5097029.354747003875673, 6850654.364228419959545 ], [ 5097125.926532508805394, 6850507.64271984808147 ], [ 5097351.926384150981903, 6850107.969936233945191 ], [ 5097427.482900682836771, 6849991.103223861195147 ], [ 5097498.942495016381145, 6849884.711362112313509 ], [ 5097526.56201246380806, 6849831.488211891613901 ], [ 5097548.109655367210507, 6849762.985598564147949 ], [ 5097565.254489849321544, 6849725.788453111425042 ], [ 5097577.747365063987672, 6849688.629834320396185 ], [ 5097648.268991536460817, 6849630.140304919332266 ], [ 5097735.220377878285944, 6849588.894254837185144 ], [ 5097908.206187666393816, 6849536.501912312582135 ], [ 5097905.769489889964461, 6849523.786208631470799 ], [ 5097865.925692844204605, 6849490.531795031391084 ], [ 5097823.534694349393249, 6849432.402874696999788 ], [ 5097793.737099410034716, 6849348.120875764638186 ], [ 5097815.282180855982006, 6849279.617661066353321 ], [ 5097907.840330064296722, 6849213.428048865869641 ], [ 5098083.819759854115546, 6849161.407007838599384 ], [ 5098292.17643840610981, 6849104.84544849768281 ], [ 5098403.719407039694488, 6849081.910885160788894 ], [ 5098499.053852945566177, 6849069.530256299301982 ], [ 5098564.818579344078898, 6849000.666418749839067 ], [ 5098608.145536438561976, 6848893.194689663127065 ], [ 5098593.579652152955532, 6848822.675657188519835 ], [ 5098546.279071507044137, 6848732.755893395282328 ], [ 5098408.738809838891029, 6848568.327644092962146 ], [ 5098407.486298771575093, 6848557.907673052512109 ], [ 5098537.774944956414402, 6848551.031373972073197 ], [ 5098624.95765526778996, 6848538.717807982116938 ], [ 5098805.34347650129348, 6848538.368518386036158 ], [ 5098854.334013583138585, 6848551.845892416313291 ], [ 5098925.912975422106683, 6848621.885555021464825 ], [ 5099016.166749050840735, 6848697.542697083204985 ], [ 5099082.657396197319031, 6848715.516285447403789 ], [ 5099145.242594782263041, 6848684.883842722512782 ], [ 5099164.828389825299382, 6848660.399540746584535 ], [ 5099192.65899127908051, 6848648.581747759133577 ], [ 5099240.426623336039484, 6848655.128986215218902 ], [ 5099425.272516388446093, 6848630.701543799601495 ], [ 5099566.421388912945986, 6848670.033008866943419 ], [ 5099693.862066021189094, 6848738.431577335111797 ], [ 5099845.638561889529228, 6848795.039110712707043 ], [ 5099986.397432692348957, 6848786.905234937556088 ], [ 5100175.424811980687082, 6848844.056656972505152 ], [ 5100260.081629856489599, 6848671.958526844158769 ], [ 5100252.547238360159099, 6848607.178448902443051 ], [ 5100266.235079159960151, 6848574.639701506122947 ], [ 5100293.965777042321861, 6848551.247896791435778 ], [ 5100367.854368063621223, 6848481.140330542810261 ], [ 5100388.019987162202597, 6848389.499048768542707 ], [ 5100415.532557559199631, 6848193.73371908813715 ], [ 5100425.802777736447752, 6848198.035531412810087 ], [ 5100420.933568438515067, 6848155.324163045734167 ], [ 5100430.827259329147637, 6847951.451105093583465 ], [ 5100421.641910924576223, 6847693.326987258158624 ], [ 5100370.914474235847592, 6847476.082297521643341 ], [ 5100318.332430433481932, 6847314.442040987312794 ], [ 5100317.300681963562965, 6847193.463386423885822 ], [ 5100341.897517763078213, 6847075.159153376705945 ], [ 5100313.212796511128545, 6846987.403866976499557 ], [ 5100223.506827821955085, 6846837.663106775842607 ], [ 5100154.016174293123186, 6846603.23013627436012 ], [ 5100119.518993189558387, 6846404.069098544307053 ], [ 5100055.364230968058109, 6846223.18379317317158 ], [ 5100056.945663999766111, 6846135.181420241482556 ], [ 5099977.700728940777481, 6845883.527540737763047 ], [ 5099974.76543346606195, 6845818.13165686186403 ], [ 5099794.395735019817948, 6845636.725291595794261 ], [ 5099744.492826456204057, 6845514.443220868706703 ], [ 5099671.575745859183371, 6845422.450597492977977 ], [ 5099628.87077874224633, 6845325.568177968263626 ], [ 5099618.91806274279952, 6844974.905085710808635 ], [ 5099670.935042566619813, 6844798.519376719370484 ], [ 5099660.987307988107204, 6844722.198101175948977 ], [ 5099585.647728711366653, 6844618.664438266307116 ], [ 5099505.503513554111123, 6844525.634807378984988 ], [ 5099115.277088044211268, 6844083.856379007920623 ], [ 5098851.505044328980148, 6843768.928706453181803 ], [ 5099178.359492030926049, 6843194.522320937365294 ], [ 5099178.477415435016155, 6843194.576747776009142 ], [ 5099297.486804018728435, 6842961.749088883399963 ], [ 5099248.210796154104173, 6842915.311293380334973 ], [ 5099092.183329134248197, 6842769.13809597864747 ] ] ] } },
{ "type": "Feature", "properties": { "lv_id": "LOC_070351", "id": 419436.0, "CD_SETOR": "430560305000003", "SITUACAO": "Rural", "CD_SIT": "8", "CD_TIPO": "0", "AREA_KM2": 32.520349967996992, "CD_REGIAO": "4", "NM_REGIAO": "Sul", "CD_UF": "43", "NM_UF": "Rio Grande do Sul", "CD_MUN": "4305603", "NM_MUN": "Colorado", "CD_DIST": "430560305", "NM_DIST": "Colorado", "CD_SUBDIST": "43056030500", "NM_SUBDIST": null, "CD_BAIRRO": null, "NM_BAIRRO": null, "CD_NU": null, "NM_NU": null, "CD_FCU": null, "NM_FCU": null, "CD_AGLOM": null, "NM_AGLOM": null, "CD_RGINT": "4306", "NM_RGINT": "Passo Fundo", "CD_RGI": "430028", "NM_RGI": "Carazinho", "CD_CONCURB": null, "NM_CONCURB": null, "mun_code_x": "4305603", "index_right": 69988, "dist_m": 130.37462560412678, "local_id": 735986, "ano": 2022, "cod_localidade_ibge": 4305603, "NR_ZONA": "117", "nr_cep": 99460000.0, "nm_localidade": "COLORADO", "nm_locvot": "ESCOLA M.E.F. PRINCESA ISABEL (VILA PADRE OSMARI)", "ds_endereco": "RUA DO ESTUDANTE, 68", "ds_bairro": "VILA PADRE OSMARI", "pred_long": -52.989379834299399, "pred_lat": -28.532924985493999, "pred_dist": 0.0, "tse_long": -52.990727, "tse_lat": -28.535716, "long": -52.990727, "lat": -28.535716, "ID_UNICO": "LOC_070351", "SG_UF": "RS", "CD_MUNICIPIO": "86096", "NR_LOCAL_VOTACAO": "1031", "QT_SECOES_AGREGADAS": 0, "QT_ELEITORES_TRANSFERIDOS": 0, "CIRO GOMES (PDT) (NÃO ELEITO) 1T": 8.0, "CONSTITUINTE EYMAEL (DC) (NÃO ELEITO) 1T": 0.0, "FELIPE D AVILA (NOVO) (NÃO ELEITO) 1T": 0.0, "JAIR BOLSONARO (PL) (2º TURNO) 1T": 188.0, "LULA (PT) (2º TURNO) 1T": 227.0, "LÉO PÉRICLES (UP) (NÃO ELEITO) 1T": 0.0, "PADRE KELMON (PTB) (NÃO ELEITO) 1T": 1.0, "SIMONE TEBET (MDB) (NÃO ELEITO) 1T": 5.0, "SOFIA MANZANO (PCB) (NÃO ELEITO) 1T": 0.0, "SORAYA THRONICKE (UNIÃO) (NÃO ELEITO) 1T": 0.0, "VERA (PSTU) (NÃO ELEITO) 1T": 0.0, "Total_Votos_Validos 1T": 429.0, "Votos_Brancos 1T": 6.0, "Votos_Nulos 1T": 4.0, "Abstenções 1T": 85.0, "Eleitores_Aptos 1T": 524.0, "JAIR BOLSONARO (PL) (NÃO ELEITO) 2T": 208.0, "LULA (PT) (ELEITO) 2T": 228.0, "Total_Votos_Validos 2T": 436.0, "Votos_Brancos 2T": 6.0, "Votos_Nulos 2T": 10.0, "Abstenções 2T": 72.0, "Eleitores_Aptos 2T": 524.0, "mun_code_y": "4305603", "mun_code": "4305603" }, "geometry": { "type": "Polygon", "coordinates": [ [ [ 5105632.848792385309935, 6841224.233070564456284 ], [ 5105889.552319112233818, 6841150.201035026460886 ], [ 5105940.084373456425965, 6840869.576387354172766 ], [ 5106131.537566339597106, 6840676.27847131062299 ], [ 5106256.538359563797712, 6840615.300171701237559 ], [ 5106277.104766925796866, 6840513.177806841209531 ], [ 5106109.182157443836331, 6840502.825812723487616 ], [ 5105865.524384404532611, 6840562.135842045769095 ], [ 5105527.89412984251976, 6840474.63669665530324 ], [ 5105372.246445971541107, 6840605.007225804030895 ], [ 5105261.693903958424926, 6840573.000114439055324 ], [ 5105255.295447102747858, 6840218.67663320992142 ], [ 5105035.805875992402434, 6840037.94432307779789 ], [ 5104944.056637156754732, 6839728.967745805159211 ], [ 5105090.826166058890522, 6839594.780171795748174 ], [ 5105207.340846981853247, 6839235.419208087027073 ], [ 5105396.49269693158567, 6839214.654875040985644 ], [ 5105457.668163645081222, 6839317.703626092523336 ], [ 5105260.783920644782484, 6839588.134925533086061 ], [ 5105254.872656677849591, 6839718.92217402998358 ], [ 5105370.978138679638505, 6839728.332685539498925 ], [ 5105494.108609173446894, 6839654.886399619281292 ], [ 5105621.012065707705915, 6839653.943838942795992 ], [ 5105743.249459506012499, 6839552.247662238776684 ], [ 5105816.124460827559233, 6839410.24774981290102 ], [ 5105952.845878108404577, 6839446.757244849577546 ], [ 5106015.156537574715912, 6839559.968921827152371 ], [ 5106077.863814790733159, 6839512.402230553328991 ], [ 5105914.941375553607941, 6839155.834473790600896 ], [ 5105976.037192104384303, 6839078.497817732393742 ], [ 5106068.382273307070136, 6838932.562274370342493 ], [ 5106069.841266144998372, 6838633.036450266838074 ], [ 5105934.30748372990638, 6838430.245184618979692 ], [ 5105903.024876390583813, 6838286.103306813165545 ], [ 5106147.597863523289561, 6838019.794519940391183 ], [ 5105888.174897306598723, 6837752.43522078730166 ], [ 5105584.649838483892381, 6837649.324209275655448 ], [ 5105450.238775966688991, 6837733.415678944438696 ], [ 5105482.900053388439119, 6837983.672447934746742 ], [ 5105464.313194228336215, 6838327.74673483427614 ], [ 5105283.414570152759552, 6838509.77826833166182 ], [ 5105088.538716480135918, 6838464.892834988422692 ], [ 5104882.438734533265233, 6838138.639076728373766 ], [ 5104745.018908812664449, 6837968.230579557828605 ], [ 5104717.070765035226941, 6837773.930744613520801 ], [ 5104479.397135719656944, 6837615.266664633527398 ], [ 5104679.148771119304001, 6837590.062048780731857 ], [ 5104863.702713740989566, 6837624.748264381662011 ], [ 5105035.264329767785966, 6837742.396056154742837 ], [ 5105187.04746013507247, 6837601.864781220443547 ], [ 5105083.795465134084225, 6837362.815479729324579 ], [ 5105123.310977115295827, 6837148.867354664951563 ], [ 5105262.993468496017158, 6837183.7943518999964 ], [ 5105467.031804640777409, 6837132.554546384140849 ], [ 5105681.539855835959315, 6836948.209443876519799 ], [ 5105500.124785835854709, 6836736.438615726307034 ], [ 5105168.383027945645154, 6836824.951789056882262 ], [ 5104862.245001080445945, 6836769.744167886674404 ], [ 5104970.249400528147817, 6836293.215122541412711 ], [ 5104924.975164152681828, 6836325.046264005824924 ], [ 5104825.045448835939169, 6836392.150644096545875 ], [ 5104667.242318768054247, 6836497.005281716585159 ], [ 5104371.681640897877514, 6836539.591881178319454 ], [ 5104356.854765302501619, 6836502.745005222037435 ], [ 5104306.025883527472615, 6836543.890035759657621 ], [ 5104266.562492044642568, 6836517.72644498758018 ], [ 5104239.533470933325589, 6836506.93758237361908 ], [ 5104216.208616937510669, 6836457.241261092945933 ], [ 5104223.131433356553316, 6836420.544356798753142 ], [ 5104183.076540730893612, 6836431.209521728567779 ], [ 5104090.289528398774564, 6836406.506009558215737 ], [ 5103982.9876669626683, 6836352.356356086209416 ], [ 5103938.36559109762311, 6836351.056379722431302 ], [ 5103772.818133582361042, 6836442.798660660162568 ], [ 5103559.394225068390369, 6836602.612273184582591 ], [ 5103431.340719128958881, 6836635.745266577228904 ], [ 5103359.401928844861686, 6836659.846632095053792 ], [ 5103257.40183284971863, 6836715.371832273900509 ], [ 5103177.836166834458709, 6836656.713832608424127 ], [ 5103089.894430183805525, 6836654.484005912207067 ], [ 5102980.25879571493715, 6836743.017855883575976 ], [ 5102906.639909176155925, 6836831.09022519364953 ], [ 5102760.830074711702764, 6836813.459368070587516 ], [ 5102617.873152560554445, 6836901.46157642826438 ], [ 5102543.944445353932679, 6836852.826028768904507 ], [ 5102461.557938546873629, 6836848.303698252886534 ], [ 5102439.540157802402973, 6836942.838479284197092 ], [ 5102439.541418697685003, 6837025.796683359891176 ], [ 5102371.007937649264932, 6837128.86296278052032 ], [ 5102277.87598464731127, 6837172.407873196527362 ], [ 5102197.899810655973852, 6837251.552288472652435 ], [ 5102093.197670553810894, 6837255.313716963864863 ], [ 5102006.133122066035867, 6837237.438496805727482 ], [ 5101845.004209971986711, 6837248.605623515322804 ], [ 5101667.782911462709308, 6837216.036864004097879 ], [ 5101557.970667607150972, 6837202.490285603329539 ], [ 5101504.969113577157259, 6837213.402391895651817 ], [ 5099769.486231245100498, 6836383.379407705739141 ], [ 5099708.622322912327945, 6836333.484600717201829 ], [ 5099584.47170983068645, 6836293.749158212915063 ], [ 5099450.448704075068235, 6836273.328112477436662 ], [ 5099328.170359259471297, 6836260.387864090502262 ], [ 5099074.726814806461334, 6836239.710922764614224 ], [ 5098997.671121329069138, 6836203.118034353479743 ], [ 5098903.512419824488461, 6836166.148099521175027 ], [ 5098854.638460336253047, 6836104.808201272040606 ], [ 5098783.33333417121321, 6836080.591287417337298 ], [ 5098702.960754505358636, 6836015.836298378184438 ], [ 5098570.94612380117178, 6835992.861143687739968 ], [ 5098505.536612512543797, 6836037.89399728924036 ], [ 5098409.339849003590643, 6835993.200268870219588 ], [ 5098321.939184327609837, 6835970.745263684540987 ], [ 5098294.69662837125361, 6836018.78184583876282 ], [ 5098267.782892444171011, 6836025.580848608165979 ], [ 5098197.580049297772348, 6835886.425964099355042 ], [ 5098145.27731239516288, 6835825.089841252192855 ], [ 5098065.572205610573292, 6835837.085954383015633 ], [ 5097994.470576944760978, 6835877.718658173456788 ], [ 5097933.707804271019995, 6835860.92383087426424 ], [ 5097915.027479373849928, 6835807.607903980650008 ], [ 5097769.269801005721092, 6835805.40042906999588 ], [ 5097554.842496057972312, 6835888.139210228808224 ], [ 5097482.932940222322941, 6835917.746299911290407 ], [ 5097152.449317154474556, 6835943.747695911675692 ], [ 5097043.906167496927083, 6835967.880785554647446 ], [ 5096848.838959720917046, 6836081.183404050767422 ], [ 5096748.535203756764531, 6836085.692398893646896 ], [ 5096618.728225426748395, 6836040.563449047505856 ], [ 5096488.253792503848672, 6836072.232342937961221 ], [ 5096273.52521197963506, 6836074.741897791624069 ], [ 5096204.979171720333397, 6836015.32666153088212 ], [ 5096149.742553059011698, 6835940.959597164765 ], [ 5096104.629302312619984, 6835869.901095299050212 ], [ 5096047.222962580621243, 6835864.807566996663809 ], [ 5096026.936421644873917, 6835935.493720714002848 ], [ 5096038.041706863790751, 6836041.936118701472878 ], [ 5096118.099203490652144, 6836127.328672382980585 ], [ 5096104.681834558025002, 6836230.425161895342171 ], [ 5096041.084717535413802, 6836303.317660015076399 ], [ 5095969.305132699199021, 6836283.876204962842166 ], [ 5095885.91091286111623, 6836178.059018515050411 ], [ 5095778.297939747571945, 6836174.139836614951491 ], [ 5095750.431862802244723, 6836232.195601139217615 ], [ 5095790.338676351122558, 6836304.317756647244096 ], [ 5095892.208331407047808, 6836434.680701019242406 ], [ 5095880.090721057727933, 6836566.59700349252671 ], [ 5095697.102247830480337, 6836594.629517724737525 ], [ 5095640.653379979543388, 6836695.250120363198221 ], [ 5095713.888626725412905, 6836704.628103611990809 ], [ 5095744.272707842290401, 6836766.575036892667413 ], [ 5095711.462963642552495, 6836826.854652104899287 ], [ 5095565.193797212094069, 6836847.346740492619574 ], [ 5095403.526988040655851, 6836823.602206518873572 ], [ 5095141.933648854494095, 6836919.016449411399662 ], [ 5095073.475296718068421, 6836953.468502821400762 ], [ 5095113.854587180539966, 6836997.257047556340694 ], [ 5095221.677852053195238, 6837079.138097405433655 ], [ 5095346.773717451840639, 6837054.388939127326012 ], [ 5095438.838161499239504, 6837126.69734638556838 ], [ 5095418.687851621769369, 6837202.85674805380404 ], [ 5095143.892884481698275, 6837424.220310396514833 ], [ 5095164.782119054347277, 6837491.799050606787205 ], [ 5095230.574719409458339, 6837506.99348801933229 ], [ 5095304.447743150405586, 6837439.021458841860294 ], [ 5095386.618388147093356, 6837433.786112773232162 ], [ 5095363.123228501528502, 6837498.189769679680467 ], [ 5095461.735601066611707, 6837709.721406520344317 ], [ 5095453.311723646707833, 6837763.804724091663957 ], [ 5095332.054154605604708, 6837703.217331161722541 ], [ 5095268.376117710955441, 6837749.713544112630188 ], [ 5095290.335607077926397, 6837812.794162884354591 ], [ 5095384.892645942047238, 6837892.564880228601396 ], [ 5095539.017737705260515, 6837951.963924908079207 ], [ 5095598.713959616608918, 6837873.109852582216263 ], [ 5095601.367260879836977, 6837760.569539833813906 ], [ 5095844.914763664826751, 6837757.272471720352769 ], [ 5095830.764129662886262, 6837916.084950165823102 ], [ 5095700.632404871284962, 6838100.419157124124467 ], [ 5095926.744542246684432, 6837992.28168679960072 ], [ 5095984.441851996816695, 6838222.843591190874577 ], [ 5096108.846698240377009, 6838267.636544751003385 ], [ 5096051.872626881115139, 6838535.284244160167873 ], [ 5095805.456333477050066, 6838464.896629347465932 ], [ 5095903.84726386051625, 6838676.182797493413091 ], [ 5096070.379068775102496, 6838671.848775163292885 ], [ 5096086.141544468700886, 6838751.738571057096124 ], [ 5095850.484373814426363, 6839029.748670394532382 ], [ 5095717.519719055853784, 6839048.403686242178082 ], [ 5095677.178572597913444, 6839235.872086394578218 ], [ 5095675.331528429873288, 6839293.737015642225742 ], [ 5095707.326999423094094, 6839509.257338851690292 ], [ 5095739.880373446270823, 6839794.20610025152564 ], [ 5095780.02607209328562, 6840054.828838723711669 ], [ 5095830.755551531910896, 6840384.155127661302686 ], [ 5095997.194066272117198, 6840825.973416330292821 ], [ 5096231.632890301756561, 6841333.217932397499681 ], [ 5096276.786916859447956, 6841449.722153475508094 ], [ 5096340.375491781160235, 6841544.094431618228555 ], [ 5096457.372980875894427, 6841628.760993307456374 ], [ 5096514.723215077072382, 6841658.106765420176089 ], [ 5096716.684819507412612, 6841761.447551535442472 ], [ 5097134.795267404988408, 6841968.622393494471908 ], [ 5097501.198333912529051, 6842071.652370540425181 ], [ 5098027.927797699347138, 6842221.085574839264154 ], [ 5098096.956567185930908, 6842238.089027747511864 ], [ 5098150.300622342154384, 6842253.34993617143482 ], [ 5098156.417486940510571, 6842255.626544278115034 ], [ 5098169.618948613293469, 6842260.02756061218679 ], [ 5098276.028350412845612, 6842285.252427889034152 ], [ 5098408.545744587667286, 6842323.703062875196338 ], [ 5098552.059884566813707, 6842371.958411186933517 ], [ 5098669.177196940407157, 6842415.578886708244681 ], [ 5098776.925718821585178, 6842455.408544906415045 ], [ 5098733.901111379265785, 6842564.088435652665794 ], [ 5098898.916080292314291, 6842621.84675588645041 ], [ 5098977.521995679475367, 6842665.633401118218899 ], [ 5099092.183329134248197, 6842769.13809597864747 ], [ 5099248.210796154104173, 6842915.311293380334973 ], [ 5099297.486804018728435, 6842961.749088883399963 ], [ 5099178.477415435016155, 6843194.576747776009142 ], [ 5099178.359492030926049, 6843194.522320937365294 ], [ 5098851.505044328980148, 6843768.928706453181803 ], [ 5099115.277088044211268, 6844083.856379007920623 ], [ 5099505.503513554111123, 6844525.634807378984988 ], [ 5099585.647728711366653, 6844618.664438266307116 ], [ 5099660.987307988107204, 6844722.198101175948977 ], [ 5099670.935042566619813, 6844798.519376719370484 ], [ 5099618.91806274279952, 6844974.905085710808635 ], [ 5099628.87077874224633, 6845325.568177968263626 ], [ 5099671.575745859183371, 6845422.450597492977977 ], [ 5099744.492826456204057, 6845514.443220868706703 ], [ 5099794.395735019817948, 6845636.725291595794261 ], [ 5099974.76543346606195, 6845818.13165686186403 ], [ 5099977.700728940777481, 6845883.527540737763047 ], [ 5100056.945663999766111, 6846135.181420241482556 ], [ 5100055.364230968058109, 6846223.18379317317158 ], [ 5100119.518993189558387, 6846404.069098544307053 ], [ 5100154.016174293123186, 6846603.23013627436012 ], [ 5100223.506827821955085, 6846837.663106775842607 ], [ 5100313.212796511128545, 6846987.403866976499557 ], [ 5100341.897517763078213, 6847075.159153376705945 ], [ 5100317.300681963562965, 6847193.463386423885822 ], [ 5100318.332430433481932, 6847314.442040987312794 ], [ 5100370.914474235847592, 6847476.082297521643341 ], [ 5100421.641910924576223, 6847693.326987258158624 ], [ 5100430.827259329147637, 6847951.451105093583465 ], [ 5100420.933568438515067, 6848155.324163045734167 ], [ 5100425.802777736447752, 6848198.035531412810087 ], [ 5100415.532557559199631, 6848193.73371908813715 ], [ 5100388.019987162202597, 6848389.499048768542707 ], [ 5100367.854368063621223, 6848481.140330542810261 ], [ 5100293.965777042321861, 6848551.247896791435778 ], [ 5100266.235079159960151, 6848574.639701506122947 ], [ 5100252.547238360159099, 6848607.178448902443051 ], [ 5100260.081629856489599, 6848671.958526844158769 ], [ 5100175.424811980687082, 6848844.056656972505152 ], [ 5100115.851689863018692, 6848955.729820678010583 ], [ 5100038.247493564151227, 6849052.425577437505126 ], [ 5100083.514540141448379, 6849074.46465365216136 ], [ 5100094.578054782003164, 6849079.846307393163443 ], [ 5100224.49865878559649, 6849106.208103784359992 ], [ 5100313.734005426988006, 6849014.976371140219271 ], [ 5100369.695660559460521, 6848935.91026892978698 ], [ 5100431.923068061470985, 6848863.585192276164889 ], [ 5100413.386339137330651, 6848807.589318981394172 ], [ 5100393.693846392445266, 6848748.111662804149091 ], [ 5100388.726324499584734, 6848711.098576918244362 ], [ 5100497.901363827288151, 6848684.694625643081963 ], [ 5100606.57847735285759, 6848606.972655065357685 ], [ 5100694.382636616937816, 6848525.537577748298645 ], [ 5100759.372597659006715, 6848504.142426098696887 ], [ 5100839.189138879068196, 6848582.192034954205155 ], [ 5100899.205233097076416, 6848524.35959932859987 ], [ 5100909.835728213191032, 6848406.162937769666314 ], [ 5100948.880113347433507, 6848345.616953127086163 ], [ 5101046.231750726699829, 6848246.372994994744658 ], [ 5101166.006043919362128, 6848151.54655391164124 ], [ 5101270.801849983632565, 6848157.583980863913894 ], [ 5101306.308746649883687, 6848226.75618320889771 ], [ 5101349.33492024615407, 6848222.916208008304238 ], [ 5101392.360971558839083, 6848219.064991001971066 ], [ 5101485.14592092204839, 6848175.633964952081442 ], [ 5101533.048573416657746, 6848069.640441063791513 ], [ 5101581.630509251728654, 6848034.493229188024998 ], [ 5101552.83454124815762, 6847935.158250362612307 ], [ 5101510.24556970410049, 6847854.475583609193563 ], [ 5101403.490829575806856, 6847890.135144934058189 ], [ 5101352.309131153859198, 6847892.892833559773862 ], [ 5101328.375789675861597, 6847816.682170094922185 ], [ 5101397.103448396548629, 6847688.717545364052057 ], [ 5101443.73321249242872, 6847698.735022654756904 ], [ 5101487.892692855559289, 6847691.415227493271232 ], [ 5101486.973844043910503, 6847584.900644978508353 ], [ 5101575.33164981007576, 6847574.871364062651992 ], [ 5101722.051220154389739, 6847585.186954647302628 ], [ 5101765.689193988218904, 6847517.648190377280116 ], [ 5101779.731359545141459, 6847419.184476351365447 ], [ 5101789.821735301055014, 6847348.399823233485222 ], [ 5101835.909050174988806, 6847294.739578360691667 ], [ 5101912.542281853035092, 6847275.553554102778435 ], [ 5101948.130757773295045, 6847353.978853834792972 ], [ 5101958.325428372249007, 6847455.779848176985979 ], [ 5102028.901900951750576, 6847543.157231220975518 ], [ 5102091.724120278842747, 6847540.295518538914621 ], [ 5102225.0546317063272, 6847617.871389040723443 ], [ 5102241.871146044693887, 6847677.93666055239737 ], [ 5102235.493282697163522, 6847747.459113409742713 ], [ 5102300.878810822963715, 6847772.363080622628331 ], [ 5102369.281343074515462, 6847693.799157636240125 ], [ 5102472.560727348551154, 6847702.621184134855866 ], [ 5102539.904825430363417, 6847691.548381011933088 ], [ 5102594.342255678027868, 6847615.332781849429011 ], [ 5102627.111334360204637, 6847549.537028918974102 ], [ 5102589.219166638329625, 6847472.530356513336301 ], [ 5102553.7759799817577, 6847413.547935210168362 ], [ 5102646.338188426569104, 6847352.540163543075323 ], [ 5102624.869092260487378, 6847292.515975264832377 ], [ 5102611.439293512143195, 6847086.54833924677223 ], [ 5102636.710148765705526, 6847049.272032323293388 ], [ 5102692.882444011047482, 6847085.83753102645278 ], [ 5102764.356351541355252, 6847008.796012278646231 ], [ 5102822.433986441232264, 6846996.705005181021988 ], [ 5102923.16040048841387, 6846938.228346374817193 ], [ 5103023.885806922800839, 6846879.750791069120169 ], [ 5103042.122912880033255, 6846835.596179919317365 ], [ 5103081.7799116615206, 6846846.820993972942233 ], [ 5103195.388972539454699, 6846797.19642822816968 ], [ 5103167.160559481009841, 6846762.715972665697336 ], [ 5103159.682366685010493, 6846707.203277174383402 ], [ 5103266.003940340131521, 6846622.913742885924876 ], [ 5103272.557783816941082, 6846574.227924907580018 ], [ 5103231.428411488421261, 6846523.466752083972096 ], [ 5103180.802007617428899, 6846461.58222446218133 ], [ 5103274.355994178913534, 6846411.05746400076896 ], [ 5103173.96126857958734, 6846102.655436655506492 ], [ 5103212.372288079001009, 6845893.018226241692901 ], [ 5103438.419938166625798, 6845784.397241006605327 ], [ 5103838.330966375768185, 6845816.874684847891331 ], [ 5104147.761169835925102, 6845471.898180648684502 ], [ 5103928.790603164583445, 6845318.695206478238106 ], [ 5103914.404499114491045, 6845074.627057425677776 ], [ 5103859.811600694432855, 6844871.628255944699049 ], [ 5103994.245015332475305, 6844558.039790011942387 ], [ 5104344.794817744754255, 6844775.739307851530612 ], [ 5104556.992538243532181, 6844854.804820721037686 ], [ 5104661.193745435215533, 6844774.02305681630969 ], [ 5104793.047232459299266, 6844911.395806859247386 ], [ 5104931.044015333987772, 6844941.500979779288173 ], [ 5105111.73569674603641, 6844864.221968960948288 ], [ 5105374.655071665532887, 6844941.267360291443765 ], [ 5105380.445963672362268, 6844449.430107256397605 ], [ 5105156.865922728553414, 6844290.704541180282831 ], [ 5105177.199334656819701, 6844192.311799819581211 ], [ 5105569.888462756760418, 6844186.872223114594817 ], [ 5105631.094511175528169, 6844078.168173270300031 ], [ 5105476.352679199539125, 6843939.735423010773957 ], [ 5105525.279935209080577, 6843844.920459443703294 ], [ 5105648.589927380904555, 6843905.254951841197908 ], [ 5105737.457085425965488, 6843845.384740045294166 ], [ 5105744.319223169237375, 6843338.616213222034276 ], [ 5105336.339456408284605, 6843554.799081351608038 ], [ 5105174.167125016450882, 6843427.181501787155867 ], [ 5105300.844894577749074, 6843032.936806209385395 ], [ 5105325.439813956618309, 6842900.441829682327807 ], [ 5105073.404562816023827, 6842639.946655238978565 ], [ 5104804.607196188531816, 6842688.018021200783551 ], [ 5104552.475316502153873, 6842993.144882963038981 ], [ 5104172.352044080384076, 6843216.698576930910349 ], [ 5103995.939352842979133, 6843002.232127193361521 ], [ 5104340.198967283591628, 6842574.323183015920222 ], [ 5104401.204194582998753, 6842318.399778869003057 ], [ 5104344.985393153503537, 6842010.422483492642641 ], [ 5104518.684025075286627, 6841848.325851087458432 ], [ 5104729.32636846601963, 6841817.971715397201478 ], [ 5104905.727037591859698, 6841831.006287727504969 ], [ 5105000.23449573200196, 6841720.311298029497266 ], [ 5104927.439548723399639, 6841395.635474340990186 ], [ 5105086.393026856705546, 6841285.11698935367167 ], [ 5105514.730410571210086, 6841283.258006911724806 ], [ 5105632.848792385309935, 6841224.233070564456284 ] ] ] } },
{ "type": "Feature", "properties": { "lv_id": "LOC_070354", "id": 419441.0, "CD_SETOR": "430560310000001", "SITUACAO": "Urbana", "CD_SIT": "1", "CD_TIPO": "0", "AREA_KM2": 0.54753642441484196, "CD_REGIAO": "4", "NM_REGIAO": "Sul", "CD_UF": "43", "NM_UF": "Rio Grande do Sul", "CD_MUN": "4305603", "NM_MUN": "Colorado", "CD_DIST": "430560310", "NM_DIST": "Vista Alegre", "CD_SUBDIST": "43056031000", "NM_SUBDIST": null, "CD_BAIRRO": null, "NM_BAIRRO": null, "CD_NU": null, "NM_NU": null, "CD_FCU": null, "NM_FCU": null, "CD_AGLOM": null, "NM_AGLOM": null, "CD_RGINT": "4306", "NM_RGINT": "Passo Fundo", "CD_RGI": "430028", "NM_RGI": "Carazinho", "CD_CONCURB": null, "NM_CONCURB": null, "mun_code_x": "4305603", "index_right": 69987, "dist_m": 0.0, "local_id": 735985, "ano": 2022, "cod_localidade_ibge": 4305603, "NR_ZONA": "117", "nr_cep": 99460000.0, "nm_localidade": "COLORADO", "nm_locvot": "ESCOLA M.E.F. ESPÍRITO SANTO (VISTA ALEGRE)", "ds_endereco": "AV. SANTO MARTINS PINTO, SN - LINHA VISTA ALEGRE", "ds_bairro": "VISTA ALEGRE", "pred_long": -52.965472336260298, "pred_lat": -28.431448519093401, "pred_dist": 0.0, "tse_long": -52.965512, "tse_lat": -28.43417, "long": -52.965512, "lat": -28.43417, "ID_UNICO": "LOC_070354", "SG_UF": "RS", "CD_MUNICIPIO": "86096", "NR_LOCAL_VOTACAO": "1058", "QT_SECOES_AGREGADAS": 0, "QT_ELEITORES_TRANSFERIDOS": 0, "CIRO GOMES (PDT) (NÃO ELEITO) 1T": 3.0, "CONSTITUINTE EYMAEL (DC) (NÃO ELEITO) 1T": 0.0, "FELIPE D AVILA (NOVO) (NÃO ELEITO) 1T": 0.0, "JAIR BOLSONARO (PL) (2º TURNO) 1T": 359.0, "LULA (PT) (2º TURNO) 1T": 150.0, "LÉO PÉRICLES (UP) (NÃO ELEITO) 1T": 1.0, "PADRE KELMON (PTB) (NÃO ELEITO) 1T": 0.0, "SIMONE TEBET (MDB) (NÃO ELEITO) 1T": 10.0, "SOFIA MANZANO (PCB) (NÃO ELEITO) 1T": 0.0, "SORAYA THRONICKE (UNIÃO) (NÃO ELEITO) 1T": 3.0, "VERA (PSTU) (NÃO ELEITO) 1T": 0.0, "Total_Votos_Validos 1T": 526.0, "Votos_Brancos 1T": 12.0, "Votos_Nulos 1T": 6.0, "Abstenções 1T": 99.0, "Eleitores_Aptos 1T": 643.0, "JAIR BOLSONARO (PL) (NÃO ELEITO) 2T": 387.0, "LULA (PT) (ELEITO) 2T": 158.0, "Total_Votos_Validos 2T": 545.0, "Votos_Brancos 2T": 7.0, "Votos_Nulos 2T": 2.0, "Abstenções 2T": 89.0, "Eleitores_Aptos 2T": 643.0, "mun_code_y": "4305603", "mun_code": "4305603" }, "geometry": { "type": "Polygon", "coordinates": [ [ [ 5103779.551457368768752, 6858935.094801937229931 ], [ 5103886.06714350450784, 6858783.443163823336363 ], [ 5103969.705933242104948, 6858535.213258834555745 ], [ 5104199.839479105547071, 6858575.760944080539048 ], [ 5104262.838208377361298, 6858470.767039159312844 ], [ 5104145.120206221006811, 6858310.348938629031181 ], [ 5104107.917903074063361, 6858077.21548855304718 ], [ 5104301.146045601926744, 6857982.833158547990024 ], [ 5104357.648109404370189, 6857575.699135983362794 ], [ 5104524.104858211241663, 6857567.06626836489886 ], [ 5104692.242730174213648, 6857131.274207415059209 ], [ 5104858.548402447253466, 6857001.528140864335001 ], [ 5104630.328462235629559, 6856922.735746923834085 ], [ 5104575.991283568553627, 6856776.114520842209458 ], [ 5104697.848946622572839, 6856661.672895982861519 ], [ 5104913.585920092649758, 6856623.233874792233109 ], [ 5105141.766771857626736, 6856672.746738739311695 ], [ 5105176.237510682083666, 6856558.845208024606109 ], [ 5105057.288383818231523, 6856331.086219627410173 ], [ 5104649.797734175808728, 6856419.347799828276038 ], [ 5104393.44759317766875, 6856342.984298746101558 ], [ 5104424.936602515168488, 6856249.141267100349069 ], [ 5104625.919579626061022, 6856273.842237571254373 ], [ 5104786.558515393175185, 6856110.915371481329203 ], [ 5104963.897148063406348, 6856056.654604132287204 ], [ 5105016.187482484616339, 6855803.43945492990315 ], [ 5105112.420876810327172, 6855577.388736402615905 ], [ 5105009.08630798663944, 6855373.266657492145896 ], [ 5105049.345550433732569, 6854683.924852492287755 ], [ 5105096.837481858208776, 6854578.30918260011822 ], [ 5105279.043493254110217, 6854591.326987702399492 ], [ 5105378.44266068842262, 6854482.331385314464569 ], [ 5105268.320502574555576, 6854250.582819346338511 ], [ 5105035.106225906871259, 6854393.170277727767825 ], [ 5104833.946855396963656, 6854191.93505354039371 ], [ 5104989.462384970858693, 6853887.488107329234481 ], [ 5104971.202852563932538, 6853748.07361033372581 ], [ 5104673.174317612312734, 6853682.065194701775908 ], [ 5104326.843085437081754, 6853681.931202813982964 ], [ 5104255.643637697212398, 6853579.82927680015564 ], [ 5104374.387814078480005, 6853199.143378554843366 ], [ 5104389.242418157868087, 6853092.078996768221259 ], [ 5104283.377968638204038, 6853124.363141937181354 ], [ 5104305.846841897815466, 6852921.12829521112144 ], [ 5104425.846809872426093, 6852942.002200979739428 ], [ 5104427.446344899013638, 6852488.928048586472869 ], [ 5104491.445341941900551, 6852001.536784782074392 ], [ 5104274.748227840289474, 6851929.732810217887163 ], [ 5104105.769676432013512, 6852018.695374613627791 ], [ 5103963.269155574962497, 6852000.134267621673644 ], [ 5103889.593360216356814, 6852095.723398070782423 ], [ 5103758.340003908611834, 6851781.435256445780396 ], [ 5103563.260778429917991, 6851709.594388209283352 ], [ 5103566.541477648541331, 6851565.73225755058229 ], [ 5103688.773912354372442, 6851346.690134036354721 ], [ 5103827.765728886239231, 6851222.604487502016127 ], [ 5103841.753629865124822, 6851021.48448234051466 ], [ 5103606.600353309884667, 6850753.191292498260736 ], [ 5103709.018942380324006, 6850687.788720048032701 ], [ 5103642.766792461276054, 6850477.521005031652749 ], [ 5103780.489146031439304, 6850408.381791177205741 ], [ 5103736.841041896492243, 6850200.132217958569527 ], [ 5103959.64633594173938, 6850107.927565718069673 ], [ 5104040.834590219892561, 6849852.076126785948873 ], [ 5104251.842589826323092, 6849764.73618639074266 ], [ 5104317.636960650794208, 6849528.94884448684752 ], [ 5104191.672922622412443, 6849474.330889672040939 ], [ 5104290.834511035121977, 6849407.754274690523744 ], [ 5104305.887892263010144, 6849311.605885550379753 ], [ 5104192.499044748954475, 6849283.280149852856994 ], [ 5103995.673994593322277, 6849263.405661081895232 ], [ 5103821.235962443053722, 6849159.996386870741844 ], [ 5103775.40478643309325, 6849023.727305019274354 ], [ 5103731.846168670803308, 6848781.834938582964242 ], [ 5103532.04337936360389, 6848692.933279724791646 ], [ 5103657.513009190559387, 6848613.759917712770402 ], [ 5103691.232714503072202, 6848403.874966057017446 ], [ 5103806.542545199394226, 6848210.329532572999597 ], [ 5103748.047663930803537, 6848045.728893345221877 ], [ 5103491.799144980497658, 6847847.376227897591889 ], [ 5103470.665019462816417, 6847603.33471404761076 ], [ 5103280.807080161757767, 6847650.926634728908539 ], [ 5103397.292670032009482, 6847400.787677688524127 ], [ 5103294.734241967089474, 6847230.763900125399232 ], [ 5103630.783669518306851, 6847219.117627907544374 ], [ 5103617.506422460079193, 6847130.280424650758505 ], [ 5103777.354163347743452, 6846998.582293113693595 ], [ 5103599.569706065580249, 6846939.317171758040786 ], [ 5103705.884962131269276, 6846755.583389913663268 ], [ 5103566.179272247478366, 6846686.870469050481915 ], [ 5103418.66889241617173, 6846667.983503572642803 ], [ 5103390.628244801424444, 6846510.118863252922893 ], [ 5103274.355994178913534, 6846411.05746400076896 ], [ 5103180.802007617428899, 6846461.58222446218133 ], [ 5103231.428411488421261, 6846523.466752083972096 ], [ 5103272.557783816941082, 6846574.227924907580018 ], [ 5103266.003940340131521, 6846622.913742885924876 ], [ 5103159.682366685010493, 6846707.203277174383402 ], [ 5103167.160559481009841, 6846762.715972665697336 ], [ 5103195.388972539454699, 6846797.19642822816968 ], [ 5103081.7799116615206, 6846846.820993972942233 ], [ 5103042.122912880033255, 6846835.596179919317365 ], [ 5103023.885806922800839, 6846879.750791069120169 ], [ 5102923.16040048841387, 6846938.228346374817193 ], [ 5102822.433986441232264, 6846996.705005181021988 ], [ 5102764.356351541355252, 6847008.796012278646231 ], [ 5102692.882444011047482, 6847085.83753102645278 ], [ 5102636.710148765705526, 6847049.272032323293388 ], [ 5102611.439293512143195, 6847086.54833924677223 ], [ 5102624.869092260487378, 6847292.515975264832377 ], [ 5102646.338188426569104, 6847352.540163543075323 ], [ 5102553.7759799817577, 6847413.547935210168362 ], [ 5102589.219166638329625, 6847472.530356513336301 ], [ 5102627.111334360204637, 6847549.537028918974102 ], [ 5102594.342255678027868, 6847615.332781849429011 ], [ 5102539.904825430363417, 6847691.548381011933088 ], [ 5102472.560727348551154, 6847702.621184134855866 ], [ 5102369.281343074515462, 6847693.799157636240125 ], [ 5102300.878810822963715, 6847772.363080622628331 ], [ 5102235.493282697163522, 6847747.459113409742713 ], [ 5102241.871146044693887, 6847677.93666055239737 ], [ 5102225.0546317063272, 6847617.871389040723443 ], [ 5102091.724120278842747, 6847540.295518538914621 ], [ 5102028.901900951750576, 6847543.157231220975518 ], [ 5101958.325428372249007, 6847455.779848176985979 ], [ 5101948.130757773295045, 6847353.978853834792972 ], [ 5101912.542281853035092, 6847275.553554102778435 ], [ 5101835.909050174988806, 6847294.739578360691667 ], [ 5101789.821735301055014, 6847348.399823233485222 ], [ 5101779.731359545141459, 6847419.184476351365447 ], [ 5101765.689193988218904, 6847517.648190377280116 ], [ 5101722.051220154389739, 6847585.186954647302628 ], [ 5101575.33164981007576, 6847574.871364062651992 ], [ 5101486.973844043910503, 6847584.900644978508353 ], [ 5101487.892692855559289, 6847691.415227493271232 ], [ 5101443.73321249242872, 6847698.735022654756904 ], [ 5101397.103448396548629, 6847688.717545364052057 ], [ 5101328.375789675861597, 6847816.682170094922185 ], [ 5101352.309131153859198, 6847892.892833559773862 ], [ 5101403.490829575806856, 6847890.135144934058189 ], [ 5101510.24556970410049, 6847854.475583609193563 ], [ 5101552.83454124815762, 6847935.158250362612307 ], [ 5101581.630509251728654, 6848034.493229188024998 ], [ 5101533.048573416657746, 6848069.640441063791513 ], [ 5101485.14592092204839, 6848175.633964952081442 ], [ 5101392.360971558839083, 6848219.064991001971066 ], [ 5101349.33492024615407, 6848222.916208008304238 ], [ 5101306.308746649883687, 6848226.75618320889771 ], [ 5101270.801849983632565, 6848157.583980863913894 ], [ 5101166.006043919362128, 6848151.54655391164124 ], [ 5101046.231750726699829, 6848246.372994994744658 ], [ 5100948.880113347433507, 6848345.616953127086163 ], [ 5100909.835728213191032, 6848406.162937769666314 ], [ 5100899.205233097076416, 6848524.35959932859987 ], [ 5100839.189138879068196, 6848582.192034954205155 ], [ 5100759.372597659006715, 6848504.142426098696887 ], [ 5100694.382636616937816, 6848525.537577748298645 ], [ 5100606.57847735285759, 6848606.972655065357685 ], [ 5100497.901363827288151, 6848684.694625643081963 ], [ 5100388.726324499584734, 6848711.098576918244362 ], [ 5100393.693846392445266, 6848748.111662804149091 ], [ 5100413.386339137330651, 6848807.589318981394172 ], [ 5100431.923068061470985, 6848863.585192276164889 ], [ 5100369.695660559460521, 6848935.91026892978698 ], [ 5100313.734005426988006, 6849014.976371140219271 ], [ 5100224.49865878559649, 6849106.208103784359992 ], [ 5100094.578054782003164, 6849079.846307393163443 ], [ 5100083.514540141448379, 6849074.46465365216136 ], [ 5100038.247493564151227, 6849052.425577437505126 ], [ 5100115.851689863018692, 6848955.729820678010583 ], [ 5100175.424811980687082, 6848844.056656972505152 ], [ 5099986.397432692348957, 6848786.905234937556088 ], [ 5099845.638561889529228, 6848795.039110712707043 ], [ 5099693.862066021189094, 6848738.431577335111797 ], [ 5099566.421388912945986, 6848670.033008866943419 ], [ 5099425.272516388446093, 6848630.701543799601495 ], [ 5099240.426623336039484, 6848655.128986215218902 ], [ 5099192.65899127908051, 6848648.581747759133577 ], [ 5099164.828389825299382, 6848660.399540746584535 ], [ 5099145.242594782263041, 6848684.883842722512782 ], [ 5099082.657396197319031, 6848715.516285447403789 ], [ 5099016.166749050840735, 6848697.542697083204985 ], [ 5098925.912975422106683, 6848621.885555021464825 ], [ 5098854.334013583138585, 6848551.845892416313291 ], [ 5098805.34347650129348, 6848538.368518386036158 ], [ 5098624.95765526778996, 6848538.717807982116938 ], [ 5098537.774944956414402, 6848551.031373972073197 ], [ 5098407.486298771575093, 6848557.907673052512109 ], [ 5098408.738809838891029, 6848568.327644092962146 ], [ 5098546.279071507044137, 6848732.755893395282328 ], [ 5098593.579652152955532, 6848822.675657188519835 ], [ 5098608.145536438561976, 6848893.194689663127065 ], [ 5098564.818579344078898, 6849000.666418749839067 ], [ 5098499.053852945566177, 6849069.530256299301982 ], [ 5098403.719407039694488, 6849081.910885160788894 ], [ 5098292.17643840610981, 6849104.84544849768281 ], [ 5098083.819759854115546, 6849161.407007838599384 ], [ 5097907.840330064296722, 6849213.428048865869641 ], [ 5097815.282180855982006, 6849279.617661066353321 ], [ 5097793.737099410034716, 6849348.120875764638186 ], [ 5097823.534694349393249, 6849432.402874696999788 ], [ 5097865.925692844204605, 6849490.531795031391084 ], [ 5097905.769489889964461, 6849523.786208631470799 ], [ 5097908.206187666393816, 6849536.501912312582135 ], [ 5097735.220377878285944, 6849588.894254837185144 ], [ 5097648.268991536460817, 6849630.140304919332266 ], [ 5097577.747365063987672, 6849688.629834320396185 ], [ 5097565.254489849321544, 6849725.788453111425042 ], [ 5097548.109655367210507, 6849762.985598564147949 ], [ 5097526.56201246380806, 6849831.488211891613901 ], [ 5097498.942495016381145, 6849884.711362112313509 ], [ 5097427.482900682836771, 6849991.103223861195147 ], [ 5097351.926384150981903, 6850107.969936233945191 ], [ 5097125.926532508805394, 6850507.64271984808147 ], [ 5097029.354747003875673, 6850654.364228419959545 ], [ 5096998.09688513353467, 6850675.460280742496252 ], [ 5096907.486159386113286, 6850697.055846439674497 ], [ 5096841.562151395715773, 6850704.836171738803387 ], [ 5096721.482706684619188, 6850725.796895113773644 ], [ 5096679.104724824428558, 6850739.468209955841303 ], [ 5096636.726554216817021, 6850753.128285799175501 ], [ 5096457.302904318086803, 6850875.052460576407611 ], [ 5096277.461318047717214, 6850946.299668783321977 ], [ 5096165.043397721834481, 6851006.286334697157145 ], [ 5096063.191368683241308, 6851078.045927589759231 ], [ 5096019.167039733380079, 6851103.887699828483164 ], [ 5095955.083946927450597, 6851096.307275380939245 ], [ 5095874.655671103857458, 6851083.062465743161738 ], [ 5095701.158188124187291, 6851076.359638750553131 ], [ 5095561.478616834618151, 6851077.493656262755394 ], [ 5095385.094448504038155, 6851146.105150384828448 ], [ 5095389.94415445253253, 6851169.220948001369834 ], [ 5095455.924252263270319, 6851300.910898611880839 ], [ 5095504.328874159604311, 6851398.293048826977611 ], [ 5095592.36292827129364, 6851584.526599148288369 ], [ 5095597.184683486819267, 6851605.33701441064477 ], [ 5095602.016249093227088, 6851626.147348118945956 ], [ 5095595.295562881045043, 6851658.634495893493295 ], [ 5095510.374515827745199, 6851788.820868607610464 ], [ 5095491.804693887010217, 6851816.981356306001544 ], [ 5095482.724577487446368, 6851844.854310805909336 ], [ 5095494.661595693789423, 6851881.823392669670284 ], [ 5095699.165204984135926, 6852694.42630507890135 ], [ 5092631.497756178490818, 6852689.916729461401701 ], [ 5092652.54228082858026, 6852713.815048890188336 ], [ 5092680.286516193300486, 6852727.596225693821907 ], [ 5092709.765256972052157, 6852722.753371514379978 ], [ 5092728.793258544057608, 6852710.710367070510983 ], [ 5092749.485844846814871, 6852720.977756755426526 ], [ 5092770.811803830787539, 6852743.255370326340199 ], [ 5092796.256288140080869, 6852772.250784743577242 ], [ 5092825.885919792577624, 6852797.754925657063723 ], [ 5092846.792609456926584, 6852812.786660773679614 ], [ 5092874.648627407848835, 6852820.802742446772754 ], [ 5092902.730587415397167, 6852821.434916971251369 ], [ 5092931.612418207339942, 6852832.812370599247515 ], [ 5092967.549799979664385, 6852838.226240366697311 ], [ 5092988.563126929104328, 6852841.906691478565335 ], [ 5093026.846444942988455, 6852854.096477281302214 ], [ 5093055.76334204338491, 6852854.998805266804993 ], [ 5093077.656835709698498, 6852849.793720935471356 ], [ 5093099.530596459284425, 6852839.61195296049118 ], [ 5093121.826684447005391, 6852829.570900755934417 ], [ 5093146.697063911706209, 6852811.817037193104625 ], [ 5093176.015641864389181, 6852784.229534400627017 ], [ 5093199.383920931257308, 6852772.284456854686141 ], [ 5093230.125212540850043, 6852763.584101846441627 ], [ 5093258.008356000296772, 6852777.484773389995098 ], [ 5093268.236538304947317, 6852802.321098877117038 ], [ 5093275.910632428713143, 6852834.936560660600662 ], [ 5093289.587398894131184, 6852877.114501766860485 ], [ 5093315.070825499482453, 6852914.543605638667941 ], [ 5093341.852941152639687, 6852930.381457409821451 ], [ 5093360.766602865420282, 6852945.993385734036565 ], [ 5093365.587864445522428, 6852991.92133332695812 ], [ 5093356.254008308053017, 6853035.522869741544127 ], [ 5093280.613892327062786, 6853036.842152021825314 ], [ 5093214.739357262849808, 6853025.547516705468297 ], [ 5093183.072244161739945, 6853060.979087326675653 ], [ 5093151.744024676270783, 6853094.689838534221053 ], [ 5093116.340687696821988, 6853085.060294875875115 ], [ 5093062.347314889542758, 6853070.999659191817045 ], [ 5092998.722663942724466, 6853070.448791090399027 ], [ 5092918.588461039587855, 6853064.674073084257543 ], [ 5092860.453776803798974, 6853079.519435305148363 ], [ 5092809.998140593059361, 6853111.595353374257684 ], [ 5092791.90305533260107, 6853163.822313711047173 ], [ 5092792.017665467225015, 6853209.499266801401973 ], [ 5092832.043301746249199, 6853243.766746340319514 ], [ 5092869.64667755831033, 6853265.26204782538116 ], [ 5092886.798718008212745, 6853294.799236150458455 ], [ 5092899.158416148275137, 6853322.877803867682815 ], [ 5092924.476928647607565, 6853346.886089756153524 ], [ 5092968.87343083601445, 6853361.344515014439821 ], [ 5092989.081328492611647, 6853362.160546191968024 ], [ 5093011.363283295184374, 6853357.639776930212975 ], [ 5093037.709156170487404, 6853350.404524011537433 ], [ 5093058.624559230171144, 6853345.28481893055141 ], [ 5093081.233876392245293, 6853348.730853151530027 ], [ 5093113.194230556488037, 6853352.768042163923383 ], [ 5093145.697810320183635, 6853359.837917748838663 ], [ 5093166.882139417342842, 6853370.156154016032815 ], [ 5093184.679454126395285, 6853385.777194069698453 ], [ 5093199.468555465340614, 6853397.609032891690731 ], [ 5093207.913509834557772, 6853408.748373159207404 ], [ 5093212.085837977007031, 6853420.985570756718516 ], [ 5093213.510238450020552, 6853437.578407283872366 ], [ 5093213.588651920668781, 6853464.844864154234529 ], [ 5093208.438699271529913, 6853492.529518066905439 ], [ 5093186.047660050913692, 6853541.53231165651232 ], [ 5093159.254047090187669, 6853559.101870587095618 ], [ 5093123.385549752041698, 6853575.102588630281389 ], [ 5093091.419788049533963, 6853597.756135180592537 ], [ 5093078.173936503008008, 6853654.844432971440256 ], [ 5093068.544990997761488, 6853679.893077447079122 ], [ 5093051.822669999673963, 6853694.999774601310492 ], [ 5093036.407637705095112, 6853711.891766170039773 ], [ 5093031.503896762616932, 6853737.324286624789238 ], [ 5093039.716047074645758, 6853766.133744681254029 ], [ 5093041.122094580903649, 6853799.053709883242846 ], [ 5093055.28603798802942, 6853824.734793341718614 ], [ 5093069.608087623491883, 6853830.71804828196764 ], [ 5093099.421069380827248, 6853829.407529214397073 ], [ 5093127.391861001960933, 6853852.873517757281661 ], [ 5093159.554841396398842, 6853886.104728791862726 ], [ 5093185.857164237648249, 6853916.611131031997502 ], [ 5093231.003020707517862, 6853942.512671137228608 ], [ 5093272.069677518680692, 6853966.717180326581001 ], [ 5093288.873739032074809, 6853989.173793298192322 ], [ 5093286.386658147908747, 6854019.08747997879982 ], [ 5093273.58730435743928, 6854045.868327040225267 ], [ 5093280.253684295341372, 6854088.489652315154672 ], [ 5093262.629314091056585, 6854128.332546113990247 ], [ 5093251.856021741405129, 6854178.418426087126136 ], [ 5093244.377076994627714, 6854246.157488644123077 ], [ 5093238.971862697973847, 6854292.410113566555083 ], [ 5093222.415323562920094, 6854322.379571884870529 ], [ 5093193.898279064334929, 6854342.778131362050772 ], [ 5093159.370329420082271, 6854360.098366679623723 ], [ 5093143.029801898635924, 6854387.682899538427591 ], [ 5093134.782960791140795, 6854431.48612554371357 ], [ 5093116.3309954283759, 6854479.570812805555761 ], [ 5093091.462109801359475, 6854519.082638090476394 ], [ 5093071.567531021311879, 6854547.049796879291534 ], [ 5093040.095335373654962, 6854561.829434395767748 ], [ 5093017.662472858093679, 6854552.474000319838524 ], [ 5092997.064828903414309, 6854531.066662937402725 ], [ 5092976.986422287300229, 6854492.241992179304361 ], [ 5092958.451536169275641, 6854456.553023947402835 ], [ 5092944.889135212637484, 6854436.398079347796738 ], [ 5092920.908541142940521, 6854438.238578592427075 ], [ 5092877.403207304887474, 6854455.329417028464377 ], [ 5092825.553010130301118, 6854477.795079244300723 ], [ 5092788.114769632928073, 6854497.686451425775886 ], [ 5092741.357411202043295, 6854527.40503066778183 ], [ 5092714.205250940285623, 6854555.827651577070355 ], [ 5092690.305329158902168, 6854602.879259709268808 ], [ 5092680.803503394126892, 6854661.777471754699945 ], [ 5092674.767035304568708, 6854710.306937772780657 ], [ 5092661.960937008261681, 6854722.788533804938197 ], [ 5092626.15199195407331, 6854724.455308675765991 ], [ 5092583.532340412959456, 6854742.225266978144646 ], [ 5092522.697432901710272, 6854778.692803388461471 ], [ 5092488.964364324696362, 6854810.203528543934226 ], [ 5092461.944940171204507, 6854825.722543675452471 ], [ 5092462.217238066717982, 6854856.711642996408045 ], [ 5092476.215651642531157, 6854887.537720048800111 ], [ 5092498.635653021745384, 6854927.719259353354573 ], [ 5092523.610793801955879, 6854943.861403116956353 ], [ 5092561.219030100852251, 6854956.634555619210005 ], [ 5092610.232673892751336, 6854980.646040906198323 ], [ 5092653.580168131738901, 6854995.557421861216426 ], [ 5092703.338957449421287, 6854999.63339932821691 ], [ 5092730.679787706583738, 6854995.073524674400687 ], [ 5092751.416012738831341, 6855005.407180362381041 ], [ 5092762.690940420143306, 6855027.4535505278036 ], [ 5092749.456422374583781, 6855057.761891033500433 ], [ 5092730.460048075765371, 6855089.279340772889555 ], [ 5092708.195828481577337, 6855127.661348324269056 ], [ 5092716.639683330431581, 6855163.507588759064674 ], [ 5092739.364916562102735, 6855178.780249840579927 ], [ 5092730.49778816010803, 6855308.501078898087144 ], [ 5092723.190314838662744, 6855336.224510656669736 ], [ 5092700.94192972779274, 6855345.51050307508558 ], [ 5092654.547657735645771, 6855348.313457805663347 ], [ 5092616.440508247353137, 6855353.290170963853598 ], [ 5092584.799131765961647, 6855363.093038133345544 ], [ 5092553.42366349324584, 6855361.831773441284895 ], [ 5092535.711310536600649, 6855391.033290507271886 ], [ 5092528.818469129502773, 6855417.966356236487627 ], [ 5092526.428076852113008, 6855450.517011096701026 ], [ 5092570.25389794819057, 6855512.454940634779632 ], [ 5092575.908604293130338, 6855540.03221482783556 ], [ 5092566.590694328770041, 6855581.349350107833743 ], [ 5092561.461410349234939, 6855629.494688143022358 ], [ 5092568.630387738347054, 6855673.974455997347832 ], [ 5092560.306494670920074, 6855699.621911043301225 ], [ 5092529.853637891821563, 6855699.916177110746503 ], [ 5092487.2542565157637, 6855698.243931589648128 ], [ 5092454.343551642261446, 6855718.763616835698485 ], [ 5092443.238094219006598, 6855743.368696813471615 ], [ 5092453.596554888412356, 6855765.998898752965033 ], [ 5092484.50599146541208, 6855775.178178647533059 ], [ 5092511.515778030268848, 6855794.396913246251643 ], [ 5092531.50060332659632, 6855828.722912652418017 ], [ 5092545.57013457082212, 6855873.458925750106573 ], [ 5092547.813319073989987, 6855902.093781662173569 ], [ 5092567.957067750394344, 6855930.410885261371732 ], [ 5092598.1093440502882, 6855932.945350920781493 ], [ 5092630.727555740624666, 6855921.305960323661566 ], [ 5092660.219959430396557, 6855918.425310911610723 ], [ 5092699.363432220183313, 6855927.882995424792171 ], [ 5092727.295638780109584, 6855935.954465528950095 ], [ 5092765.519943009130657, 6855944.399417443200946 ], [ 5092795.28136614523828, 6855957.0340939713642 ], [ 5092809.907980095595121, 6855993.962218831293285 ], [ 5092804.455381002277136, 6856033.298326821997762 ], [ 5092782.222780509851873, 6856064.697124628350139 ], [ 5092753.564553662203252, 6856088.974952225573361 ], [ 5092734.569409111514688, 6856129.603446036577225 ], [ 5092712.27683712169528, 6856152.168522311374545 ], [ 5092686.433698720298707, 6856170.593809466809034 ], [ 5092678.941232779994607, 6856192.322103915736079 ], [ 5092678.734890842810273, 6856214.713644582778215 ], [ 5092672.690129838883877, 6856234.867702924646437 ], [ 5092660.400276195257902, 6856260.901036184281111 ], [ 5092659.274580670520663, 6856278.533620767295361 ], [ 5092671.782598189078271, 6856291.514671228826046 ], [ 5092683.534962939098477, 6856303.105044562369585 ], [ 5092701.294224683195353, 6856305.936110109090805 ], [ 5092716.450772441923618, 6856299.288506332784891 ], [ 5092740.97573903016746, 6856296.402374807745218 ], [ 5092753.199349702335894, 6856306.847313892096281 ], [ 5092758.775996536016464, 6856320.658635795116425 ], [ 5092760.395736108534038, 6856334.733821712434292 ], [ 5092751.605523504316807, 6856352.18280397169292 ], [ 5092739.111688540317118, 6856368.463795686140656 ], [ 5092731.023600821383297, 6856379.245687966234982 ], [ 5092714.945452565327287, 6856389.591557192616165 ], [ 5092693.261024481616914, 6856407.308035226538777 ], [ 5092668.972462818026543, 6856422.861346625722945 ], [ 5092646.578612172976136, 6856428.867394622415304 ], [ 5092636.437949643470347, 6856441.593964298255742 ], [ 5092648.361553966067731, 6856464.998695939779282 ], [ 5092661.422320745885372, 6856478.463122717104852 ], [ 5092668.193870403803885, 6856494.692523504607379 ], [ 5092681.406984214670956, 6856502.591507970355451 ], [ 5092695.335545788519084, 6856508.002017725259066 ], [ 5092702.727133519016206, 6856519.571202550083399 ], [ 5092713.588089012540877, 6856538.661414291709661 ], [ 5092722.067934987135231, 6856561.516752899624407 ], [ 5092725.979750081896782, 6856580.450943449512124 ], [ 5092717.902339111082256, 6856602.593951527960598 ], [ 5092700.971718936227262, 6856631.711887843906879 ], [ 5092686.395489957183599, 6856663.648841545917094 ], [ 5092662.307066754437983, 6856717.252296812832355 ], [ 5092651.661300821229815, 6856751.807444307953119 ], [ 5092624.540640109218657, 6856769.965456729754806 ], [ 5092598.015922571532428, 6856775.405257240869105 ], [ 5092571.078174146823585, 6856768.168018039315939 ], [ 5092553.107264161109924, 6856738.426183890551329 ], [ 5092533.665475370362401, 6856717.308205744251609 ], [ 5092517.598493239842355, 6856702.902883256785572 ], [ 5092497.400321333669126, 6856691.544790178537369 ], [ 5092470.411272357217968, 6856688.985223594121635 ], [ 5092442.002901152707636, 6856696.645170951262116 ], [ 5092425.644755685701966, 6856710.118527948856354 ], [ 5092422.200497114099562, 6856732.069851530715823 ], [ 5092425.671457905322313, 6856756.084093134850264 ], [ 5092441.137926809489727, 6856766.393122987821698 ], [ 5092451.135086763650179, 6856792.83908755518496 ], [ 5092450.523527200333774, 6856826.118352809920907 ], [ 5092460.732334712520242, 6856850.800279789604247 ], [ 5092464.949557603336871, 6856877.49101746827364 ], [ 5092475.604846112430096, 6856909.119167115539312 ], [ 5092493.137042143382132, 6856926.638787450268865 ], [ 5092508.180634490214288, 6856940.475794741883874 ], [ 5092518.394634939730167, 6856954.539064867421985 ], [ 5092519.953766651451588, 6856980.918093292042613 ], [ 5092511.973599317483604, 6856998.05014962144196 ], [ 5092496.023438210599124, 6857008.605271219275892 ], [ 5092473.835143235512078, 6857017.236266512423754 ], [ 5092457.779695836827159, 6857023.1146688638255 ], [ 5092448.729884622618556, 6857041.330212130211294 ], [ 5092435.394011634401977, 6857056.6087686130777 ], [ 5092425.250422751531005, 6857077.82556133903563 ], [ 5092414.346870132721961, 6857103.371090244501829 ], [ 5092398.069039508700371, 6857127.185214008204639 ], [ 5092384.168356113135815, 6857145.449747320264578 ], [ 5092375.939930623397231, 6857172.226802296936512 ], [ 5092363.820337017066777, 6857193.935608739033341 ], [ 5092351.431336291134357, 6857216.289385345764458 ], [ 5092358.165445188060403, 6857240.267021573148668 ], [ 5092374.967221511527896, 6857243.305624231696129 ], [ 5092397.048216801136732, 6857229.66566357575357 ], [ 5092419.663462765514851, 6857217.927941905334592 ], [ 5092450.146765262819827, 6857216.015579909086227 ], [ 5092474.056052449159324, 6857221.858080143108964 ], [ 5092496.797021888196468, 6857243.692954759113491 ], [ 5092510.506837718188763, 6857254.858064993284643 ], [ 5092531.764807784929872, 6857256.265418663620949 ], [ 5092552.541258052922785, 6857248.753809155896306 ], [ 5092569.944039944559336, 6857243.441098038107157 ], [ 5092587.125738687813282, 6857242.430725446902215 ], [ 5092599.259197719395161, 6857230.032214962877333 ], [ 5092617.875569473952055, 6857227.015406049787998 ], [ 5092629.23271543905139, 6857218.103360943496227 ], [ 5092646.051679911091924, 6857204.592879094183445 ], [ 5092670.560882081277668, 6857191.964159663766623 ], [ 5092689.588704778812826, 6857190.185424929484725 ], [ 5092703.658360841684043, 6857194.741364344023168 ], [ 5092714.954105139710009, 6857216.710032373666763 ], [ 5092719.054418652318418, 6857240.90768513828516 ], [ 5092718.544085926376283, 6857263.279415955767035 ], [ 5092724.042680862359703, 6857294.559911988675594 ], [ 5092731.712039265781641, 6857318.973379652947187 ], [ 5092749.10879014711827, 6857325.365267654880881 ], [ 5092762.704919131472707, 6857334.491513312794268 ], [ 5092769.911370846442878, 6857369.826438430696726 ], [ 5092769.491983816027641, 6857405.010680414736271 ], [ 5092757.992893571965396, 6857439.528249187394977 ], [ 5092735.212553491815925, 6857467.694547886028886 ], [ 5092713.429655279964209, 6857488.105179373174906 ], [ 5092694.335945571772754, 6857502.775260948576033 ], [ 5092682.314255303703249, 6857529.438216822221875 ], [ 5092676.716919031925499, 6857553.00260878354311 ], [ 5092759.945708187296987, 6857589.558396456763148 ], [ 5092798.236781596206129, 6857614.551450109109282 ], [ 5092844.979537880979478, 6857649.952410780824721 ], [ 5092918.800362781621516, 6857717.572240146808326 ], [ 5093055.215809071436524, 6857841.992291368544102 ], [ 5093092.535092360340059, 6857876.55767532531172 ], [ 5093130.874226537533104, 6857903.710720393806696 ], [ 5093184.929637203924358, 6857935.273044847883284 ], [ 5093239.70967729203403, 6857962.994307236745954 ], [ 5093463.719300315715373, 6858015.192139187827706 ], [ 5093531.966584857553244, 6858031.743540963158011 ], [ 5093580.842721647582948, 6858048.935766800306737 ], [ 5093615.437815640121698, 6858068.44674629997462 ], [ 5093650.700365597382188, 6858091.776357607915998 ], [ 5093683.855821504257619, 6858127.459211497567594 ], [ 5093862.328380225226283, 6858344.089107252657413 ], [ 5093916.616009146906435, 6858408.056346412748098 ], [ 5093971.37075502704829, 6858448.122255926020443 ], [ 5094032.263637729920447, 6858474.915693588554859 ], [ 5094088.163493214175105, 6858491.307347766123712 ], [ 5094291.818519695661962, 6858486.856921902857721 ], [ 5094487.89673182554543, 6858475.015048082917929 ], [ 5094570.4142005732283, 6858460.377560785040259 ], [ 5094682.750566847622395, 6858420.516822259873152 ], [ 5095145.783081961795688, 6858173.764563845470548 ], [ 5095248.934703938663006, 6858124.606123372912407 ], [ 5095352.753580770455301, 6858106.000443184748292 ], [ 5095396.865463288500905, 6858104.491459485143423 ], [ 5095456.036853993311524, 6858109.688458727672696 ], [ 5095733.593493026681244, 6858182.504003907553852 ], [ 5096777.143614110536873, 6858444.598337758332491 ], [ 5097173.439686953090131, 6858547.09942208789289 ], [ 5097276.238568059168756, 6858591.37723212596029 ], [ 5097353.917196575552225, 6858645.183072799816728 ], [ 5097451.779938859865069, 6858747.958371723070741 ], [ 5098060.189215196296573, 6859528.287533362396061 ], [ 5098104.437063915655017, 6859579.140584694221616 ], [ 5098144.848973769694567, 6859620.116019658744335 ], [ 5098185.528798153623939, 6859652.011096049100161 ], [ 5098234.059439066797495, 6859686.135220885276794 ], [ 5098270.123578108847141, 6859705.155231810174882 ], [ 5098332.133792895823717, 6859726.419976307079196 ], [ 5098634.782091015949845, 6859813.314583640545607 ], [ 5098715.62481664866209, 6859845.227326773107052 ], [ 5098986.170286323875189, 6859980.631094057112932 ], [ 5098842.6727304328233, 6860057.138595787808299 ], [ 5098800.542000903747976, 6860086.587061328813434 ], [ 5098760.32532667927444, 6860131.614935303106904 ], [ 5098548.417054903693497, 6860375.829623756930232 ], [ 5098508.198584538884461, 6860402.057674487121403 ], [ 5098324.248365485109389, 6860503.646694647148252 ], [ 5098190.489029647782445, 6860585.429605772718787 ], [ 5098111.299502935260534, 6860661.005447959527373 ], [ 5097854.891347251832485, 6860378.321428747847676 ], [ 5097784.551078952848911, 6862068.326303403824568 ], [ 5097935.361614047549665, 6861696.61099823191762 ], [ 5098044.985940230078995, 6861706.764723875559866 ], [ 5098351.993308437988162, 6861888.856566195376217 ], [ 5098598.87264489941299, 6862053.574351586401463 ], [ 5099470.47219404950738, 6862615.109454937279224 ], [ 5099808.263395260088146, 6862764.639847664162517 ], [ 5100049.334128658287227, 6863169.019452856853604 ], [ 5100307.547426119446754, 6863415.619879329577088 ], [ 5100711.590381903573871, 6863514.595930654555559 ], [ 5101043.455191350542009, 6863704.77789949439466 ], [ 5101264.412482397630811, 6863726.011277319863439 ], [ 5101424.584201353602111, 6863916.542304506525397 ], [ 5101607.833804407157004, 6863973.318428238853812 ], [ 5101796.81200950499624, 6863905.820602189749479 ], [ 5102050.083258282393217, 6864114.518897567875683 ], [ 5102151.592472415417433, 6863995.972134236246347 ], [ 5102470.032614939846098, 6864113.905948153696954 ], [ 5102761.255575176328421, 6863952.631329512223601 ], [ 5103018.202764356508851, 6863674.585646815598011 ], [ 5103210.854607813060284, 6863582.259189801290631 ], [ 5103115.46900366153568, 6863283.324954119510949 ], [ 5102955.613666743040085, 6863142.670658968389034 ], [ 5103118.160041857510805, 6862911.387467314489186 ], [ 5103102.881927829235792, 6862695.142449369654059 ], [ 5102896.63904975168407, 6862423.830078915692866 ], [ 5102812.49142180941999, 6862179.707845022901893 ], [ 5102857.114809325896204, 6861838.452987345866859 ], [ 5102885.042473929934204, 6861654.231421083211899 ], [ 5102985.382945169694722, 6861500.670548602938652 ], [ 5103216.142179128713906, 6860779.025666685774922 ], [ 5103463.818582572042942, 6860862.532212160527706 ], [ 5103525.525804636999965, 6860520.491957828402519 ], [ 5103285.636556571349502, 6860503.957463673315942 ], [ 5103409.868826497346163, 6860226.902380434796214 ], [ 5103632.952101503498852, 6860251.440374923869967 ], [ 5103689.029739517718554, 6860082.165813883766532 ], [ 5103589.069124788045883, 6859440.000586466863751 ], [ 5103781.640237930230796, 6859258.831336946226656 ], [ 5103923.647790121845901, 6859161.325699059292674 ], [ 5103933.640110226348042, 6859071.531234212219715 ], [ 5103912.115718855522573, 6859020.332983948290348 ], [ 5103779.551457368768752, 6858935.094801937229931 ] ] ] } }
]
}
