{
"type": "FeatureCollection",
"name": "4306700",
"crs": { "type": "name", "properties": { "name": "urn:ogc:def:crs:EPSG::5880" } },
"features": [
{ "type": "Feature", "properties": { "lv_id": "LOC_070686", "id": 420091.0, "CD_SETOR": "430670005000004", "SITUACAO": "Rural", "CD_SIT": "8", "CD_TIPO": "0", "AREA_KM2": 59.325275240756902, "CD_REGIAO": "4", "NM_REGIAO": "Sul", "CD_UF": "43", "NM_UF": "Rio Grande do Sul", "CD_MUN": "4306700", "NM_MUN": "Dona Francisca", "CD_DIST": "430670005", "NM_DIST": "Dona Francisca", "CD_SUBDIST": "43067000500", "NM_SUBDIST": null, "CD_BAIRRO": null, "NM_BAIRRO": null, "CD_NU": null, "NM_NU": null, "CD_FCU": null, "NM_FCU": null, "CD_AGLOM": null, "NM_AGLOM": null, "CD_RGINT": "4303", "NM_RGINT": "Santa Maria", "CD_RGI": "430011", "NM_RGI": "Santa Maria", "CD_CONCURB": null, "NM_CONCURB": null, "mun_code_x": "4306700", "index_right": 70260, "dist_m": 0.0, "local_id": 738844, "ano": 2022, "cod_localidade_ibge": 4306700, "NR_ZONA": "119", "nr_cep": 97280000.0, "nm_localidade": "DONA FRANCISCA", "nm_locvot": "GINÁSIO ESPORTIVO AFONSO ROBERTO HENNING", "ds_endereco": "LINHA ÁVILA", "ds_bairro": "LINHA ÁVILA", "pred_long": -53.306739, "pred_lat": -29.505105, "pred_dist": 0.0, "tse_long": -53.304028, "tse_lat": -29.506497, "long": -53.304028, "lat": -29.506497, "ID_UNICO": "LOC_070686", "SG_UF": "RS", "CD_MUNICIPIO": "86312", "NR_LOCAL_VOTACAO": "1082", "QT_SECOES_AGREGADAS": 0, "QT_ELEITORES_TRANSFERIDOS": 0, "CIRO GOMES (PDT) (NÃO ELEITO) 1T": 9.0, "CONSTITUINTE EYMAEL (DC) (NÃO ELEITO) 1T": 0.0, "FELIPE D AVILA (NOVO) (NÃO ELEITO) 1T": 0.0, "JAIR BOLSONARO (PL) (2º TURNO) 1T": 85.0, "LULA (PT) (2º TURNO) 1T": 77.0, "LÉO PÉRICLES (UP) (NÃO ELEITO) 1T": 0.0, "PADRE KELMON (PTB) (NÃO ELEITO) 1T": 0.0, "SIMONE TEBET (MDB) (NÃO ELEITO) 1T": 10.0, "SOFIA MANZANO (PCB) (NÃO ELEITO) 1T": 0.0, "SORAYA THRONICKE (UNIÃO) (NÃO ELEITO) 1T": 0.0, "VERA (PSTU) (NÃO ELEITO) 1T": 0.0, "Total_Votos_Validos 1T": 181.0, "Votos_Brancos 1T": 6.0, "Votos_Nulos 1T": 2.0, "Abstenções 1T": 36.0, "Eleitores_Aptos 1T": 225.0, "JAIR BOLSONARO (PL) (NÃO ELEITO) 2T": 92.0, "LULA (PT) (ELEITO) 2T": 81.0, "Total_Votos_Validos 2T": 173.0, "Votos_Brancos 2T": 1.0, "Votos_Nulos 2T": 9.0, "Abstenções 2T": 42.0, "Eleitores_Aptos 2T": 225.0, "mun_code_y": "4306700", "mun_code": "4306700" }, "geometry": { "type": "Polygon", "coordinates": [ [ [ 5068475.748553111217916, 6736665.012755986303091 ], [ 5068333.453537959605455, 6736451.3093734793365 ], [ 5067994.852309470996261, 6736203.90336843021214 ], [ 5067916.750643652863801, 6735987.003478521481156 ], [ 5068001.245623160153627, 6735605.606218580156565 ], [ 5068424.14901892375201, 6735296.509542312473059 ], [ 5068451.145351650193334, 6735194.206317270174623 ], [ 5068173.150873258709908, 6734234.011275167576969 ], [ 5068000.352550270967185, 6734019.31319984793663 ], [ 5067506.446788642555475, 6733741.014485219493508 ], [ 5067134.045216773636639, 6733322.109328718855977 ], [ 5066871.045713355764747, 6732946.807267257012427 ], [ 5066735.448408097028732, 6732587.506624705158174 ], [ 5066942.350896229036152, 6731115.509192173369229 ], [ 5066880.64965078048408, 6730915.808625397272408 ], [ 5066222.152228077873588, 6730162.309213603846729 ], [ 5065828.45409067440778, 6729711.817522892728448 ], [ 5065412.653948114253581, 6729487.015037226490676 ], [ 5064668.854853017255664, 6729351.914824863895774 ], [ 5064520.653622344136238, 6729251.512497149407864 ], [ 5064448.253531920723617, 6728895.514348258264363 ], [ 5065044.847534380853176, 6727745.111882008612156 ], [ 5065077.740698246285319, 6727373.841794336214662 ], [ 5064996.391744185239077, 6727363.714534089900553 ], [ 5064948.193271541036665, 6727370.455610194243491 ], [ 5064899.188136175274849, 6727366.714454184286296 ], [ 5064802.924600823782384, 6727364.697571597993374 ], [ 5064758.89986742194742, 6727391.189930664375424 ], [ 5064702.456761392764747, 6727413.430279456079006 ], [ 5064682.235641366802156, 6727430.673308186233044 ], [ 5064714.465468943119049, 6727482.954581500962377 ], [ 5064708.183943849056959, 6727521.312512025237083 ], [ 5064669.509520484134555, 6727565.033496053889394 ], [ 5064651.664957331493497, 6727587.816520594060421 ], [ 5064658.473732733167708, 6727624.303370758891106 ], [ 5064657.096081171184778, 6727640.883771292865276 ], [ 5064628.556193480268121, 6727642.256036978214979 ], [ 5064608.089613019488752, 6727623.595128506422043 ], [ 5064615.37160169519484, 6727583.89020496699959 ], [ 5064588.861764077097178, 6727543.869391426444054 ], [ 5064521.095900840125978, 6727543.548755847848952 ], [ 5064517.447098279371858, 6727522.352470295503736 ], [ 5064541.06982587557286, 6727467.932402109727263 ], [ 5064559.182552938349545, 6727429.395836839452386 ], [ 5064552.127356432378292, 6727417.442053213715553 ], [ 5064524.867141591385007, 6727427.26479054428637 ], [ 5064493.869447218254209, 6727413.940666502341628 ], [ 5064493.798402361571789, 6727394.785722060129046 ], [ 5064506.309726365841925, 6727388.262363526970148 ], [ 5064503.426754733547568, 6727377.249046159908175 ], [ 5064493.888651993125677, 6727375.031247708946466 ], [ 5064471.162609707564116, 6727372.866853694431484 ], [ 5064440.29545709118247, 6727372.145792659372091 ], [ 5064390.688286571763456, 6727369.84695965051651 ], [ 5064341.375273877754807, 6727371.536923301406205 ], [ 5064312.293143814429641, 6727369.475070241838694 ], [ 5064284.505284893326461, 6727380.242487849667668 ], [ 5064243.142369974404573, 6727375.889459926635027 ], [ 5064206.8117192722857, 6727372.072910582646728 ], [ 5064184.045654275454581, 6727369.675375965423882 ], [ 5064155.748151868581772, 6727376.055615119636059 ], [ 5064116.866106851026416, 6727370.025187138468027 ], [ 5063991.670338784344494, 6727370.106140179559588 ], [ 5063927.528956072404981, 6727366.247310805134475 ], [ 5063806.376076665706933, 6727368.398343216627836 ], [ 5063756.517761736176908, 6727366.20899489056319 ], [ 5063689.940269595943391, 6727370.199894447810948 ], [ 5063642.297571801580489, 6727375.967794608324766 ], [ 5063604.662849090993404, 6727405.401355922222137 ], [ 5063571.669160734862089, 6727433.057092411443591 ], [ 5063512.462893175892532, 6727462.346157750114799 ], [ 5063434.835205118171871, 6727481.318650989793241 ], [ 5063406.817131582647562, 6727489.258433721959591 ], [ 5063396.681262099184096, 6727511.630153644829988 ], [ 5063388.684615140780807, 6727549.076829542405903 ], [ 5063374.343031726777554, 6727578.322900898754597 ], [ 5063363.496415770612657, 6727620.773964859545231 ], [ 5063347.877374623902142, 6727658.950810545124114 ], [ 5063334.980911133810878, 6727700.515474336221814 ], [ 5063325.437268370762467, 6727719.702318034134805 ], [ 5063320.113216729834676, 6727755.149625831283629 ], [ 5063304.362333859317005, 6727776.843386633321643 ], [ 5063277.591149496845901, 6727799.873905817046762 ], [ 5063267.996467840857804, 6727816.910444727167487 ], [ 5063268.182037589140236, 6727841.296925722621381 ], [ 5063257.898644616827369, 6727863.392194691114128 ], [ 5063252.474130894057453, 6727889.639275060966611 ], [ 5063253.429616576060653, 6727918.255985660478473 ], [ 5063258.43810941465199, 6727945.564023823477328 ], [ 5063252.413221013732255, 6727970.17386047821492 ], [ 5063248.979029769077897, 6727986.754505912773311 ], [ 5063246.335731294937432, 6728000.947378945536911 ], [ 5063245.316202226094902, 6728012.659117458388209 ], [ 5063244.243421877734363, 6728023.517591845244169 ], [ 5063237.845740748569369, 6728031.812046404927969 ], [ 5063235.988973239436746, 6728039.393695821985602 ], [ 5063237.901904469355941, 6728052.153135990723968 ], [ 5063236.668592703528702, 6728058.589502521790564 ], [ 5063230.657177561894059, 6728061.472187217324972 ], [ 5063222.729315929114819, 6728061.317196575924754 ], [ 5063211.809286734089255, 6728065.014499425888062 ], [ 5063203.471602957695723, 6728062.633665344677866 ], [ 5063192.224813550710678, 6728059.914434306323528 ], [ 5063180.014654157683253, 6728058.209357200190425 ], [ 5063171.790670331567526, 6728057.091578063555062 ], [ 5063161.297504569403827, 6728053.969017364084721 ], [ 5063153.140708117745817, 6728049.281402776017785 ], [ 5063144.498715367168188, 6728044.474567459896207 ], [ 5063142.765543243847787, 6728041.280660619027913 ], [ 5063142.859933841973543, 6728037.378129193559289 ], [ 5063136.800058336928487, 6728031.625639563426375 ], [ 5063128.489734749309719, 6728027.204914540052414 ], [ 5063125.05930669605732, 6728020.306973695755005 ], [ 5063120.167088298127055, 6728017.130784256383777 ], [ 5063112.218192575499415, 6728014.947237050160766 ], [ 5063097.063465244136751, 6728011.750994075089693 ], [ 5063083.7426419230178, 6728007.247478051111102 ], [ 5063072.650543705560267, 6728000.991073288023472 ], [ 5063057.587284988723695, 6727989.901580575853586 ], [ 5063046.676667774096131, 6727979.708876806311309 ], [ 5063030.890774338506162, 6727974.542911296710372 ], [ 5063013.131650754250586, 6727975.21880504861474 ], [ 5062990.868833523243666, 6727974.600740203633904 ], [ 5062973.860563723370433, 6727977.844141993671656 ], [ 5062951.162948574870825, 6727980.919813017360866 ], [ 5062928.978412577882409, 6727983.903886859305203 ], [ 5062908.522585451602936, 6727987.565536618232727 ], [ 5062892.668770319782197, 6727996.245207268744707 ], [ 5062878.219445077702403, 6728006.54653540905565 ], [ 5062869.302818975411355, 6728014.998957566916943 ], [ 5062858.136437388136983, 6728017.97675253264606 ], [ 5062846.547268617898226, 6728018.130164904519916 ], [ 5062834.120871993713081, 6728012.390900218859315 ], [ 5062818.359598546288908, 6728002.945603534579277 ], [ 5062796.950390483252704, 6727990.328175255097449 ], [ 5062779.953165496699512, 6727983.406069273129106 ], [ 5062745.934088855050504, 6727977.299405452795327 ], [ 5062736.057577364146709, 6727971.767520230263472 ], [ 5062684.076414599083364, 6727959.464392030611634 ], [ 5062653.379135573282838, 6727959.923568330705166 ], [ 5062645.82372014503926, 6727962.249189192429185 ], [ 5062626.533788589760661, 6727957.756196485832334 ], [ 5062606.28038592543453, 6727942.072457740083337 ], [ 5062584.925974312238395, 6727928.789215047843754 ], [ 5062562.047591028735042, 6727915.037741394713521 ], [ 5062530.535146908834577, 6727904.803879755549133 ], [ 5062496.33515044581145, 6727886.991482505574822 ], [ 5062473.198031602427363, 6727873.72901857085526 ], [ 5062448.278274438343942, 6727860.531827697530389 ], [ 5062426.410463834181428, 6727848.969348791055381 ], [ 5062403.272419035434723, 6727851.237140487879515 ], [ 5062367.854555242694914, 6727861.897953104227781 ], [ 5062333.707383814267814, 6727871.044024009257555 ], [ 5062306.823276885785162, 6727875.82654071226716 ], [ 5062276.767244163900614, 6727876.547189142554998 ], [ 5062232.641629631631076, 6727865.19618508964777 ], [ 5062197.024672701954842, 6727852.146284307353199 ], [ 5062178.004539076238871, 6727847.307397622615099 ], [ 5062146.581260127946734, 6727849.609355296939611 ], [ 5062119.040702054277062, 6727854.849542235024273 ], [ 5062098.069083213806152, 6727861.627510893158615 ], [ 5062014.146599375642836, 6727857.634089140221477 ], [ 5061985.077622260898352, 6727854.579548239707947 ], [ 5061955.51784064527601, 6727862.701525077223778 ], [ 5061928.674086699262261, 6727871.318395011126995 ], [ 5061902.387679690495133, 6727875.564562248066068 ], [ 5061872.234851846471429, 6727885.1195716150105 ], [ 5061853.116064738482237, 6727888.760862807743251 ], [ 5061837.959924083203077, 6727885.208217164501548 ], [ 5061814.008523529395461, 6727896.44719336181879 ], [ 5061789.420829220674932, 6727904.763117531314492 ], [ 5061760.139624606817961, 6727923.081431637518108 ], [ 5061742.273723955266178, 6727930.783924786373973 ], [ 5061717.408963048830628, 6727925.710284655913711 ], [ 5061695.898597711697221, 6727915.596602472476661 ], [ 5061666.705570290796459, 6727900.525560126639903 ], [ 5061645.553169610910118, 6727890.287884496152401 ], [ 5061615.611952570267022, 6727890.751176840625703 ], [ 5061603.827194972895086, 6727899.406731622293591 ], [ 5061584.607761538587511, 6727909.466445583850145 ], [ 5061571.713755823671818, 6727906.677025802433491 ], [ 5061562.201187390834093, 6727914.411116074770689 ], [ 5061550.03318509273231, 6727915.020855428650975 ], [ 5061538.030686083249748, 6727912.226520614698529 ], [ 5061528.18775022868067, 6727900.308331958949566 ], [ 5061517.787073647603393, 6727880.312074682675302 ], [ 5061512.817985114641488, 6727861.20618787035346 ], [ 5061518.662420297041535, 6727833.040001787245274 ], [ 5061513.962123049423099, 6727811.693434853106737 ], [ 5061500.470043029636145, 6727800.515709894709289 ], [ 5061482.823093336075544, 6727791.533371993340552 ], [ 5061468.016892897896469, 6727791.680777448229492 ], [ 5061456.285123388282955, 6727799.393647383898497 ], [ 5061441.756488399580121, 6727795.360382424667478 ], [ 5061415.956574987620115, 6727791.089325752109289 ], [ 5061390.785854948684573, 6727797.345714480616152 ], [ 5061365.363550489768386, 6727807.228277428075671 ], [ 5061341.037508372217417, 6727808.458353104069829 ], [ 5061321.822192980907857, 6727817.508842587471008 ], [ 5061278.239205569960177, 6727804.144745267927647 ], [ 5061250.693043479695916, 6727803.064271235838532 ], [ 5061227.087776080705225, 6727817.437215795740485 ], [ 5061185.442032961174846, 6727834.191771678626537 ], [ 5061153.275548077188432, 6727840.629769802093506 ], [ 5061118.585177627392113, 6727846.272165565751493 ], [ 5061095.401810307055712, 6727840.234701852314174 ], [ 5061070.097651181742549, 6727829.098429329693317 ], [ 5061039.060170498676598, 6727836.450042906217277 ], [ 5061017.622766777873039, 6727850.367372265085578 ], [ 5061000.386074202135205, 6727861.590357206761837 ], [ 5060983.056205762550235, 6727869.931671256199479 ], [ 5060968.611661710776389, 6727867.094542042352259 ], [ 5060950.87660214304924, 6727859.67486668843776 ], [ 5060933.148024620488286, 6727842.710783638060093 ], [ 5060925.381995817646384, 6727820.504867609590292 ], [ 5060921.630005520768464, 6727798.698450760915875 ], [ 5060909.05927587300539, 6727780.387266726233065 ], [ 5060887.412355441600084, 6727759.176527606323361 ], [ 5060876.429145702160895, 6727747.696277484297752 ], [ 5060863.392014151439071, 6727736.293638457544148 ], [ 5060843.331122938543558, 6727723.421382648870349 ], [ 5060822.956110483966768, 6727727.72174222394824 ], [ 5060810.400490724481642, 6727728.299525452777743 ], [ 5060800.893898673355579, 6727728.240048605948687 ], [ 5060796.698288477025926, 6727731.887575150467455 ], [ 5060791.241619703359902, 6727731.706439569592476 ], [ 5060775.550772988237441, 6727722.346627004444599 ], [ 5060813.057545157149434, 6729030.715658709406853 ], [ 5060694.648397482931614, 6729043.614898653700948 ], [ 5060716.450594687834382, 6729966.713462194427848 ], [ 5060169.749914400279522, 6729978.316465355455875 ], [ 5060228.155058512464166, 6731071.208672031760216 ], [ 5059396.155756288208067, 6731106.509139151312411 ], [ 5059491.753011685796082, 6736364.804077588953078 ], [ 5062509.953611730597913, 6736278.512430249713361 ], [ 5066217.451407458633184, 6736172.613316344097257 ], [ 5066301.151521471329033, 6736725.604887951165438 ], [ 5068475.748553111217916, 6736665.012755986303091 ] ] ] } },
{ "type": "Feature", "properties": { "lv_id": "LOC_070687", "id": 420090.0, "CD_SETOR": "430670005000003", "SITUACAO": "Rural", "CD_SIT": "8", "CD_TIPO": "0", "AREA_KM2": 51.110459902770259, "CD_REGIAO": "4", "NM_REGIAO": "Sul", "CD_UF": "43", "NM_UF": "Rio Grande do Sul", "CD_MUN": "4306700", "NM_MUN": "Dona Francisca", "CD_DIST": "430670005", "NM_DIST": "Dona Francisca", "CD_SUBDIST": "43067000500", "NM_SUBDIST": null, "CD_BAIRRO": null, "NM_BAIRRO": null, "CD_NU": null, "NM_NU": null, "CD_FCU": null, "NM_FCU": null, "CD_AGLOM": null, "NM_AGLOM": null, "CD_RGINT": "4303", "NM_RGINT": "Santa Maria", "CD_RGI": "430011", "NM_RGI": "Santa Maria", "CD_CONCURB": null, "NM_CONCURB": null, "mun_code_x": "4306700", "index_right": 70262, "dist_m": 0.0, "local_id": 738846, "ano": 2022, "cod_localidade_ibge": 4306700, "NR_ZONA": "119", "nr_cep": 97280000.0, "nm_localidade": "DONA FRANCISCA", "nm_locvot": "SALÃO DA COMUNIDADE CATÓLICA", "ds_endereco": "FORMOSO", "ds_bairro": "FORMOSO", "pred_long": -53.349921638888901, "pred_lat": -29.56635, "pred_dist": 0.0, "tse_long": -53.353433, "tse_lat": -29.565087, "long": -53.353433, "lat": -29.565087, "ID_UNICO": "LOC_070687", "SG_UF": "RS", "CD_MUNICIPIO": "86312", "NR_LOCAL_VOTACAO": "1023", "QT_SECOES_AGREGADAS": 0, "QT_ELEITORES_TRANSFERIDOS": 0, "CIRO GOMES (PDT) (NÃO ELEITO) 1T": 5.0, "CONSTITUINTE EYMAEL (DC) (NÃO ELEITO) 1T": 0.0, "FELIPE D AVILA (NOVO) (NÃO ELEITO) 1T": 0.0, "JAIR BOLSONARO (PL) (2º TURNO) 1T": 96.0, "LULA (PT) (2º TURNO) 1T": 71.0, "LÉO PÉRICLES (UP) (NÃO ELEITO) 1T": 0.0, "PADRE KELMON (PTB) (NÃO ELEITO) 1T": 1.0, "SIMONE TEBET (MDB) (NÃO ELEITO) 1T": 18.0, "SOFIA MANZANO (PCB) (NÃO ELEITO) 1T": 0.0, "SORAYA THRONICKE (UNIÃO) (NÃO ELEITO) 1T": 0.0, "VERA (PSTU) (NÃO ELEITO) 1T": 1.0, "Total_Votos_Validos 1T": 192.0, "Votos_Brancos 1T": 5.0, "Votos_Nulos 1T": 0.0, "Abstenções 1T": 51.0, "Eleitores_Aptos 1T": 248.0, "JAIR BOLSONARO (PL) (NÃO ELEITO) 2T": 121.0, "LULA (PT) (ELEITO) 2T": 78.0, "Total_Votos_Validos 2T": 199.0, "Votos_Brancos 2T": 1.0, "Votos_Nulos 2T": 1.0, "Abstenções 2T": 47.0, "Eleitores_Aptos 2T": 248.0, "mun_code_y": "4306700", "mun_code": "4306700" }, "geometry": { "type": "Polygon", "coordinates": [ [ [ 5065077.740698246285319, 6727373.841794336214662 ], [ 5065088.327830604277551, 6727254.20354369468987 ], [ 5065101.053256818093359, 6727110.619739569723606 ], [ 5065114.150559335947037, 6727084.914740242995322 ], [ 5065224.346626440994442, 6726869.820195928215981 ], [ 5065525.75345659814775, 6726754.920687029138207 ], [ 5066232.753858707845211, 6726794.212003912776709 ], [ 5066705.348692314699292, 6726627.910523194819689 ], [ 5067197.144891993142664, 6726275.317772520706058 ], [ 5067299.450713729485869, 6725951.113279491662979 ], [ 5067282.948921199887991, 6725737.120420502498746 ], [ 5067159.651034584268928, 6725348.018563508987427 ], [ 5066826.650486252270639, 6724969.819396797567606 ], [ 5066931.047285047359765, 6724112.221230613067746 ], [ 5067360.549395689740777, 6723742.916662026196718 ], [ 5068084.747631625272334, 6723437.017043804749846 ], [ 5068803.950489854440093, 6722981.413513885810971 ], [ 5068856.643558688461781, 6722899.113745553418994 ], [ 5069101.6475775167346, 6722516.313773924484849 ], [ 5069050.947744367644191, 6722219.612915014848113 ], [ 5068056.647504094056785, 6721385.018525686115026 ], [ 5067724.35205991845578, 6721976.917529047466815 ], [ 5067353.544703925028443, 6722216.220820691436529 ], [ 5067129.252210706472397, 6722193.419882893562317 ], [ 5066258.847940572537482, 6721462.918164294213057 ], [ 5065903.145394990220666, 6720727.223052628338337 ], [ 5064926.35100419819355, 6720148.616684207692742 ], [ 5064679.045254466123879, 6720170.719210291281343 ], [ 5064363.648739502765238, 6720369.719526879489422 ], [ 5063973.649552849121392, 6720907.915950712747872 ], [ 5063548.55457013566047, 6721155.616393823176622 ], [ 5063485.153309481218457, 6721192.42377430293709 ], [ 5063285.819662362337112, 6721204.180233225226402 ], [ 5063080.582196181640029, 6721466.605695994570851 ], [ 5063540.818362449295819, 6721847.252431749366224 ], [ 5063645.826679734513164, 6721895.056241866201162 ], [ 5063827.634195298887789, 6721939.895309826359153 ], [ 5063952.922996663488448, 6722033.086316404864192 ], [ 5064353.114763788878918, 6722421.126017183065414 ], [ 5064669.307504069060087, 6722807.695935302414 ], [ 5065058.058929328806698, 6723268.641200876794755 ], [ 5065171.899816528894007, 6723404.597176760435104 ], [ 5065444.051977247931063, 6723697.985212540253997 ], [ 5065548.403985689394176, 6723813.252080544829369 ], [ 5065568.776253364048898, 6723836.55656070727855 ], [ 5065626.897945051081479, 6723911.054446714930236 ], [ 5065678.861354191787541, 6723979.269390093162656 ], [ 5065760.455194576643407, 6724086.608311319723725 ], [ 5065826.385216761380434, 6724177.266290424391627 ], [ 5065955.214219437912107, 6724341.738097890280187 ], [ 5065994.897038260474801, 6724423.037907555699348 ], [ 5066004.531629551202059, 6724463.498292217031121 ], [ 5066013.635223844088614, 6724517.452661267481744 ], [ 5066016.636547401547432, 6724645.781233057379723 ], [ 5066012.251577680930495, 6724727.217799010686576 ], [ 5066016.745895741507411, 6724834.286954840645194 ], [ 5066028.887056678533554, 6724971.540917104110122 ], [ 5066018.577591146342456, 6725043.889008917845786 ], [ 5066002.68501257058233, 6725089.398991711437702 ], [ 5065595.35576783772558, 6725084.400478241965175 ], [ 5065603.092963845469058, 6725035.63528011366725 ], [ 5065636.354509765282273, 6724926.51659158244729 ], [ 5065620.890793357975781, 6724803.437689861282706 ], [ 5065627.574246428906918, 6724680.451161755248904 ], [ 5065628.926295041106641, 6724586.816470932215452 ], [ 5065505.415839831344783, 6724430.302558142691851 ], [ 5065356.846989925019443, 6724230.423139421269298 ], [ 5065214.858935709111392, 6724056.897832943126559 ], [ 5064855.743693037889898, 6723672.818666642531753 ], [ 5064447.529345095157623, 6723180.218716120347381 ], [ 5064315.178168212994933, 6723022.10226877219975 ], [ 5064052.212354349903762, 6722712.905224635265768 ], [ 5064035.032716977410018, 6722696.53038299549371 ], [ 5063696.10011553298682, 6722358.88086124509573 ], [ 5063472.803146626800299, 6722300.472902549430728 ], [ 5063335.46004850231111, 6722223.307462831959128 ], [ 5063157.536906947381794, 6722079.114047213457525 ], [ 5062939.559939400292933, 6721898.727210382930934 ], [ 5062617.070990652777255, 6722054.239310581237078 ], [ 5061378.281372269615531, 6721346.787639084272087 ], [ 5060941.263544159941375, 6721104.771340027451515 ], [ 5060970.208277352154255, 6720863.5755830174312 ], [ 5060971.139046677388251, 6720815.637718569487333 ], [ 5060970.985476112924516, 6720785.586321203038096 ], [ 5060968.845832851715386, 6720757.175250420346856 ], [ 5060960.608678068965673, 6720699.121966026723385 ], [ 5061002.364396213553846, 6720696.766699485480785 ], [ 5061039.245535362511873, 6720699.137956505641341 ], [ 5061176.341837370768189, 6720717.801827964372933 ], [ 5061238.324326661415398, 6720728.937072809785604 ], [ 5061265.706511404365301, 6720736.857726190239191 ], [ 5061291.048603360541165, 6720747.150624417699873 ], [ 5061334.073761001229286, 6720766.181827707216144 ], [ 5061363.764079451560974, 6720783.523223549127579 ], [ 5061457.160596762783825, 6720843.670962913893163 ], [ 5061490.715957930311561, 6720877.02021512389183 ], [ 5061495.286581066437066, 6720885.774733799509704 ], [ 5061503.349584879353642, 6720900.917419290170074 ], [ 5061513.644065384753048, 6720920.32679664902389 ], [ 5061517.710547692142427, 6720932.509428417310119 ], [ 5061715.446696816012263, 6720838.662019607611001 ], [ 5061873.509113760665059, 6720760.039353467524052 ], [ 5062019.805075492709875, 6720674.806072218343616 ], [ 5062166.48255733307451, 6720578.427960380911827 ], [ 5062035.052386859431863, 6720451.319325802847743 ], [ 5061938.307785457931459, 6720323.208566930145025 ], [ 5061850.529705625027418, 6720168.210013657808304 ], [ 5061791.150637578219175, 6719985.784533303231001 ], [ 5061737.578136740252376, 6720031.15236868802458 ], [ 5061669.807015711441636, 6720092.062006527557969 ], [ 5061621.236952733248472, 6720175.657194432802498 ], [ 5061604.831783623434603, 6720237.270784882828593 ], [ 5061600.825986650772393, 6720303.15063812956214 ], [ 5061612.482239867560565, 6720353.702191759832203 ], [ 5061617.073106680996716, 6720396.144824173301458 ], [ 5061605.600699523463845, 6720433.7759412471205 ], [ 5061579.015496652573347, 6720454.529455590993166 ], [ 5061544.733621282503009, 6720449.219209252856672 ], [ 5061515.502653528936207, 6720434.303462801501155 ], [ 5061483.882995160296559, 6720405.832308951765299 ], [ 5061439.444346158765256, 6720360.13817741535604 ], [ 5061400.359351685270667, 6720321.165536364540458 ], [ 5061364.224528755992651, 6720290.368674397468567 ], [ 5061325.378871959634125, 6720254.34316336363554 ], [ 5061266.227554632350802, 6720215.003049794584513 ], [ 5061212.58534000068903, 6720189.600067552179098 ], [ 5061123.056191308423877, 6720178.648086482658982 ], [ 5061052.54847967159003, 6720178.765900621190667 ], [ 5060999.163641527295113, 6720195.240789759904146 ], [ 5060949.114009865559638, 6720219.601125868968666 ], [ 5060907.890353134833276, 6720241.15308852493763 ], [ 5060871.397101193666458, 6720261.80349643714726 ], [ 5060836.467455010861158, 6720274.375207350589335 ], [ 5060797.138915870338678, 6720281.161946142092347 ], [ 5060761.768315402790904, 6720265.978226029314101 ], [ 5060712.159149649553001, 6720232.292487639933825 ], [ 5060667.507062740623951, 6720221.637150470167398 ], [ 5060594.804070594720542, 6720213.383469166234136 ], [ 5060537.37060338165611, 6720213.715647654607892 ], [ 5060488.493596824817359, 6720234.841758584603667 ], [ 5060452.280638847500086, 6720260.921068757772446 ], [ 5060427.42516541108489, 6720302.879747562110424 ], [ 5060415.271947567351162, 6720371.263822581619024 ], [ 5060405.506557241082191, 6720455.098996685817838 ], [ 5060393.820328240282834, 6720525.741912154480815 ], [ 5060375.501406822353601, 6720594.802039421163499 ], [ 5060348.925557418726385, 6720655.603653008118272 ], [ 5060325.271417706273496, 6720703.297770745120943 ], [ 5060292.826572107151151, 6720735.30904845148325 ], [ 5060264.8349514529109, 6720752.630490867421031 ], [ 5060222.504107833839953, 6720759.763846786692739 ], [ 5060188.967382027767599, 6720765.23143196105957 ], [ 5060156.694899845868349, 6720757.234613910317421 ], [ 5060134.079672453925014, 6720727.902232244610786 ], [ 5060118.904635567218065, 6720679.152888465672731 ], [ 5060103.6244838796556, 6720621.602376343682408 ], [ 5060079.994334003888071, 6720561.801896115764976 ], [ 5060052.343972138129175, 6720514.382966284640133 ], [ 5060019.561716550961137, 6720470.671731777489185 ], [ 5059980.197519285604358, 6720434.766367103904486 ], [ 5059948.296479012817144, 6720403.643096165731549 ], [ 5059906.029654805548489, 6720380.833611669018865 ], [ 5059852.33275053370744, 6720366.520837811753154 ], [ 5059809.345275558531284, 6720375.596090937033296 ], [ 5059776.343947635032237, 6720401.401091210544109 ], [ 5059749.488363864831626, 6720433.824432650581002 ], [ 5059728.070676160044968, 6720456.319615134969354 ], [ 5059700.365046954713762, 6720481.918828046880662 ], [ 5059665.835020297206938, 6720504.450379972346127 ], [ 5059638.879469841718674, 6720514.526068842038512 ], [ 5059619.633641428314149, 6720543.050962653011084 ], [ 5059581.030202429741621, 6720626.528510442003608 ], [ 5059573.827724372036755, 6720690.872373125515878 ], [ 5059577.869747781194746, 6720738.994221545755863 ], [ 5059598.92863286100328, 6720772.781148129142821 ], [ 5059632.56265050265938, 6720803.796422824263573 ], [ 5059665.840226416476071, 6720853.348057234659791 ], [ 5059690.776670010760427, 6720909.606204067356884 ], [ 5059552.650424556806684, 6721277.217674714513123 ], [ 5059456.755350193940103, 6721307.223878065124154 ], [ 5059217.048503153957427, 6721133.321863759309053 ], [ 5059051.857420864515007, 6721271.516176756471395 ], [ 5058438.650551802478731, 6721330.317769853398204 ], [ 5057935.556646389886737, 6721625.919003019109368 ], [ 5057918.551123647019267, 6721866.522640410810709 ], [ 5058064.553168646991253, 6722116.715582455508411 ], [ 5057849.058169580064714, 6722434.122019300237298 ], [ 5057841.854489432647824, 6722744.921615520492196 ], [ 5057720.053869739174843, 6722897.914233604446054 ], [ 5060446.753229551017284, 6723794.822074390947819 ], [ 5059773.252722297795117, 6725244.213999085128307 ], [ 5059762.051715330220759, 6726698.716861308552325 ], [ 5060058.552217005752027, 6726690.020836825482547 ], [ 5060081.653149026446044, 6727760.71445862390101 ], [ 5060373.457606308162212, 6727772.820534908212721 ], [ 5060773.449736460112035, 6727649.118158871307969 ], [ 5060775.550772988237441, 6727722.346627004444599 ], [ 5060791.241619703359902, 6727731.706439569592476 ], [ 5060796.698288477025926, 6727731.887575150467455 ], [ 5060800.893898673355579, 6727728.240048605948687 ], [ 5060810.400490724481642, 6727728.299525452777743 ], [ 5060822.956110483966768, 6727727.72174222394824 ], [ 5060843.331122938543558, 6727723.421382648870349 ], [ 5060863.392014151439071, 6727736.293638457544148 ], [ 5060876.429145702160895, 6727747.696277484297752 ], [ 5060887.412355441600084, 6727759.176527606323361 ], [ 5060909.05927587300539, 6727780.387266726233065 ], [ 5060921.630005520768464, 6727798.698450760915875 ], [ 5060925.381995817646384, 6727820.504867609590292 ], [ 5060933.148024620488286, 6727842.710783638060093 ], [ 5060950.87660214304924, 6727859.67486668843776 ], [ 5060968.611661710776389, 6727867.094542042352259 ], [ 5060983.056205762550235, 6727869.931671256199479 ], [ 5061000.386074202135205, 6727861.590357206761837 ], [ 5061017.622766777873039, 6727850.367372265085578 ], [ 5061039.060170498676598, 6727836.450042906217277 ], [ 5061070.097651181742549, 6727829.098429329693317 ], [ 5061095.401810307055712, 6727840.234701852314174 ], [ 5061118.585177627392113, 6727846.272165565751493 ], [ 5061153.275548077188432, 6727840.629769802093506 ], [ 5061185.442032961174846, 6727834.191771678626537 ], [ 5061227.087776080705225, 6727817.437215795740485 ], [ 5061250.693043479695916, 6727803.064271235838532 ], [ 5061278.239205569960177, 6727804.144745267927647 ], [ 5061321.822192980907857, 6727817.508842587471008 ], [ 5061341.037508372217417, 6727808.458353104069829 ], [ 5061365.363550489768386, 6727807.228277428075671 ], [ 5061390.785854948684573, 6727797.345714480616152 ], [ 5061415.956574987620115, 6727791.089325752109289 ], [ 5061441.756488399580121, 6727795.360382424667478 ], [ 5061456.285123388282955, 6727799.393647383898497 ], [ 5061468.016892897896469, 6727791.680777448229492 ], [ 5061482.823093336075544, 6727791.533371993340552 ], [ 5061500.470043029636145, 6727800.515709894709289 ], [ 5061513.962123049423099, 6727811.693434853106737 ], [ 5061518.662420297041535, 6727833.040001787245274 ], [ 5061512.817985114641488, 6727861.20618787035346 ], [ 5061517.787073647603393, 6727880.312074682675302 ], [ 5061528.18775022868067, 6727900.308331958949566 ], [ 5061538.030686083249748, 6727912.226520614698529 ], [ 5061550.03318509273231, 6727915.020855428650975 ], [ 5061562.201187390834093, 6727914.411116074770689 ], [ 5061571.713755823671818, 6727906.677025802433491 ], [ 5061584.607761538587511, 6727909.466445583850145 ], [ 5061603.827194972895086, 6727899.406731622293591 ], [ 5061615.611952570267022, 6727890.751176840625703 ], [ 5061645.553169610910118, 6727890.287884496152401 ], [ 5061666.705570290796459, 6727900.525560126639903 ], [ 5061695.898597711697221, 6727915.596602472476661 ], [ 5061717.408963048830628, 6727925.710284655913711 ], [ 5061742.273723955266178, 6727930.783924786373973 ], [ 5061760.139624606817961, 6727923.081431637518108 ], [ 5061789.420829220674932, 6727904.763117531314492 ], [ 5061814.008523529395461, 6727896.44719336181879 ], [ 5061837.959924083203077, 6727885.208217164501548 ], [ 5061853.116064738482237, 6727888.760862807743251 ], [ 5061872.234851846471429, 6727885.1195716150105 ], [ 5061902.387679690495133, 6727875.564562248066068 ], [ 5061928.674086699262261, 6727871.318395011126995 ], [ 5061955.51784064527601, 6727862.701525077223778 ], [ 5061985.077622260898352, 6727854.579548239707947 ], [ 5062014.146599375642836, 6727857.634089140221477 ], [ 5062098.069083213806152, 6727861.627510893158615 ], [ 5062119.040702054277062, 6727854.849542235024273 ], [ 5062146.581260127946734, 6727849.609355296939611 ], [ 5062178.004539076238871, 6727847.307397622615099 ], [ 5062197.024672701954842, 6727852.146284307353199 ], [ 5062232.641629631631076, 6727865.19618508964777 ], [ 5062276.767244163900614, 6727876.547189142554998 ], [ 5062306.823276885785162, 6727875.82654071226716 ], [ 5062333.707383814267814, 6727871.044024009257555 ], [ 5062367.854555242694914, 6727861.897953104227781 ], [ 5062403.272419035434723, 6727851.237140487879515 ], [ 5062426.410463834181428, 6727848.969348791055381 ], [ 5062448.278274438343942, 6727860.531827697530389 ], [ 5062473.198031602427363, 6727873.72901857085526 ], [ 5062496.33515044581145, 6727886.991482505574822 ], [ 5062530.535146908834577, 6727904.803879755549133 ], [ 5062562.047591028735042, 6727915.037741394713521 ], [ 5062584.925974312238395, 6727928.789215047843754 ], [ 5062606.28038592543453, 6727942.072457740083337 ], [ 5062626.533788589760661, 6727957.756196485832334 ], [ 5062645.82372014503926, 6727962.249189192429185 ], [ 5062653.379135573282838, 6727959.923568330705166 ], [ 5062684.076414599083364, 6727959.464392030611634 ], [ 5062736.057577364146709, 6727971.767520230263472 ], [ 5062745.934088855050504, 6727977.299405452795327 ], [ 5062779.953165496699512, 6727983.406069273129106 ], [ 5062796.950390483252704, 6727990.328175255097449 ], [ 5062818.359598546288908, 6728002.945603534579277 ], [ 5062834.120871993713081, 6728012.390900218859315 ], [ 5062846.547268617898226, 6728018.130164904519916 ], [ 5062858.136437388136983, 6728017.97675253264606 ], [ 5062869.302818975411355, 6728014.998957566916943 ], [ 5062878.219445077702403, 6728006.54653540905565 ], [ 5062892.668770319782197, 6727996.245207268744707 ], [ 5062908.522585451602936, 6727987.565536618232727 ], [ 5062928.978412577882409, 6727983.903886859305203 ], [ 5062951.162948574870825, 6727980.919813017360866 ], [ 5062973.860563723370433, 6727977.844141993671656 ], [ 5062990.868833523243666, 6727974.600740203633904 ], [ 5063013.131650754250586, 6727975.21880504861474 ], [ 5063030.890774338506162, 6727974.542911296710372 ], [ 5063046.676667774096131, 6727979.708876806311309 ], [ 5063057.587284988723695, 6727989.901580575853586 ], [ 5063072.650543705560267, 6728000.991073288023472 ], [ 5063083.7426419230178, 6728007.247478051111102 ], [ 5063097.063465244136751, 6728011.750994075089693 ], [ 5063112.218192575499415, 6728014.947237050160766 ], [ 5063120.167088298127055, 6728017.130784256383777 ], [ 5063125.05930669605732, 6728020.306973695755005 ], [ 5063128.489734749309719, 6728027.204914540052414 ], [ 5063136.800058336928487, 6728031.625639563426375 ], [ 5063142.859933841973543, 6728037.378129193559289 ], [ 5063142.765543243847787, 6728041.280660619027913 ], [ 5063144.498715367168188, 6728044.474567459896207 ], [ 5063153.140708117745817, 6728049.281402776017785 ], [ 5063161.297504569403827, 6728053.969017364084721 ], [ 5063171.790670331567526, 6728057.091578063555062 ], [ 5063180.014654157683253, 6728058.209357200190425 ], [ 5063192.224813550710678, 6728059.914434306323528 ], [ 5063203.471602957695723, 6728062.633665344677866 ], [ 5063211.809286734089255, 6728065.014499425888062 ], [ 5063222.729315929114819, 6728061.317196575924754 ], [ 5063230.657177561894059, 6728061.472187217324972 ], [ 5063236.668592703528702, 6728058.589502521790564 ], [ 5063237.901904469355941, 6728052.153135990723968 ], [ 5063235.988973239436746, 6728039.393695821985602 ], [ 5063237.845740748569369, 6728031.812046404927969 ], [ 5063244.243421877734363, 6728023.517591845244169 ], [ 5063245.316202226094902, 6728012.659117458388209 ], [ 5063246.335731294937432, 6728000.947378945536911 ], [ 5063248.979029769077897, 6727986.754505912773311 ], [ 5063252.413221013732255, 6727970.17386047821492 ], [ 5063258.43810941465199, 6727945.564023823477328 ], [ 5063253.429616576060653, 6727918.255985660478473 ], [ 5063252.474130894057453, 6727889.639275060966611 ], [ 5063257.898644616827369, 6727863.392194691114128 ], [ 5063268.182037589140236, 6727841.296925722621381 ], [ 5063267.996467840857804, 6727816.910444727167487 ], [ 5063277.591149496845901, 6727799.873905817046762 ], [ 5063304.362333859317005, 6727776.843386633321643 ], [ 5063320.113216729834676, 6727755.149625831283629 ], [ 5063325.437268370762467, 6727719.702318034134805 ], [ 5063334.980911133810878, 6727700.515474336221814 ], [ 5063347.877374623902142, 6727658.950810545124114 ], [ 5063363.496415770612657, 6727620.773964859545231 ], [ 5063374.343031726777554, 6727578.322900898754597 ], [ 5063388.684615140780807, 6727549.076829542405903 ], [ 5063396.681262099184096, 6727511.630153644829988 ], [ 5063406.817131582647562, 6727489.258433721959591 ], [ 5063434.835205118171871, 6727481.318650989793241 ], [ 5063512.462893175892532, 6727462.346157750114799 ], [ 5063571.669160734862089, 6727433.057092411443591 ], [ 5063604.662849090993404, 6727405.401355922222137 ], [ 5063642.297571801580489, 6727375.967794608324766 ], [ 5063689.940269595943391, 6727370.199894447810948 ], [ 5063756.517761736176908, 6727366.20899489056319 ], [ 5063806.376076665706933, 6727368.398343216627836 ], [ 5063927.528956072404981, 6727366.247310805134475 ], [ 5063991.670338784344494, 6727370.106140179559588 ], [ 5064116.866106851026416, 6727370.025187138468027 ], [ 5064155.748151868581772, 6727376.055615119636059 ], [ 5064184.045654275454581, 6727369.675375965423882 ], [ 5064206.8117192722857, 6727372.072910582646728 ], [ 5064243.142369974404573, 6727375.889459926635027 ], [ 5064284.505284893326461, 6727380.242487849667668 ], [ 5064312.293143814429641, 6727369.475070241838694 ], [ 5064341.375273877754807, 6727371.536923301406205 ], [ 5064390.688286571763456, 6727369.84695965051651 ], [ 5064440.29545709118247, 6727372.145792659372091 ], [ 5064471.162609707564116, 6727372.866853694431484 ], [ 5064493.888651993125677, 6727375.031247708946466 ], [ 5064503.426754733547568, 6727377.249046159908175 ], [ 5064506.309726365841925, 6727388.262363526970148 ], [ 5064493.798402361571789, 6727394.785722060129046 ], [ 5064493.869447218254209, 6727413.940666502341628 ], [ 5064524.867141591385007, 6727427.26479054428637 ], [ 5064552.127356432378292, 6727417.442053213715553 ], [ 5064559.182552938349545, 6727429.395836839452386 ], [ 5064541.06982587557286, 6727467.932402109727263 ], [ 5064517.447098279371858, 6727522.352470295503736 ], [ 5064521.095900840125978, 6727543.548755847848952 ], [ 5064588.861764077097178, 6727543.869391426444054 ], [ 5064615.37160169519484, 6727583.89020496699959 ], [ 5064608.089613019488752, 6727623.595128506422043 ], [ 5064628.556193480268121, 6727642.256036978214979 ], [ 5064657.096081171184778, 6727640.883771292865276 ], [ 5064658.473732733167708, 6727624.303370758891106 ], [ 5064651.664957331493497, 6727587.816520594060421 ], [ 5064669.509520484134555, 6727565.033496053889394 ], [ 5064708.183943849056959, 6727521.312512025237083 ], [ 5064714.465468943119049, 6727482.954581500962377 ], [ 5064682.235641366802156, 6727430.673308186233044 ], [ 5064702.456761392764747, 6727413.430279456079006 ], [ 5064758.89986742194742, 6727391.189930664375424 ], [ 5064802.924600823782384, 6727364.697571597993374 ], [ 5064899.188136175274849, 6727366.714454184286296 ], [ 5064948.193271541036665, 6727370.455610194243491 ], [ 5064996.391744185239077, 6727363.714534089900553 ], [ 5065077.740698246285319, 6727373.841794336214662 ] ] ] } },
{ "type": "Feature", "properties": { "lv_id": "LOC_070688", "id": 420091.0, "CD_SETOR": "430670005000004", "SITUACAO": "Rural", "CD_SIT": "8", "CD_TIPO": "0", "AREA_KM2": 59.325275240756902, "CD_REGIAO": "4", "NM_REGIAO": "Sul", "CD_UF": "43", "NM_UF": "Rio Grande do Sul", "CD_MUN": "4306700", "NM_MUN": "Dona Francisca", "CD_DIST": "430670005", "NM_DIST": "Dona Francisca", "CD_SUBDIST": "43067000500", "NM_SUBDIST": null, "CD_BAIRRO": null, "NM_BAIRRO": null, "CD_NU": null, "NM_NU": null, "CD_FCU": null, "NM_FCU": null, "CD_AGLOM": null, "NM_AGLOM": null, "CD_RGINT": "4303", "NM_RGINT": "Santa Maria", "CD_RGI": "430011", "NM_RGI": "Santa Maria", "CD_CONCURB": null, "NM_CONCURB": null, "mun_code_x": "4306700", "index_right": 70261, "dist_m": 0.0, "local_id": 738845, "ano": 2022, "cod_localidade_ibge": 4306700, "NR_ZONA": "119", "nr_cep": 97280000.0, "nm_localidade": "DONA FRANCISCA", "nm_locvot": "GINÁSIO MUNICIPAL DA COMUNIDADE CATÓLICA DE TROMBUDO", "ds_endereco": "TROMBUDO", "ds_bairro": "TROMBUDO", "pred_long": -53.34987, "pred_lat": -29.52536, "pred_dist": 0.0, "tse_long": -53.347983, "tse_lat": -29.552254, "long": -53.347983, "lat": -29.552254, "ID_UNICO": "LOC_070688", "SG_UF": "RS", "CD_MUNICIPIO": "86312", "NR_LOCAL_VOTACAO": "1074", "QT_SECOES_AGREGADAS": 0, "QT_ELEITORES_TRANSFERIDOS": 0, "CIRO GOMES (PDT) (NÃO ELEITO) 1T": 4.0, "CONSTITUINTE EYMAEL (DC) (NÃO ELEITO) 1T": 0.0, "FELIPE D AVILA (NOVO) (NÃO ELEITO) 1T": 0.0, "JAIR BOLSONARO (PL) (2º TURNO) 1T": 87.0, "LULA (PT) (2º TURNO) 1T": 31.0, "LÉO PÉRICLES (UP) (NÃO ELEITO) 1T": 0.0, "PADRE KELMON (PTB) (NÃO ELEITO) 1T": 0.0, "SIMONE TEBET (MDB) (NÃO ELEITO) 1T": 9.0, "SOFIA MANZANO (PCB) (NÃO ELEITO) 1T": 0.0, "SORAYA THRONICKE (UNIÃO) (NÃO ELEITO) 1T": 0.0, "VERA (PSTU) (NÃO ELEITO) 1T": 0.0, "Total_Votos_Validos 1T": 131.0, "Votos_Brancos 1T": 8.0, "Votos_Nulos 1T": 1.0, "Abstenções 1T": 24.0, "Eleitores_Aptos 1T": 164.0, "JAIR BOLSONARO (PL) (NÃO ELEITO) 2T": 96.0, "LULA (PT) (ELEITO) 2T": 36.0, "Total_Votos_Validos 2T": 132.0, "Votos_Brancos 2T": 2.0, "Votos_Nulos 2T": 6.0, "Abstenções 2T": 24.0, "Eleitores_Aptos 2T": 164.0, "mun_code_y": "4306700", "mun_code": "4306700" }, "geometry": { "type": "Polygon", "coordinates": [ [ [ 5068475.748553111217916, 6736665.012755986303091 ], [ 5068333.453537959605455, 6736451.3093734793365 ], [ 5067994.852309470996261, 6736203.90336843021214 ], [ 5067916.750643652863801, 6735987.003478521481156 ], [ 5068001.245623160153627, 6735605.606218580156565 ], [ 5068424.14901892375201, 6735296.509542312473059 ], [ 5068451.145351650193334, 6735194.206317270174623 ], [ 5068173.150873258709908, 6734234.011275167576969 ], [ 5068000.352550270967185, 6734019.31319984793663 ], [ 5067506.446788642555475, 6733741.014485219493508 ], [ 5067134.045216773636639, 6733322.109328718855977 ], [ 5066871.045713355764747, 6732946.807267257012427 ], [ 5066735.448408097028732, 6732587.506624705158174 ], [ 5066942.350896229036152, 6731115.509192173369229 ], [ 5066880.64965078048408, 6730915.808625397272408 ], [ 5066222.152228077873588, 6730162.309213603846729 ], [ 5065828.45409067440778, 6729711.817522892728448 ], [ 5065412.653948114253581, 6729487.015037226490676 ], [ 5064668.854853017255664, 6729351.914824863895774 ], [ 5064520.653622344136238, 6729251.512497149407864 ], [ 5064448.253531920723617, 6728895.514348258264363 ], [ 5065044.847534380853176, 6727745.111882008612156 ], [ 5065077.740698246285319, 6727373.841794336214662 ], [ 5064996.391744185239077, 6727363.714534089900553 ], [ 5064948.193271541036665, 6727370.455610194243491 ], [ 5064899.188136175274849, 6727366.714454184286296 ], [ 5064802.924600823782384, 6727364.697571597993374 ], [ 5064758.89986742194742, 6727391.189930664375424 ], [ 5064702.456761392764747, 6727413.430279456079006 ], [ 5064682.235641366802156, 6727430.673308186233044 ], [ 5064714.465468943119049, 6727482.954581500962377 ], [ 5064708.183943849056959, 6727521.312512025237083 ], [ 5064669.509520484134555, 6727565.033496053889394 ], [ 5064651.664957331493497, 6727587.816520594060421 ], [ 5064658.473732733167708, 6727624.303370758891106 ], [ 5064657.096081171184778, 6727640.883771292865276 ], [ 5064628.556193480268121, 6727642.256036978214979 ], [ 5064608.089613019488752, 6727623.595128506422043 ], [ 5064615.37160169519484, 6727583.89020496699959 ], [ 5064588.861764077097178, 6727543.869391426444054 ], [ 5064521.095900840125978, 6727543.548755847848952 ], [ 5064517.447098279371858, 6727522.352470295503736 ], [ 5064541.06982587557286, 6727467.932402109727263 ], [ 5064559.182552938349545, 6727429.395836839452386 ], [ 5064552.127356432378292, 6727417.442053213715553 ], [ 5064524.867141591385007, 6727427.26479054428637 ], [ 5064493.869447218254209, 6727413.940666502341628 ], [ 5064493.798402361571789, 6727394.785722060129046 ], [ 5064506.309726365841925, 6727388.262363526970148 ], [ 5064503.426754733547568, 6727377.249046159908175 ], [ 5064493.888651993125677, 6727375.031247708946466 ], [ 5064471.162609707564116, 6727372.866853694431484 ], [ 5064440.29545709118247, 6727372.145792659372091 ], [ 5064390.688286571763456, 6727369.84695965051651 ], [ 5064341.375273877754807, 6727371.536923301406205 ], [ 5064312.293143814429641, 6727369.475070241838694 ], [ 5064284.505284893326461, 6727380.242487849667668 ], [ 5064243.142369974404573, 6727375.889459926635027 ], [ 5064206.8117192722857, 6727372.072910582646728 ], [ 5064184.045654275454581, 6727369.675375965423882 ], [ 5064155.748151868581772, 6727376.055615119636059 ], [ 5064116.866106851026416, 6727370.025187138468027 ], [ 5063991.670338784344494, 6727370.106140179559588 ], [ 5063927.528956072404981, 6727366.247310805134475 ], [ 5063806.376076665706933, 6727368.398343216627836 ], [ 5063756.517761736176908, 6727366.20899489056319 ], [ 5063689.940269595943391, 6727370.199894447810948 ], [ 5063642.297571801580489, 6727375.967794608324766 ], [ 5063604.662849090993404, 6727405.401355922222137 ], [ 5063571.669160734862089, 6727433.057092411443591 ], [ 5063512.462893175892532, 6727462.346157750114799 ], [ 5063434.835205118171871, 6727481.318650989793241 ], [ 5063406.817131582647562, 6727489.258433721959591 ], [ 5063396.681262099184096, 6727511.630153644829988 ], [ 5063388.684615140780807, 6727549.076829542405903 ], [ 5063374.343031726777554, 6727578.322900898754597 ], [ 5063363.496415770612657, 6727620.773964859545231 ], [ 5063347.877374623902142, 6727658.950810545124114 ], [ 5063334.980911133810878, 6727700.515474336221814 ], [ 5063325.437268370762467, 6727719.702318034134805 ], [ 5063320.113216729834676, 6727755.149625831283629 ], [ 5063304.362333859317005, 6727776.843386633321643 ], [ 5063277.591149496845901, 6727799.873905817046762 ], [ 5063267.996467840857804, 6727816.910444727167487 ], [ 5063268.182037589140236, 6727841.296925722621381 ], [ 5063257.898644616827369, 6727863.392194691114128 ], [ 5063252.474130894057453, 6727889.639275060966611 ], [ 5063253.429616576060653, 6727918.255985660478473 ], [ 5063258.43810941465199, 6727945.564023823477328 ], [ 5063252.413221013732255, 6727970.17386047821492 ], [ 5063248.979029769077897, 6727986.754505912773311 ], [ 5063246.335731294937432, 6728000.947378945536911 ], [ 5063245.316202226094902, 6728012.659117458388209 ], [ 5063244.243421877734363, 6728023.517591845244169 ], [ 5063237.845740748569369, 6728031.812046404927969 ], [ 5063235.988973239436746, 6728039.393695821985602 ], [ 5063237.901904469355941, 6728052.153135990723968 ], [ 5063236.668592703528702, 6728058.589502521790564 ], [ 5063230.657177561894059, 6728061.472187217324972 ], [ 5063222.729315929114819, 6728061.317196575924754 ], [ 5063211.809286734089255, 6728065.014499425888062 ], [ 5063203.471602957695723, 6728062.633665344677866 ], [ 5063192.224813550710678, 6728059.914434306323528 ], [ 5063180.014654157683253, 6728058.209357200190425 ], [ 5063171.790670331567526, 6728057.091578063555062 ], [ 5063161.297504569403827, 6728053.969017364084721 ], [ 5063153.140708117745817, 6728049.281402776017785 ], [ 5063144.498715367168188, 6728044.474567459896207 ], [ 5063142.765543243847787, 6728041.280660619027913 ], [ 5063142.859933841973543, 6728037.378129193559289 ], [ 5063136.800058336928487, 6728031.625639563426375 ], [ 5063128.489734749309719, 6728027.204914540052414 ], [ 5063125.05930669605732, 6728020.306973695755005 ], [ 5063120.167088298127055, 6728017.130784256383777 ], [ 5063112.218192575499415, 6728014.947237050160766 ], [ 5063097.063465244136751, 6728011.750994075089693 ], [ 5063083.7426419230178, 6728007.247478051111102 ], [ 5063072.650543705560267, 6728000.991073288023472 ], [ 5063057.587284988723695, 6727989.901580575853586 ], [ 5063046.676667774096131, 6727979.708876806311309 ], [ 5063030.890774338506162, 6727974.542911296710372 ], [ 5063013.131650754250586, 6727975.21880504861474 ], [ 5062990.868833523243666, 6727974.600740203633904 ], [ 5062973.860563723370433, 6727977.844141993671656 ], [ 5062951.162948574870825, 6727980.919813017360866 ], [ 5062928.978412577882409, 6727983.903886859305203 ], [ 5062908.522585451602936, 6727987.565536618232727 ], [ 5062892.668770319782197, 6727996.245207268744707 ], [ 5062878.219445077702403, 6728006.54653540905565 ], [ 5062869.302818975411355, 6728014.998957566916943 ], [ 5062858.136437388136983, 6728017.97675253264606 ], [ 5062846.547268617898226, 6728018.130164904519916 ], [ 5062834.120871993713081, 6728012.390900218859315 ], [ 5062818.359598546288908, 6728002.945603534579277 ], [ 5062796.950390483252704, 6727990.328175255097449 ], [ 5062779.953165496699512, 6727983.406069273129106 ], [ 5062745.934088855050504, 6727977.299405452795327 ], [ 5062736.057577364146709, 6727971.767520230263472 ], [ 5062684.076414599083364, 6727959.464392030611634 ], [ 5062653.379135573282838, 6727959.923568330705166 ], [ 5062645.82372014503926, 6727962.249189192429185 ], [ 5062626.533788589760661, 6727957.756196485832334 ], [ 5062606.28038592543453, 6727942.072457740083337 ], [ 5062584.925974312238395, 6727928.789215047843754 ], [ 5062562.047591028735042, 6727915.037741394713521 ], [ 5062530.535146908834577, 6727904.803879755549133 ], [ 5062496.33515044581145, 6727886.991482505574822 ], [ 5062473.198031602427363, 6727873.72901857085526 ], [ 5062448.278274438343942, 6727860.531827697530389 ], [ 5062426.410463834181428, 6727848.969348791055381 ], [ 5062403.272419035434723, 6727851.237140487879515 ], [ 5062367.854555242694914, 6727861.897953104227781 ], [ 5062333.707383814267814, 6727871.044024009257555 ], [ 5062306.823276885785162, 6727875.82654071226716 ], [ 5062276.767244163900614, 6727876.547189142554998 ], [ 5062232.641629631631076, 6727865.19618508964777 ], [ 5062197.024672701954842, 6727852.146284307353199 ], [ 5062178.004539076238871, 6727847.307397622615099 ], [ 5062146.581260127946734, 6727849.609355296939611 ], [ 5062119.040702054277062, 6727854.849542235024273 ], [ 5062098.069083213806152, 6727861.627510893158615 ], [ 5062014.146599375642836, 6727857.634089140221477 ], [ 5061985.077622260898352, 6727854.579548239707947 ], [ 5061955.51784064527601, 6727862.701525077223778 ], [ 5061928.674086699262261, 6727871.318395011126995 ], [ 5061902.387679690495133, 6727875.564562248066068 ], [ 5061872.234851846471429, 6727885.1195716150105 ], [ 5061853.116064738482237, 6727888.760862807743251 ], [ 5061837.959924083203077, 6727885.208217164501548 ], [ 5061814.008523529395461, 6727896.44719336181879 ], [ 5061789.420829220674932, 6727904.763117531314492 ], [ 5061760.139624606817961, 6727923.081431637518108 ], [ 5061742.273723955266178, 6727930.783924786373973 ], [ 5061717.408963048830628, 6727925.710284655913711 ], [ 5061695.898597711697221, 6727915.596602472476661 ], [ 5061666.705570290796459, 6727900.525560126639903 ], [ 5061645.553169610910118, 6727890.287884496152401 ], [ 5061615.611952570267022, 6727890.751176840625703 ], [ 5061603.827194972895086, 6727899.406731622293591 ], [ 5061584.607761538587511, 6727909.466445583850145 ], [ 5061571.713755823671818, 6727906.677025802433491 ], [ 5061562.201187390834093, 6727914.411116074770689 ], [ 5061550.03318509273231, 6727915.020855428650975 ], [ 5061538.030686083249748, 6727912.226520614698529 ], [ 5061528.18775022868067, 6727900.308331958949566 ], [ 5061517.787073647603393, 6727880.312074682675302 ], [ 5061512.817985114641488, 6727861.20618787035346 ], [ 5061518.662420297041535, 6727833.040001787245274 ], [ 5061513.962123049423099, 6727811.693434853106737 ], [ 5061500.470043029636145, 6727800.515709894709289 ], [ 5061482.823093336075544, 6727791.533371993340552 ], [ 5061468.016892897896469, 6727791.680777448229492 ], [ 5061456.285123388282955, 6727799.393647383898497 ], [ 5061441.756488399580121, 6727795.360382424667478 ], [ 5061415.956574987620115, 6727791.089325752109289 ], [ 5061390.785854948684573, 6727797.345714480616152 ], [ 5061365.363550489768386, 6727807.228277428075671 ], [ 5061341.037508372217417, 6727808.458353104069829 ], [ 5061321.822192980907857, 6727817.508842587471008 ], [ 5061278.239205569960177, 6727804.144745267927647 ], [ 5061250.693043479695916, 6727803.064271235838532 ], [ 5061227.087776080705225, 6727817.437215795740485 ], [ 5061185.442032961174846, 6727834.191771678626537 ], [ 5061153.275548077188432, 6727840.629769802093506 ], [ 5061118.585177627392113, 6727846.272165565751493 ], [ 5061095.401810307055712, 6727840.234701852314174 ], [ 5061070.097651181742549, 6727829.098429329693317 ], [ 5061039.060170498676598, 6727836.450042906217277 ], [ 5061017.622766777873039, 6727850.367372265085578 ], [ 5061000.386074202135205, 6727861.590357206761837 ], [ 5060983.056205762550235, 6727869.931671256199479 ], [ 5060968.611661710776389, 6727867.094542042352259 ], [ 5060950.87660214304924, 6727859.67486668843776 ], [ 5060933.148024620488286, 6727842.710783638060093 ], [ 5060925.381995817646384, 6727820.504867609590292 ], [ 5060921.630005520768464, 6727798.698450760915875 ], [ 5060909.05927587300539, 6727780.387266726233065 ], [ 5060887.412355441600084, 6727759.176527606323361 ], [ 5060876.429145702160895, 6727747.696277484297752 ], [ 5060863.392014151439071, 6727736.293638457544148 ], [ 5060843.331122938543558, 6727723.421382648870349 ], [ 5060822.956110483966768, 6727727.72174222394824 ], [ 5060810.400490724481642, 6727728.299525452777743 ], [ 5060800.893898673355579, 6727728.240048605948687 ], [ 5060796.698288477025926, 6727731.887575150467455 ], [ 5060791.241619703359902, 6727731.706439569592476 ], [ 5060775.550772988237441, 6727722.346627004444599 ], [ 5060813.057545157149434, 6729030.715658709406853 ], [ 5060694.648397482931614, 6729043.614898653700948 ], [ 5060716.450594687834382, 6729966.713462194427848 ], [ 5060169.749914400279522, 6729978.316465355455875 ], [ 5060228.155058512464166, 6731071.208672031760216 ], [ 5059396.155756288208067, 6731106.509139151312411 ], [ 5059491.753011685796082, 6736364.804077588953078 ], [ 5062509.953611730597913, 6736278.512430249713361 ], [ 5066217.451407458633184, 6736172.613316344097257 ], [ 5066301.151521471329033, 6736725.604887951165438 ], [ 5068475.748553111217916, 6736665.012755986303091 ] ] ] } },
{ "type": "Feature", "properties": { "lv_id": "LOC_070689", "id": 420089.0, "CD_SETOR": "430670005000001", "SITUACAO": "Urbana", "CD_SIT": "1", "CD_TIPO": "0", "AREA_KM2": 1.2393604164832339, "CD_REGIAO": "4", "NM_REGIAO": "Sul", "CD_UF": "43", "NM_UF": "Rio Grande do Sul", "CD_MUN": "4306700", "NM_MUN": "Dona Francisca", "CD_DIST": "430670005", "NM_DIST": "Dona Francisca", "CD_SUBDIST": "43067000500", "NM_SUBDIST": null, "CD_BAIRRO": null, "NM_BAIRRO": null, "CD_NU": null, "NM_NU": null, "CD_FCU": null, "NM_FCU": null, "CD_AGLOM": "430670000001", "NM_AGLOM": "Comunidade Quilombola Acácio Flores", "CD_RGINT": "4303", "NM_RGINT": "Santa Maria", "CD_RGI": "430011", "NM_RGI": "Santa Maria", "CD_CONCURB": null, "NM_CONCURB": null, "mun_code_x": "4306700", "index_right": 70257, "dist_m": 0.0, "local_id": 738841, "ano": 2022, "cod_localidade_ibge": 4306700, "NR_ZONA": "119", "nr_cep": 97280000.0, "nm_localidade": "DONA FRANCISCA", "nm_locvot": "SALÃO PAROQUIAL UNIÃO", "ds_endereco": "AVENIDA 17 DE JULHO", "ds_bairro": "CENTRO", "pred_long": -53.359189, "pred_lat": -29.625532, "pred_dist": 0.0, "tse_long": -53.356605, "tse_lat": -29.623414, "long": -53.356605, "lat": -29.623414, "ID_UNICO": "LOC_070689", "SG_UF": "RS", "CD_MUNICIPIO": "86312", "NR_LOCAL_VOTACAO": "1066", "QT_SECOES_AGREGADAS": 0, "QT_ELEITORES_TRANSFERIDOS": 0, "CIRO GOMES (PDT) (NÃO ELEITO) 1T": 12.0, "CONSTITUINTE EYMAEL (DC) (NÃO ELEITO) 1T": 0.0, "FELIPE D AVILA (NOVO) (NÃO ELEITO) 1T": 3.0, "JAIR BOLSONARO (PL) (2º TURNO) 1T": 221.0, "LULA (PT) (2º TURNO) 1T": 284.0, "LÉO PÉRICLES (UP) (NÃO ELEITO) 1T": 0.0, "PADRE KELMON (PTB) (NÃO ELEITO) 1T": 0.0, "SIMONE TEBET (MDB) (NÃO ELEITO) 1T": 21.0, "SOFIA MANZANO (PCB) (NÃO ELEITO) 1T": 0.0, "SORAYA THRONICKE (UNIÃO) (NÃO ELEITO) 1T": 1.0, "VERA (PSTU) (NÃO ELEITO) 1T": 0.0, "Total_Votos_Validos 1T": 542.0, "Votos_Brancos 1T": 10.0, "Votos_Nulos 1T": 7.0, "Abstenções 1T": 116.0, "Eleitores_Aptos 1T": 675.0, "JAIR BOLSONARO (PL) (NÃO ELEITO) 2T": 248.0, "LULA (PT) (ELEITO) 2T": 286.0, "Total_Votos_Validos 2T": 534.0, "Votos_Brancos 2T": 9.0, "Votos_Nulos 2T": 17.0, "Abstenções 2T": 115.0, "Eleitores_Aptos 2T": 675.0, "mun_code_y": "4306700", "mun_code": "4306700" }, "geometry": { "type": "Polygon", "coordinates": [ [ [ 5062259.15507170651108, 6720641.998478315770626 ], [ 5062166.48255733307451, 6720578.427960380911827 ], [ 5062019.805075492709875, 6720674.806072218343616 ], [ 5061873.509113760665059, 6720760.039353467524052 ], [ 5061715.446696816012263, 6720838.662019607611001 ], [ 5061517.710547692142427, 6720932.509428417310119 ], [ 5061513.644065384753048, 6720920.32679664902389 ], [ 5061503.349584879353642, 6720900.917419290170074 ], [ 5061495.286581066437066, 6720885.774733799509704 ], [ 5061490.715957930311561, 6720877.02021512389183 ], [ 5061457.160596762783825, 6720843.670962913893163 ], [ 5061363.764079451560974, 6720783.523223549127579 ], [ 5061334.073761001229286, 6720766.181827707216144 ], [ 5061291.048603360541165, 6720747.150624417699873 ], [ 5061265.706511404365301, 6720736.857726190239191 ], [ 5061238.324326661415398, 6720728.937072809785604 ], [ 5061176.341837370768189, 6720717.801827964372933 ], [ 5061039.245535362511873, 6720699.137956505641341 ], [ 5061002.364396213553846, 6720696.766699485480785 ], [ 5060960.608678068965673, 6720699.121966026723385 ], [ 5060968.845832851715386, 6720757.175250420346856 ], [ 5060970.985476112924516, 6720785.586321203038096 ], [ 5060971.139046677388251, 6720815.637718569487333 ], [ 5060970.208277352154255, 6720863.5755830174312 ], [ 5060941.263544159941375, 6721104.771340027451515 ], [ 5061378.281372269615531, 6721346.787639084272087 ], [ 5062617.070990652777255, 6722054.239310581237078 ], [ 5062939.559939400292933, 6721898.727210382930934 ], [ 5063157.536906947381794, 6722079.114047213457525 ], [ 5063335.46004850231111, 6722223.307462831959128 ], [ 5063472.803146626800299, 6722300.472902549430728 ], [ 5063696.10011553298682, 6722358.88086124509573 ], [ 5064035.032716977410018, 6722696.53038299549371 ], [ 5064052.212354349903762, 6722712.905224635265768 ], [ 5064315.178168212994933, 6723022.10226877219975 ], [ 5064447.529345095157623, 6723180.218716120347381 ], [ 5064855.743693037889898, 6723672.818666642531753 ], [ 5065214.858935709111392, 6724056.897832943126559 ], [ 5065356.846989925019443, 6724230.423139421269298 ], [ 5065505.415839831344783, 6724430.302558142691851 ], [ 5065628.926295041106641, 6724586.816470932215452 ], [ 5065627.574246428906918, 6724680.451161755248904 ], [ 5065620.890793357975781, 6724803.437689861282706 ], [ 5065636.354509765282273, 6724926.51659158244729 ], [ 5065603.092963845469058, 6725035.63528011366725 ], [ 5065595.35576783772558, 6725084.400478241965175 ], [ 5066002.68501257058233, 6725089.398991711437702 ], [ 5066018.577591146342456, 6725043.889008917845786 ], [ 5066028.887056678533554, 6724971.540917104110122 ], [ 5066016.745895741507411, 6724834.286954840645194 ], [ 5066012.251577680930495, 6724727.217799010686576 ], [ 5066016.636547401547432, 6724645.781233057379723 ], [ 5066013.635223844088614, 6724517.452661267481744 ], [ 5066004.531629551202059, 6724463.498292217031121 ], [ 5065994.897038260474801, 6724423.037907555699348 ], [ 5065955.214219437912107, 6724341.738097890280187 ], [ 5065826.385216761380434, 6724177.266290424391627 ], [ 5065760.455194576643407, 6724086.608311319723725 ], [ 5065678.861354191787541, 6723979.269390093162656 ], [ 5065626.897945051081479, 6723911.054446714930236 ], [ 5065568.776253364048898, 6723836.55656070727855 ], [ 5065548.403985689394176, 6723813.252080544829369 ], [ 5065444.051977247931063, 6723697.985212540253997 ], [ 5065171.899816528894007, 6723404.597176760435104 ], [ 5065058.058929328806698, 6723268.641200876794755 ], [ 5064669.307504069060087, 6722807.695935302414 ], [ 5064353.114763788878918, 6722421.126017183065414 ], [ 5063952.922996663488448, 6722033.086316404864192 ], [ 5063827.634195298887789, 6721939.895309826359153 ], [ 5063645.826679734513164, 6721895.056241866201162 ], [ 5063540.818362449295819, 6721847.252431749366224 ], [ 5063080.582196181640029, 6721466.605695994570851 ], [ 5063285.819662362337112, 6721204.180233225226402 ], [ 5063150.238845575600863, 6721212.171458886936307 ], [ 5063095.247464975342155, 6721215.41831452678889 ], [ 5062619.484720680862665, 6720839.219273176044226 ], [ 5062259.15507170651108, 6720641.998478315770626 ] ] ] } },
{ "type": "Feature", "properties": { "lv_id": "LOC_070690", "id": 420091.0, "CD_SETOR": "430670005000004", "SITUACAO": "Rural", "CD_SIT": "8", "CD_TIPO": "0", "AREA_KM2": 59.325275240756902, "CD_REGIAO": "4", "NM_REGIAO": "Sul", "CD_UF": "43", "NM_UF": "Rio Grande do Sul", "CD_MUN": "4306700", "NM_MUN": "Dona Francisca", "CD_DIST": "430670005", "NM_DIST": "Dona Francisca", "CD_SUBDIST": "43067000500", "NM_SUBDIST": null, "CD_BAIRRO": null, "NM_BAIRRO": null, "CD_NU": null, "NM_NU": null, "CD_FCU": null, "NM_FCU": null, "CD_AGLOM": null, "NM_AGLOM": null, "CD_RGINT": "4303", "NM_RGINT": "Santa Maria", "CD_RGI": "430011", "NM_RGI": "Santa Maria", "CD_CONCURB": null, "NM_CONCURB": null, "mun_code_x": "4306700", "index_right": 70258, "dist_m": 0.0, "local_id": 738842, "ano": 2022, "cod_localidade_ibge": 4306700, "NR_ZONA": "119", "nr_cep": 97280000.0, "nm_localidade": "DONA FRANCISCA", "nm_locvot": "ESCOLA MUNICIPAL ANTÔNIO SOCCAL", "ds_endereco": "LINHA GRANDE", "ds_bairro": "LINHA GRANDE", "pred_long": -53.32759, "pred_lat": -29.503416, "pred_dist": 0.0, "tse_long": -53.321354, "tse_lat": -29.590698, "long": -53.321354, "lat": -29.590698, "ID_UNICO": "LOC_070690", "SG_UF": "RS", "CD_MUNICIPIO": "86312", "NR_LOCAL_VOTACAO": "1040", "QT_SECOES_AGREGADAS": 0, "QT_ELEITORES_TRANSFERIDOS": 0, "CIRO GOMES (PDT) (NÃO ELEITO) 1T": 2.0, "CONSTITUINTE EYMAEL (DC) (NÃO ELEITO) 1T": 0.0, "FELIPE D AVILA (NOVO) (NÃO ELEITO) 1T": 0.0, "JAIR BOLSONARO (PL) (2º TURNO) 1T": 160.0, "LULA (PT) (2º TURNO) 1T": 54.0, "LÉO PÉRICLES (UP) (NÃO ELEITO) 1T": 0.0, "PADRE KELMON (PTB) (NÃO ELEITO) 1T": 1.0, "SIMONE TEBET (MDB) (NÃO ELEITO) 1T": 11.0, "SOFIA MANZANO (PCB) (NÃO ELEITO) 1T": 0.0, "SORAYA THRONICKE (UNIÃO) (NÃO ELEITO) 1T": 1.0, "VERA (PSTU) (NÃO ELEITO) 1T": 0.0, "Total_Votos_Validos 1T": 229.0, "Votos_Brancos 1T": 4.0, "Votos_Nulos 1T": 3.0, "Abstenções 1T": 45.0, "Eleitores_Aptos 1T": 281.0, "JAIR BOLSONARO (PL) (NÃO ELEITO) 2T": 177.0, "LULA (PT) (ELEITO) 2T": 47.0, "Total_Votos_Validos 2T": 224.0, "Votos_Brancos 2T": 3.0, "Votos_Nulos 2T": 10.0, "Abstenções 2T": 44.0, "Eleitores_Aptos 2T": 281.0, "mun_code_y": "4306700", "mun_code": "4306700" }, "geometry": { "type": "Polygon", "coordinates": [ [ [ 5068475.748553111217916, 6736665.012755986303091 ], [ 5068333.453537959605455, 6736451.3093734793365 ], [ 5067994.852309470996261, 6736203.90336843021214 ], [ 5067916.750643652863801, 6735987.003478521481156 ], [ 5068001.245623160153627, 6735605.606218580156565 ], [ 5068424.14901892375201, 6735296.509542312473059 ], [ 5068451.145351650193334, 6735194.206317270174623 ], [ 5068173.150873258709908, 6734234.011275167576969 ], [ 5068000.352550270967185, 6734019.31319984793663 ], [ 5067506.446788642555475, 6733741.014485219493508 ], [ 5067134.045216773636639, 6733322.109328718855977 ], [ 5066871.045713355764747, 6732946.807267257012427 ], [ 5066735.448408097028732, 6732587.506624705158174 ], [ 5066942.350896229036152, 6731115.509192173369229 ], [ 5066880.64965078048408, 6730915.808625397272408 ], [ 5066222.152228077873588, 6730162.309213603846729 ], [ 5065828.45409067440778, 6729711.817522892728448 ], [ 5065412.653948114253581, 6729487.015037226490676 ], [ 5064668.854853017255664, 6729351.914824863895774 ], [ 5064520.653622344136238, 6729251.512497149407864 ], [ 5064448.253531920723617, 6728895.514348258264363 ], [ 5065044.847534380853176, 6727745.111882008612156 ], [ 5065077.740698246285319, 6727373.841794336214662 ], [ 5064996.391744185239077, 6727363.714534089900553 ], [ 5064948.193271541036665, 6727370.455610194243491 ], [ 5064899.188136175274849, 6727366.714454184286296 ], [ 5064802.924600823782384, 6727364.697571597993374 ], [ 5064758.89986742194742, 6727391.189930664375424 ], [ 5064702.456761392764747, 6727413.430279456079006 ], [ 5064682.235641366802156, 6727430.673308186233044 ], [ 5064714.465468943119049, 6727482.954581500962377 ], [ 5064708.183943849056959, 6727521.312512025237083 ], [ 5064669.509520484134555, 6727565.033496053889394 ], [ 5064651.664957331493497, 6727587.816520594060421 ], [ 5064658.473732733167708, 6727624.303370758891106 ], [ 5064657.096081171184778, 6727640.883771292865276 ], [ 5064628.556193480268121, 6727642.256036978214979 ], [ 5064608.089613019488752, 6727623.595128506422043 ], [ 5064615.37160169519484, 6727583.89020496699959 ], [ 5064588.861764077097178, 6727543.869391426444054 ], [ 5064521.095900840125978, 6727543.548755847848952 ], [ 5064517.447098279371858, 6727522.352470295503736 ], [ 5064541.06982587557286, 6727467.932402109727263 ], [ 5064559.182552938349545, 6727429.395836839452386 ], [ 5064552.127356432378292, 6727417.442053213715553 ], [ 5064524.867141591385007, 6727427.26479054428637 ], [ 5064493.869447218254209, 6727413.940666502341628 ], [ 5064493.798402361571789, 6727394.785722060129046 ], [ 5064506.309726365841925, 6727388.262363526970148 ], [ 5064503.426754733547568, 6727377.249046159908175 ], [ 5064493.888651993125677, 6727375.031247708946466 ], [ 5064471.162609707564116, 6727372.866853694431484 ], [ 5064440.29545709118247, 6727372.145792659372091 ], [ 5064390.688286571763456, 6727369.84695965051651 ], [ 5064341.375273877754807, 6727371.536923301406205 ], [ 5064312.293143814429641, 6727369.475070241838694 ], [ 5064284.505284893326461, 6727380.242487849667668 ], [ 5064243.142369974404573, 6727375.889459926635027 ], [ 5064206.8117192722857, 6727372.072910582646728 ], [ 5064184.045654275454581, 6727369.675375965423882 ], [ 5064155.748151868581772, 6727376.055615119636059 ], [ 5064116.866106851026416, 6727370.025187138468027 ], [ 5063991.670338784344494, 6727370.106140179559588 ], [ 5063927.528956072404981, 6727366.247310805134475 ], [ 5063806.376076665706933, 6727368.398343216627836 ], [ 5063756.517761736176908, 6727366.20899489056319 ], [ 5063689.940269595943391, 6727370.199894447810948 ], [ 5063642.297571801580489, 6727375.967794608324766 ], [ 5063604.662849090993404, 6727405.401355922222137 ], [ 5063571.669160734862089, 6727433.057092411443591 ], [ 5063512.462893175892532, 6727462.346157750114799 ], [ 5063434.835205118171871, 6727481.318650989793241 ], [ 5063406.817131582647562, 6727489.258433721959591 ], [ 5063396.681262099184096, 6727511.630153644829988 ], [ 5063388.684615140780807, 6727549.076829542405903 ], [ 5063374.343031726777554, 6727578.322900898754597 ], [ 5063363.496415770612657, 6727620.773964859545231 ], [ 5063347.877374623902142, 6727658.950810545124114 ], [ 5063334.980911133810878, 6727700.515474336221814 ], [ 5063325.437268370762467, 6727719.702318034134805 ], [ 5063320.113216729834676, 6727755.149625831283629 ], [ 5063304.362333859317005, 6727776.843386633321643 ], [ 5063277.591149496845901, 6727799.873905817046762 ], [ 5063267.996467840857804, 6727816.910444727167487 ], [ 5063268.182037589140236, 6727841.296925722621381 ], [ 5063257.898644616827369, 6727863.392194691114128 ], [ 5063252.474130894057453, 6727889.639275060966611 ], [ 5063253.429616576060653, 6727918.255985660478473 ], [ 5063258.43810941465199, 6727945.564023823477328 ], [ 5063252.413221013732255, 6727970.17386047821492 ], [ 5063248.979029769077897, 6727986.754505912773311 ], [ 5063246.335731294937432, 6728000.947378945536911 ], [ 5063245.316202226094902, 6728012.659117458388209 ], [ 5063244.243421877734363, 6728023.517591845244169 ], [ 5063237.845740748569369, 6728031.812046404927969 ], [ 5063235.988973239436746, 6728039.393695821985602 ], [ 5063237.901904469355941, 6728052.153135990723968 ], [ 5063236.668592703528702, 6728058.589502521790564 ], [ 5063230.657177561894059, 6728061.472187217324972 ], [ 5063222.729315929114819, 6728061.317196575924754 ], [ 5063211.809286734089255, 6728065.014499425888062 ], [ 5063203.471602957695723, 6728062.633665344677866 ], [ 5063192.224813550710678, 6728059.914434306323528 ], [ 5063180.014654157683253, 6728058.209357200190425 ], [ 5063171.790670331567526, 6728057.091578063555062 ], [ 5063161.297504569403827, 6728053.969017364084721 ], [ 5063153.140708117745817, 6728049.281402776017785 ], [ 5063144.498715367168188, 6728044.474567459896207 ], [ 5063142.765543243847787, 6728041.280660619027913 ], [ 5063142.859933841973543, 6728037.378129193559289 ], [ 5063136.800058336928487, 6728031.625639563426375 ], [ 5063128.489734749309719, 6728027.204914540052414 ], [ 5063125.05930669605732, 6728020.306973695755005 ], [ 5063120.167088298127055, 6728017.130784256383777 ], [ 5063112.218192575499415, 6728014.947237050160766 ], [ 5063097.063465244136751, 6728011.750994075089693 ], [ 5063083.7426419230178, 6728007.247478051111102 ], [ 5063072.650543705560267, 6728000.991073288023472 ], [ 5063057.587284988723695, 6727989.901580575853586 ], [ 5063046.676667774096131, 6727979.708876806311309 ], [ 5063030.890774338506162, 6727974.542911296710372 ], [ 5063013.131650754250586, 6727975.21880504861474 ], [ 5062990.868833523243666, 6727974.600740203633904 ], [ 5062973.860563723370433, 6727977.844141993671656 ], [ 5062951.162948574870825, 6727980.919813017360866 ], [ 5062928.978412577882409, 6727983.903886859305203 ], [ 5062908.522585451602936, 6727987.565536618232727 ], [ 5062892.668770319782197, 6727996.245207268744707 ], [ 5062878.219445077702403, 6728006.54653540905565 ], [ 5062869.302818975411355, 6728014.998957566916943 ], [ 5062858.136437388136983, 6728017.97675253264606 ], [ 5062846.547268617898226, 6728018.130164904519916 ], [ 5062834.120871993713081, 6728012.390900218859315 ], [ 5062818.359598546288908, 6728002.945603534579277 ], [ 5062796.950390483252704, 6727990.328175255097449 ], [ 5062779.953165496699512, 6727983.406069273129106 ], [ 5062745.934088855050504, 6727977.299405452795327 ], [ 5062736.057577364146709, 6727971.767520230263472 ], [ 5062684.076414599083364, 6727959.464392030611634 ], [ 5062653.379135573282838, 6727959.923568330705166 ], [ 5062645.82372014503926, 6727962.249189192429185 ], [ 5062626.533788589760661, 6727957.756196485832334 ], [ 5062606.28038592543453, 6727942.072457740083337 ], [ 5062584.925974312238395, 6727928.789215047843754 ], [ 5062562.047591028735042, 6727915.037741394713521 ], [ 5062530.535146908834577, 6727904.803879755549133 ], [ 5062496.33515044581145, 6727886.991482505574822 ], [ 5062473.198031602427363, 6727873.72901857085526 ], [ 5062448.278274438343942, 6727860.531827697530389 ], [ 5062426.410463834181428, 6727848.969348791055381 ], [ 5062403.272419035434723, 6727851.237140487879515 ], [ 5062367.854555242694914, 6727861.897953104227781 ], [ 5062333.707383814267814, 6727871.044024009257555 ], [ 5062306.823276885785162, 6727875.82654071226716 ], [ 5062276.767244163900614, 6727876.547189142554998 ], [ 5062232.641629631631076, 6727865.19618508964777 ], [ 5062197.024672701954842, 6727852.146284307353199 ], [ 5062178.004539076238871, 6727847.307397622615099 ], [ 5062146.581260127946734, 6727849.609355296939611 ], [ 5062119.040702054277062, 6727854.849542235024273 ], [ 5062098.069083213806152, 6727861.627510893158615 ], [ 5062014.146599375642836, 6727857.634089140221477 ], [ 5061985.077622260898352, 6727854.579548239707947 ], [ 5061955.51784064527601, 6727862.701525077223778 ], [ 5061928.674086699262261, 6727871.318395011126995 ], [ 5061902.387679690495133, 6727875.564562248066068 ], [ 5061872.234851846471429, 6727885.1195716150105 ], [ 5061853.116064738482237, 6727888.760862807743251 ], [ 5061837.959924083203077, 6727885.208217164501548 ], [ 5061814.008523529395461, 6727896.44719336181879 ], [ 5061789.420829220674932, 6727904.763117531314492 ], [ 5061760.139624606817961, 6727923.081431637518108 ], [ 5061742.273723955266178, 6727930.783924786373973 ], [ 5061717.408963048830628, 6727925.710284655913711 ], [ 5061695.898597711697221, 6727915.596602472476661 ], [ 5061666.705570290796459, 6727900.525560126639903 ], [ 5061645.553169610910118, 6727890.287884496152401 ], [ 5061615.611952570267022, 6727890.751176840625703 ], [ 5061603.827194972895086, 6727899.406731622293591 ], [ 5061584.607761538587511, 6727909.466445583850145 ], [ 5061571.713755823671818, 6727906.677025802433491 ], [ 5061562.201187390834093, 6727914.411116074770689 ], [ 5061550.03318509273231, 6727915.020855428650975 ], [ 5061538.030686083249748, 6727912.226520614698529 ], [ 5061528.18775022868067, 6727900.308331958949566 ], [ 5061517.787073647603393, 6727880.312074682675302 ], [ 5061512.817985114641488, 6727861.20618787035346 ], [ 5061518.662420297041535, 6727833.040001787245274 ], [ 5061513.962123049423099, 6727811.693434853106737 ], [ 5061500.470043029636145, 6727800.515709894709289 ], [ 5061482.823093336075544, 6727791.533371993340552 ], [ 5061468.016892897896469, 6727791.680777448229492 ], [ 5061456.285123388282955, 6727799.393647383898497 ], [ 5061441.756488399580121, 6727795.360382424667478 ], [ 5061415.956574987620115, 6727791.089325752109289 ], [ 5061390.785854948684573, 6727797.345714480616152 ], [ 5061365.363550489768386, 6727807.228277428075671 ], [ 5061341.037508372217417, 6727808.458353104069829 ], [ 5061321.822192980907857, 6727817.508842587471008 ], [ 5061278.239205569960177, 6727804.144745267927647 ], [ 5061250.693043479695916, 6727803.064271235838532 ], [ 5061227.087776080705225, 6727817.437215795740485 ], [ 5061185.442032961174846, 6727834.191771678626537 ], [ 5061153.275548077188432, 6727840.629769802093506 ], [ 5061118.585177627392113, 6727846.272165565751493 ], [ 5061095.401810307055712, 6727840.234701852314174 ], [ 5061070.097651181742549, 6727829.098429329693317 ], [ 5061039.060170498676598, 6727836.450042906217277 ], [ 5061017.622766777873039, 6727850.367372265085578 ], [ 5061000.386074202135205, 6727861.590357206761837 ], [ 5060983.056205762550235, 6727869.931671256199479 ], [ 5060968.611661710776389, 6727867.094542042352259 ], [ 5060950.87660214304924, 6727859.67486668843776 ], [ 5060933.148024620488286, 6727842.710783638060093 ], [ 5060925.381995817646384, 6727820.504867609590292 ], [ 5060921.630005520768464, 6727798.698450760915875 ], [ 5060909.05927587300539, 6727780.387266726233065 ], [ 5060887.412355441600084, 6727759.176527606323361 ], [ 5060876.429145702160895, 6727747.696277484297752 ], [ 5060863.392014151439071, 6727736.293638457544148 ], [ 5060843.331122938543558, 6727723.421382648870349 ], [ 5060822.956110483966768, 6727727.72174222394824 ], [ 5060810.400490724481642, 6727728.299525452777743 ], [ 5060800.893898673355579, 6727728.240048605948687 ], [ 5060796.698288477025926, 6727731.887575150467455 ], [ 5060791.241619703359902, 6727731.706439569592476 ], [ 5060775.550772988237441, 6727722.346627004444599 ], [ 5060813.057545157149434, 6729030.715658709406853 ], [ 5060694.648397482931614, 6729043.614898653700948 ], [ 5060716.450594687834382, 6729966.713462194427848 ], [ 5060169.749914400279522, 6729978.316465355455875 ], [ 5060228.155058512464166, 6731071.208672031760216 ], [ 5059396.155756288208067, 6731106.509139151312411 ], [ 5059491.753011685796082, 6736364.804077588953078 ], [ 5062509.953611730597913, 6736278.512430249713361 ], [ 5066217.451407458633184, 6736172.613316344097257 ], [ 5066301.151521471329033, 6736725.604887951165438 ], [ 5068475.748553111217916, 6736665.012755986303091 ] ] ] } },
{ "type": "Feature", "properties": { "lv_id": "LOC_070691", "id": 420090.0, "CD_SETOR": "430670005000003", "SITUACAO": "Rural", "CD_SIT": "8", "CD_TIPO": "0", "AREA_KM2": 51.110459902770259, "CD_REGIAO": "4", "NM_REGIAO": "Sul", "CD_UF": "43", "NM_UF": "Rio Grande do Sul", "CD_MUN": "4306700", "NM_MUN": "Dona Francisca", "CD_DIST": "430670005", "NM_DIST": "Dona Francisca", "CD_SUBDIST": "43067000500", "NM_SUBDIST": null, "CD_BAIRRO": null, "NM_BAIRRO": null, "CD_NU": null, "NM_NU": null, "CD_FCU": null, "NM_FCU": null, "CD_AGLOM": null, "NM_AGLOM": null, "CD_RGINT": "4303", "NM_RGINT": "Santa Maria", "CD_RGI": "430011", "NM_RGI": "Santa Maria", "CD_CONCURB": null, "NM_CONCURB": null, "mun_code_x": "4306700", "index_right": 70256, "dist_m": 0.0, "local_id": 738840, "ano": 2022, "cod_localidade_ibge": 4306700, "NR_ZONA": "119", "nr_cep": 97280000.0, "nm_localidade": "DONA FRANCISCA", "nm_locvot": "CENTRO COMUNITÁRIO SANTA LÚCIA", "ds_endereco": "LINHA DO MOINHO", "ds_bairro": "LINHA DO MOINHO", "pred_long": -53.3568475, "pred_lat": -29.594433, "pred_dist": 0.0, "tse_long": -53.35937, "tse_lat": -29.596052, "long": -53.35937, "lat": -29.596052, "ID_UNICO": "LOC_070691", "SG_UF": "RS", "CD_MUNICIPIO": "86312", "NR_LOCAL_VOTACAO": "1031", "QT_SECOES_AGREGADAS": 0, "QT_ELEITORES_TRANSFERIDOS": 0, "CIRO GOMES (PDT) (NÃO ELEITO) 1T": 1.0, "CONSTITUINTE EYMAEL (DC) (NÃO ELEITO) 1T": 0.0, "FELIPE D AVILA (NOVO) (NÃO ELEITO) 1T": 0.0, "JAIR BOLSONARO (PL) (2º TURNO) 1T": 68.0, "LULA (PT) (2º TURNO) 1T": 40.0, "LÉO PÉRICLES (UP) (NÃO ELEITO) 1T": 0.0, "PADRE KELMON (PTB) (NÃO ELEITO) 1T": 0.0, "SIMONE TEBET (MDB) (NÃO ELEITO) 1T": 13.0, "SOFIA MANZANO (PCB) (NÃO ELEITO) 1T": 0.0, "SORAYA THRONICKE (UNIÃO) (NÃO ELEITO) 1T": 0.0, "VERA (PSTU) (NÃO ELEITO) 1T": 0.0, "Total_Votos_Validos 1T": 122.0, "Votos_Brancos 1T": 4.0, "Votos_Nulos 1T": 2.0, "Abstenções 1T": 32.0, "Eleitores_Aptos 1T": 160.0, "JAIR BOLSONARO (PL) (NÃO ELEITO) 2T": 78.0, "LULA (PT) (ELEITO) 2T": 44.0, "Total_Votos_Validos 2T": 122.0, "Votos_Brancos 2T": 5.0, "Votos_Nulos 2T": 3.0, "Abstenções 2T": 30.0, "Eleitores_Aptos 2T": 160.0, "mun_code_y": "4306700", "mun_code": "4306700" }, "geometry": { "type": "Polygon", "coordinates": [ [ [ 5065077.740698246285319, 6727373.841794336214662 ], [ 5065088.327830604277551, 6727254.20354369468987 ], [ 5065101.053256818093359, 6727110.619739569723606 ], [ 5065114.150559335947037, 6727084.914740242995322 ], [ 5065224.346626440994442, 6726869.820195928215981 ], [ 5065525.75345659814775, 6726754.920687029138207 ], [ 5066232.753858707845211, 6726794.212003912776709 ], [ 5066705.348692314699292, 6726627.910523194819689 ], [ 5067197.144891993142664, 6726275.317772520706058 ], [ 5067299.450713729485869, 6725951.113279491662979 ], [ 5067282.948921199887991, 6725737.120420502498746 ], [ 5067159.651034584268928, 6725348.018563508987427 ], [ 5066826.650486252270639, 6724969.819396797567606 ], [ 5066931.047285047359765, 6724112.221230613067746 ], [ 5067360.549395689740777, 6723742.916662026196718 ], [ 5068084.747631625272334, 6723437.017043804749846 ], [ 5068803.950489854440093, 6722981.413513885810971 ], [ 5068856.643558688461781, 6722899.113745553418994 ], [ 5069101.6475775167346, 6722516.313773924484849 ], [ 5069050.947744367644191, 6722219.612915014848113 ], [ 5068056.647504094056785, 6721385.018525686115026 ], [ 5067724.35205991845578, 6721976.917529047466815 ], [ 5067353.544703925028443, 6722216.220820691436529 ], [ 5067129.252210706472397, 6722193.419882893562317 ], [ 5066258.847940572537482, 6721462.918164294213057 ], [ 5065903.145394990220666, 6720727.223052628338337 ], [ 5064926.35100419819355, 6720148.616684207692742 ], [ 5064679.045254466123879, 6720170.719210291281343 ], [ 5064363.648739502765238, 6720369.719526879489422 ], [ 5063973.649552849121392, 6720907.915950712747872 ], [ 5063548.55457013566047, 6721155.616393823176622 ], [ 5063485.153309481218457, 6721192.42377430293709 ], [ 5063285.819662362337112, 6721204.180233225226402 ], [ 5063080.582196181640029, 6721466.605695994570851 ], [ 5063540.818362449295819, 6721847.252431749366224 ], [ 5063645.826679734513164, 6721895.056241866201162 ], [ 5063827.634195298887789, 6721939.895309826359153 ], [ 5063952.922996663488448, 6722033.086316404864192 ], [ 5064353.114763788878918, 6722421.126017183065414 ], [ 5064669.307504069060087, 6722807.695935302414 ], [ 5065058.058929328806698, 6723268.641200876794755 ], [ 5065171.899816528894007, 6723404.597176760435104 ], [ 5065444.051977247931063, 6723697.985212540253997 ], [ 5065548.403985689394176, 6723813.252080544829369 ], [ 5065568.776253364048898, 6723836.55656070727855 ], [ 5065626.897945051081479, 6723911.054446714930236 ], [ 5065678.861354191787541, 6723979.269390093162656 ], [ 5065760.455194576643407, 6724086.608311319723725 ], [ 5065826.385216761380434, 6724177.266290424391627 ], [ 5065955.214219437912107, 6724341.738097890280187 ], [ 5065994.897038260474801, 6724423.037907555699348 ], [ 5066004.531629551202059, 6724463.498292217031121 ], [ 5066013.635223844088614, 6724517.452661267481744 ], [ 5066016.636547401547432, 6724645.781233057379723 ], [ 5066012.251577680930495, 6724727.217799010686576 ], [ 5066016.745895741507411, 6724834.286954840645194 ], [ 5066028.887056678533554, 6724971.540917104110122 ], [ 5066018.577591146342456, 6725043.889008917845786 ], [ 5066002.68501257058233, 6725089.398991711437702 ], [ 5065595.35576783772558, 6725084.400478241965175 ], [ 5065603.092963845469058, 6725035.63528011366725 ], [ 5065636.354509765282273, 6724926.51659158244729 ], [ 5065620.890793357975781, 6724803.437689861282706 ], [ 5065627.574246428906918, 6724680.451161755248904 ], [ 5065628.926295041106641, 6724586.816470932215452 ], [ 5065505.415839831344783, 6724430.302558142691851 ], [ 5065356.846989925019443, 6724230.423139421269298 ], [ 5065214.858935709111392, 6724056.897832943126559 ], [ 5064855.743693037889898, 6723672.818666642531753 ], [ 5064447.529345095157623, 6723180.218716120347381 ], [ 5064315.178168212994933, 6723022.10226877219975 ], [ 5064052.212354349903762, 6722712.905224635265768 ], [ 5064035.032716977410018, 6722696.53038299549371 ], [ 5063696.10011553298682, 6722358.88086124509573 ], [ 5063472.803146626800299, 6722300.472902549430728 ], [ 5063335.46004850231111, 6722223.307462831959128 ], [ 5063157.536906947381794, 6722079.114047213457525 ], [ 5062939.559939400292933, 6721898.727210382930934 ], [ 5062617.070990652777255, 6722054.239310581237078 ], [ 5061378.281372269615531, 6721346.787639084272087 ], [ 5060941.263544159941375, 6721104.771340027451515 ], [ 5060970.208277352154255, 6720863.5755830174312 ], [ 5060971.139046677388251, 6720815.637718569487333 ], [ 5060970.985476112924516, 6720785.586321203038096 ], [ 5060968.845832851715386, 6720757.175250420346856 ], [ 5060960.608678068965673, 6720699.121966026723385 ], [ 5061002.364396213553846, 6720696.766699485480785 ], [ 5061039.245535362511873, 6720699.137956505641341 ], [ 5061176.341837370768189, 6720717.801827964372933 ], [ 5061238.324326661415398, 6720728.937072809785604 ], [ 5061265.706511404365301, 6720736.857726190239191 ], [ 5061291.048603360541165, 6720747.150624417699873 ], [ 5061334.073761001229286, 6720766.181827707216144 ], [ 5061363.764079451560974, 6720783.523223549127579 ], [ 5061457.160596762783825, 6720843.670962913893163 ], [ 5061490.715957930311561, 6720877.02021512389183 ], [ 5061495.286581066437066, 6720885.774733799509704 ], [ 5061503.349584879353642, 6720900.917419290170074 ], [ 5061513.644065384753048, 6720920.32679664902389 ], [ 5061517.710547692142427, 6720932.509428417310119 ], [ 5061715.446696816012263, 6720838.662019607611001 ], [ 5061873.509113760665059, 6720760.039353467524052 ], [ 5062019.805075492709875, 6720674.806072218343616 ], [ 5062166.48255733307451, 6720578.427960380911827 ], [ 5062035.052386859431863, 6720451.319325802847743 ], [ 5061938.307785457931459, 6720323.208566930145025 ], [ 5061850.529705625027418, 6720168.210013657808304 ], [ 5061791.150637578219175, 6719985.784533303231001 ], [ 5061737.578136740252376, 6720031.15236868802458 ], [ 5061669.807015711441636, 6720092.062006527557969 ], [ 5061621.236952733248472, 6720175.657194432802498 ], [ 5061604.831783623434603, 6720237.270784882828593 ], [ 5061600.825986650772393, 6720303.15063812956214 ], [ 5061612.482239867560565, 6720353.702191759832203 ], [ 5061617.073106680996716, 6720396.144824173301458 ], [ 5061605.600699523463845, 6720433.7759412471205 ], [ 5061579.015496652573347, 6720454.529455590993166 ], [ 5061544.733621282503009, 6720449.219209252856672 ], [ 5061515.502653528936207, 6720434.303462801501155 ], [ 5061483.882995160296559, 6720405.832308951765299 ], [ 5061439.444346158765256, 6720360.13817741535604 ], [ 5061400.359351685270667, 6720321.165536364540458 ], [ 5061364.224528755992651, 6720290.368674397468567 ], [ 5061325.378871959634125, 6720254.34316336363554 ], [ 5061266.227554632350802, 6720215.003049794584513 ], [ 5061212.58534000068903, 6720189.600067552179098 ], [ 5061123.056191308423877, 6720178.648086482658982 ], [ 5061052.54847967159003, 6720178.765900621190667 ], [ 5060999.163641527295113, 6720195.240789759904146 ], [ 5060949.114009865559638, 6720219.601125868968666 ], [ 5060907.890353134833276, 6720241.15308852493763 ], [ 5060871.397101193666458, 6720261.80349643714726 ], [ 5060836.467455010861158, 6720274.375207350589335 ], [ 5060797.138915870338678, 6720281.161946142092347 ], [ 5060761.768315402790904, 6720265.978226029314101 ], [ 5060712.159149649553001, 6720232.292487639933825 ], [ 5060667.507062740623951, 6720221.637150470167398 ], [ 5060594.804070594720542, 6720213.383469166234136 ], [ 5060537.37060338165611, 6720213.715647654607892 ], [ 5060488.493596824817359, 6720234.841758584603667 ], [ 5060452.280638847500086, 6720260.921068757772446 ], [ 5060427.42516541108489, 6720302.879747562110424 ], [ 5060415.271947567351162, 6720371.263822581619024 ], [ 5060405.506557241082191, 6720455.098996685817838 ], [ 5060393.820328240282834, 6720525.741912154480815 ], [ 5060375.501406822353601, 6720594.802039421163499 ], [ 5060348.925557418726385, 6720655.603653008118272 ], [ 5060325.271417706273496, 6720703.297770745120943 ], [ 5060292.826572107151151, 6720735.30904845148325 ], [ 5060264.8349514529109, 6720752.630490867421031 ], [ 5060222.504107833839953, 6720759.763846786692739 ], [ 5060188.967382027767599, 6720765.23143196105957 ], [ 5060156.694899845868349, 6720757.234613910317421 ], [ 5060134.079672453925014, 6720727.902232244610786 ], [ 5060118.904635567218065, 6720679.152888465672731 ], [ 5060103.6244838796556, 6720621.602376343682408 ], [ 5060079.994334003888071, 6720561.801896115764976 ], [ 5060052.343972138129175, 6720514.382966284640133 ], [ 5060019.561716550961137, 6720470.671731777489185 ], [ 5059980.197519285604358, 6720434.766367103904486 ], [ 5059948.296479012817144, 6720403.643096165731549 ], [ 5059906.029654805548489, 6720380.833611669018865 ], [ 5059852.33275053370744, 6720366.520837811753154 ], [ 5059809.345275558531284, 6720375.596090937033296 ], [ 5059776.343947635032237, 6720401.401091210544109 ], [ 5059749.488363864831626, 6720433.824432650581002 ], [ 5059728.070676160044968, 6720456.319615134969354 ], [ 5059700.365046954713762, 6720481.918828046880662 ], [ 5059665.835020297206938, 6720504.450379972346127 ], [ 5059638.879469841718674, 6720514.526068842038512 ], [ 5059619.633641428314149, 6720543.050962653011084 ], [ 5059581.030202429741621, 6720626.528510442003608 ], [ 5059573.827724372036755, 6720690.872373125515878 ], [ 5059577.869747781194746, 6720738.994221545755863 ], [ 5059598.92863286100328, 6720772.781148129142821 ], [ 5059632.56265050265938, 6720803.796422824263573 ], [ 5059665.840226416476071, 6720853.348057234659791 ], [ 5059690.776670010760427, 6720909.606204067356884 ], [ 5059552.650424556806684, 6721277.217674714513123 ], [ 5059456.755350193940103, 6721307.223878065124154 ], [ 5059217.048503153957427, 6721133.321863759309053 ], [ 5059051.857420864515007, 6721271.516176756471395 ], [ 5058438.650551802478731, 6721330.317769853398204 ], [ 5057935.556646389886737, 6721625.919003019109368 ], [ 5057918.551123647019267, 6721866.522640410810709 ], [ 5058064.553168646991253, 6722116.715582455508411 ], [ 5057849.058169580064714, 6722434.122019300237298 ], [ 5057841.854489432647824, 6722744.921615520492196 ], [ 5057720.053869739174843, 6722897.914233604446054 ], [ 5060446.753229551017284, 6723794.822074390947819 ], [ 5059773.252722297795117, 6725244.213999085128307 ], [ 5059762.051715330220759, 6726698.716861308552325 ], [ 5060058.552217005752027, 6726690.020836825482547 ], [ 5060081.653149026446044, 6727760.71445862390101 ], [ 5060373.457606308162212, 6727772.820534908212721 ], [ 5060773.449736460112035, 6727649.118158871307969 ], [ 5060775.550772988237441, 6727722.346627004444599 ], [ 5060791.241619703359902, 6727731.706439569592476 ], [ 5060796.698288477025926, 6727731.887575150467455 ], [ 5060800.893898673355579, 6727728.240048605948687 ], [ 5060810.400490724481642, 6727728.299525452777743 ], [ 5060822.956110483966768, 6727727.72174222394824 ], [ 5060843.331122938543558, 6727723.421382648870349 ], [ 5060863.392014151439071, 6727736.293638457544148 ], [ 5060876.429145702160895, 6727747.696277484297752 ], [ 5060887.412355441600084, 6727759.176527606323361 ], [ 5060909.05927587300539, 6727780.387266726233065 ], [ 5060921.630005520768464, 6727798.698450760915875 ], [ 5060925.381995817646384, 6727820.504867609590292 ], [ 5060933.148024620488286, 6727842.710783638060093 ], [ 5060950.87660214304924, 6727859.67486668843776 ], [ 5060968.611661710776389, 6727867.094542042352259 ], [ 5060983.056205762550235, 6727869.931671256199479 ], [ 5061000.386074202135205, 6727861.590357206761837 ], [ 5061017.622766777873039, 6727850.367372265085578 ], [ 5061039.060170498676598, 6727836.450042906217277 ], [ 5061070.097651181742549, 6727829.098429329693317 ], [ 5061095.401810307055712, 6727840.234701852314174 ], [ 5061118.585177627392113, 6727846.272165565751493 ], [ 5061153.275548077188432, 6727840.629769802093506 ], [ 5061185.442032961174846, 6727834.191771678626537 ], [ 5061227.087776080705225, 6727817.437215795740485 ], [ 5061250.693043479695916, 6727803.064271235838532 ], [ 5061278.239205569960177, 6727804.144745267927647 ], [ 5061321.822192980907857, 6727817.508842587471008 ], [ 5061341.037508372217417, 6727808.458353104069829 ], [ 5061365.363550489768386, 6727807.228277428075671 ], [ 5061390.785854948684573, 6727797.345714480616152 ], [ 5061415.956574987620115, 6727791.089325752109289 ], [ 5061441.756488399580121, 6727795.360382424667478 ], [ 5061456.285123388282955, 6727799.393647383898497 ], [ 5061468.016892897896469, 6727791.680777448229492 ], [ 5061482.823093336075544, 6727791.533371993340552 ], [ 5061500.470043029636145, 6727800.515709894709289 ], [ 5061513.962123049423099, 6727811.693434853106737 ], [ 5061518.662420297041535, 6727833.040001787245274 ], [ 5061512.817985114641488, 6727861.20618787035346 ], [ 5061517.787073647603393, 6727880.312074682675302 ], [ 5061528.18775022868067, 6727900.308331958949566 ], [ 5061538.030686083249748, 6727912.226520614698529 ], [ 5061550.03318509273231, 6727915.020855428650975 ], [ 5061562.201187390834093, 6727914.411116074770689 ], [ 5061571.713755823671818, 6727906.677025802433491 ], [ 5061584.607761538587511, 6727909.466445583850145 ], [ 5061603.827194972895086, 6727899.406731622293591 ], [ 5061615.611952570267022, 6727890.751176840625703 ], [ 5061645.553169610910118, 6727890.287884496152401 ], [ 5061666.705570290796459, 6727900.525560126639903 ], [ 5061695.898597711697221, 6727915.596602472476661 ], [ 5061717.408963048830628, 6727925.710284655913711 ], [ 5061742.273723955266178, 6727930.783924786373973 ], [ 5061760.139624606817961, 6727923.081431637518108 ], [ 5061789.420829220674932, 6727904.763117531314492 ], [ 5061814.008523529395461, 6727896.44719336181879 ], [ 5061837.959924083203077, 6727885.208217164501548 ], [ 5061853.116064738482237, 6727888.760862807743251 ], [ 5061872.234851846471429, 6727885.1195716150105 ], [ 5061902.387679690495133, 6727875.564562248066068 ], [ 5061928.674086699262261, 6727871.318395011126995 ], [ 5061955.51784064527601, 6727862.701525077223778 ], [ 5061985.077622260898352, 6727854.579548239707947 ], [ 5062014.146599375642836, 6727857.634089140221477 ], [ 5062098.069083213806152, 6727861.627510893158615 ], [ 5062119.040702054277062, 6727854.849542235024273 ], [ 5062146.581260127946734, 6727849.609355296939611 ], [ 5062178.004539076238871, 6727847.307397622615099 ], [ 5062197.024672701954842, 6727852.146284307353199 ], [ 5062232.641629631631076, 6727865.19618508964777 ], [ 5062276.767244163900614, 6727876.547189142554998 ], [ 5062306.823276885785162, 6727875.82654071226716 ], [ 5062333.707383814267814, 6727871.044024009257555 ], [ 5062367.854555242694914, 6727861.897953104227781 ], [ 5062403.272419035434723, 6727851.237140487879515 ], [ 5062426.410463834181428, 6727848.969348791055381 ], [ 5062448.278274438343942, 6727860.531827697530389 ], [ 5062473.198031602427363, 6727873.72901857085526 ], [ 5062496.33515044581145, 6727886.991482505574822 ], [ 5062530.535146908834577, 6727904.803879755549133 ], [ 5062562.047591028735042, 6727915.037741394713521 ], [ 5062584.925974312238395, 6727928.789215047843754 ], [ 5062606.28038592543453, 6727942.072457740083337 ], [ 5062626.533788589760661, 6727957.756196485832334 ], [ 5062645.82372014503926, 6727962.249189192429185 ], [ 5062653.379135573282838, 6727959.923568330705166 ], [ 5062684.076414599083364, 6727959.464392030611634 ], [ 5062736.057577364146709, 6727971.767520230263472 ], [ 5062745.934088855050504, 6727977.299405452795327 ], [ 5062779.953165496699512, 6727983.406069273129106 ], [ 5062796.950390483252704, 6727990.328175255097449 ], [ 5062818.359598546288908, 6728002.945603534579277 ], [ 5062834.120871993713081, 6728012.390900218859315 ], [ 5062846.547268617898226, 6728018.130164904519916 ], [ 5062858.136437388136983, 6728017.97675253264606 ], [ 5062869.302818975411355, 6728014.998957566916943 ], [ 5062878.219445077702403, 6728006.54653540905565 ], [ 5062892.668770319782197, 6727996.245207268744707 ], [ 5062908.522585451602936, 6727987.565536618232727 ], [ 5062928.978412577882409, 6727983.903886859305203 ], [ 5062951.162948574870825, 6727980.919813017360866 ], [ 5062973.860563723370433, 6727977.844141993671656 ], [ 5062990.868833523243666, 6727974.600740203633904 ], [ 5063013.131650754250586, 6727975.21880504861474 ], [ 5063030.890774338506162, 6727974.542911296710372 ], [ 5063046.676667774096131, 6727979.708876806311309 ], [ 5063057.587284988723695, 6727989.901580575853586 ], [ 5063072.650543705560267, 6728000.991073288023472 ], [ 5063083.7426419230178, 6728007.247478051111102 ], [ 5063097.063465244136751, 6728011.750994075089693 ], [ 5063112.218192575499415, 6728014.947237050160766 ], [ 5063120.167088298127055, 6728017.130784256383777 ], [ 5063125.05930669605732, 6728020.306973695755005 ], [ 5063128.489734749309719, 6728027.204914540052414 ], [ 5063136.800058336928487, 6728031.625639563426375 ], [ 5063142.859933841973543, 6728037.378129193559289 ], [ 5063142.765543243847787, 6728041.280660619027913 ], [ 5063144.498715367168188, 6728044.474567459896207 ], [ 5063153.140708117745817, 6728049.281402776017785 ], [ 5063161.297504569403827, 6728053.969017364084721 ], [ 5063171.790670331567526, 6728057.091578063555062 ], [ 5063180.014654157683253, 6728058.209357200190425 ], [ 5063192.224813550710678, 6728059.914434306323528 ], [ 5063203.471602957695723, 6728062.633665344677866 ], [ 5063211.809286734089255, 6728065.014499425888062 ], [ 5063222.729315929114819, 6728061.317196575924754 ], [ 5063230.657177561894059, 6728061.472187217324972 ], [ 5063236.668592703528702, 6728058.589502521790564 ], [ 5063237.901904469355941, 6728052.153135990723968 ], [ 5063235.988973239436746, 6728039.393695821985602 ], [ 5063237.845740748569369, 6728031.812046404927969 ], [ 5063244.243421877734363, 6728023.517591845244169 ], [ 5063245.316202226094902, 6728012.659117458388209 ], [ 5063246.335731294937432, 6728000.947378945536911 ], [ 5063248.979029769077897, 6727986.754505912773311 ], [ 5063252.413221013732255, 6727970.17386047821492 ], [ 5063258.43810941465199, 6727945.564023823477328 ], [ 5063253.429616576060653, 6727918.255985660478473 ], [ 5063252.474130894057453, 6727889.639275060966611 ], [ 5063257.898644616827369, 6727863.392194691114128 ], [ 5063268.182037589140236, 6727841.296925722621381 ], [ 5063267.996467840857804, 6727816.910444727167487 ], [ 5063277.591149496845901, 6727799.873905817046762 ], [ 5063304.362333859317005, 6727776.843386633321643 ], [ 5063320.113216729834676, 6727755.149625831283629 ], [ 5063325.437268370762467, 6727719.702318034134805 ], [ 5063334.980911133810878, 6727700.515474336221814 ], [ 5063347.877374623902142, 6727658.950810545124114 ], [ 5063363.496415770612657, 6727620.773964859545231 ], [ 5063374.343031726777554, 6727578.322900898754597 ], [ 5063388.684615140780807, 6727549.076829542405903 ], [ 5063396.681262099184096, 6727511.630153644829988 ], [ 5063406.817131582647562, 6727489.258433721959591 ], [ 5063434.835205118171871, 6727481.318650989793241 ], [ 5063512.462893175892532, 6727462.346157750114799 ], [ 5063571.669160734862089, 6727433.057092411443591 ], [ 5063604.662849090993404, 6727405.401355922222137 ], [ 5063642.297571801580489, 6727375.967794608324766 ], [ 5063689.940269595943391, 6727370.199894447810948 ], [ 5063756.517761736176908, 6727366.20899489056319 ], [ 5063806.376076665706933, 6727368.398343216627836 ], [ 5063927.528956072404981, 6727366.247310805134475 ], [ 5063991.670338784344494, 6727370.106140179559588 ], [ 5064116.866106851026416, 6727370.025187138468027 ], [ 5064155.748151868581772, 6727376.055615119636059 ], [ 5064184.045654275454581, 6727369.675375965423882 ], [ 5064206.8117192722857, 6727372.072910582646728 ], [ 5064243.142369974404573, 6727375.889459926635027 ], [ 5064284.505284893326461, 6727380.242487849667668 ], [ 5064312.293143814429641, 6727369.475070241838694 ], [ 5064341.375273877754807, 6727371.536923301406205 ], [ 5064390.688286571763456, 6727369.84695965051651 ], [ 5064440.29545709118247, 6727372.145792659372091 ], [ 5064471.162609707564116, 6727372.866853694431484 ], [ 5064493.888651993125677, 6727375.031247708946466 ], [ 5064503.426754733547568, 6727377.249046159908175 ], [ 5064506.309726365841925, 6727388.262363526970148 ], [ 5064493.798402361571789, 6727394.785722060129046 ], [ 5064493.869447218254209, 6727413.940666502341628 ], [ 5064524.867141591385007, 6727427.26479054428637 ], [ 5064552.127356432378292, 6727417.442053213715553 ], [ 5064559.182552938349545, 6727429.395836839452386 ], [ 5064541.06982587557286, 6727467.932402109727263 ], [ 5064517.447098279371858, 6727522.352470295503736 ], [ 5064521.095900840125978, 6727543.548755847848952 ], [ 5064588.861764077097178, 6727543.869391426444054 ], [ 5064615.37160169519484, 6727583.89020496699959 ], [ 5064608.089613019488752, 6727623.595128506422043 ], [ 5064628.556193480268121, 6727642.256036978214979 ], [ 5064657.096081171184778, 6727640.883771292865276 ], [ 5064658.473732733167708, 6727624.303370758891106 ], [ 5064651.664957331493497, 6727587.816520594060421 ], [ 5064669.509520484134555, 6727565.033496053889394 ], [ 5064708.183943849056959, 6727521.312512025237083 ], [ 5064714.465468943119049, 6727482.954581500962377 ], [ 5064682.235641366802156, 6727430.673308186233044 ], [ 5064702.456761392764747, 6727413.430279456079006 ], [ 5064758.89986742194742, 6727391.189930664375424 ], [ 5064802.924600823782384, 6727364.697571597993374 ], [ 5064899.188136175274849, 6727366.714454184286296 ], [ 5064948.193271541036665, 6727370.455610194243491 ], [ 5064996.391744185239077, 6727363.714534089900553 ], [ 5065077.740698246285319, 6727373.841794336214662 ] ] ] } }
]
}
