{
"type": "FeatureCollection",
"name": "4306551",
"crs": { "type": "name", "properties": { "name": "urn:ogc:def:crs:EPSG::5880" } },
"features": [
{ "type": "Feature", "properties": { "lv_id": "LOC_074356", "id": 419979.0, "CD_SETOR": "430655120000001", "SITUACAO": "Urbana", "CD_SIT": "1", "CD_TIPO": "0", "AREA_KM2": 0.22068338343261801, "CD_REGIAO": "4", "NM_REGIAO": "Sul", "CD_UF": "43", "NM_UF": "Rio Grande do Sul", "CD_MUN": "4306551", "NM_MUN": "Dom Pedro de Alcântara", "CD_DIST": "430655120", "NM_DIST": "Porto Colônia", "CD_SUBDIST": "43065512000", "NM_SUBDIST": null, "CD_BAIRRO": null, "NM_BAIRRO": null, "CD_NU": null, "NM_NU": null, "CD_FCU": null, "NM_FCU": null, "CD_AGLOM": null, "NM_AGLOM": null, "CD_RGINT": "4301", "NM_RGINT": "Porto Alegre", "CD_RGI": "430008", "NM_RGI": "Torres", "CD_CONCURB": null, "NM_CONCURB": null, "mun_code_x": "4306551", "index_right": 73793, "dist_m": 579.13845591425536, "local_id": 773420, "ano": 2022, "cod_localidade_ibge": 4306551, "NR_ZONA": "85", "nr_cep": 95568000.0, "nm_localidade": "DOM PEDRO DE ALCÂNTARA", "nm_locvot": "PORTO COLÔNIA - SOC.GRÊMIO ESP.GAÚCHO", "ds_endereco": "BR 101 - PORTO COLÔNIA", "ds_bairro": "PORTO COLÔNIA", "pred_long": -49.840212, "pred_lat": -29.388774, "pred_dist": 0.0, "tse_long": -49.847653, "tse_lat": -29.395788, "long": -49.847653, "lat": -29.395788, "ID_UNICO": "LOC_074356", "SG_UF": "RS", "CD_MUNICIPIO": "88463", "NR_LOCAL_VOTACAO": "1058", "QT_SECOES_AGREGADAS": 0, "QT_ELEITORES_TRANSFERIDOS": 0, "CIRO GOMES (PDT) (NÃO ELEITO) 1T": 16.0, "CONSTITUINTE EYMAEL (DC) (NÃO ELEITO) 1T": 0.0, "FELIPE D AVILA (NOVO) (NÃO ELEITO) 1T": 3.0, "JAIR BOLSONARO (PL) (2º TURNO) 1T": 173.0, "LULA (PT) (2º TURNO) 1T": 149.0, "LÉO PÉRICLES (UP) (NÃO ELEITO) 1T": 0.0, "PADRE KELMON (PTB) (NÃO ELEITO) 1T": 2.0, "SIMONE TEBET (MDB) (NÃO ELEITO) 1T": 25.0, "SOFIA MANZANO (PCB) (NÃO ELEITO) 1T": 0.0, "SORAYA THRONICKE (UNIÃO) (NÃO ELEITO) 1T": 0.0, "VERA (PSTU) (NÃO ELEITO) 1T": 0.0, "Total_Votos_Validos 1T": 368.0, "Votos_Brancos 1T": 4.0, "Votos_Nulos 1T": 1.0, "Abstenções 1T": 69.0, "Eleitores_Aptos 1T": 442.0, "JAIR BOLSONARO (PL) (NÃO ELEITO) 2T": 211.0, "LULA (PT) (ELEITO) 2T": 146.0, "Total_Votos_Validos 2T": 357.0, "Votos_Brancos 2T": 7.0, "Votos_Nulos 2T": 5.0, "Abstenções 2T": 73.0, "Eleitores_Aptos 2T": 442.0, "mun_code_y": "4306551", "mun_code": "4306551" }, "geometry": { "type": "Polygon", "coordinates": [ [ [ 5405469.518606445752084, 6737874.992526756599545 ], [ 5405140.311200464144349, 6737589.600070853717625 ], [ 5404824.517451861873269, 6737440.99795145727694 ], [ 5404028.113605627790093, 6736495.66287725046277 ], [ 5402128.820829239673913, 6737007.976273880340159 ], [ 5401787.448924950323999, 6737100.022582497447729 ], [ 5401774.608230742625892, 6737103.479249044321477 ], [ 5401331.610839828848839, 6737222.902263024821877 ], [ 5401178.41907671187073, 6737720.297446228563786 ], [ 5400684.40603279415518, 6737870.360274141654372 ], [ 5400347.556776775978506, 6737972.677391428500414 ], [ 5399554.515377011150122, 6738213.498809201642871 ], [ 5399443.717915182001889, 6738919.995275618508458 ], [ 5399113.714459759183228, 6739484.092315248213708 ], [ 5398862.01668887771666, 6739681.492198643274605 ], [ 5398385.112723194994032, 6739851.494112016633153 ], [ 5398304.015311780385673, 6740028.395607691258192 ], [ 5398291.420503214932978, 6740095.89317381568253 ], [ 5398236.615263324230909, 6740692.498565657064319 ], [ 5398233.619277716614306, 6740724.997621349990368 ], [ 5398577.821938140317798, 6740908.498782582581043 ], [ 5398889.922017096541822, 6741256.791651028208435 ], [ 5398797.118049887008965, 6741602.300751870498061 ], [ 5398848.21701439563185, 6741527.001836583949625 ], [ 5400663.416294597089291, 6741480.395095529966056 ], [ 5401440.120389292947948, 6741318.399688376113772 ], [ 5401856.117766429670155, 6741231.693951551802456 ], [ 5402600.912564133293927, 6740479.791691298596561 ], [ 5403345.71788664534688, 6740600.591501574963331 ], [ 5403803.44503340870142, 6741041.484151649288833 ], [ 5404295.617365243844688, 6741526.889198983088136 ], [ 5404934.213719427585602, 6743949.587413558736444 ], [ 5405346.516400569118559, 6742757.435769505798817 ], [ 5405463.739627136848867, 6742418.419030383229256 ], [ 5405501.916649677790701, 6742307.993772614747286 ], [ 5405528.736502572894096, 6742230.460226798430085 ], [ 5405580.412429627031088, 6742081.097723281010985 ], [ 5405604.519291326403618, 6742011.407220246270299 ], [ 5405826.418297486379743, 6741369.796581415459514 ], [ 5407345.817385691218078, 6739970.692208243533969 ], [ 5406993.513181722722948, 6739456.396978780627251 ], [ 5406178.209705559536815, 6738762.088825756683946 ], [ 5406052.851090881973505, 6738613.758515667170286 ], [ 5405469.518606445752084, 6737874.992526756599545 ] ] ] } },
{ "type": "Feature", "properties": { "lv_id": "LOC_074357", "id": 419972.0, "CD_SETOR": "430655105000001", "SITUACAO": "Urbana", "CD_SIT": "1", "CD_TIPO": "0", "AREA_KM2": 0.358344082418175, "CD_REGIAO": "4", "NM_REGIAO": "Sul", "CD_UF": "43", "NM_UF": "Rio Grande do Sul", "CD_MUN": "4306551", "NM_MUN": "Dom Pedro de Alcântara", "CD_DIST": "430655105", "NM_DIST": "Dom Pedro de Alcântara", "CD_SUBDIST": "43065510500", "NM_SUBDIST": null, "CD_BAIRRO": null, "NM_BAIRRO": null, "CD_NU": null, "NM_NU": null, "CD_FCU": null, "NM_FCU": null, "CD_AGLOM": null, "NM_AGLOM": null, "CD_RGINT": "4301", "NM_RGINT": "Porto Alegre", "CD_RGI": "430008", "NM_RGI": "Torres", "CD_CONCURB": null, "NM_CONCURB": null, "mun_code_x": "4306551", "index_right": 73794, "dist_m": 0.0, "local_id": 773421, "ano": 2022, "cod_localidade_ibge": 4306551, "NR_ZONA": "85", "nr_cep": 95568000.0, "nm_localidade": "DOM PEDRO DE ALCÂNTARA", "nm_locvot": "SEDE - GINÁSIO DA ESCOLA E.E.M. DOM PEDRO DE ALCÂNTARA", "ds_endereco": "AV. CENTRAL, 300", "ds_bairro": "CENTRO (SEDE)", "pred_long": -49.84712, "pred_lat": -29.36815, "pred_dist": 0.0, "tse_long": -49.847038, "tse_lat": -29.368374, "long": -49.847038, "lat": -29.368374, "ID_UNICO": "LOC_074357", "SG_UF": "RS", "CD_MUNICIPIO": "88463", "NR_LOCAL_VOTACAO": "1104", "QT_SECOES_AGREGADAS": 0, "QT_ELEITORES_TRANSFERIDOS": 0, "CIRO GOMES (PDT) (NÃO ELEITO) 1T": 14.0, "CONSTITUINTE EYMAEL (DC) (NÃO ELEITO) 1T": 0.0, "FELIPE D AVILA (NOVO) (NÃO ELEITO) 1T": 4.0, "JAIR BOLSONARO (PL) (2º TURNO) 1T": 249.0, "LULA (PT) (2º TURNO) 1T": 206.0, "LÉO PÉRICLES (UP) (NÃO ELEITO) 1T": 0.0, "PADRE KELMON (PTB) (NÃO ELEITO) 1T": 1.0, "SIMONE TEBET (MDB) (NÃO ELEITO) 1T": 35.0, "SOFIA MANZANO (PCB) (NÃO ELEITO) 1T": 0.0, "SORAYA THRONICKE (UNIÃO) (NÃO ELEITO) 1T": 2.0, "VERA (PSTU) (NÃO ELEITO) 1T": 0.0, "Total_Votos_Validos 1T": 511.0, "Votos_Brancos 1T": 8.0, "Votos_Nulos 1T": 9.0, "Abstenções 1T": 81.0, "Eleitores_Aptos 1T": 609.0, "JAIR BOLSONARO (PL) (NÃO ELEITO) 2T": 298.0, "LULA (PT) (ELEITO) 2T": 201.0, "Total_Votos_Validos 2T": 499.0, "Votos_Brancos 2T": 6.0, "Votos_Nulos 2T": 17.0, "Abstenções 2T": 87.0, "Eleitores_Aptos 2T": 609.0, "mun_code_y": "4306551", "mun_code": "4306551" }, "geometry": { "type": "Polygon", "coordinates": [ [ [ 5404295.617365243844688, 6741526.889198983088136 ], [ 5403803.44503340870142, 6741041.484151649288833 ], [ 5403345.71788664534688, 6740600.591501574963331 ], [ 5402600.912564133293927, 6740479.791691298596561 ], [ 5401856.117766429670155, 6741231.693951551802456 ], [ 5401440.120389292947948, 6741318.399688376113772 ], [ 5401209.314016466960311, 6742892.298321591690183 ], [ 5401231.915250048972666, 6742898.988679918460548 ], [ 5401785.015587715432048, 6743062.967599519528449 ], [ 5402406.520643247291446, 6743247.187859395518899 ], [ 5403532.415300961583853, 6744297.792199955321848 ], [ 5404934.213719427585602, 6743949.587413558736444 ], [ 5404295.617365243844688, 6741526.889198983088136 ] ] ] } },
{ "type": "Feature", "properties": { "lv_id": "LOC_074359", "id": 419977.0, "CD_SETOR": "430655115000001", "SITUACAO": "Urbana", "CD_SIT": "1", "CD_TIPO": "0", "AREA_KM2": 0.79237074980591204, "CD_REGIAO": "4", "NM_REGIAO": "Sul", "CD_UF": "43", "NM_UF": "Rio Grande do Sul", "CD_MUN": "4306551", "NM_MUN": "Dom Pedro de Alcântara", "CD_DIST": "430655115", "NM_DIST": "Morro dos Leffas", "CD_SUBDIST": "43065511500", "NM_SUBDIST": null, "CD_BAIRRO": null, "NM_BAIRRO": null, "CD_NU": null, "NM_NU": null, "CD_FCU": null, "NM_FCU": null, "CD_AGLOM": null, "NM_AGLOM": null, "CD_RGINT": "4301", "NM_RGINT": "Porto Alegre", "CD_RGI": "430008", "NM_RGI": "Torres", "CD_CONCURB": null, "NM_CONCURB": null, "mun_code_x": "4306551", "index_right": 73797, "dist_m": 0.0, "local_id": 773424, "ano": 2022, "cod_localidade_ibge": 4306551, "NR_ZONA": "85", "nr_cep": 95568000.0, "nm_localidade": "DOM PEDRO DE ALCÂNTARA", "nm_locvot": "MORRO DOS LEFFAS - SALÃO COMUNITÁRIO", "ds_endereco": "ESTRADA GERAL", "ds_bairro": "MORRO DOS LEFFAS", "pred_long": -49.874526, "pred_lat": -29.349451, "pred_dist": 0.0, "tse_long": -49.871943, "tse_lat": -29.343607, "long": -49.871943, "lat": -29.343607, "ID_UNICO": "LOC_074359", "SG_UF": "RS", "CD_MUNICIPIO": "88463", "NR_LOCAL_VOTACAO": "1015", "QT_SECOES_AGREGADAS": 0, "QT_ELEITORES_TRANSFERIDOS": 0, "CIRO GOMES (PDT) (NÃO ELEITO) 1T": 8.0, "CONSTITUINTE EYMAEL (DC) (NÃO ELEITO) 1T": 0.0, "FELIPE D AVILA (NOVO) (NÃO ELEITO) 1T": 1.0, "JAIR BOLSONARO (PL) (2º TURNO) 1T": 142.0, "LULA (PT) (2º TURNO) 1T": 87.0, "LÉO PÉRICLES (UP) (NÃO ELEITO) 1T": 0.0, "PADRE KELMON (PTB) (NÃO ELEITO) 1T": 0.0, "SIMONE TEBET (MDB) (NÃO ELEITO) 1T": 10.0, "SOFIA MANZANO (PCB) (NÃO ELEITO) 1T": 0.0, "SORAYA THRONICKE (UNIÃO) (NÃO ELEITO) 1T": 0.0, "VERA (PSTU) (NÃO ELEITO) 1T": 0.0, "Total_Votos_Validos 1T": 248.0, "Votos_Brancos 1T": 7.0, "Votos_Nulos 1T": 1.0, "Abstenções 1T": 28.0, "Eleitores_Aptos 1T": 284.0, "JAIR BOLSONARO (PL) (NÃO ELEITO) 2T": 164.0, "LULA (PT) (ELEITO) 2T": 89.0, "Total_Votos_Validos 2T": 253.0, "Votos_Brancos 2T": 5.0, "Votos_Nulos 2T": 5.0, "Abstenções 2T": 21.0, "Eleitores_Aptos 2T": 284.0, "mun_code_y": "4306551", "mun_code": "4306551" }, "geometry": { "type": "Polygon", "coordinates": [ [ [ 5400355.735330570489168, 6744040.88941403105855 ], [ 5400250.007764345034957, 6744041.009522525593638 ], [ 5400056.579242462292314, 6744041.055451590567827 ], [ 5399982.474785264581442, 6744039.979747842997313 ], [ 5399994.024220544844866, 6744209.156066115945578 ], [ 5400006.477234450168908, 6744261.99236655049026 ], [ 5400013.887571599334478, 6744322.274380681104958 ], [ 5400054.771052302792668, 6744400.745712608098984 ], [ 5400092.719848582521081, 6744456.316657510586083 ], [ 5400126.702994972467422, 6744519.284180204384029 ], [ 5400192.025722953490913, 6744600.527057112194598 ], [ 5400245.424478577449918, 6744673.711208179593086 ], [ 5400294.765570329502225, 6744739.826058007776737 ], [ 5400334.087573683820665, 6744786.335418368689716 ], [ 5400390.444350113160908, 6744840.856043830513954 ], [ 5400381.565154174342752, 6744897.667880179360509 ], [ 5400377.964797835797071, 6744938.023975157178938 ], [ 5400401.703362583182752, 6745017.644253382459283 ], [ 5400440.065512053668499, 6745084.290719393640757 ], [ 5400445.775599877350032, 6745151.133892871439457 ], [ 5400467.415690917521715, 6745242.319042319431901 ], [ 5400498.257205702364445, 6745309.230890268459916 ], [ 5400586.182688507251441, 6745427.758932113647461 ], [ 5400616.403591161593795, 6745457.497264876961708 ], [ 5400615.077427070587873, 6745475.269344661384821 ], [ 5400618.841253154911101, 6745519.977474501356483 ], [ 5400626.582665127702057, 6745557.888478839769959 ], [ 5400677.492634336464107, 6745704.672049414366484 ], [ 5400697.170164614915848, 6745750.91866028867662 ], [ 5400732.476350790821016, 6745803.292322584427893 ], [ 5400773.543389648199081, 6745840.737714365124702 ], [ 5400914.531559581868351, 6745940.187213458120823 ], [ 5400923.964248877950013, 6745975.326846078038216 ], [ 5400941.44867305830121, 6746014.193846259266138 ], [ 5400976.668408576399088, 6746068.748229090124369 ], [ 5401046.578346810303628, 6746155.404900707304478 ], [ 5401058.245536593720317, 6746190.787819944322109 ], [ 5401071.393453724682331, 6746217.739162029698491 ], [ 5401110.96526846755296, 6746275.517887 ], [ 5401417.095283952541649, 6746242.191485792398453 ], [ 5401398.805761463940144, 6746192.695934105664492 ], [ 5401363.567588401958346, 6746135.487126125022769 ], [ 5401312.292423851788044, 6746017.701022735796869 ], [ 5401276.230670029297471, 6745959.987765112891793 ], [ 5401213.225103708915412, 6745883.667960960417986 ], [ 5401198.219134105369449, 6745838.234709620475769 ], [ 5401167.900790721178055, 6745774.172677021473646 ], [ 5401121.588778747245669, 6745719.777559299021959 ], [ 5401065.314339151605964, 6745679.625760051421821 ], [ 5400962.98782317712903, 6745604.2278932929039 ], [ 5400916.843623197637498, 6745483.259035285562277 ], [ 5400919.586498962715268, 6745427.463473805226386 ], [ 5400904.428256969898939, 6745354.008308465592563 ], [ 5400855.726145592518151, 6745273.125651206821203 ], [ 5400808.25283155310899, 6745222.9048189856112 ], [ 5400759.585587236098945, 6745156.467639418318868 ], [ 5400748.934122717007995, 6745134.128814185969532 ], [ 5400739.841204560361803, 6745092.075967028737068 ], [ 5400739.493872203864157, 6745063.516608408652246 ], [ 5400732.675151058472693, 6745022.850354881957173 ], [ 5400681.416161477565765, 6744899.194634575396776 ], [ 5400688.025873957201838, 6744849.152553298510611 ], [ 5400691.027069478295743, 6744815.529626885429025 ], [ 5400665.969848583452404, 6744722.553935952484608 ], [ 5400630.144671224988997, 6744656.774289907887578 ], [ 5400552.874269646592438, 6744579.04473377391696 ], [ 5400485.2591009773314, 6744466.501334612257779 ], [ 5400411.489013656973839, 6744369.499830983579159 ], [ 5400385.683865742757916, 6744300.143246503546834 ], [ 5400344.778046862222254, 6744258.835462534800172 ], [ 5400335.31422976963222, 6744250.845871894620359 ], [ 5400353.710792985744774, 6744201.088160499930382 ], [ 5400359.835196452215314, 6744164.54356344230473 ], [ 5400364.705674866214395, 6744115.041003015823662 ], [ 5400355.735330570489168, 6744040.88941403105855 ] ] ] } },
{ "type": "Feature", "properties": { "lv_id": "LOC_074360", "id": 419974.0, "CD_SETOR": "430655110000001", "SITUACAO": "Urbana", "CD_SIT": "1", "CD_TIPO": "0", "AREA_KM2": 0.22561740989984999, "CD_REGIAO": "4", "NM_REGIAO": "Sul", "CD_UF": "43", "NM_UF": "Rio Grande do Sul", "CD_MUN": "4306551", "NM_MUN": "Dom Pedro de Alcântara", "CD_DIST": "430655110", "NM_DIST": "Arroio dos Mengues", "CD_SUBDIST": "43065511000", "NM_SUBDIST": null, "CD_BAIRRO": null, "NM_BAIRRO": null, "CD_NU": null, "NM_NU": null, "CD_FCU": null, "NM_FCU": null, "CD_AGLOM": null, "NM_AGLOM": null, "CD_RGINT": "4301", "NM_RGINT": "Porto Alegre", "CD_RGI": "430008", "NM_RGI": "Torres", "CD_CONCURB": null, "NM_CONCURB": null, "mun_code_x": "4306551", "index_right": 73795, "dist_m": 0.0, "local_id": 773422, "ano": 2022, "cod_localidade_ibge": 4306551, "NR_ZONA": "85", "nr_cep": 95568000.0, "nm_localidade": "DOM PEDRO DE ALCÂNTARA", "nm_locvot": "ARROIO DOS MENGUES - EEEF JOSÉ ANTÔNIO ROLIM", "ds_endereco": "ESTRADA GERAL", "ds_bairro": "ARROIO DOS MENGUES", "pred_long": -49.849792, "pred_lat": -29.348435, "pred_dist": 0.0, "tse_long": -49.849493, "tse_lat": -29.348589, "long": -49.849493, "lat": -29.348589, "ID_UNICO": "LOC_074360", "SG_UF": "RS", "CD_MUNICIPIO": "88463", "NR_LOCAL_VOTACAO": "1066", "QT_SECOES_AGREGADAS": 0, "QT_ELEITORES_TRANSFERIDOS": 0, "CIRO GOMES (PDT) (NÃO ELEITO) 1T": 14.0, "CONSTITUINTE EYMAEL (DC) (NÃO ELEITO) 1T": 0.0, "FELIPE D AVILA (NOVO) (NÃO ELEITO) 1T": 0.0, "JAIR BOLSONARO (PL) (2º TURNO) 1T": 143.0, "LULA (PT) (2º TURNO) 1T": 73.0, "LÉO PÉRICLES (UP) (NÃO ELEITO) 1T": 0.0, "PADRE KELMON (PTB) (NÃO ELEITO) 1T": 0.0, "SIMONE TEBET (MDB) (NÃO ELEITO) 1T": 23.0, "SOFIA MANZANO (PCB) (NÃO ELEITO) 1T": 0.0, "SORAYA THRONICKE (UNIÃO) (NÃO ELEITO) 1T": 1.0, "VERA (PSTU) (NÃO ELEITO) 1T": 0.0, "Total_Votos_Validos 1T": 254.0, "Votos_Brancos 1T": 4.0, "Votos_Nulos 1T": 6.0, "Abstenções 1T": 31.0, "Eleitores_Aptos 1T": 295.0, "JAIR BOLSONARO (PL) (NÃO ELEITO) 2T": 176.0, "LULA (PT) (ELEITO) 2T": 79.0, "Total_Votos_Validos 2T": 255.0, "Votos_Brancos 2T": 5.0, "Votos_Nulos 2T": 5.0, "Abstenções 2T": 30.0, "Eleitores_Aptos 2T": 295.0, "mun_code_y": "4306551", "mun_code": "4306551" }, "geometry": { "type": "Polygon", "coordinates": [ [ [ 5401231.915250048972666, 6742898.988679918460548 ], [ 5401249.413642509840429, 6743584.695294257253408 ], [ 5402280.159198283217847, 6746606.955593828111887 ], [ 5402957.722787994891405, 6748592.988860416226089 ], [ 5403787.023847141303122, 6748188.487419648095965 ], [ 5404901.421702303923666, 6747645.083277130499482 ], [ 5406353.322564444504678, 6745886.987462290562689 ], [ 5404934.213719427585602, 6743949.587413558736444 ], [ 5403532.415300961583853, 6744297.792199955321848 ], [ 5402406.520643247291446, 6743247.187859395518899 ], [ 5401785.015587715432048, 6743062.967599519528449 ], [ 5401231.915250048972666, 6742898.988679918460548 ] ] ] } },
{ "type": "Feature", "properties": { "lv_id": "LOC_074362", "id": 419978.0, "CD_SETOR": "430655115000002", "SITUACAO": "Rural", "CD_SIT": "8", "CD_TIPO": "0", "AREA_KM2": 22.358764812335803, "CD_REGIAO": "4", "NM_REGIAO": "Sul", "CD_UF": "43", "NM_UF": "Rio Grande do Sul", "CD_MUN": "4306551", "NM_MUN": "Dom Pedro de Alcântara", "CD_DIST": "430655115", "NM_DIST": "Morro dos Leffas", "CD_SUBDIST": "43065511500", "NM_SUBDIST": null, "CD_BAIRRO": null, "NM_BAIRRO": null, "CD_NU": null, "NM_NU": null, "CD_FCU": null, "NM_FCU": null, "CD_AGLOM": null, "NM_AGLOM": null, "CD_RGINT": "4301", "NM_RGINT": "Porto Alegre", "CD_RGI": "430008", "NM_RGI": "Torres", "CD_CONCURB": null, "NM_CONCURB": null, "mun_code_x": "4306551", "index_right": 73798, "dist_m": 0.0, "local_id": 773425, "ano": 2022, "cod_localidade_ibge": 4306551, "NR_ZONA": "85", "nr_cep": 95568000.0, "nm_localidade": "DOM PEDRO DE ALCÂNTARA", "nm_locvot": "CANTO DOS HILÁRIOS - E.M.E.F PROFª. LUZIA RODRIGUES", "ds_endereco": "ESTRADA GERAL, 1388", "ds_bairro": "HILÁRIOS", "pred_long": -49.87411, "pred_lat": -29.36796, "pred_dist": 0.0, "tse_long": -49.873887, "tse_lat": -29.367515, "long": -49.873887, "lat": -29.367515, "ID_UNICO": "LOC_074362", "SG_UF": "RS", "CD_MUNICIPIO": "88463", "NR_LOCAL_VOTACAO": "1090", "QT_SECOES_AGREGADAS": 0, "QT_ELEITORES_TRANSFERIDOS": 0, "CIRO GOMES (PDT) (NÃO ELEITO) 1T": 10.0, "CONSTITUINTE EYMAEL (DC) (NÃO ELEITO) 1T": 0.0, "FELIPE D AVILA (NOVO) (NÃO ELEITO) 1T": 0.0, "JAIR BOLSONARO (PL) (2º TURNO) 1T": 58.0, "LULA (PT) (2º TURNO) 1T": 51.0, "LÉO PÉRICLES (UP) (NÃO ELEITO) 1T": 0.0, "PADRE KELMON (PTB) (NÃO ELEITO) 1T": 0.0, "SIMONE TEBET (MDB) (NÃO ELEITO) 1T": 6.0, "SOFIA MANZANO (PCB) (NÃO ELEITO) 1T": 0.0, "SORAYA THRONICKE (UNIÃO) (NÃO ELEITO) 1T": 1.0, "VERA (PSTU) (NÃO ELEITO) 1T": 0.0, "Total_Votos_Validos 1T": 126.0, "Votos_Brancos 1T": 1.0, "Votos_Nulos 1T": 1.0, "Abstenções 1T": 24.0, "Eleitores_Aptos 1T": 152.0, "JAIR BOLSONARO (PL) (NÃO ELEITO) 2T": 76.0, "LULA (PT) (ELEITO) 2T": 51.0, "Total_Votos_Validos 2T": 127.0, "Votos_Brancos 2T": 1.0, "Votos_Nulos 2T": 2.0, "Abstenções 2T": 22.0, "Eleitores_Aptos 2T": 152.0, "mun_code_y": "4306551", "mun_code": "4306551" }, "geometry": { "type": "Polygon", "coordinates": [ [ [ 5402255.020207524299622, 6748935.584854574874043 ], [ 5402957.722787994891405, 6748592.988860416226089 ], [ 5402280.159198283217847, 6746606.955593828111887 ], [ 5401249.413642509840429, 6743584.695294257253408 ], [ 5401231.915250048972666, 6742898.988679918460548 ], [ 5401209.314016466960311, 6742892.298321591690183 ], [ 5401440.120389292947948, 6741318.399688376113772 ], [ 5400663.416294597089291, 6741480.395095529966056 ], [ 5398848.21701439563185, 6741527.001836583949625 ], [ 5398797.118049887008965, 6741602.300751870498061 ], [ 5398709.013416999019682, 6741929.995573872700334 ], [ 5398911.313795849680901, 6742305.291007107123733 ], [ 5398880.913895595818758, 6742454.094886133447289 ], [ 5398891.016081945970654, 6743353.899934498593211 ], [ 5398690.121387345716357, 6743989.69341073743999 ], [ 5398796.717778600752354, 6744118.298678955063224 ], [ 5398626.822719955816865, 6744479.090595616959035 ], [ 5398321.521285194903612, 6744532.79988644272089 ], [ 5398365.619152249768376, 6744818.092480105347931 ], [ 5398272.118318230845034, 6745302.899379206821322 ], [ 5398415.719571177847683, 6745650.197030899114907 ], [ 5398323.924308684654534, 6745898.298636228777468 ], [ 5397990.020814804360271, 6746083.392596246674657 ], [ 5398497.020982128567994, 6746399.194203494116664 ], [ 5398639.822156939655542, 6746986.098255179822445 ], [ 5399220.020266596227884, 6747366.293567754328251 ], [ 5399557.222700782120228, 6747346.187282402068377 ], [ 5399705.315931653603911, 6747541.395305393263698 ], [ 5399320.417844645678997, 6749070.485522218048573 ], [ 5399315.622444585897028, 6749089.490178976207972 ], [ 5399781.025979662314057, 6749605.894882898777723 ], [ 5399946.824410920962691, 6749542.285445879213512 ], [ 5400016.323154455982149, 6749418.887041055597365 ], [ 5399839.016988663934171, 6749018.086483864113688 ], [ 5400087.122565746307373, 6748820.089280528947711 ], [ 5400509.326049164868891, 6749087.292691824957728 ], [ 5401160.016397904604673, 6749127.19286903180182 ], [ 5401320.725662997923791, 6749301.493449873290956 ], [ 5401441.516845534555614, 6749074.387684183195233 ], [ 5401306.717855508439243, 6748855.888446252793074 ], [ 5401383.924373907968402, 6748718.993118358775973 ], [ 5401694.220208568498492, 6748724.384364296682179 ], [ 5401880.3250678377226, 6748627.886200552806258 ], [ 5402048.719901653006673, 6748672.192707134410739 ], [ 5402234.620827401988208, 6748945.586566669866443 ], [ 5402255.020207524299622, 6748935.584854574874043 ] ], [ [ 5400364.705674866214395, 6744115.041003015823662 ], [ 5400359.835196452215314, 6744164.54356344230473 ], [ 5400353.710792985744774, 6744201.088160499930382 ], [ 5400335.31422976963222, 6744250.845871894620359 ], [ 5400344.778046862222254, 6744258.835462534800172 ], [ 5400385.683865742757916, 6744300.143246503546834 ], [ 5400411.489013656973839, 6744369.499830983579159 ], [ 5400485.2591009773314, 6744466.501334612257779 ], [ 5400552.874269646592438, 6744579.04473377391696 ], [ 5400630.144671224988997, 6744656.774289907887578 ], [ 5400665.969848583452404, 6744722.553935952484608 ], [ 5400691.027069478295743, 6744815.529626885429025 ], [ 5400688.025873957201838, 6744849.152553298510611 ], [ 5400681.416161477565765, 6744899.194634575396776 ], [ 5400732.675151058472693, 6745022.850354881957173 ], [ 5400739.493872203864157, 6745063.516608408652246 ], [ 5400739.841204560361803, 6745092.075967028737068 ], [ 5400748.934122717007995, 6745134.128814185969532 ], [ 5400759.585587236098945, 6745156.467639418318868 ], [ 5400808.25283155310899, 6745222.9048189856112 ], [ 5400855.726145592518151, 6745273.125651206821203 ], [ 5400904.428256969898939, 6745354.008308465592563 ], [ 5400919.586498962715268, 6745427.463473805226386 ], [ 5400916.843623197637498, 6745483.259035285562277 ], [ 5400962.98782317712903, 6745604.2278932929039 ], [ 5401065.314339151605964, 6745679.625760051421821 ], [ 5401121.588778747245669, 6745719.777559299021959 ], [ 5401167.900790721178055, 6745774.172677021473646 ], [ 5401198.219134105369449, 6745838.234709620475769 ], [ 5401213.225103708915412, 6745883.667960960417986 ], [ 5401276.230670029297471, 6745959.987765112891793 ], [ 5401312.292423851788044, 6746017.701022735796869 ], [ 5401363.567588401958346, 6746135.487126125022769 ], [ 5401398.805761463940144, 6746192.695934105664492 ], [ 5401417.095283952541649, 6746242.191485792398453 ], [ 5401110.96526846755296, 6746275.517887 ], [ 5401071.393453724682331, 6746217.739162029698491 ], [ 5401058.245536593720317, 6746190.787819944322109 ], [ 5401046.578346810303628, 6746155.404900707304478 ], [ 5400976.668408576399088, 6746068.748229090124369 ], [ 5400941.44867305830121, 6746014.193846259266138 ], [ 5400923.964248877950013, 6745975.326846078038216 ], [ 5400914.531559581868351, 6745940.187213458120823 ], [ 5400773.543389648199081, 6745840.737714365124702 ], [ 5400732.476350790821016, 6745803.292322584427893 ], [ 5400697.170164614915848, 6745750.91866028867662 ], [ 5400677.492634336464107, 6745704.672049414366484 ], [ 5400626.582665127702057, 6745557.888478839769959 ], [ 5400618.841253154911101, 6745519.977474501356483 ], [ 5400615.077427070587873, 6745475.269344661384821 ], [ 5400616.403591161593795, 6745457.497264876961708 ], [ 5400586.182688507251441, 6745427.758932113647461 ], [ 5400498.257205702364445, 6745309.230890268459916 ], [ 5400467.415690917521715, 6745242.319042319431901 ], [ 5400445.775599877350032, 6745151.133892871439457 ], [ 5400440.065512053668499, 6745084.290719393640757 ], [ 5400401.703362583182752, 6745017.644253382459283 ], [ 5400377.964797835797071, 6744938.023975157178938 ], [ 5400381.565154174342752, 6744897.667880179360509 ], [ 5400390.444350113160908, 6744840.856043830513954 ], [ 5400334.087573683820665, 6744786.335418368689716 ], [ 5400294.765570329502225, 6744739.826058007776737 ], [ 5400245.424478577449918, 6744673.711208179593086 ], [ 5400192.025722953490913, 6744600.527057112194598 ], [ 5400126.702994972467422, 6744519.284180204384029 ], [ 5400092.719848582521081, 6744456.316657510586083 ], [ 5400054.771052302792668, 6744400.745712608098984 ], [ 5400013.887571599334478, 6744322.274380681104958 ], [ 5400006.477234450168908, 6744261.99236655049026 ], [ 5399994.024220544844866, 6744209.156066115945578 ], [ 5399982.474785264581442, 6744039.979747842997313 ], [ 5400056.579242462292314, 6744041.055451590567827 ], [ 5400250.007764345034957, 6744041.009522525593638 ], [ 5400355.735330570489168, 6744040.88941403105855 ], [ 5400364.705674866214395, 6744115.041003015823662 ] ] ] } }
]
}
