{
"type": "FeatureCollection",
"name": "4306452",
"crs": { "type": "name", "properties": { "name": "urn:ogc:def:crs:EPSG::5880" } },
"features": [
{ "type": "Feature", "properties": { "lv_id": "LOC_068322", "id": 419935.0, "CD_SETOR": "430645205000003", "SITUACAO": "Rural", "CD_SIT": "8", "CD_TIPO": "0", "AREA_KM2": 34.640500877075638, "CD_REGIAO": "4", "NM_REGIAO": "Sul", "CD_UF": "43", "NM_UF": "Rio Grande do Sul", "CD_MUN": "4306452", "NM_MUN": "Dois Lajeados", "CD_DIST": "430645205", "NM_DIST": "Dois Lajeados", "CD_SUBDIST": "43064520500", "NM_SUBDIST": null, "CD_BAIRRO": null, "NM_BAIRRO": null, "CD_NU": null, "NM_NU": null, "CD_FCU": null, "NM_FCU": null, "CD_AGLOM": null, "NM_AGLOM": null, "CD_RGINT": "4307", "NM_RGINT": "Caxias do Sul", "CD_RGI": "430038", "NM_RGI": "Nova Prata - Guaporé", "CD_CONCURB": null, "NM_CONCURB": null, "mun_code_x": "4306452", "index_right": 68039, "dist_m": 0.0, "local_id": 716880, "ano": 2022, "cod_localidade_ibge": 4306452, "NR_ZONA": "22", "nr_cep": 99220000.0, "nm_localidade": "DOIS LAJEADOS", "nm_locvot": "GINÁSIO DE ESPORTES MATTEI", "ds_endereco": "RS 129, KM 33 - LINHA DONA CÂNDIDA - MATTEI", "ds_bairro": "ZONA RURAL", "pred_long": -51.84854, "pred_lat": -28.93754, "pred_dist": 0.0, "tse_long": -51.8400958, "tse_lat": -28.9835011, "long": -51.8400958, "lat": -28.9835011, "ID_UNICO": "LOC_068322", "SG_UF": "RS", "CD_MUNICIPIO": "84824", "NR_LOCAL_VOTACAO": "1171", "QT_SECOES_AGREGADAS": 0, "QT_ELEITORES_TRANSFERIDOS": 0, "CIRO GOMES (PDT) (NÃO ELEITO) 1T": 7.0, "CONSTITUINTE EYMAEL (DC) (NÃO ELEITO) 1T": 0.0, "FELIPE D AVILA (NOVO) (NÃO ELEITO) 1T": 0.0, "JAIR BOLSONARO (PL) (2º TURNO) 1T": 127.0, "LULA (PT) (2º TURNO) 1T": 49.0, "LÉO PÉRICLES (UP) (NÃO ELEITO) 1T": 0.0, "PADRE KELMON (PTB) (NÃO ELEITO) 1T": 1.0, "SIMONE TEBET (MDB) (NÃO ELEITO) 1T": 8.0, "SOFIA MANZANO (PCB) (NÃO ELEITO) 1T": 0.0, "SORAYA THRONICKE (UNIÃO) (NÃO ELEITO) 1T": 0.0, "VERA (PSTU) (NÃO ELEITO) 1T": 0.0, "Total_Votos_Validos 1T": 192.0, "Votos_Brancos 1T": 1.0, "Votos_Nulos 1T": 3.0, "Abstenções 1T": 43.0, "Eleitores_Aptos 1T": 239.0, "JAIR BOLSONARO (PL) (NÃO ELEITO) 2T": 152.0, "LULA (PT) (ELEITO) 2T": 47.0, "Total_Votos_Validos 2T": 199.0, "Votos_Brancos 2T": 2.0, "Votos_Nulos 2T": 1.0, "Abstenções 2T": 37.0, "Eleitores_Aptos 2T": 239.0, "mun_code_y": "4306452", "mun_code": "4306452" }, "geometry": { "type": "Polygon", "coordinates": [ [ [ 5208320.101366518996656, 6796723.330904623493552 ], [ 5208386.086694890633225, 6796720.221528546884656 ], [ 5208586.594929273240268, 6796710.745203376747668 ], [ 5208716.890109475702047, 6796704.642026022076607 ], [ 5209031.089950682595372, 6796257.238316321745515 ], [ 5209050.788875532336533, 6797788.139157701283693 ], [ 5210348.288205078803003, 6797746.340740518644452 ], [ 5210347.688905749469995, 6795834.436345384456217 ], [ 5216307.092125870287418, 6795766.044226370751858 ], [ 5216342.686983841471374, 6795631.343649041838944 ], [ 5216509.288699049502611, 6795287.545333079993725 ], [ 5217031.689938383176923, 6795235.739980533719063 ], [ 5217627.488410166464746, 6794963.838428875431418 ], [ 5217627.989874891936779, 6794692.043349251151085 ], [ 5217577.486033198423684, 6794476.625405739992857 ], [ 5217535.164819688536227, 6794525.041038297116756 ], [ 5217485.06366906594485, 6794561.113617144525051 ], [ 5217413.528807489201427, 6794588.305888418108225 ], [ 5217349.715469380840659, 6794583.36316448636353 ], [ 5217262.09627041593194, 6794600.442119359970093 ], [ 5217204.274725208058953, 6794604.04854953661561 ], [ 5217179.274971092119813, 6794583.366856707260013 ], [ 5217176.474619940854609, 6794554.247862065210938 ], [ 5217193.460054162889719, 6794508.651002497412264 ], [ 5217197.516179423779249, 6794470.307579562067986 ], [ 5217182.156412325799465, 6794435.967779211699963 ], [ 5217171.119525486603379, 6794427.712399570271373 ], [ 5217157.845694991759956, 6794431.156702316366136 ], [ 5217154.847996355034411, 6794462.536653446033597 ], [ 5217147.957155172713101, 6794483.929515320807695 ], [ 5217122.008544327691197, 6794495.199159082956612 ], [ 5217107.184250487945974, 6794474.28148815408349 ], [ 5217087.260556109249592, 6794416.046777716837823 ], [ 5217066.541551792062819, 6794352.325425952672958 ], [ 5217046.218272820115089, 6794195.069728068076074 ], [ 5217020.821144600398839, 6794094.101008011028171 ], [ 5216976.732999610714614, 6793989.479641375131905 ], [ 5216942.0151222422719, 6793924.257820067927241 ], [ 5216902.935661672614515, 6793867.137369276955724 ], [ 5216874.88660812843591, 6793841.80954176466912 ], [ 5216864.463765764608979, 6793774.888465264812112 ], [ 5216851.526248869486153, 6793728.235174190253019 ], [ 5216832.490587371401489, 6793709.869908347725868 ], [ 5216811.167263804934919, 6793725.932466991245747 ], [ 5216802.352428493089974, 6793764.276419706642628 ], [ 5216789.133079747669399, 6793832.850877186283469 ], [ 5216789.547119612805545, 6793877.199538873508573 ], [ 5216767.103653468191624, 6793906.315993828698993 ], [ 5216634.241109608672559, 6793975.950918038375676 ], [ 5216617.815860805101693, 6794004.188677877187729 ], [ 5216621.791137713938951, 6794111.02854292653501 ], [ 5216606.642884160391986, 6794142.381283484399319 ], [ 5216577.551803411915898, 6794151.401623589918017 ], [ 5216529.066263475455344, 6794138.014320959337056 ], [ 5216487.4215530725196, 6794127.016308328136802 ], [ 5216450.269214035943151, 6794139.792443227022886 ], [ 5216394.84311995934695, 6794130.117476334795356 ], [ 5216368.891344143077731, 6794120.410818552598357 ], [ 5216342.931201012805104, 6794121.696281257085502 ], [ 5216273.808553074486554, 6794136.590899567119777 ], [ 5216221.331173446029425, 6794174.998400063253939 ], [ 5216196.75965535454452, 6794206.172170682810247 ], [ 5216170.23167781997472, 6794275.527336717583239 ], [ 5216125.535557659342885, 6794333.2768584061414 ], [ 5216099.950569483451545, 6794392.631489183753729 ], [ 5216083.193714353255928, 6794446.485543528571725 ], [ 5216082.645789812318981, 6794496.375716135837138 ], [ 5216067.939509967342019, 6794539.986848616972566 ], [ 5216034.580059594474733, 6794576.815167300403118 ], [ 5215982.471135040745139, 6794610.056746086105704 ], [ 5215916.950266790576279, 6794619.60183341242373 ], [ 5215869.569834822788835, 6794608.010056001134217 ], [ 5215846.147791848517954, 6794614.204861271195114 ], [ 5215811.996887968853116, 6794642.12946164701134 ], [ 5215764.097387460060418, 6794654.926720725372434 ], [ 5215702.795072021894157, 6794658.568489365279675 ], [ 5215613.934677773155272, 6794717.906510291621089 ], [ 5215568.879298067651689, 6794758.235019012354314 ], [ 5215549.356897342950106, 6794766.508138550445437 ], [ 5215501.068935858085752, 6794761.675584193319082 ], [ 5215417.782422844320536, 6794731.064568068832159 ], [ 5215376.201154392212629, 6794659.245165707543492 ], [ 5215359.153499467298388, 6794578.061088193207979 ], [ 5215345.94223350007087, 6794553.539756503887475 ], [ 5215322.977333433926105, 6794546.093185060657561 ], [ 5215199.97143888194114, 6794543.829277554526925 ], [ 5215157.985040125437081, 6794540.65252442099154 ], [ 5215051.181827574968338, 6794469.693230422213674 ], [ 5214995.512817637994885, 6794457.453867245465517 ], [ 5214961.866205175407231, 6794463.848478127270937 ], [ 5214939.169009062461555, 6794470.22757975012064 ], [ 5214935.543522467836738, 6794483.40554354339838 ], [ 5214955.216156234964728, 6794505.189249703660607 ], [ 5214975.334274129010737, 6794533.087264502421021 ], [ 5214983.149262216873467, 6794575.744658241048455 ], [ 5214986.354945411905646, 6794724.280868738889694 ], [ 5214980.511784835718572, 6794742.990563254803419 ], [ 5214962.121096860617399, 6794746.605233700945973 ], [ 5214862.592132007703185, 6794746.395843244157732 ], [ 5214787.045580176636577, 6794744.3860336933285 ], [ 5214743.527879664674401, 6794755.888383185490966 ], [ 5214703.718893069773912, 6794756.573691349476576 ], [ 5214657.47615007031709, 6794744.767277308739722 ], [ 5214559.584584689699113, 6794755.527786821126938 ], [ 5214268.181372017599642, 6794733.213218758814037 ], [ 5214089.065891090780497, 6794723.948743799701333 ], [ 5214018.856481488794088, 6794707.382487595081329 ], [ 5213968.853819155134261, 6794706.246748853474855 ], [ 5213907.676890010945499, 6794730.884196951985359 ], [ 5213904.622461698018014, 6794687.084438281133771 ], [ 5213877.426616979762912, 6794571.780653566122055 ], [ 5213804.189467390067875, 6794468.033526191487908 ], [ 5213775.857073844410479, 6794407.099705528467894 ], [ 5213754.875570031814277, 6794279.257949154824018 ], [ 5213766.651105554774404, 6794238.056141287088394 ], [ 5213768.85926166921854, 6794191.463585601188242 ], [ 5213759.245525825768709, 6794143.038121142424643 ], [ 5213681.683687062002718, 6794050.395678337663412 ], [ 5213667.799434596672654, 6794022.480073219165206 ], [ 5213670.628276531584561, 6793985.170850334689021 ], [ 5213736.615471298806369, 6793861.973571217618883 ], [ 5213735.061050968244672, 6793830.169336756691337 ], [ 5213720.10865268856287, 6793763.00914678350091 ], [ 5213722.725562182255089, 6793727.434102867729962 ], [ 5213739.70968144852668, 6793692.702002508565784 ], [ 5213793.388005482964218, 6793616.738694918341935 ], [ 5213813.666301187127829, 6793600.901037978008389 ], [ 5213894.239066888578236, 6793543.139137373305857 ], [ 5213921.775353578850627, 6793499.681510924361646 ], [ 5213926.555441613309085, 6793439.897480195388198 ], [ 5213924.325766371563077, 6793340.169247329235077 ], [ 5213903.424526802264154, 6793285.575500784441829 ], [ 5213834.603745118714869, 6793224.583104665391147 ], [ 5213782.294065906666219, 6793210.667878666892648 ], [ 5213762.81791880633682, 6793197.153224965557456 ], [ 5213686.464417812414467, 6793163.119292059913278 ], [ 5213606.749833812005818, 6793193.944573153741658 ], [ 5213580.951488738879561, 6793191.749296021647751 ], [ 5213560.035622233524919, 6793173.125552085228264 ], [ 5213467.730102149769664, 6792983.004559570923448 ], [ 5213452.193926355801523, 6792964.780195048078895 ], [ 5213348.437865214422345, 6792919.660655152052641 ], [ 5213325.810852048918605, 6792915.476240605115891 ], [ 5213264.689605013467371, 6792914.188825830817223 ], [ 5213238.984705834649503, 6792904.881377667188644 ], [ 5213223.134714821353555, 6792877.567409131675959 ], [ 5213223.298404161818326, 6792848.98125890083611 ], [ 5213201.536893302574754, 6792735.505903707817197 ], [ 5213157.800910411402583, 6792499.619199939072132 ], [ 5213137.233653237111866, 6792444.37491837143898 ], [ 5213081.597312366589904, 6792358.345151635818183 ], [ 5213071.8737489618361, 6792319.604351921007037 ], [ 5213077.535313391126692, 6792290.461839865893126 ], [ 5213097.279766856692731, 6792270.087601754814386 ], [ 5213164.060932938009501, 6792254.99955652654171 ], [ 5213332.726906726136804, 6792253.266113196499646 ], [ 5213422.756187682971358, 6792258.099495129659772 ], [ 5213473.964704276993871, 6792251.228435376659036 ], [ 5213529.448173269629478, 6792214.629955027252436 ], [ 5213554.799197629094124, 6792173.842176344245672 ], [ 5213552.006877698004246, 6792128.872839311137795 ], [ 5213459.380210030823946, 6791983.169114562682807 ], [ 5213449.775920030660927, 6791947.243609121069312 ], [ 5213449.778177586384118, 6791891.552343467250466 ], [ 5213438.8866385826841, 6791847.697949044406414 ], [ 5213413.431453018449247, 6791820.695231422781944 ], [ 5213373.288493610918522, 6791808.050770847126842 ], [ 5213187.123001599684358, 6791805.128844996914268 ], [ 5213137.485319466330111, 6791814.609544781967998 ], [ 5213092.927348169498146, 6791836.274556471034884 ], [ 5213049.014793068170547, 6791850.673526980914176 ], [ 5213023.155487095937133, 6791822.324311956763268 ], [ 5213007.612464570440352, 6791793.063453931361437 ], [ 5212902.169051741249859, 6791744.07882172614336 ], [ 5212794.74831638392061, 6791703.049212140962481 ], [ 5212766.171611280180514, 6791698.541167180985212 ], [ 5212681.319643570110202, 6791687.695674985647202 ], [ 5212515.917483849450946, 6791627.003141331486404 ], [ 5212431.312245214357972, 6791587.712491551414132 ], [ 5212398.167094223201275, 6791557.9656803002581 ], [ 5212350.827935480512679, 6791508.570923291146755 ], [ 5212279.963463103398681, 6791453.6531599201262 ], [ 5212143.908971942029893, 6791403.628681325353682 ], [ 5212069.324461860582232, 6791354.645660967566073 ], [ 5212011.995410899631679, 6791314.75041594915092 ], [ 5211987.279517791233957, 6791269.929336908273399 ], [ 5211969.6048439508304, 6791257.088768012821674 ], [ 5211924.997544188052416, 6791245.309159056283534 ], [ 5211802.466955712065101, 6791266.894374342635274 ], [ 5211654.495230820029974, 6791258.787650128826499 ], [ 5211552.839443683624268, 6791292.364904843270779 ], [ 5211523.071284321136773, 6791294.55287005379796 ], [ 5211467.482272889465094, 6791262.24302760604769 ], [ 5211437.486514491960406, 6791221.200213424861431 ], [ 5211421.266719613224268, 6791197.828497 ], [ 5211417.957274937070906, 6791208.714534346014261 ], [ 5211408.877695122733712, 6791229.722065310925245 ], [ 5211366.50983929913491, 6791301.751109101809561 ], [ 5211322.070625523105264, 6791369.824987476691604 ], [ 5211285.718103458173573, 6791434.522769009694457 ], [ 5211279.767981021665037, 6791450.259779835119843 ], [ 5211275.379827939905226, 6791467.188217524439096 ], [ 5211272.174122624099255, 6791480.024394730105996 ], [ 5211263.804668716154993, 6791530.233762689866126 ], [ 5211261.454785419628024, 6791552.53747880179435 ], [ 5211262.974273538216949, 6791572.685065671801567 ], [ 5211265.716348268091679, 6791595.183823006227612 ], [ 5211272.738962907344103, 6791664.022042747586966 ], [ 5211283.015645953826606, 6791749.78169384971261 ], [ 5211286.737798704765737, 6791799.691757449880242 ], [ 5211293.894912651740015, 6791878.52093730866909 ], [ 5211300.845545733347535, 6791942.358192255720496 ], [ 5211305.535907153971493, 6791989.244703184813261 ], [ 5211309.942259953357279, 6792047.760306160897017 ], [ 5211312.388702861964703, 6792097.205714991316199 ], [ 5211306.444363904185593, 6792168.599712993949652 ], [ 5211291.806270480155945, 6792289.044331003911793 ], [ 5211241.334827064536512, 6792291.510964121669531 ], [ 5211236.156807377934456, 6792331.335545448586345 ], [ 5211186.923000200651586, 6792328.998819791711867 ], [ 5211185.885576089844108, 6792290.452738869003952 ], [ 5211030.934183636680245, 6792302.740114146843553 ], [ 5211065.022845417261124, 6792179.089433511719108 ], [ 5211012.963898207992315, 6792172.02332007791847 ], [ 5210920.219027627259493, 6792175.816869529895484 ], [ 5210852.814791596494615, 6792164.93804650194943 ], [ 5210821.463601521216333, 6792093.472413344308734 ], [ 5210804.728123659268022, 6791922.992181472480297 ], [ 5210833.511524273082614, 6791868.461421902291477 ], [ 5210827.577885492704809, 6791816.917007490992546 ], [ 5210724.435622446238995, 6791685.838704714551568 ], [ 5210681.960958118550479, 6791395.542064192704856 ], [ 5210342.555991679430008, 6791194.187671495601535 ], [ 5210171.39898478705436, 6791060.54213996976614 ], [ 5210097.600726004689932, 6791092.056572340428829 ], [ 5209871.052812932059169, 6791193.334444570355117 ], [ 5209820.150019004940987, 6791206.650467107072473 ], [ 5209660.334729962982237, 6791203.71403881534934 ], [ 5209634.961911700665951, 6791211.751051638275385 ], [ 5209594.516329667530954, 6791238.917505051009357 ], [ 5209517.187729538418353, 6791339.658026704564691 ], [ 5209493.286616742610931, 6791360.578296086750925 ], [ 5209457.767383952625096, 6791378.881374128162861 ], [ 5209422.131624910980463, 6791389.167393963783979 ], [ 5209332.050298591144383, 6791370.207327299751341 ], [ 5209254.124848165549338, 6791367.906907042488456 ], [ 5209192.800785332918167, 6791388.762828417122364 ], [ 5209078.084333000704646, 6791448.61936832498759 ], [ 5209044.371384263038635, 6791456.384836887940764 ], [ 5209012.628829442895949, 6791450.25030146446079 ], [ 5208893.625995935872197, 6791408.674811978824437 ], [ 5208834.890591163188219, 6791405.668776487931609 ], [ 5208799.618779784068465, 6791401.638429960235953 ], [ 5208757.978368336334825, 6791384.502492397092283 ], [ 5208608.674199771136045, 6791277.346672626212239 ], [ 5208525.619575822725892, 6791250.101178804412484 ], [ 5208413.116576843895018, 6791251.33780025318265 ], [ 5208381.09575607534498, 6791257.795244500041008 ], [ 5208303.563299939036369, 6791285.804950803518295 ], [ 5208203.098238214850426, 6791269.77460759319365 ], [ 5208144.388342376798391, 6791270.824074288830161 ], [ 5208069.826566998846829, 6791285.779539962299168 ], [ 5208020.597670934163034, 6791285.026768841780722 ], [ 5207925.885390169918537, 6791291.760370687581599 ], [ 5207875.094881143420935, 6791309.812644021585584 ], [ 5207826.787119816057384, 6791339.066433543339372 ], [ 5207793.406972787342966, 6791385.319922849535942 ], [ 5207777.305945463478565, 6791438.426723616197705 ], [ 5207785.995892962440848, 6791516.019662156701088 ], [ 5207801.10999677143991, 6791567.13288633339107 ], [ 5207786.373634465038776, 6791579.15529065951705 ], [ 5207739.400534939952195, 6791562.466813584789634 ], [ 5207719.093582320958376, 6791534.20634210202843 ], [ 5207690.245614961721003, 6791519.353787278756499 ], [ 5207596.079226871952415, 6791519.164847854524851 ], [ 5207564.277326327748597, 6791510.775929856114089 ], [ 5207488.47402988281101, 6791440.635792933404446 ], [ 5207444.285555720329285, 6791425.337912816554308 ], [ 5207108.545542710460722, 6791423.035801869817078 ], [ 5206950.1040597287938, 6791423.375461622141302 ], [ 5206850.925237582996488, 6791433.330213543027639 ], [ 5206733.946253747679293, 6791437.802741589024663 ], [ 5206470.524753808043897, 6791444.77660882845521 ], [ 5206439.196684213355184, 6791434.479596612975001 ], [ 5206386.465696910396218, 6791376.43026427552104 ], [ 5206305.479234642349184, 6791287.454313004389405 ], [ 5206270.469610765576363, 6791245.701787895523012 ], [ 5206245.216961768455803, 6791186.494564028456807 ], [ 5206219.104497902095318, 6791163.659420162439346 ], [ 5206120.018132113851607, 6791114.912132028490305 ], [ 5205953.188085433095694, 6791052.479685495607555 ], [ 5205926.151751244440675, 6791044.988373139873147 ], [ 5205592.194850143045187, 6791035.368711409159005 ], [ 5205531.812824782915413, 6791041.503433089703321 ], [ 5205461.557021822780371, 6791033.98331967741251 ], [ 5205392.633968027308583, 6791036.154810719192028 ], [ 5204781.224042544141412, 6791035.335839051753283 ], [ 5204745.63986302819103, 6791042.633887926116586 ], [ 5204689.86563768517226, 6791034.918336432427168 ], [ 5204681.644449165090919, 6790989.125358380377293 ], [ 5204683.240205603651702, 6790956.58922247774899 ], [ 5204704.988703004084527, 6790922.164507077075541 ], [ 5204859.511553211137652, 6790802.17485667206347 ], [ 5204889.539137409068644, 6790770.208910414017737 ], [ 5204938.912108823657036, 6790763.330550047568977 ], [ 5204953.793647921644151, 6790751.154053777456284 ], [ 5204949.513118715025485, 6790732.430874129757285 ], [ 5204935.435699642635882, 6790714.735968748107553 ], [ 5204918.022887427359819, 6790707.891959259286523 ], [ 5204895.734967147931457, 6790692.184152912348509 ], [ 5204817.95662940852344, 6790650.633695119060576 ], [ 5204735.949136677198112, 6790635.987117956392467 ], [ 5204669.680767620913684, 6790622.85712709557265 ], [ 5204609.675148108974099, 6790607.818797903135419 ], [ 5204522.571457044221461, 6790571.800134570337832 ], [ 5204433.985037223435938, 6790541.175214614719152 ], [ 5204375.358534001745284, 6790515.37515283934772 ], [ 5204340.090218784287572, 6790476.649871984496713 ], [ 5204305.002496046945453, 6790448.646297707222402 ], [ 5204263.503517715260386, 6790413.602612163871527 ], [ 5204201.487105097621679, 6790373.554460076615214 ], [ 5204117.46042463555932, 6790333.896024201065302 ], [ 5204044.561603214591742, 6790301.204695601947606 ], [ 5204038.782237772829831, 6790246.739402765408158 ], [ 5203958.59274014737457, 6790412.749652855098248 ], [ 5203733.68721822835505, 6790638.149281268939376 ], [ 5203508.453525408171117, 6790772.071511331014335 ], [ 5203217.082298147492111, 6790839.201533427461982 ], [ 5202469.465092216618359, 6790974.418349470943213 ], [ 5202317.755915987305343, 6791094.047274134121835 ], [ 5202230.169215555302799, 6791218.016594072803855 ], [ 5202210.648996270261705, 6791373.231627031229436 ], [ 5202237.393862852826715, 6791522.555177457630634 ], [ 5202337.072397530078888, 6791646.387197110801935 ], [ 5202370.3923878390342, 6791756.46662777569145 ], [ 5202448.750536467880011, 6791817.288016165606678 ], [ 5202805.666903870180249, 6791846.093850450590253 ], [ 5203226.910776410251856, 6791742.139011792838573 ], [ 5203714.121567133814096, 6791793.273783702403307 ], [ 5203847.768606130965054, 6791790.755608557723463 ], [ 5203959.933514503762126, 6791830.229316206648946 ], [ 5204086.939410059712827, 6792063.752911912277341 ], [ 5203916.565045163966715, 6792250.733677063137293 ], [ 5203738.49005270935595, 6792382.348531207069755 ], [ 5203322.633442473597825, 6792632.081918388605118 ], [ 5202602.489009228534997, 6792907.201761175878346 ], [ 5202316.694182279519737, 6793139.448548465967178 ], [ 5202249.015895095653832, 6793422.930116930045187 ], [ 5202294.722932442091405, 6793704.955185768194497 ], [ 5202400.023233311250806, 6794069.337527099996805 ], [ 5202533.741791695356369, 6794176.60111719276756 ], [ 5202848.43396976403892, 6794269.625108843669295 ], [ 5203120.159539054147899, 6794266.618648061528802 ], [ 5203314.971135970205069, 6794107.748435107991099 ], [ 5203418.987808403559029, 6793742.588442515581846 ], [ 5203425.068121796473861, 6793439.433735406026244 ], [ 5203475.647968753241003, 6793175.321186669170856 ], [ 5203810.896934795193374, 6792723.545651277527213 ], [ 5203961.329081084579229, 6792693.845814123749733 ], [ 5204044.588646462187171, 6792769.14420760422945 ], [ 5203951.354385736398399, 6792968.256847901269794 ], [ 5203771.517263438552618, 6793225.917487233877182 ], [ 5203914.271773464977741, 6793892.664962598122656 ], [ 5203890.321189829148352, 6794279.107648259028792 ], [ 5203733.434116784483194, 6794496.632379562593997 ], [ 5203384.783928806893528, 6794713.720950847491622 ], [ 5203383.196594609878957, 6794910.245822034776211 ], [ 5205719.694008433260024, 6794840.645443178713322 ], [ 5205755.689827338792384, 6796381.146170487627387 ], [ 5207669.196547870524228, 6796329.640323666855693 ], [ 5207668.295173968188465, 6796754.037288304418325 ], [ 5208209.889063569717109, 6796728.546201545745134 ], [ 5208252.752154559828341, 6796726.519955044612288 ], [ 5208320.101366518996656, 6796723.330904623493552 ] ] ] } },
{ "type": "Feature", "properties": { "lv_id": "LOC_068323", "id": 419934.0, "CD_SETOR": "430645205000002", "SITUACAO": "Urbana", "CD_SIT": "1", "CD_TIPO": "0", "AREA_KM2": 1.164151284806938, "CD_REGIAO": "4", "NM_REGIAO": "Sul", "CD_UF": "43", "NM_UF": "Rio Grande do Sul", "CD_MUN": "4306452", "NM_MUN": "Dois Lajeados", "CD_DIST": "430645205", "NM_DIST": "Dois Lajeados", "CD_SUBDIST": "43064520500", "NM_SUBDIST": null, "CD_BAIRRO": null, "NM_BAIRRO": null, "CD_NU": null, "NM_NU": null, "CD_FCU": null, "NM_FCU": null, "CD_AGLOM": null, "NM_AGLOM": null, "CD_RGINT": "4307", "NM_RGINT": "Caxias do Sul", "CD_RGI": "430038", "NM_RGI": "Nova Prata - Guaporé", "CD_CONCURB": null, "NM_CONCURB": null, "mun_code_x": "4306452", "index_right": 68037, "dist_m": 0.0, "local_id": 716878, "ano": 2022, "cod_localidade_ibge": 4306452, "NR_ZONA": "22", "nr_cep": 99220000.0, "nm_localidade": "DOIS LAJEADOS", "nm_locvot": "ESCOLA MUNICIPAL DE EDUCAÇÃO INFANTIL CRIANÇA FELIZ", "ds_endereco": "RUA ANTONINHO GOBATTO - 200", "ds_bairro": "CENTRO", "pred_long": -51.839482, "pred_lat": -28.983811, "pred_dist": 0.0, "tse_long": -51.8400958, "tse_lat": -28.9835011, "long": -51.8400958, "lat": -28.9835011, "ID_UNICO": "LOC_068323", "SG_UF": "RS", "CD_MUNICIPIO": "84824", "NR_LOCAL_VOTACAO": "1228", "QT_SECOES_AGREGADAS": 0, "QT_ELEITORES_TRANSFERIDOS": 2, "CIRO GOMES (PDT) (NÃO ELEITO) 1T": 27.0, "CONSTITUINTE EYMAEL (DC) (NÃO ELEITO) 1T": 0.0, "FELIPE D AVILA (NOVO) (NÃO ELEITO) 1T": 2.0, "JAIR BOLSONARO (PL) (2º TURNO) 1T": 548.0, "LULA (PT) (2º TURNO) 1T": 227.0, "LÉO PÉRICLES (UP) (NÃO ELEITO) 1T": 0.0, "PADRE KELMON (PTB) (NÃO ELEITO) 1T": 1.0, "SIMONE TEBET (MDB) (NÃO ELEITO) 1T": 30.0, "SOFIA MANZANO (PCB) (NÃO ELEITO) 1T": 0.0, "SORAYA THRONICKE (UNIÃO) (NÃO ELEITO) 1T": 3.0, "VERA (PSTU) (NÃO ELEITO) 1T": 0.0, "Total_Votos_Validos 1T": 838.0, "Votos_Brancos 1T": 14.0, "Votos_Nulos 1T": 20.0, "Abstenções 1T": 165.0, "Eleitores_Aptos 1T": 1037.0, "JAIR BOLSONARO (PL) (NÃO ELEITO) 2T": 620.0, "LULA (PT) (ELEITO) 2T": 235.0, "Total_Votos_Validos 2T": 855.0, "Votos_Brancos 2T": 18.0, "Votos_Nulos 2T": 17.0, "Abstenções 2T": 147.0, "Eleitores_Aptos 2T": 1037.0, "mun_code_y": "4306452", "mun_code": "4306452" }, "geometry": { "type": "MultiPolygon", "coordinates": [ [ [ [ 5209582.319105619564652, 6790127.227593202143908 ], [ 5209582.29978743288666, 6790254.224440032616258 ], [ 5209752.57357888482511, 6790331.249665025621653 ], [ 5209791.437412641011178, 6790334.113417264074087 ], [ 5209808.335178575478494, 6790315.205383494496346 ], [ 5209841.867069634608924, 6790341.058748444542289 ], [ 5209883.21527058724314, 6790291.958017818629742 ], [ 5209949.126257663592696, 6790286.79734767973423 ], [ 5209988.865712703205645, 6790257.490425851196051 ], [ 5210171.39898478705436, 6791060.54213996976614 ], [ 5210342.555991679430008, 6791194.187671495601535 ], [ 5210681.960958118550479, 6791395.542064192704856 ], [ 5210724.435622446238995, 6791685.838704714551568 ], [ 5210827.577885492704809, 6791816.917007490992546 ], [ 5210833.511524273082614, 6791868.461421902291477 ], [ 5210804.728123659268022, 6791922.992181472480297 ], [ 5210821.463601521216333, 6792093.472413344308734 ], [ 5210852.814791596494615, 6792164.93804650194943 ], [ 5210920.219027627259493, 6792175.816869529895484 ], [ 5211012.963898207992315, 6792172.02332007791847 ], [ 5211065.022845417261124, 6792179.089433511719108 ], [ 5211030.934183636680245, 6792302.740114146843553 ], [ 5211185.885576089844108, 6792290.452738869003952 ], [ 5211186.923000200651586, 6792328.998819791711867 ], [ 5211236.156807377934456, 6792331.335545448586345 ], [ 5211241.334827064536512, 6792291.510964121669531 ], [ 5211291.806270480155945, 6792289.044331003911793 ], [ 5211306.444363904185593, 6792168.599712993949652 ], [ 5211312.388702861964703, 6792097.205714991316199 ], [ 5211309.942259953357279, 6792047.760306160897017 ], [ 5211305.535907153971493, 6791989.244703184813261 ], [ 5211300.845545733347535, 6791942.358192255720496 ], [ 5211293.894912651740015, 6791878.52093730866909 ], [ 5211286.737798704765737, 6791799.691757449880242 ], [ 5211283.015645953826606, 6791749.78169384971261 ], [ 5211272.738962907344103, 6791664.022042747586966 ], [ 5211265.716348268091679, 6791595.183823006227612 ], [ 5211262.974273538216949, 6791572.685065671801567 ], [ 5211261.454785419628024, 6791552.53747880179435 ], [ 5211263.804668716154993, 6791530.233762689866126 ], [ 5211272.174122624099255, 6791480.024394730105996 ], [ 5211275.379827939905226, 6791467.188217524439096 ], [ 5211279.767981021665037, 6791450.259779835119843 ], [ 5211285.718103458173573, 6791434.522769009694457 ], [ 5211322.070625523105264, 6791369.824987476691604 ], [ 5211366.50983929913491, 6791301.751109101809561 ], [ 5211408.877695122733712, 6791229.722065310925245 ], [ 5211417.957274937070906, 6791208.714534346014261 ], [ 5211421.266719613224268, 6791197.828497 ], [ 5211423.3689956786111, 6791184.369190203025937 ], [ 5211423.733832335099578, 6791138.365967081859708 ], [ 5211420.636740875430405, 6791113.533419402316213 ], [ 5211412.872355489060283, 6791087.732805613428354 ], [ 5211402.384433784522116, 6791065.964009082876146 ], [ 5211388.115001643076539, 6791044.220210051164031 ], [ 5211347.220602716319263, 6791003.077672312036157 ], [ 5211309.428593977354467, 6790971.106257394887507 ], [ 5211260.377023931592703, 6790926.286466223187745 ], [ 5211223.463253004476428, 6790883.173919897526503 ], [ 5211200.667354526929557, 6790839.724866403266788 ], [ 5211194.40719017572701, 6790824.699704233556986 ], [ 5211191.589519907720387, 6790799.129967782646418 ], [ 5211193.656971103511751, 6790770.997283417731524 ], [ 5211198.028623447753489, 6790753.181829936802387 ], [ 5211208.506165070459247, 6790731.871536886319518 ], [ 5211220.174850340001285, 6790720.244466497562826 ], [ 5211305.629404426552355, 6790671.937924610450864 ], [ 5211361.77503239735961, 6790532.829704958945513 ], [ 5211380.218047467060387, 6790481.381585609167814 ], [ 5211393.99068452976644, 6790420.824241494759917 ], [ 5211359.621867125853896, 6790330.426671556197107 ], [ 5211337.461243249475956, 6790279.612560279667377 ], [ 5211295.179608460515738, 6790219.01875070668757 ], [ 5211222.484566995874047, 6790151.817400213330984 ], [ 5211141.903862559236586, 6790103.149928670376539 ], [ 5211046.714469796977937, 6790067.294105628505349 ], [ 5211013.659715115092695, 6790031.419709408655763 ], [ 5210998.263766947202384, 6789988.511413267813623 ], [ 5210967.205962800420821, 6789567.780474168248475 ], [ 5210775.009535516612232, 6789759.965864794328809 ], [ 5210740.389653442427516, 6789800.406718784943223 ], [ 5210736.573711338452995, 6789762.299629541113973 ], [ 5210731.297197214327753, 6789734.922550611197948 ], [ 5210727.504698671400547, 6789706.61990742944181 ], [ 5210716.314579504542053, 6789668.181889491155744 ], [ 5210706.597711648792028, 6789645.278271696530282 ], [ 5210693.892233747988939, 6789634.818515444174409 ], [ 5210682.902728270739317, 6789625.99107987806201 ], [ 5210668.194464751519263, 6789617.930422192439437 ], [ 5210653.176038824953139, 6789611.561326265335083 ], [ 5210638.519504811614752, 6789606.860407577827573 ], [ 5210621.147733021527529, 6789602.907890832051635 ], [ 5210601.107157568447292, 6789601.710473008453846 ], [ 5210582.125242755748332, 6789603.510546628385782 ], [ 5210565.541258808225393, 6789606.930469463579357 ], [ 5210551.00832015555352, 6789611.654940219596028 ], [ 5210537.913834204897285, 6789617.761713813990355 ], [ 5210528.968990336172283, 6789624.813033850863576 ], [ 5210509.937332469038665, 6789638.293217725120485 ], [ 5210480.391720729880035, 6789670.033525848761201 ], [ 5210436.440008169040084, 6789719.328568638302386 ], [ 5210385.410589506849647, 6789777.614776255562901 ], [ 5210356.437797260470688, 6789806.604652276262641 ], [ 5210343.844586043618619, 6789816.162559284828603 ], [ 5210332.194287816993892, 6789823.984055917710066 ], [ 5210318.11051313392818, 6789834.112632393836975 ], [ 5210295.124085544608533, 6789845.080315783619881 ], [ 5210272.105811557732522, 6789851.101742751896381 ], [ 5210249.917795437388122, 6789855.621711886487901 ], [ 5210222.145627174526453, 6789861.77417753636837 ], [ 5210035.631056524813175, 6789893.437811084091663 ], [ 5210015.545382608659565, 6789895.135029595345259 ], [ 5209989.8055484527722, 6789895.160666421055794 ], [ 5209968.118588988669217, 6789888.67933608405292 ], [ 5209948.411785180680454, 6789881.751490660011768 ], [ 5209933.991907960735261, 6789874.527607262134552 ], [ 5209901.810077648609877, 6789851.034634947776794 ], [ 5209883.826675601303577, 6789825.818793976679444 ], [ 5209850.266841871663928, 6789887.178005343303084 ], [ 5209847.385050411336124, 6790127.071368688717484 ], [ 5209653.364344318397343, 6790126.278596826829016 ], [ 5209582.319105619564652, 6790127.227593202143908 ] ] ], [ [ [ 5217386.084239051677287, 6793729.342993951402605 ], [ 5217427.884453172795475, 6793444.945419563911855 ], [ 5217619.091703454963863, 6793191.038241427391768 ], [ 5217769.891251222230494, 6793164.443816550076008 ], [ 5218626.99139788094908, 6793414.336467437446117 ], [ 5218800.49079433362931, 6793333.33553915284574 ], [ 5218882.188233218155801, 6793174.344736380502582 ], [ 5218910.189196456223726, 6792993.54510111361742 ], [ 5218812.983284874819219, 6792781.54618407599628 ], [ 5218651.584776455536485, 6792701.239918758161366 ], [ 5217772.589221554808319, 6792796.139337567612529 ], [ 5217338.989654083736241, 6792999.039040225557983 ], [ 5217075.389701231382787, 6792986.645161600783467 ], [ 5216889.491810647770762, 6792895.440300705842674 ], [ 5216536.285415785387158, 6792490.746776727028191 ], [ 5216483.088061038404703, 6792323.637149158865213 ], [ 5216608.190269809216261, 6792017.846359893679619 ], [ 5216874.587953269481659, 6791746.942038064822555 ], [ 5217101.388154565356672, 6791675.943383511155844 ], [ 5217468.189260089769959, 6791842.740059411153197 ], [ 5218323.388719905167818, 6791715.043718777596951 ], [ 5218425.581877230666578, 6791688.938059473410249 ], [ 5218986.48440867010504, 6791501.642651125788689 ], [ 5219150.989743070676923, 6791371.245056862942874 ], [ 5219288.686286015436053, 6790938.639824928715825 ], [ 5219208.784885450266302, 6790717.740877546370029 ], [ 5218314.084008707664907, 6789646.840381906367838 ], [ 5218255.888578239828348, 6789051.245369922369719 ], [ 5218174.590136230923235, 6787766.049290196970105 ], [ 5216296.88412662409246, 6787801.844490774907172 ], [ 5216331.784085889346898, 6788613.739776587113738 ], [ 5215055.282961884513497, 6788869.24084110930562 ], [ 5214840.487103622406721, 6787742.150780711323023 ], [ 5213893.583956828340888, 6787446.544822373427451 ], [ 5213884.43199213873595, 6787456.930437911301851 ], [ 5213893.593138079158962, 6787504.720963936299086 ], [ 5213909.557278888300061, 6787549.955942234024405 ], [ 5213933.385820217430592, 6787579.48296791035682 ], [ 5213958.235647388733923, 6787660.279302421957254 ], [ 5213951.609466281719506, 6787701.708225728943944 ], [ 5213934.579897049814463, 6787744.927736146375537 ], [ 5213910.567322201095521, 6787782.07669918704778 ], [ 5213860.613676085136831, 6787813.440797040238976 ], [ 5213835.749347996897995, 6787816.29859647154808 ], [ 5213808.986840836703777, 6787828.187015544623137 ], [ 5213798.02602799423039, 6787868.17674070969224 ], [ 5213803.963358134031296, 6787948.603662986308336 ], [ 5213801.688226548023522, 6787982.464672542177141 ], [ 5213785.439815910533071, 6788003.785337522625923 ], [ 5213750.292881026864052, 6788033.343168295919895 ], [ 5213731.049706375226378, 6788077.080309689044952 ], [ 5213718.200220425613225, 6788130.32632911298424 ], [ 5213693.706699846312404, 6788165.276374498382211 ], [ 5213682.413335571996868, 6788182.667124235071242 ], [ 5213690.492593789473176, 6788225.752742251381278 ], [ 5213709.798372762277722, 6788260.965551239438355 ], [ 5213730.203087860718369, 6788287.650567401200533 ], [ 5213727.334272803738713, 6788306.349045732058585 ], [ 5213734.454889786429703, 6788320.880121504887938 ], [ 5213765.195300126448274, 6788356.790072910487652 ], [ 5213787.571673886850476, 6788399.898542189970613 ], [ 5213814.400599440559745, 6788490.175111537799239 ], [ 5213836.338500610552728, 6788525.394334213808179 ], [ 5213878.511703406460583, 6788557.664334569126368 ], [ 5213896.923089006915689, 6788610.252103462815285 ], [ 5213933.925998672842979, 6788758.149648563936353 ], [ 5213961.868450053967535, 6788812.800780089572072 ], [ 5213983.386689623817801, 6788866.817014165222645 ], [ 5213994.432599523104727, 6788927.350151324644685 ], [ 5213994.011163973249495, 6789011.666369462385774 ], [ 5214006.575846549123526, 6789064.2406722959131 ], [ 5214037.560342258773744, 6789098.459600608795881 ], [ 5214063.422758652828634, 6789168.555667746812105 ], [ 5214068.188083136454225, 6789227.785767404362559 ], [ 5214087.029348532669246, 6789305.510342992842197 ], [ 5214085.86793299484998, 6789351.041385928168893 ], [ 5214072.060838687233627, 6789379.52655288297683 ], [ 5214037.61586051620543, 6789404.058407867327332 ], [ 5213974.21748392470181, 6789439.221617152914405 ], [ 5213907.113508929498494, 6789466.422857509925961 ], [ 5213923.8378851916641, 6789483.736978621222079 ], [ 5213957.511571034789085, 6789493.73732234723866 ], [ 5214006.948169929906726, 6789509.156920852139592 ], [ 5214041.081751848571002, 6789537.605147730559111 ], [ 5214085.009174150414765, 6789605.313486255705357 ], [ 5214160.08694825693965, 6789677.76655550673604 ], [ 5214191.772950042970479, 6789688.280178860761225 ], [ 5214303.40690248273313, 6789712.845998987555504 ], [ 5214354.088358229957521, 6789739.044433393515646 ], [ 5214379.200381318107247, 6789742.991577746346593 ], [ 5214438.678811678662896, 6789737.015076547861099 ], [ 5214611.371337757445872, 6789776.013919534161687 ], [ 5214650.412084019742906, 6789804.590916778892279 ], [ 5214677.736355934292078, 6789920.966921197250485 ], [ 5214675.872125533409417, 6789979.932320408523083 ], [ 5214659.946267486549914, 6790079.334196366369724 ], [ 5214607.473033756017685, 6790127.119207378476858 ], [ 5214547.266680806875229, 6790179.429219200275838 ], [ 5214524.743051719851792, 6790203.052667735144496 ], [ 5214508.0562385879457, 6790229.739626061171293 ], [ 5214499.598742811009288, 6790262.872929834760725 ], [ 5214496.723009865731001, 6790392.17881675157696 ], [ 5214486.124738325364888, 6790433.892605530098081 ], [ 5214368.75186906568706, 6790508.328854726627469 ], [ 5214300.289024137891829, 6790530.898667765781283 ], [ 5214193.688590190373361, 6790592.964945485815406 ], [ 5214183.60364683624357, 6790613.073188478127122 ], [ 5214192.113058445975184, 6790631.959509789943695 ], [ 5214229.536758685484529, 6790679.379692386835814 ], [ 5214248.744849007576704, 6790738.951206019148231 ], [ 5214244.558685025200248, 6790826.265570662915707 ], [ 5214223.902794349007308, 6790880.732925462536514 ], [ 5214217.137884330004454, 6790945.224028744734824 ], [ 5214205.457170464098454, 6791006.933738269843161 ], [ 5214195.457286023534834, 6791110.317082658410072 ], [ 5214193.728787091560662, 6791360.356748839840293 ], [ 5214191.976122189313173, 6791404.001985594630241 ], [ 5214189.016586596146226, 6791440.404568396508694 ], [ 5214165.1596794500947, 6791459.082705586217344 ], [ 5214120.64763836748898, 6791474.650653967633843 ], [ 5214006.303876515477896, 6791492.968311060220003 ], [ 5213907.558040588162839, 6791524.505016759037971 ], [ 5213802.098234603181481, 6791587.732338458299637 ], [ 5213722.763266853056848, 6791596.346779187209904 ], [ 5213637.95105140004307, 6791600.292769689112902 ], [ 5213579.579547477886081, 6791594.9968680748716 ], [ 5213515.780706818215549, 6791571.400138668715954 ], [ 5213458.782391211017966, 6791573.920011676847935 ], [ 5213324.6941973939538, 6791557.835165986791253 ], [ 5213269.744874275289476, 6791546.229785719886422 ], [ 5213234.6475311787799, 6791529.631665453314781 ], [ 5213209.101829473860562, 6791491.350046465173364 ], [ 5213194.334632083773613, 6791452.392062277533114 ], [ 5213177.049375239759684, 6791446.467200293205678 ], [ 5213164.645973873324692, 6791456.257616218179464 ], [ 5213147.109459394589067, 6791492.097397589124739 ], [ 5213095.310261646285653, 6791544.354085237719119 ], [ 5212997.390523859299719, 6791608.609999904409051 ], [ 5212891.975005907006562, 6791678.227600509300828 ], [ 5212794.74831638392061, 6791703.049212140962481 ], [ 5212902.169051741249859, 6791744.07882172614336 ], [ 5213007.612464570440352, 6791793.063453931361437 ], [ 5213023.155487095937133, 6791822.324311956763268 ], [ 5213049.014793068170547, 6791850.673526980914176 ], [ 5213092.927348169498146, 6791836.274556471034884 ], [ 5213137.485319466330111, 6791814.609544781967998 ], [ 5213187.123001599684358, 6791805.128844996914268 ], [ 5213373.288493610918522, 6791808.050770847126842 ], [ 5213413.431453018449247, 6791820.695231422781944 ], [ 5213438.8866385826841, 6791847.697949044406414 ], [ 5213449.778177586384118, 6791891.552343467250466 ], [ 5213449.775920030660927, 6791947.243609121069312 ], [ 5213459.380210030823946, 6791983.169114562682807 ], [ 5213552.006877698004246, 6792128.872839311137795 ], [ 5213554.799197629094124, 6792173.842176344245672 ], [ 5213529.448173269629478, 6792214.629955027252436 ], [ 5213473.964704276993871, 6792251.228435376659036 ], [ 5213422.756187682971358, 6792258.099495129659772 ], [ 5213332.726906726136804, 6792253.266113196499646 ], [ 5213164.060932938009501, 6792254.99955652654171 ], [ 5213097.279766856692731, 6792270.087601754814386 ], [ 5213077.535313391126692, 6792290.461839865893126 ], [ 5213071.8737489618361, 6792319.604351921007037 ], [ 5213081.597312366589904, 6792358.345151635818183 ], [ 5213137.233653237111866, 6792444.37491837143898 ], [ 5213157.800910411402583, 6792499.619199939072132 ], [ 5213201.536893302574754, 6792735.505903707817197 ], [ 5213223.298404161818326, 6792848.98125890083611 ], [ 5213223.134714821353555, 6792877.567409131675959 ], [ 5213238.984705834649503, 6792904.881377667188644 ], [ 5213264.689605013467371, 6792914.188825830817223 ], [ 5213325.810852048918605, 6792915.476240605115891 ], [ 5213348.437865214422345, 6792919.660655152052641 ], [ 5213452.193926355801523, 6792964.780195048078895 ], [ 5213467.730102149769664, 6792983.004559570923448 ], [ 5213560.035622233524919, 6793173.125552085228264 ], [ 5213580.951488738879561, 6793191.749296021647751 ], [ 5213606.749833812005818, 6793193.944573153741658 ], [ 5213686.464417812414467, 6793163.119292059913278 ], [ 5213762.81791880633682, 6793197.153224965557456 ], [ 5213782.294065906666219, 6793210.667878666892648 ], [ 5213834.603745118714869, 6793224.583104665391147 ], [ 5213903.424526802264154, 6793285.575500784441829 ], [ 5213924.325766371563077, 6793340.169247329235077 ], [ 5213926.555441613309085, 6793439.897480195388198 ], [ 5213921.775353578850627, 6793499.681510924361646 ], [ 5213894.239066888578236, 6793543.139137373305857 ], [ 5213813.666301187127829, 6793600.901037978008389 ], [ 5213793.388005482964218, 6793616.738694918341935 ], [ 5213739.70968144852668, 6793692.702002508565784 ], [ 5213722.725562182255089, 6793727.434102867729962 ], [ 5213720.10865268856287, 6793763.00914678350091 ], [ 5213735.061050968244672, 6793830.169336756691337 ], [ 5213736.615471298806369, 6793861.973571217618883 ], [ 5213670.628276531584561, 6793985.170850334689021 ], [ 5213667.799434596672654, 6794022.480073219165206 ], [ 5213681.683687062002718, 6794050.395678337663412 ], [ 5213759.245525825768709, 6794143.038121142424643 ], [ 5213768.85926166921854, 6794191.463585601188242 ], [ 5213766.651105554774404, 6794238.056141287088394 ], [ 5213754.875570031814277, 6794279.257949154824018 ], [ 5213775.857073844410479, 6794407.099705528467894 ], [ 5213804.189467390067875, 6794468.033526191487908 ], [ 5213877.426616979762912, 6794571.780653566122055 ], [ 5213904.622461698018014, 6794687.084438281133771 ], [ 5213907.676890010945499, 6794730.884196951985359 ], [ 5213968.853819155134261, 6794706.246748853474855 ], [ 5214018.856481488794088, 6794707.382487595081329 ], [ 5214089.065891090780497, 6794723.948743799701333 ], [ 5214268.181372017599642, 6794733.213218758814037 ], [ 5214559.584584689699113, 6794755.527786821126938 ], [ 5214657.47615007031709, 6794744.767277308739722 ], [ 5214703.718893069773912, 6794756.573691349476576 ], [ 5214743.527879664674401, 6794755.888383185490966 ], [ 5214787.045580176636577, 6794744.3860336933285 ], [ 5214862.592132007703185, 6794746.395843244157732 ], [ 5214962.121096860617399, 6794746.605233700945973 ], [ 5214980.511784835718572, 6794742.990563254803419 ], [ 5214986.354945411905646, 6794724.280868738889694 ], [ 5214983.149262216873467, 6794575.744658241048455 ], [ 5214975.334274129010737, 6794533.087264502421021 ], [ 5214955.216156234964728, 6794505.189249703660607 ], [ 5214935.543522467836738, 6794483.40554354339838 ], [ 5214939.169009062461555, 6794470.22757975012064 ], [ 5214961.866205175407231, 6794463.848478127270937 ], [ 5214995.512817637994885, 6794457.453867245465517 ], [ 5215051.181827574968338, 6794469.693230422213674 ], [ 5215157.985040125437081, 6794540.65252442099154 ], [ 5215199.97143888194114, 6794543.829277554526925 ], [ 5215322.977333433926105, 6794546.093185060657561 ], [ 5215345.94223350007087, 6794553.539756503887475 ], [ 5215359.153499467298388, 6794578.061088193207979 ], [ 5215376.201154392212629, 6794659.245165707543492 ], [ 5215417.782422844320536, 6794731.064568068832159 ], [ 5215501.068935858085752, 6794761.675584193319082 ], [ 5215549.356897342950106, 6794766.508138550445437 ], [ 5215568.879298067651689, 6794758.235019012354314 ], [ 5215613.934677773155272, 6794717.906510291621089 ], [ 5215702.795072021894157, 6794658.568489365279675 ], [ 5215764.097387460060418, 6794654.926720725372434 ], [ 5215811.996887968853116, 6794642.12946164701134 ], [ 5215846.147791848517954, 6794614.204861271195114 ], [ 5215869.569834822788835, 6794608.010056001134217 ], [ 5215916.950266790576279, 6794619.60183341242373 ], [ 5215982.471135040745139, 6794610.056746086105704 ], [ 5216034.580059594474733, 6794576.815167300403118 ], [ 5216067.939509967342019, 6794539.986848616972566 ], [ 5216082.645789812318981, 6794496.375716135837138 ], [ 5216083.193714353255928, 6794446.485543528571725 ], [ 5216099.950569483451545, 6794392.631489183753729 ], [ 5216125.535557659342885, 6794333.2768584061414 ], [ 5216170.23167781997472, 6794275.527336717583239 ], [ 5216196.75965535454452, 6794206.172170682810247 ], [ 5216221.331173446029425, 6794174.998400063253939 ], [ 5216273.808553074486554, 6794136.590899567119777 ], [ 5216342.931201012805104, 6794121.696281257085502 ], [ 5216368.891344143077731, 6794120.410818552598357 ], [ 5216394.84311995934695, 6794130.117476334795356 ], [ 5216450.269214035943151, 6794139.792443227022886 ], [ 5216487.4215530725196, 6794127.016308328136802 ], [ 5216529.066263475455344, 6794138.014320959337056 ], [ 5216577.551803411915898, 6794151.401623589918017 ], [ 5216606.642884160391986, 6794142.381283484399319 ], [ 5216621.791137713938951, 6794111.02854292653501 ], [ 5216617.815860805101693, 6794004.188677877187729 ], [ 5216634.241109608672559, 6793975.950918038375676 ], [ 5216767.103653468191624, 6793906.315993828698993 ], [ 5216789.547119612805545, 6793877.199538873508573 ], [ 5216789.133079747669399, 6793832.850877186283469 ], [ 5216802.352428493089974, 6793764.276419706642628 ], [ 5216811.167263804934919, 6793725.932466991245747 ], [ 5216832.490587371401489, 6793709.869908347725868 ], [ 5216851.526248869486153, 6793728.235174190253019 ], [ 5216864.463765764608979, 6793774.888465264812112 ], [ 5216874.88660812843591, 6793841.80954176466912 ], [ 5216902.935661672614515, 6793867.137369276955724 ], [ 5216942.0151222422719, 6793924.257820067927241 ], [ 5216976.732999610714614, 6793989.479641375131905 ], [ 5217020.821144600398839, 6794094.101008011028171 ], [ 5217046.218272820115089, 6794195.069728068076074 ], [ 5217066.541551792062819, 6794352.325425952672958 ], [ 5217087.260556109249592, 6794416.046777716837823 ], [ 5217107.184250487945974, 6794474.28148815408349 ], [ 5217122.008544327691197, 6794495.199159082956612 ], [ 5217147.957155172713101, 6794483.929515320807695 ], [ 5217154.847996355034411, 6794462.536653446033597 ], [ 5217157.845694991759956, 6794431.156702316366136 ], [ 5217171.119525486603379, 6794427.712399570271373 ], [ 5217182.156412325799465, 6794435.967779211699963 ], [ 5217197.516179423779249, 6794470.307579562067986 ], [ 5217193.460054162889719, 6794508.651002497412264 ], [ 5217176.474619940854609, 6794554.247862065210938 ], [ 5217179.274971092119813, 6794583.366856707260013 ], [ 5217204.274725208058953, 6794604.04854953661561 ], [ 5217262.09627041593194, 6794600.442119359970093 ], [ 5217349.715469380840659, 6794583.36316448636353 ], [ 5217413.528807489201427, 6794588.305888418108225 ], [ 5217485.06366906594485, 6794561.113617144525051 ], [ 5217535.164819688536227, 6794525.041038297116756 ], [ 5217577.486033198423684, 6794476.625405739992857 ], [ 5217627.989874891936779, 6794692.043349251151085 ], [ 5217628.286923839710653, 6794512.337287800386548 ], [ 5217435.18838641885668, 6794068.939825687557459 ], [ 5217386.084239051677287, 6793729.342993951402605 ] ] ] ] } },
{ "type": "Feature", "properties": { "lv_id": "LOC_068326", "id": 419938.0, "CD_SETOR": "430645205000006", "SITUACAO": "Rural", "CD_SIT": "8", "CD_TIPO": "0", "AREA_KM2": 31.869223529679065, "CD_REGIAO": "4", "NM_REGIAO": "Sul", "CD_UF": "43", "NM_UF": "Rio Grande do Sul", "CD_MUN": "4306452", "NM_MUN": "Dois Lajeados", "CD_DIST": "430645205", "NM_DIST": "Dois Lajeados", "CD_SUBDIST": "43064520500", "NM_SUBDIST": null, "CD_BAIRRO": null, "NM_BAIRRO": null, "CD_NU": null, "NM_NU": null, "CD_FCU": null, "NM_FCU": null, "CD_AGLOM": null, "NM_AGLOM": null, "CD_RGINT": "4307", "NM_RGINT": "Caxias do Sul", "CD_RGI": "430038", "NM_RGI": "Nova Prata - Guaporé", "CD_CONCURB": null, "NM_CONCURB": null, "mun_code_x": "4306452", "index_right": 68040, "dist_m": 0.0, "local_id": 716881, "ano": 2022, "cod_localidade_ibge": 4306452, "NR_ZONA": "22", "nr_cep": 99220000.0, "nm_localidade": "DOIS LAJEADOS", "nm_locvot": "GINASIO DE ESPORTES LINHA EMILIA", "ds_endereco": "LINHA EMÍLIA - CAPELA NOSSA SENHORA DA SAÚDE", "ds_bairro": "ZONA RURAL", "pred_long": -51.848367, "pred_lat": -28.999572, "pred_dist": 0.0, "tse_long": -51.808791, "tse_lat": -28.957531, "long": -51.808791, "lat": -28.957531, "ID_UNICO": "LOC_068326", "SG_UF": "RS", "CD_MUNICIPIO": "84824", "NR_LOCAL_VOTACAO": "1155", "QT_SECOES_AGREGADAS": 0, "QT_ELEITORES_TRANSFERIDOS": 0, "CIRO GOMES (PDT) (NÃO ELEITO) 1T": 0.0, "CONSTITUINTE EYMAEL (DC) (NÃO ELEITO) 1T": 0.0, "FELIPE D AVILA (NOVO) (NÃO ELEITO) 1T": 2.0, "JAIR BOLSONARO (PL) (2º TURNO) 1T": 92.0, "LULA (PT) (2º TURNO) 1T": 16.0, "LÉO PÉRICLES (UP) (NÃO ELEITO) 1T": 0.0, "PADRE KELMON (PTB) (NÃO ELEITO) 1T": 0.0, "SIMONE TEBET (MDB) (NÃO ELEITO) 1T": 4.0, "SOFIA MANZANO (PCB) (NÃO ELEITO) 1T": 0.0, "SORAYA THRONICKE (UNIÃO) (NÃO ELEITO) 1T": 2.0, "VERA (PSTU) (NÃO ELEITO) 1T": 0.0, "Total_Votos_Validos 1T": 116.0, "Votos_Brancos 1T": 1.0, "Votos_Nulos 1T": 4.0, "Abstenções 1T": 17.0, "Eleitores_Aptos 1T": 138.0, "JAIR BOLSONARO (PL) (NÃO ELEITO) 2T": 100.0, "LULA (PT) (ELEITO) 2T": 21.0, "Total_Votos_Validos 2T": 121.0, "Votos_Brancos 2T": 1.0, "Votos_Nulos 2T": 2.0, "Abstenções 2T": 14.0, "Eleitores_Aptos 2T": 138.0, "mun_code_y": "4306452", "mun_code": "4306452" }, "geometry": { "type": "Polygon", "coordinates": [ [ [ 5209988.865712703205645, 6790257.490425851196051 ], [ 5209949.126257663592696, 6790286.79734767973423 ], [ 5209883.21527058724314, 6790291.958017818629742 ], [ 5209841.867069634608924, 6790341.058748444542289 ], [ 5209808.335178575478494, 6790315.205383494496346 ], [ 5209791.437412641011178, 6790334.113417264074087 ], [ 5209752.57357888482511, 6790331.249665025621653 ], [ 5209582.29978743288666, 6790254.224440032616258 ], [ 5209582.319105619564652, 6790127.227593202143908 ], [ 5209653.364344318397343, 6790126.278596826829016 ], [ 5209847.385050411336124, 6790127.071368688717484 ], [ 5209850.266841871663928, 6789887.178005343303084 ], [ 5209883.826675601303577, 6789825.818793976679444 ], [ 5209901.810077648609877, 6789851.034634947776794 ], [ 5209933.991907960735261, 6789874.527607262134552 ], [ 5209948.411785180680454, 6789881.751490660011768 ], [ 5209968.118588988669217, 6789888.67933608405292 ], [ 5209989.8055484527722, 6789895.160666421055794 ], [ 5210015.545382608659565, 6789895.135029595345259 ], [ 5210035.631056524813175, 6789893.437811084091663 ], [ 5210222.145627174526453, 6789861.77417753636837 ], [ 5210249.917795437388122, 6789855.621711886487901 ], [ 5210272.105811557732522, 6789851.101742751896381 ], [ 5210295.124085544608533, 6789845.080315783619881 ], [ 5210318.11051313392818, 6789834.112632393836975 ], [ 5210332.194287816993892, 6789823.984055917710066 ], [ 5210343.844586043618619, 6789816.162559284828603 ], [ 5210356.437797260470688, 6789806.604652276262641 ], [ 5210385.410589506849647, 6789777.614776255562901 ], [ 5210436.440008169040084, 6789719.328568638302386 ], [ 5210480.391720729880035, 6789670.033525848761201 ], [ 5210509.937332469038665, 6789638.293217725120485 ], [ 5210528.968990336172283, 6789624.813033850863576 ], [ 5210537.913834204897285, 6789617.761713813990355 ], [ 5210551.00832015555352, 6789611.654940219596028 ], [ 5210565.541258808225393, 6789606.930469463579357 ], [ 5210582.125242755748332, 6789603.510546628385782 ], [ 5210601.107157568447292, 6789601.710473008453846 ], [ 5210621.147733021527529, 6789602.907890832051635 ], [ 5210638.519504811614752, 6789606.860407577827573 ], [ 5210653.176038824953139, 6789611.561326265335083 ], [ 5210668.194464751519263, 6789617.930422192439437 ], [ 5210682.902728270739317, 6789625.99107987806201 ], [ 5210693.892233747988939, 6789634.818515444174409 ], [ 5210706.597711648792028, 6789645.278271696530282 ], [ 5210716.314579504542053, 6789668.181889491155744 ], [ 5210727.504698671400547, 6789706.61990742944181 ], [ 5210731.297197214327753, 6789734.922550611197948 ], [ 5210736.573711338452995, 6789762.299629541113973 ], [ 5210740.389653442427516, 6789800.406718784943223 ], [ 5210775.009535516612232, 6789759.965864794328809 ], [ 5210967.205962800420821, 6789567.780474168248475 ], [ 5210998.263766947202384, 6789988.511413267813623 ], [ 5211013.659715115092695, 6790031.419709408655763 ], [ 5211046.714469796977937, 6790067.294105628505349 ], [ 5211141.903862559236586, 6790103.149928670376539 ], [ 5211222.484566995874047, 6790151.817400213330984 ], [ 5211295.179608460515738, 6790219.01875070668757 ], [ 5211337.461243249475956, 6790279.612560279667377 ], [ 5211359.621867125853896, 6790330.426671556197107 ], [ 5211393.99068452976644, 6790420.824241494759917 ], [ 5211380.218047467060387, 6790481.381585609167814 ], [ 5211361.77503239735961, 6790532.829704958945513 ], [ 5211305.629404426552355, 6790671.937924610450864 ], [ 5211220.174850340001285, 6790720.244466497562826 ], [ 5211208.506165070459247, 6790731.871536886319518 ], [ 5211198.028623447753489, 6790753.181829936802387 ], [ 5211193.656971103511751, 6790770.997283417731524 ], [ 5211191.589519907720387, 6790799.129967782646418 ], [ 5211194.40719017572701, 6790824.699704233556986 ], [ 5211200.667354526929557, 6790839.724866403266788 ], [ 5211223.463253004476428, 6790883.173919897526503 ], [ 5211260.377023931592703, 6790926.286466223187745 ], [ 5211309.428593977354467, 6790971.106257394887507 ], [ 5211347.220602716319263, 6791003.077672312036157 ], [ 5211388.115001643076539, 6791044.220210051164031 ], [ 5211402.384433784522116, 6791065.964009082876146 ], [ 5211412.872355489060283, 6791087.732805613428354 ], [ 5211420.636740875430405, 6791113.533419402316213 ], [ 5211423.733832335099578, 6791138.365967081859708 ], [ 5211423.3689956786111, 6791184.369190203025937 ], [ 5211421.266719613224268, 6791197.828497 ], [ 5211437.486514491960406, 6791221.200213424861431 ], [ 5211467.482272889465094, 6791262.24302760604769 ], [ 5211523.071284321136773, 6791294.55287005379796 ], [ 5211552.839443683624268, 6791292.364904843270779 ], [ 5211654.495230820029974, 6791258.787650128826499 ], [ 5211802.466955712065101, 6791266.894374342635274 ], [ 5211924.997544188052416, 6791245.309159056283534 ], [ 5211969.6048439508304, 6791257.088768012821674 ], [ 5211987.279517791233957, 6791269.929336908273399 ], [ 5212011.995410899631679, 6791314.75041594915092 ], [ 5212069.324461860582232, 6791354.645660967566073 ], [ 5212143.908971942029893, 6791403.628681325353682 ], [ 5212279.963463103398681, 6791453.6531599201262 ], [ 5212350.827935480512679, 6791508.570923291146755 ], [ 5212398.167094223201275, 6791557.9656803002581 ], [ 5212431.312245214357972, 6791587.712491551414132 ], [ 5212515.917483849450946, 6791627.003141331486404 ], [ 5212681.319643570110202, 6791687.695674985647202 ], [ 5212766.171611280180514, 6791698.541167180985212 ], [ 5212794.74831638392061, 6791703.049212140962481 ], [ 5212891.975005907006562, 6791678.227600509300828 ], [ 5212997.390523859299719, 6791608.609999904409051 ], [ 5213095.310261646285653, 6791544.354085237719119 ], [ 5213147.109459394589067, 6791492.097397589124739 ], [ 5213164.645973873324692, 6791456.257616218179464 ], [ 5213177.049375239759684, 6791446.467200293205678 ], [ 5213194.334632083773613, 6791452.392062277533114 ], [ 5213209.101829473860562, 6791491.350046465173364 ], [ 5213234.6475311787799, 6791529.631665453314781 ], [ 5213269.744874275289476, 6791546.229785719886422 ], [ 5213324.6941973939538, 6791557.835165986791253 ], [ 5213458.782391211017966, 6791573.920011676847935 ], [ 5213515.780706818215549, 6791571.400138668715954 ], [ 5213579.579547477886081, 6791594.9968680748716 ], [ 5213637.95105140004307, 6791600.292769689112902 ], [ 5213722.763266853056848, 6791596.346779187209904 ], [ 5213802.098234603181481, 6791587.732338458299637 ], [ 5213907.558040588162839, 6791524.505016759037971 ], [ 5214006.303876515477896, 6791492.968311060220003 ], [ 5214120.64763836748898, 6791474.650653967633843 ], [ 5214165.1596794500947, 6791459.082705586217344 ], [ 5214189.016586596146226, 6791440.404568396508694 ], [ 5214191.976122189313173, 6791404.001985594630241 ], [ 5214193.728787091560662, 6791360.356748839840293 ], [ 5214195.457286023534834, 6791110.317082658410072 ], [ 5214205.457170464098454, 6791006.933738269843161 ], [ 5214217.137884330004454, 6790945.224028744734824 ], [ 5214223.902794349007308, 6790880.732925462536514 ], [ 5214244.558685025200248, 6790826.265570662915707 ], [ 5214248.744849007576704, 6790738.951206019148231 ], [ 5214229.536758685484529, 6790679.379692386835814 ], [ 5214192.113058445975184, 6790631.959509789943695 ], [ 5214183.60364683624357, 6790613.073188478127122 ], [ 5214193.688590190373361, 6790592.964945485815406 ], [ 5214300.289024137891829, 6790530.898667765781283 ], [ 5214368.75186906568706, 6790508.328854726627469 ], [ 5214486.124738325364888, 6790433.892605530098081 ], [ 5214496.723009865731001, 6790392.17881675157696 ], [ 5214499.598742811009288, 6790262.872929834760725 ], [ 5214508.0562385879457, 6790229.739626061171293 ], [ 5214524.743051719851792, 6790203.052667735144496 ], [ 5214547.266680806875229, 6790179.429219200275838 ], [ 5214607.473033756017685, 6790127.119207378476858 ], [ 5214659.946267486549914, 6790079.334196366369724 ], [ 5214675.872125533409417, 6789979.932320408523083 ], [ 5214677.736355934292078, 6789920.966921197250485 ], [ 5214650.412084019742906, 6789804.590916778892279 ], [ 5214611.371337757445872, 6789776.013919534161687 ], [ 5214438.678811678662896, 6789737.015076547861099 ], [ 5214379.200381318107247, 6789742.991577746346593 ], [ 5214354.088358229957521, 6789739.044433393515646 ], [ 5214303.40690248273313, 6789712.845998987555504 ], [ 5214191.772950042970479, 6789688.280178860761225 ], [ 5214160.08694825693965, 6789677.76655550673604 ], [ 5214085.009174150414765, 6789605.313486255705357 ], [ 5214041.081751848571002, 6789537.605147730559111 ], [ 5214006.948169929906726, 6789509.156920852139592 ], [ 5213957.511571034789085, 6789493.73732234723866 ], [ 5213923.8378851916641, 6789483.736978621222079 ], [ 5213907.113508929498494, 6789466.422857509925961 ], [ 5213974.21748392470181, 6789439.221617152914405 ], [ 5214037.61586051620543, 6789404.058407867327332 ], [ 5214072.060838687233627, 6789379.52655288297683 ], [ 5214085.86793299484998, 6789351.041385928168893 ], [ 5214087.029348532669246, 6789305.510342992842197 ], [ 5214068.188083136454225, 6789227.785767404362559 ], [ 5214063.422758652828634, 6789168.555667746812105 ], [ 5214037.560342258773744, 6789098.459600608795881 ], [ 5214006.575846549123526, 6789064.2406722959131 ], [ 5213994.011163973249495, 6789011.666369462385774 ], [ 5213994.432599523104727, 6788927.350151324644685 ], [ 5213983.386689623817801, 6788866.817014165222645 ], [ 5213961.868450053967535, 6788812.800780089572072 ], [ 5213933.925998672842979, 6788758.149648563936353 ], [ 5213896.923089006915689, 6788610.252103462815285 ], [ 5213878.511703406460583, 6788557.664334569126368 ], [ 5213836.338500610552728, 6788525.394334213808179 ], [ 5213814.400599440559745, 6788490.175111537799239 ], [ 5213787.571673886850476, 6788399.898542189970613 ], [ 5213765.195300126448274, 6788356.790072910487652 ], [ 5213734.454889786429703, 6788320.880121504887938 ], [ 5213727.334272803738713, 6788306.349045732058585 ], [ 5213730.203087860718369, 6788287.650567401200533 ], [ 5213709.798372762277722, 6788260.965551239438355 ], [ 5213690.492593789473176, 6788225.752742251381278 ], [ 5213682.413335571996868, 6788182.667124235071242 ], [ 5213693.706699846312404, 6788165.276374498382211 ], [ 5213718.200220425613225, 6788130.32632911298424 ], [ 5213731.049706375226378, 6788077.080309689044952 ], [ 5213750.292881026864052, 6788033.343168295919895 ], [ 5213785.439815910533071, 6788003.785337522625923 ], [ 5213801.688226548023522, 6787982.464672542177141 ], [ 5213803.963358134031296, 6787948.603662986308336 ], [ 5213798.02602799423039, 6787868.17674070969224 ], [ 5213808.986840836703777, 6787828.187015544623137 ], [ 5213835.749347996897995, 6787816.29859647154808 ], [ 5213860.613676085136831, 6787813.440797040238976 ], [ 5213910.567322201095521, 6787782.07669918704778 ], [ 5213934.579897049814463, 6787744.927736146375537 ], [ 5213951.609466281719506, 6787701.708225728943944 ], [ 5213958.235647388733923, 6787660.279302421957254 ], [ 5213933.385820217430592, 6787579.48296791035682 ], [ 5213909.557278888300061, 6787549.955942234024405 ], [ 5213893.593138079158962, 6787504.720963936299086 ], [ 5213884.43199213873595, 6787456.930437911301851 ], [ 5213893.583956828340888, 6787446.544822373427451 ], [ 5212949.88779063615948, 6787151.947961935773492 ], [ 5209719.784915863536298, 6786110.245209947228432 ], [ 5209659.989890201017261, 6786090.949191506952047 ], [ 5209273.784754733555019, 6785966.449118569493294 ], [ 5209444.688352728262544, 6786747.348339037038386 ], [ 5209223.584556167945266, 6786961.243352890014648 ], [ 5207625.490104279480875, 6786613.043952180072665 ], [ 5207615.185405981726944, 6786928.64450008329004 ], [ 5206603.788907570764422, 6786986.346538344398141 ], [ 5206640.293972200714052, 6786745.14430365152657 ], [ 5202780.995005284436047, 6786409.849957905709743 ], [ 5203016.495689717121422, 6786788.445474890992045 ], [ 5203109.889169713482261, 6787178.25293514225632 ], [ 5202434.59250595793128, 6787487.645298706367612 ], [ 5202305.790479607880116, 6788034.651202101260424 ], [ 5202398.294474817812443, 6788394.843420263379812 ], [ 5202292.89264705684036, 6788567.850785499438643 ], [ 5201836.794169686734676, 6788859.150082167237997 ], [ 5201515.191435773856938, 6789598.352707829326391 ], [ 5201642.196164038032293, 6789982.844483783468604 ], [ 5201771.797912135720253, 6790056.635777192190289 ], [ 5202190.232591561973095, 6789915.919658399187028 ], [ 5202832.930563471280038, 6789654.308759903535247 ], [ 5203107.671431409195065, 6789659.337684897705913 ], [ 5203383.85914205852896, 6789579.588582395575941 ], [ 5203795.81128469388932, 6789798.839300621300936 ], [ 5203960.63982598297298, 6789926.0854019401595 ], [ 5204006.312127905897796, 6790079.164031079038978 ], [ 5204038.782237772829831, 6790246.739402765408158 ], [ 5204044.561603214591742, 6790301.204695601947606 ], [ 5204117.46042463555932, 6790333.896024201065302 ], [ 5204201.487105097621679, 6790373.554460076615214 ], [ 5204263.503517715260386, 6790413.602612163871527 ], [ 5204305.002496046945453, 6790448.646297707222402 ], [ 5204340.090218784287572, 6790476.649871984496713 ], [ 5204375.358534001745284, 6790515.37515283934772 ], [ 5204433.985037223435938, 6790541.175214614719152 ], [ 5204522.571457044221461, 6790571.800134570337832 ], [ 5204609.675148108974099, 6790607.818797903135419 ], [ 5204669.680767620913684, 6790622.85712709557265 ], [ 5204735.949136677198112, 6790635.987117956392467 ], [ 5204817.95662940852344, 6790650.633695119060576 ], [ 5204895.734967147931457, 6790692.184152912348509 ], [ 5204918.022887427359819, 6790707.891959259286523 ], [ 5204935.435699642635882, 6790714.735968748107553 ], [ 5204949.513118715025485, 6790732.430874129757285 ], [ 5204953.793647921644151, 6790751.154053777456284 ], [ 5204938.912108823657036, 6790763.330550047568977 ], [ 5204889.539137409068644, 6790770.208910414017737 ], [ 5204859.511553211137652, 6790802.17485667206347 ], [ 5204704.988703004084527, 6790922.164507077075541 ], [ 5204683.240205603651702, 6790956.58922247774899 ], [ 5204681.644449165090919, 6790989.125358380377293 ], [ 5204689.86563768517226, 6791034.918336432427168 ], [ 5204745.63986302819103, 6791042.633887926116586 ], [ 5204781.224042544141412, 6791035.335839051753283 ], [ 5205392.633968027308583, 6791036.154810719192028 ], [ 5205461.557021822780371, 6791033.98331967741251 ], [ 5205531.812824782915413, 6791041.503433089703321 ], [ 5205592.194850143045187, 6791035.368711409159005 ], [ 5205926.151751244440675, 6791044.988373139873147 ], [ 5205953.188085433095694, 6791052.479685495607555 ], [ 5206120.018132113851607, 6791114.912132028490305 ], [ 5206219.104497902095318, 6791163.659420162439346 ], [ 5206245.216961768455803, 6791186.494564028456807 ], [ 5206270.469610765576363, 6791245.701787895523012 ], [ 5206305.479234642349184, 6791287.454313004389405 ], [ 5206386.465696910396218, 6791376.43026427552104 ], [ 5206439.196684213355184, 6791434.479596612975001 ], [ 5206470.524753808043897, 6791444.77660882845521 ], [ 5206733.946253747679293, 6791437.802741589024663 ], [ 5206850.925237582996488, 6791433.330213543027639 ], [ 5206950.1040597287938, 6791423.375461622141302 ], [ 5207108.545542710460722, 6791423.035801869817078 ], [ 5207444.285555720329285, 6791425.337912816554308 ], [ 5207488.47402988281101, 6791440.635792933404446 ], [ 5207564.277326327748597, 6791510.775929856114089 ], [ 5207596.079226871952415, 6791519.164847854524851 ], [ 5207690.245614961721003, 6791519.353787278756499 ], [ 5207719.093582320958376, 6791534.20634210202843 ], [ 5207739.400534939952195, 6791562.466813584789634 ], [ 5207786.373634465038776, 6791579.15529065951705 ], [ 5207801.10999677143991, 6791567.13288633339107 ], [ 5207785.995892962440848, 6791516.019662156701088 ], [ 5207777.305945463478565, 6791438.426723616197705 ], [ 5207793.406972787342966, 6791385.319922849535942 ], [ 5207826.787119816057384, 6791339.066433543339372 ], [ 5207875.094881143420935, 6791309.812644021585584 ], [ 5207925.885390169918537, 6791291.760370687581599 ], [ 5208020.597670934163034, 6791285.026768841780722 ], [ 5208069.826566998846829, 6791285.779539962299168 ], [ 5208144.388342376798391, 6791270.824074288830161 ], [ 5208203.098238214850426, 6791269.77460759319365 ], [ 5208303.563299939036369, 6791285.804950803518295 ], [ 5208381.09575607534498, 6791257.795244500041008 ], [ 5208413.116576843895018, 6791251.33780025318265 ], [ 5208525.619575822725892, 6791250.101178804412484 ], [ 5208608.674199771136045, 6791277.346672626212239 ], [ 5208757.978368336334825, 6791384.502492397092283 ], [ 5208799.618779784068465, 6791401.638429960235953 ], [ 5208834.890591163188219, 6791405.668776487931609 ], [ 5208893.625995935872197, 6791408.674811978824437 ], [ 5209012.628829442895949, 6791450.25030146446079 ], [ 5209044.371384263038635, 6791456.384836887940764 ], [ 5209078.084333000704646, 6791448.61936832498759 ], [ 5209192.800785332918167, 6791388.762828417122364 ], [ 5209254.124848165549338, 6791367.906907042488456 ], [ 5209332.050298591144383, 6791370.207327299751341 ], [ 5209422.131624910980463, 6791389.167393963783979 ], [ 5209457.767383952625096, 6791378.881374128162861 ], [ 5209493.286616742610931, 6791360.578296086750925 ], [ 5209517.187729538418353, 6791339.658026704564691 ], [ 5209594.516329667530954, 6791238.917505051009357 ], [ 5209634.961911700665951, 6791211.751051638275385 ], [ 5209660.334729962982237, 6791203.71403881534934 ], [ 5209820.150019004940987, 6791206.650467107072473 ], [ 5209871.052812932059169, 6791193.334444570355117 ], [ 5210097.600726004689932, 6791092.056572340428829 ], [ 5210171.39898478705436, 6791060.54213996976614 ], [ 5209988.865712703205645, 6790257.490425851196051 ] ] ] } }
]
}
