{
"type": "FeatureCollection",
"name": "4310900",
"crs": { "type": "name", "properties": { "name": "urn:ogc:def:crs:EPSG::5880" } },
"features": [
{ "type": "Feature", "properties": { "lv_id": "LOC_072003", "id": 423505.0, "CD_SETOR": "431090005000024", "SITUACAO": "Urbana", "CD_SIT": "1", "CD_TIPO": "0", "AREA_KM2": 0.984659127967496, "CD_REGIAO": "4", "NM_REGIAO": "Sul", "CD_UF": "43", "NM_UF": "Rio Grande do Sul", "CD_MUN": "4310900", "NM_MUN": "Jacutinga", "CD_DIST": "431090005", "NM_DIST": "Jacutinga", "CD_SUBDIST": "43109000500", "NM_SUBDIST": null, "CD_BAIRRO": null, "NM_BAIRRO": null, "CD_NU": null, "NM_NU": null, "CD_FCU": null, "NM_FCU": null, "CD_AGLOM": null, "NM_AGLOM": null, "CD_RGINT": "4306", "NM_RGINT": "Passo Fundo", "CD_RGI": "430026", "NM_RGI": "Erechim", "CD_CONCURB": null, "NM_CONCURB": null, "mun_code_x": "4310900", "index_right": 71482, "dist_m": 0.0, "local_id": 750738, "ano": 2022, "cod_localidade_ibge": 4310900, "NR_ZONA": "148", "nr_cep": 99730000.0, "nm_localidade": "JACUTINGA", "nm_locvot": "ESCOLA ESTADUAL DE EDUCAÇÃO BÁSICA ÉRICO VERISSIMO", "ds_endereco": "AVENIDA LUÍS DORIGON, 39.", "ds_bairro": "CENTRO", "pred_long": -52.53663, "pred_lat": -27.728114, "pred_dist": 0.0, "tse_long": -52.535824, "tse_lat": -27.729717, "long": -52.535824, "lat": -27.729717, "ID_UNICO": "LOC_072003", "SG_UF": "RS", "CD_MUNICIPIO": "87190", "NR_LOCAL_VOTACAO": "1015", "QT_SECOES_AGREGADAS": 0, "QT_ELEITORES_TRANSFERIDOS": 0, "CIRO GOMES (PDT) (NÃO ELEITO) 1T": 11.0, "CONSTITUINTE EYMAEL (DC) (NÃO ELEITO) 1T": 0.0, "FELIPE D AVILA (NOVO) (NÃO ELEITO) 1T": 5.0, "JAIR BOLSONARO (PL) (2º TURNO) 1T": 504.0, "LULA (PT) (2º TURNO) 1T": 356.0, "LÉO PÉRICLES (UP) (NÃO ELEITO) 1T": 0.0, "PADRE KELMON (PTB) (NÃO ELEITO) 1T": 0.0, "SIMONE TEBET (MDB) (NÃO ELEITO) 1T": 34.0, "SOFIA MANZANO (PCB) (NÃO ELEITO) 1T": 0.0, "SORAYA THRONICKE (UNIÃO) (NÃO ELEITO) 1T": 0.0, "VERA (PSTU) (NÃO ELEITO) 1T": 0.0, "Total_Votos_Validos 1T": 910.0, "Votos_Brancos 1T": 38.0, "Votos_Nulos 1T": 24.0, "Abstenções 1T": 156.0, "Eleitores_Aptos 1T": 1128.0, "JAIR BOLSONARO (PL) (NÃO ELEITO) 2T": 588.0, "LULA (PT) (ELEITO) 2T": 346.0, "Total_Votos_Validos 2T": 934.0, "Votos_Brancos 2T": 24.0, "Votos_Nulos 2T": 23.0, "Abstenções 2T": 147.0, "Eleitores_Aptos 2T": 1128.0, "mun_code_y": "4310900", "mun_code": "4310900" }, "geometry": { "type": "Polygon", "coordinates": [ [ [ 5145001.336570523679256, 6930974.601005501113832 ], [ 5144831.581764353439212, 6930843.350011810660362 ], [ 5144734.873944791033864, 6930773.336433801800013 ], [ 5144655.80355535633862, 6930718.575812755152583 ], [ 5144558.99518921226263, 6930649.060964062809944 ], [ 5144462.474863842129707, 6930582.113726167008281 ], [ 5144372.784918077290058, 6930520.593868598341942 ], [ 5144364.487612725235522, 6930513.620212119072676 ], [ 5144318.691866263747215, 6930574.157480810768902 ], [ 5144292.158696875907481, 6930608.470980001613498 ], [ 5144274.526876077055931, 6930635.040978131815791 ], [ 5144248.207644320093095, 6930679.084572944790125 ], [ 5144220.799873885698617, 6930711.20233672298491 ], [ 5144216.332778331823647, 6930719.513823471963406 ], [ 5144194.111252073198557, 6930746.592688350938261 ], [ 5144176.948099019005895, 6930764.499462798237801 ], [ 5144157.648565791547298, 6930783.540088016539812 ], [ 5144113.09816618449986, 6930820.394912805408239 ], [ 5144035.966331526637077, 6930888.109103577211499 ], [ 5144002.131844807416201, 6930918.905816473066807 ], [ 5143965.884858421981335, 6930950.019241146743298 ], [ 5143954.22254447452724, 6930964.490565632469952 ], [ 5143940.582968987524509, 6930986.866834431886673 ], [ 5143940.030091389082372, 6931007.613642647862434 ], [ 5143949.246438214555383, 6931062.996485942974687 ], [ 5143964.450869611464441, 6931111.05866663902998 ], [ 5143987.433081915602088, 6931163.839553065598011 ], [ 5144011.583118340931833, 6931206.973587024956942 ], [ 5144033.843931946903467, 6931249.620071774348617 ], [ 5144065.872252619825304, 6931299.267300590872765 ], [ 5144078.832726681604981, 6931332.690371077507734 ], [ 5144081.065958375111222, 6931365.486913569271564 ], [ 5144083.686787463724613, 6931406.016269034706056 ], [ 5144074.902497900649905, 6931435.340852050110698 ], [ 5144046.29297845903784, 6931472.759926926344633 ], [ 5144034.756016675382853, 6931492.849962486885488 ], [ 5144112.285223916172981, 6931599.58891979418695 ], [ 5144257.258910406380892, 6931699.330018192529678 ], [ 5144318.833724630065262, 6931737.961826020851731 ], [ 5144328.532011831179261, 6931785.590223658829927 ], [ 5144346.461776212789118, 6931823.787122482433915 ], [ 5144282.42718861810863, 6931884.49625532887876 ], [ 5144385.871279787272215, 6931916.710920227691531 ], [ 5144421.454976696521044, 6931936.651282576844096 ], [ 5144542.869364137761295, 6931898.426669362001121 ], [ 5144646.141194419935346, 6931858.122233720496297 ], [ 5144650.27761962544173, 6931807.945971458218992 ], [ 5144739.802143668755889, 6931766.961910079233348 ], [ 5144787.668510443530977, 6931714.424250447191298 ], [ 5144845.743209636770189, 6931636.368555692955852 ], [ 5144912.75990027654916, 6931563.094400967471302 ], [ 5144943.53264104295522, 6931517.898814233019948 ], [ 5144980.358176463283598, 6931493.171686520799994 ], [ 5145042.799511041492224, 6931421.736042361706495 ], [ 5145049.9622055394575, 6931379.039116151630878 ], [ 5145011.461009039543569, 6931274.943610267713666 ], [ 5144984.467271108180285, 6931199.609650620259345 ], [ 5144991.761406248435378, 6931106.795135984197259 ], [ 5144994.938602128066123, 6931038.383876949548721 ], [ 5144997.91252550855279, 6931012.420153707265854 ], [ 5145001.336570523679256, 6930974.601005501113832 ] ] ] } },
{ "type": "Feature", "properties": { "lv_id": "LOC_072004", "id": 423495.0, "CD_SETOR": "431090005000001", "SITUACAO": "Urbana", "CD_SIT": "1", "CD_TIPO": "0", "AREA_KM2": 0.746990473578654, "CD_REGIAO": "4", "NM_REGIAO": "Sul", "CD_UF": "43", "NM_UF": "Rio Grande do Sul", "CD_MUN": "4310900", "NM_MUN": "Jacutinga", "CD_DIST": "431090005", "NM_DIST": "Jacutinga", "CD_SUBDIST": "43109000500", "NM_SUBDIST": null, "CD_BAIRRO": null, "NM_BAIRRO": null, "CD_NU": null, "NM_NU": null, "CD_FCU": null, "NM_FCU": null, "CD_AGLOM": null, "NM_AGLOM": null, "CD_RGINT": "4306", "NM_RGINT": "Passo Fundo", "CD_RGI": "430026", "NM_RGI": "Erechim", "CD_CONCURB": null, "NM_CONCURB": null, "mun_code_x": "4310900", "index_right": 71481, "dist_m": 22.894895733147539, "local_id": 750737, "ano": 2022, "cod_localidade_ibge": 4310900, "NR_ZONA": "148", "nr_cep": 99730000.0, "nm_localidade": "JACUTINGA", "nm_locvot": "SALÃO PAROQUIAL", "ds_endereco": "RUA ANGELO FABIANE, 129", "ds_bairro": "CENTRO", "pred_long": -52.540006, "pred_lat": -27.731939, "pred_dist": 0.0, "tse_long": -52.539196, "tse_lat": -27.72721, "long": -52.539196, "lat": -27.72721, "ID_UNICO": "LOC_072004", "SG_UF": "RS", "CD_MUNICIPIO": "87190", "NR_LOCAL_VOTACAO": "1023", "QT_SECOES_AGREGADAS": 0, "QT_ELEITORES_TRANSFERIDOS": 0, "CIRO GOMES (PDT) (NÃO ELEITO) 1T": 11.0, "CONSTITUINTE EYMAEL (DC) (NÃO ELEITO) 1T": 0.0, "FELIPE D AVILA (NOVO) (NÃO ELEITO) 1T": 5.0, "JAIR BOLSONARO (PL) (2º TURNO) 1T": 363.0, "LULA (PT) (2º TURNO) 1T": 205.0, "LÉO PÉRICLES (UP) (NÃO ELEITO) 1T": 0.0, "PADRE KELMON (PTB) (NÃO ELEITO) 1T": 0.0, "SIMONE TEBET (MDB) (NÃO ELEITO) 1T": 33.0, "SOFIA MANZANO (PCB) (NÃO ELEITO) 1T": 0.0, "SORAYA THRONICKE (UNIÃO) (NÃO ELEITO) 1T": 2.0, "VERA (PSTU) (NÃO ELEITO) 1T": 0.0, "Total_Votos_Validos 1T": 619.0, "Votos_Brancos 1T": 18.0, "Votos_Nulos 1T": 8.0, "Abstenções 1T": 126.0, "Eleitores_Aptos 1T": 771.0, "JAIR BOLSONARO (PL) (NÃO ELEITO) 2T": 415.0, "LULA (PT) (ELEITO) 2T": 222.0, "Total_Votos_Validos 2T": 637.0, "Votos_Brancos 2T": 13.0, "Votos_Nulos 2T": 17.0, "Abstenções 2T": 104.0, "Eleitores_Aptos 2T": 771.0, "mun_code_y": "4310900", "mun_code": "4310900" }, "geometry": { "type": "Polygon", "coordinates": [ [ [ 5144569.781183851882815, 6929445.771101200021803 ], [ 5144608.828968687914312, 6929379.637293826788664 ], [ 5144677.759537652134895, 6929292.561917018145323 ], [ 5143639.439404899254441, 6928935.983644715510309 ], [ 5141823.450922037474811, 6929933.904715190641582 ], [ 5141156.246893777512014, 6930300.182045470923185 ], [ 5141420.43964355904609, 6930824.886131225153804 ], [ 5141397.447548515163362, 6931313.990886243991554 ], [ 5141576.747498417273164, 6931851.486047610640526 ], [ 5142048.644890527240932, 6932320.381668258458376 ], [ 5141915.839619883336127, 6933221.081634068861604 ], [ 5142103.541201109066606, 6933773.880433389917016 ], [ 5142033.447940823622048, 6934619.884610844776034 ], [ 5141886.541526882909238, 6934884.989420479163527 ], [ 5141905.045991588383913, 6935082.684314392507076 ], [ 5141684.545640530064702, 6935179.987085534259677 ], [ 5141892.842912818305194, 6935203.586177984252572 ], [ 5142354.7425946155563, 6935073.981414717622101 ], [ 5142828.74624606128782, 6934831.781229995191097 ], [ 5142975.24006477650255, 6934946.186312232166529 ], [ 5143071.744157954119146, 6935352.680481961928308 ], [ 5143237.539855785667896, 6935454.285335533320904 ], [ 5143337.139962309971452, 6935418.382662639021873 ], [ 5143472.539287817664444, 6934904.879563096910715 ], [ 5143241.148373042233288, 6934629.883040513843298 ], [ 5143353.243308963254094, 6934533.186405348591506 ], [ 5143457.448206732049584, 6934571.386899579316378 ], [ 5143776.547115840949118, 6935009.678741760551929 ], [ 5143755.243478615768254, 6935398.184275107458234 ], [ 5144474.647950128652155, 6935305.779677109792829 ], [ 5145167.646713333204389, 6935843.580751910805702 ], [ 5145457.943278197199106, 6935963.479513175785542 ], [ 5145546.640761167742312, 6935878.980979099869728 ], [ 5145574.042358533479273, 6935505.084279865957797 ], [ 5145155.142948996275663, 6935211.579377250745893 ], [ 5145420.94170104060322, 6934786.282428845763206 ], [ 5145395.742534203454852, 6934496.286216983571649 ], [ 5145542.839708332903683, 6933763.582619795575738 ], [ 5145704.54464924428612, 6933762.48788854945451 ], [ 5145770.744299350306392, 6934360.880534861236811 ], [ 5145995.838513899594545, 6934829.188478589057922 ], [ 5146028.845768894068897, 6934810.279937418177724 ], [ 5146099.212119808420539, 6934214.305059058591723 ], [ 5146095.892104026861489, 6934140.77262856811285 ], [ 5146038.267072628252208, 6934064.522761534899473 ], [ 5146032.164211834780872, 6933925.987011587247252 ], [ 5146018.888047263026237, 6933756.87580147664994 ], [ 5145986.758578464388847, 6933682.713879577815533 ], [ 5145927.143687814474106, 6933596.59951781667769 ], [ 5145816.32725483737886, 6933491.567189862020314 ], [ 5145672.294255261309445, 6933375.181830844841897 ], [ 5145595.321641142480075, 6933291.402404616586864 ], [ 5145494.577028469182551, 6933220.621838232502341 ], [ 5145446.680722448974848, 6933188.516094515100121 ], [ 5145340.103194468654692, 6933149.452261665835977 ], [ 5145206.166757299564779, 6933052.70587298180908 ], [ 5145129.865246598608792, 6932971.831131099723279 ], [ 5145072.536599812097847, 6932853.372523036785424 ], [ 5145041.885201502591372, 6932760.257391534745693 ], [ 5145037.595521352253854, 6932734.701907688751817 ], [ 5144991.294105863198638, 6932647.537741396576166 ], [ 5144952.148521988652647, 6932564.068091602995992 ], [ 5144934.925705188885331, 6932419.180090697482228 ], [ 5144930.021723346784711, 6932344.580132098868489 ], [ 5144931.466406448744237, 6932217.649042104370892 ], [ 5144018.4886395605281, 6932296.036990145221353 ], [ 5142807.355522722005844, 6931780.734903535805643 ], [ 5143062.953520090319216, 6931032.167634764686227 ], [ 5144028.443004969507456, 6931490.242232359014452 ], [ 5144034.756016675382853, 6931492.849962486885488 ], [ 5144046.29297845903784, 6931472.759926926344633 ], [ 5144074.902497900649905, 6931435.340852050110698 ], [ 5144083.686787463724613, 6931406.016269034706056 ], [ 5144081.065958375111222, 6931365.486913569271564 ], [ 5144078.832726681604981, 6931332.690371077507734 ], [ 5144065.872252619825304, 6931299.267300590872765 ], [ 5144033.843931946903467, 6931249.620071774348617 ], [ 5144011.583118340931833, 6931206.973587024956942 ], [ 5143987.433081915602088, 6931163.839553065598011 ], [ 5143964.450869611464441, 6931111.05866663902998 ], [ 5143949.246438214555383, 6931062.996485942974687 ], [ 5143940.030091389082372, 6931007.613642647862434 ], [ 5143940.582968987524509, 6930986.866834431886673 ], [ 5143954.22254447452724, 6930964.490565632469952 ], [ 5143965.884858421981335, 6930950.019241146743298 ], [ 5144002.131844807416201, 6930918.905816473066807 ], [ 5144035.966331526637077, 6930888.109103577211499 ], [ 5144113.09816618449986, 6930820.394912805408239 ], [ 5144157.648565791547298, 6930783.540088016539812 ], [ 5144176.948099019005895, 6930764.499462798237801 ], [ 5144194.111252073198557, 6930746.592688350938261 ], [ 5144216.332778331823647, 6930719.513823471963406 ], [ 5144220.799873885698617, 6930711.20233672298491 ], [ 5144248.207644320093095, 6930679.084572944790125 ], [ 5144274.526876077055931, 6930635.040978131815791 ], [ 5144292.158696875907481, 6930608.470980001613498 ], [ 5144318.691866263747215, 6930574.157480810768902 ], [ 5144364.487612725235522, 6930513.620212119072676 ], [ 5144403.15220302529633, 6930466.25912515539676 ], [ 5144441.333860508166254, 6930407.341828778386116 ], [ 5144467.355066397227347, 6930381.458756023086607 ], [ 5144521.992786590009928, 6930367.982910703867674 ], [ 5144575.660946167074144, 6930350.937853263691068 ], [ 5144667.899735287763178, 6930329.276033468544483 ], [ 5144720.786282172426581, 6930312.87148255854845 ], [ 5144767.768325613811612, 6930298.321819775737822 ], [ 5144869.239990915171802, 6930271.183095994405448 ], [ 5144949.774988876655698, 6930249.714163858443499 ], [ 5145033.815468955785036, 6930226.196382272988558 ], [ 5145030.392978673800826, 6930176.60890331491828 ], [ 5144682.538047780282795, 6929792.690273585729301 ], [ 5144667.602006854489446, 6929806.99081898573786 ], [ 5144633.874882323667407, 6929831.503018446266651 ], [ 5144614.000165483914316, 6929848.423015031963587 ], [ 5144571.852235961705446, 6929884.563928131014109 ], [ 5144529.167595557868481, 6929926.996357654221356 ], [ 5144526.72960926219821, 6929872.963046440854669 ], [ 5144585.921085518784821, 6929786.680597543716431 ], [ 5144577.807149659842253, 6929671.724291121587157 ], [ 5144621.862668465822935, 6929631.891382180154324 ], [ 5144619.847763976082206, 6929589.403756750747561 ], [ 5144574.710498665459454, 6929513.57580054178834 ], [ 5144568.822487612254918, 6929478.694397278130054 ], [ 5144569.781183851882815, 6929445.771101200021803 ] ] ] } },
{ "type": "Feature", "properties": { "lv_id": "LOC_072005", "id": 423497.0, "CD_SETOR": "431090005000009", "SITUACAO": "Rural", "CD_SIT": "8", "CD_TIPO": "0", "AREA_KM2": 12.867635139422555, "CD_REGIAO": "4", "NM_REGIAO": "Sul", "CD_UF": "43", "NM_UF": "Rio Grande do Sul", "CD_MUN": "4310900", "NM_MUN": "Jacutinga", "CD_DIST": "431090005", "NM_DIST": "Jacutinga", "CD_SUBDIST": "43109000500", "NM_SUBDIST": null, "CD_BAIRRO": null, "NM_BAIRRO": null, "CD_NU": null, "NM_NU": null, "CD_FCU": null, "NM_FCU": null, "CD_AGLOM": null, "NM_AGLOM": null, "CD_RGINT": "4306", "NM_RGINT": "Passo Fundo", "CD_RGI": "430026", "NM_RGI": "Erechim", "CD_CONCURB": null, "NM_CONCURB": null, "mun_code_x": "4310900", "index_right": 71485, "dist_m": 2596.2037872055312, "local_id": 750741, "ano": 2022, "cod_localidade_ibge": 4310900, "NR_ZONA": "148", "nr_cep": 99730000.0, "nm_localidade": "JACUTINGA", "nm_locvot": "ESCOLA MUNICIPAL DE ENSINO FUNDAMENTAL BARÃO HIRSCH", "ds_endereco": "LINHA BARÃO HIRSCH", "ds_bairro": "INTERIOR", "pred_long": -52.51719, "pred_lat": -27.776252, "pred_dist": 0.0, "tse_long": -52.533335, "tse_lat": -27.727837, "long": -52.533335, "lat": -27.727837, "ID_UNICO": "LOC_072005", "SG_UF": "RS", "CD_MUNICIPIO": "87190", "NR_LOCAL_VOTACAO": "1031", "QT_SECOES_AGREGADAS": 0, "QT_ELEITORES_TRANSFERIDOS": 0, "CIRO GOMES (PDT) (NÃO ELEITO) 1T": 2.0, "CONSTITUINTE EYMAEL (DC) (NÃO ELEITO) 1T": 0.0, "FELIPE D AVILA (NOVO) (NÃO ELEITO) 1T": 0.0, "JAIR BOLSONARO (PL) (2º TURNO) 1T": 52.0, "LULA (PT) (2º TURNO) 1T": 33.0, "LÉO PÉRICLES (UP) (NÃO ELEITO) 1T": 0.0, "PADRE KELMON (PTB) (NÃO ELEITO) 1T": 0.0, "SIMONE TEBET (MDB) (NÃO ELEITO) 1T": 6.0, "SOFIA MANZANO (PCB) (NÃO ELEITO) 1T": 0.0, "SORAYA THRONICKE (UNIÃO) (NÃO ELEITO) 1T": 0.0, "VERA (PSTU) (NÃO ELEITO) 1T": 0.0, "Total_Votos_Validos 1T": 93.0, "Votos_Brancos 1T": 4.0, "Votos_Nulos 1T": 2.0, "Abstenções 1T": 23.0, "Eleitores_Aptos 1T": 122.0, "JAIR BOLSONARO (PL) (NÃO ELEITO) 2T": 75.0, "LULA (PT) (ELEITO) 2T": 27.0, "Total_Votos_Validos 2T": 102.0, "Votos_Brancos 2T": 2.0, "Votos_Nulos 2T": 2.0, "Abstenções 2T": 16.0, "Eleitores_Aptos 2T": 122.0, "mun_code_y": "4310900", "mun_code": "4310900" }, "geometry": { "type": "Polygon", "coordinates": [ [ [ 5147202.153506066650152, 6921070.324441919103265 ], [ 5147176.0752993831411, 6920999.395678592845798 ], [ 5147098.793791475705802, 6920812.182696492411196 ], [ 5147060.50250578392297, 6920697.814335585571826 ], [ 5146909.327396884560585, 6920475.836731616407633 ], [ 5146786.626601608470082, 6920307.76395670697093 ], [ 5146718.826813727617264, 6920213.418369607999921 ], [ 5146579.463663322851062, 6920065.133817358873785 ], [ 5146499.1978276707232, 6919998.818055339157581 ], [ 5146305.491490693762898, 6919878.104255029000342 ], [ 5146252.085878481157124, 6919842.700611020438373 ], [ 5146185.451723233796656, 6919773.324745930731297 ], [ 5146129.930388616397977, 6919703.825329180806875 ], [ 5146093.38514843210578, 6919648.984092960134149 ], [ 5146072.155785203911364, 6919624.730786277912557 ], [ 5146039.743111344985664, 6919593.872616466134787 ], [ 5145951.876664004288614, 6919534.850834699347615 ], [ 5145806.117036086507142, 6919421.731753410771489 ], [ 5145741.849526326172054, 6919370.117173049598932 ], [ 5145674.270298397168517, 6919328.153210617601871 ], [ 5145632.339334725402296, 6919322.406261446885765 ], [ 5145590.073351507075131, 6919324.833126276731491 ], [ 5145514.178734631277621, 6919336.81010861415416 ], [ 5145472.769694614224136, 6919339.226244676858187 ], [ 5145429.113306992687285, 6919332.546015866100788 ], [ 5145354.460265790112317, 6919306.040834791027009 ], [ 5145241.378036465495825, 6919263.424372030422091 ], [ 5145222.306754980236292, 6919257.878021199256182 ], [ 5145201.913373569026589, 6919249.709206579253078 ], [ 5145183.000146300531924, 6919240.092571430839598 ], [ 5145169.651221777312458, 6919231.118550984188914 ], [ 5145181.511941615492105, 6919204.770326109603047 ], [ 5145184.976050611585379, 6919169.99829541426152 ], [ 5145183.213218335993588, 6919133.138480698689818 ], [ 5145173.940073115751147, 6919054.177988672628999 ], [ 5145178.865191848017275, 6918931.060249848291278 ], [ 5145192.240691396407783, 6918729.024031719192863 ], [ 5145210.791160518303514, 6918601.906972427852452 ], [ 5145207.759056102484465, 6918491.389021686278284 ], [ 5145197.946413618512452, 6918456.898398365825415 ], [ 5145171.180982086807489, 6918433.186871893703938 ], [ 5145074.954250455833972, 6918388.1940624024719 ], [ 5144953.029648744501173, 6918337.744412957690656 ], [ 5144796.439984917640686, 6918245.407303370535374 ], [ 5144628.25347885210067, 6918183.980014162138104 ], [ 5144459.083549674600363, 6918111.011311015114188 ], [ 5144298.088161032646894, 6918007.192019445821643 ], [ 5144158.52945482544601, 6917909.83267936296761 ], [ 5144132.532516009174287, 6917878.427716638892889 ], [ 5144037.396763247437775, 6917709.402568968012929 ], [ 5143990.676345206797123, 6917659.964695022441447 ], [ 5143899.316769073717296, 6917520.702024860307574 ], [ 5143857.307147976011038, 6917472.172000959515572 ], [ 5143814.462541194632649, 6917445.323578476905823 ], [ 5143787.960771797224879, 6917423.490595034323633 ], [ 5143767.416113843210042, 6917396.476332736201584 ], [ 5143739.939531465061009, 6917336.576805176213384 ], [ 5143717.356645995751023, 6917304.642672792077065 ], [ 5143648.710237994790077, 6917243.459068221971393 ], [ 5143639.584800439886749, 6917237.326556857675314 ], [ 5143628.535036521963775, 6917235.041352190077305 ], [ 5143566.868759430013597, 6917233.147223193198442 ], [ 5143551.182901220396161, 6917231.149841452948749 ], [ 5143532.276832993142307, 6917221.763550633564591 ], [ 5143388.092213857918978, 6917129.26203750539571 ], [ 5143348.24035903904587, 6917082.156963658519089 ], [ 5143318.424686695449054, 6917053.190172512084246 ], [ 5143283.601750132627785, 6917033.8936672154814 ], [ 5143124.983382516540587, 6916984.826321589760482 ], [ 5143104.820400234311819, 6916977.372047350741923 ], [ 5143090.567379724234343, 6916964.083376668393612 ], [ 5143067.867257221601903, 6916922.050840145908296 ], [ 5142995.808721980080009, 6916752.745098074898124 ], [ 5142956.537599332630634, 6916682.075755620375276 ], [ 5142923.010588129982352, 6916628.154698183760047 ], [ 5142890.437325151637197, 6916582.392127849161625 ], [ 5142859.89914187323302, 6916527.958885846659541 ], [ 5142785.073820100165904, 6916430.794560134410858 ], [ 5142773.450466952286661, 6916423.238810106180608 ], [ 5142759.989117595367134, 6916422.677419124171138 ], [ 5142745.105913825333118, 6916427.653289258480072 ], [ 5142722.656233200803399, 6916443.305010983720422 ], [ 5142712.441030316054821, 6916446.551789374090731 ], [ 5142701.756895854137838, 6916445.9575100466609 ], [ 5142680.766669816337526, 6916440.917866395786405 ], [ 5142641.604217288084328, 6916415.906579487025738 ], [ 5142598.234275112859905, 6916395.744783097878098 ], [ 5142586.728538401424885, 6916379.784837735816836 ], [ 5142582.193299874663353, 6916357.723276210017502 ], [ 5142585.532209075987339, 6916332.686565187759697 ], [ 5142590.121992291882634, 6916323.498103462159634 ], [ 5142591.29167649988085, 6916314.117236769758165 ], [ 5142588.580757937394083, 6916301.412272687070072 ], [ 5142581.595712196081877, 6916288.757778488099575 ], [ 5142567.603225217200816, 6916279.068190587684512 ], [ 5142558.253106511197984, 6916265.477190341800451 ], [ 5142555.141393863596022, 6916254.694704097695649 ], [ 5142556.265691194683313, 6916241.467787972651422 ], [ 5142562.765612873248756, 6916213.034922627732158 ], [ 5142578.412336060777307, 6916164.296678661368787 ], [ 5142582.419700148515403, 6916141.657570253126323 ], [ 5142581.640583315864205, 6916129.894210306927562 ], [ 5142575.341170043684542, 6916121.07820856012404 ], [ 5142554.773486640304327, 6916115.068969048559666 ], [ 5142521.879336277022958, 6916114.492878187447786 ], [ 5142493.259391005150974, 6916113.877341343089938 ], [ 5142471.136956413276494, 6916121.34382663667202 ], [ 5142455.217630415223539, 6916147.005604824982584 ], [ 5142447.026676559820771, 6916177.387189587578177 ], [ 5142438.69242703076452, 6916194.789609961211681 ], [ 5142425.564228830859065, 6916204.078731298446655 ], [ 5142403.458577029407024, 6916212.98596690967679 ], [ 5142379.620930123142898, 6916219.519166987389326 ], [ 5142354.406565490178764, 6916217.88762716203928 ], [ 5142317.874071408994496, 6916198.619772786274552 ], [ 5142299.405249482952058, 6916190.179859072901309 ], [ 5142277.201903554610908, 6916189.9648447483778 ], [ 5142225.664427340961993, 6916202.100687650963664 ], [ 5142178.265233316458762, 6916202.658914482221007 ], [ 5142140.136716672219336, 6916192.532495087943971 ], [ 5142115.50927896425128, 6916168.789564400911331 ], [ 5142099.249187682755291, 6916129.57287538703531 ], [ 5142088.865108986385167, 6916081.629438880831003 ], [ 5142070.359220408834517, 6916034.014357076026499 ], [ 5142042.499499782919884, 6915989.158676786348224 ], [ 5142025.211106072179973, 6915971.337446846999228 ], [ 5142003.71092741843313, 6915958.853396657854319 ], [ 5141981.630108286626637, 6915951.431011209264398 ], [ 5141962.499232380650938, 6915941.08065121434629 ], [ 5141949.000766288489103, 6915918.880425532348454 ], [ 5141938.868886528536677, 6915892.328446799889207 ], [ 5141926.201634698547423, 6915831.907586414366961 ], [ 5141908.206352792680264, 6915790.782246323302388 ], [ 5141890.922774551436305, 6915774.169080534018576 ], [ 5141864.768000877462327, 6915765.342216616496444 ], [ 5141800.650063114240766, 6915760.320097483694553 ], [ 5141751.172108521685004, 6915765.712152161635458 ], [ 5141732.725502448156476, 6915758.235579399392009 ], [ 5141719.644244043156505, 6915747.193060992285609 ], [ 5141710.626301722601056, 6915731.58005634136498 ], [ 5141707.004577394574881, 6915713.354100050404668 ], [ 5141703.926691986620426, 6915670.135635258629918 ], [ 5141702.83157073892653, 6915648.997857561334968 ], [ 5141695.771689843386412, 6915629.858925294131041 ], [ 5141674.940200448967516, 6915601.259637825191021 ], [ 5141665.161971206776798, 6915568.684030873700976 ], [ 5141665.757900369353592, 6915539.733483728021383 ], [ 5141673.056934613734484, 6915513.79704786837101 ], [ 5141692.106462651863694, 6915463.590115781873465 ], [ 5141693.992050313390791, 6915439.634949317201972 ], [ 5141689.012046460993588, 6915414.762701336294413 ], [ 5141664.823495768941939, 6915321.631292298436165 ], [ 5141644.805127402767539, 6915217.077448055148125 ], [ 5141641.545481704175472, 6915157.51035869307816 ], [ 5141648.224921160377562, 6915108.169153608381748 ], [ 5141668.406821231357753, 6915081.493971291929483 ], [ 5141698.039351182058454, 6915059.518794368952513 ], [ 5141722.31389398034662, 6915053.458360160700977 ], [ 5141753.570690060965717, 6915060.784447288140655 ], [ 5141766.550666679628193, 6915056.552617114968598 ], [ 5141775.194709592498839, 6915047.072957807220519 ], [ 5141789.026453057304025, 6915024.806478604674339 ], [ 5141793.819522267207503, 6914996.870760259218514 ], [ 5141791.321358745917678, 6914966.13853667024523 ], [ 5141788.40536473505199, 6914899.838645374402404 ], [ 5141789.459572273306549, 6914880.593345711007714 ], [ 5141800.121070590801537, 6914842.501085175201297 ], [ 5141803.656429709866643, 6914816.497877951711416 ], [ 5141797.859970864839852, 6914795.903072258457541 ], [ 5141789.558212415315211, 6914779.173198388889432 ], [ 5141772.253500388003886, 6914760.631340799853206 ], [ 5141753.904378979466856, 6914725.274314070120454 ], [ 5141739.77963444404304, 6914686.508814426138997 ], [ 5141738.75220266263932, 6914635.085303707048297 ], [ 5141727.846983965486288, 6914579.465645598247647 ], [ 5141711.217174835503101, 6914544.565039090812206 ], [ 5141678.38967595808208, 6914513.224523946642876 ], [ 5141605.849036896601319, 6914481.396713739261031 ], [ 5141582.31940044183284, 6914477.826240892522037 ], [ 5141546.530850780196488, 6914484.498193755745888 ], [ 5141525.149282072670758, 6914481.866828367114067 ], [ 5141472.473066574893892, 6914468.539305136539042 ], [ 5141453.246633275412023, 6914468.288044428452849 ], [ 5141421.31503420881927, 6914476.344405079260468 ], [ 5141402.098437258973718, 6914476.092947080731392 ], [ 5141383.665268604643643, 6914469.580204090103507 ], [ 5141371.977093180641532, 6914456.259670229628682 ], [ 5141369.609483729116619, 6914436.577854435890913 ], [ 5141372.892250287346542, 6914388.950458735227585 ], [ 5141370.552823104895651, 6914371.673808881081641 ], [ 5141351.855223452672362, 6914342.572405898012221 ], [ 5141326.369201730005443, 6914317.397070750594139 ], [ 5141257.293831892311573, 6914271.825330287218094 ], [ 5141174.459040179848671, 6914235.304581708274782 ], [ 5141140.127095646224916, 6914220.807694917544723 ], [ 5141131.771510944701731, 6914218.732730928808451 ], [ 5141122.39204038772732, 6914220.050732584670186 ], [ 5141113.8859385214746, 6914222.788506704382598 ], [ 5141107.976616721600294, 6914228.633024515584111 ], [ 5141088.560326554812491, 6914248.325750366784632 ], [ 5141079.018888603895903, 6914253.481099565513432 ], [ 5141066.631904017180204, 6914253.625932381488383 ], [ 5141040.127790164202452, 6914250.809751072898507 ], [ 5141001.540500742383301, 6914255.595083471387625 ], [ 5140944.777720204554498, 6914258.176047082990408 ], [ 5140922.77905978448689, 6914257.468594875186682 ], [ 5140900.291112010367215, 6914251.966916901990771 ], [ 5140877.122407742775977, 6914242.138826566748321 ], [ 5140870.872891456820071, 6914237.411896174773574 ], [ 5140866.737567028962076, 6914230.731451165862381 ], [ 5140867.054346124641597, 6914221.5935333147645 ], [ 5140869.946634384803474, 6914212.902209054678679 ], [ 5140878.688153215683997, 6914194.055037855170667 ], [ 5140888.800939427688718, 6914182.164448585361242 ], [ 5140895.073569400236011, 6914170.318695482797921 ], [ 5140896.464874532073736, 6914162.121555415913463 ], [ 5140892.757239231839776, 6914154.959460160695016 ], [ 5140889.067716375924647, 6914150.191559923812747 ], [ 5140881.566280740313232, 6914147.884748750366271 ], [ 5140861.949214137159288, 6914149.554878992959857 ], [ 5140830.831258788704872, 6914154.718050248920918 ], [ 5140815.880164854228497, 6914153.695357715710998 ], [ 5140801.708485369570553, 6914146.888153500854969 ], [ 5140789.108475750312209, 6914128.766758915036917 ], [ 5140773.829342235811055, 6914099.624654371291399 ], [ 5140766.805305716581643, 6914083.367004015482962 ], [ 5140770.025846669450402, 6914066.513155743479729 ], [ 5140786.095605387352407, 6914052.857104077935219 ], [ 5140794.870750420726836, 6914036.891754249110818 ], [ 5140798.051915283314884, 6914016.668448128737509 ], [ 5140794.771237574517727, 6913991.232905566692352 ], [ 5140747.259125818498433, 6913871.623556984588504 ], [ 5140735.911413626745343, 6913851.082016972824931 ], [ 5140719.533550943247974, 6913838.303370617330074 ], [ 5140694.785684898495674, 6913839.068691214546561 ], [ 5140672.548831593245268, 6913836.445860410109162 ], [ 5140649.798924462869763, 6913826.135833155363798 ], [ 5140622.201128926128149, 6913802.901494388468564 ], [ 5140598.038246838375926, 6913782.032554504461586 ], [ 5140556.334126078523695, 6913757.532486276701093 ], [ 5140514.396947659552097, 6913749.363507881760597 ], [ 5140493.498587967827916, 6913750.039243444800377 ], [ 5140474.342345574870706, 6913756.558729635551572 ], [ 5140446.498366335406899, 6913785.72664007730782 ], [ 5140416.201714007183909, 6913844.465089153498411 ], [ 5140403.265821033157408, 6913867.639614263549447 ], [ 5140384.06765051651746, 6913888.348486602306366 ], [ 5140356.93443916644901, 6913905.014868983998895 ], [ 5140315.309879292733967, 6913923.7563979588449 ], [ 5140301.381968596950173, 6913937.863560600206256 ], [ 5140298.638783121481538, 6913958.558264665305614 ], [ 5140298.067248882725835, 6913983.085359605029225 ], [ 5140302.582180882804096, 6914004.660065529868007 ], [ 5140323.663684952072799, 6914054.40910186804831 ], [ 5140335.080639150924981, 6914118.204616082832217 ], [ 5140347.077601732686162, 6914195.450797414407134 ], [ 5140355.772467011585832, 6914245.332785293459892 ], [ 5140353.463889587670565, 6914266.986850338056684 ], [ 5140340.42022773437202, 6914283.489232989028096 ], [ 5140311.808810371905565, 6914301.846511717885733 ], [ 5140264.566355481743813, 6914333.877735929563642 ], [ 5140231.864216660149395, 6914367.180853257887065 ], [ 5140179.644510597921908, 6914430.274813966825604 ], [ 5140129.371274905279279, 6914477.006358231417835 ], [ 5140102.693081735633314, 6914496.537843467667699 ], [ 5140072.930875942111015, 6914507.458629267290235 ], [ 5140061.823711567558348, 6914507.587560385465622 ], [ 5140051.527236419729888, 6914502.896106643602252 ], [ 5140034.220060398802161, 6914483.875282503664494 ], [ 5140019.856061616912484, 6914460.485980691388249 ], [ 5140006.220570332370698, 6914426.036294125951827 ], [ 5139982.818281599320471, 6914396.034209659323096 ], [ 5139964.430306097492576, 6914356.828653263859451 ], [ 5139953.472305431030691, 6914332.446448327973485 ], [ 5139951.430028792470694, 6914304.103183282539248 ], [ 5139960.47812391538173, 6914274.20128580648452 ], [ 5139963.265268681570888, 6914256.388337098993361 ], [ 5139962.199896028265357, 6914247.743175708688796 ], [ 5139958.395539522171021, 6914241.535269484855235 ], [ 5139952.815597223117948, 6914239.316450338810682 ], [ 5139945.98080045543611, 6914239.284877711907029 ], [ 5139930.248232651501894, 6914244.75497717410326 ], [ 5139897.994558621197939, 6914262.43295338563621 ], [ 5139882.016750530339777, 6914283.280959660187364 ], [ 5139875.049537271261215, 6914308.358786460012197 ], [ 5139869.480510815046728, 6914380.997934987768531 ], [ 5139859.975414025597274, 6914408.033983036875725 ], [ 5139841.884144091047347, 6914431.788558280095458 ], [ 5139824.070273760706186, 6914442.093584313988686 ], [ 5139800.674951819702983, 6914450.057770540937781 ], [ 5139767.756371497176588, 6914446.104825334623456 ], [ 5139743.428834206424654, 6914428.849873438477516 ], [ 5139716.753013268113136, 6914393.342640745453537 ], [ 5139702.456584779545665, 6914375.727582128718495 ], [ 5139686.337354267016053, 6914366.536160817369819 ], [ 5139663.945850919000804, 6914368.480309888720512 ], [ 5139641.466637917794287, 6914363.696742681786418 ], [ 5139615.656602444127202, 6914347.655903974547982 ], [ 5139605.506050167605281, 6914337.674778351560235 ], [ 5139603.281849291175604, 6914329.286880970001221 ], [ 5139605.528018685057759, 6914320.847259709611535 ], [ 5139615.172745363786817, 6914305.837213108316064 ], [ 5139616.341617272235453, 6914296.212857884354889 ], [ 5139615.400293662212789, 6914288.053990772925317 ], [ 5139613.363378344103694, 6914277.978983975015581 ], [ 5139605.487040453590453, 6914271.341431832872331 ], [ 5139580.596593031659722, 6914269.223927700892091 ], [ 5139556.07267386559397, 6914272.400836349464953 ], [ 5139509.318239713087678, 6914282.064614741131663 ], [ 5139497.106405151076615, 6914287.13870189897716 ], [ 5139486.192446869798005, 6914294.592164032161236 ], [ 5139475.395224975422025, 6914301.922329433262348 ], [ 5139468.475656368769705, 6914303.931132005527616 ], [ 5139460.777126778848469, 6914303.299583863466978 ], [ 5139453.114776974543929, 6914295.573118286207318 ], [ 5139447.645985132083297, 6914284.218623413704336 ], [ 5139444.132077251560986, 6914266.478658676147461 ], [ 5139442.908888582140207, 6914244.145137758925557 ], [ 5139440.47651540953666, 6914236.480156757868826 ], [ 5139429.183506287634373, 6914220.503947721794248 ], [ 5139427.277351401746273, 6914212.356222013011575 ], [ 5139431.150927979499102, 6914187.081660875119269 ], [ 5139432.249016829766333, 6914180.695010386407375 ], [ 5139431.953239616937935, 6914173.847806956619024 ], [ 5139431.336945623159409, 6914170.795428354293108 ], [ 5139429.765300874598324, 6914168.58547649346292 ], [ 5139427.391238812357187, 6914166.817118334583938 ], [ 5139423.745329506695271, 6914165.772906890138984 ], [ 5139417.017595307901502, 6914164.775392133742571 ], [ 5139410.049434146843851, 6914162.572370742447674 ], [ 5139400.143609747290611, 6914154.99373634904623 ], [ 5139393.666960874572396, 6914149.304290778934956 ], [ 5139375.261011457070708, 6914127.102767924778163 ], [ 5139365.052507707849145, 6914125.713115117512643 ], [ 5139342.689185000956059, 6914130.061841049231589 ], [ 5139337.826437364332378, 6914130.239939225837588 ], [ 5139333.86341208871454, 6914129.02200170326978 ], [ 5139329.377841426059604, 6914123.486891323700547 ], [ 5139320.628515995107591, 6914106.040146856568754 ], [ 5139319.395828931592405, 6914096.510072686709464 ], [ 5139319.974878903478384, 6914086.105520708486438 ], [ 5139325.031352174468338, 6914061.770661342889071 ], [ 5139325.267543863505125, 6914049.818147446960211 ], [ 5139316.890899871475995, 6913967.419230869039893 ], [ 5139310.291001833043993, 6913936.545718500390649 ], [ 5139303.521734667941928, 6913923.410392411984503 ], [ 5139297.820050013251603, 6913919.153022853657603 ], [ 5139291.394755153916776, 6913917.896995052695274 ], [ 5139288.206609496846795, 6913918.964724220335484 ], [ 5139285.566670035012066, 6913921.456106791272759 ], [ 5139283.504878000356257, 6913927.964721297845244 ], [ 5139275.489908525720239, 6913954.495324851945043 ], [ 5139275.067729905247688, 6913963.989082034677267 ], [ 5139272.489574532024562, 6913971.833872063085437 ], [ 5139268.027406683191657, 6913974.290860557928681 ], [ 5139261.534199009649456, 6913975.684948769398034 ], [ 5139243.595693992450833, 6913975.171474476344883 ], [ 5139225.479325299151242, 6913978.01882407721132 ], [ 5139212.8165342528373, 6913972.156806241720915 ], [ 5139199.54149313736707, 6913968.707315567880869 ], [ 5139189.937094326131046, 6913969.3058773111552 ], [ 5139182.297099537216127, 6913972.874755871482193 ], [ 5139176.542358886450529, 6913974.260278228670359 ], [ 5139171.960867686197162, 6913974.911729102954268 ], [ 5139166.933865683153272, 6913973.650588524527848 ], [ 5139162.156593124382198, 6913976.111171666532755 ], [ 5139155.727032663300633, 6913983.878422370180488 ], [ 5139150.211277328431606, 6913986.347518576309085 ], [ 5139144.245534987188876, 6913987.369649197906256 ], [ 5139135.904528520070016, 6913986.512527545914054 ], [ 5139128.811728581786156, 6913982.027250854298472 ], [ 5139121.10530271474272, 6913971.297029653564095 ], [ 5139116.057476201094687, 6913968.229231206700206 ], [ 5139109.875248582102358, 6913969.264926729723811 ], [ 5139091.924030768685043, 6913977.043055480346084 ], [ 5139081.151994551531971, 6913978.009716532193124 ], [ 5139058.808240277692676, 6913975.49600369296968 ], [ 5139052.387423316016793, 6913973.774221362546086 ], [ 5139041.217150717973709, 6913967.529015697538853 ], [ 5139033.510557898320258, 6913966.176766778342426 ], [ 5139014.511486034840345, 6913965.919048982672393 ], [ 5139005.09586292412132, 6913964.098729576915503 ], [ 5138996.822970162145793, 6913959.748912293463945 ], [ 5138988.503095410764217, 6913951.320303003303707 ], [ 5138979.268102046102285, 6913946.371876587159932 ], [ 5138953.113913514651358, 6913937.062344523146749 ], [ 5138946.773597222752869, 6913933.776577500626445 ], [ 5138942.232641032896936, 6913928.541271443478763 ], [ 5138941.840079944580793, 6913921.81711976416409 ], [ 5138944.330933671444654, 6913915.780292022973299 ], [ 5138955.278221353888512, 6913902.673515450209379 ], [ 5138964.597195218317211, 6913886.703350783325732 ], [ 5138979.406690191477537, 6913875.480871288105845 ], [ 5138987.244031178764999, 6913869.382436896674335 ], [ 5138989.759749341756105, 6913865.506911782547832 ], [ 5138991.203770902007818, 6913860.923200193792582 ], [ 5138990.681918201036751, 6913853.236131343990564 ], [ 5138988.272113939747214, 6913847.49962742626667 ], [ 5138979.372101947665215, 6913834.865349005907774 ], [ 5138975.998089328408241, 6913824.927601399831474 ], [ 5138976.511360762640834, 6913818.193013370037079 ], [ 5138978.066644797101617, 6913805.31634259968996 ], [ 5138977.823868184350431, 6913802.193132375366986 ], [ 5138976.78340713866055, 6913799.921582060866058 ], [ 5138975.312522728927433, 6913797.89886330999434 ], [ 5138972.949720649980009, 6913796.241143884137273 ], [ 5138966.317883774638176, 6913794.998412732034922 ], [ 5138951.585167061537504, 6913794.924249421805143 ], [ 5138944.14734947681427, 6913793.812726447358727 ], [ 5138922.948970193043351, 6913783.836381575092673 ], [ 5138901.775638109073043, 6913776.032398024573922 ], [ 5138886.401156247593462, 6913770.677940033376217 ], [ 5138872.485901088453829, 6913762.9122768137604 ], [ 5138866.333222660236061, 6913757.096903625875711 ], [ 5138861.879875765182078, 6913750.053687185049057 ], [ 5138858.610728397965431, 6913744.083180321380496 ], [ 5138856.593749365769327, 6913736.535256147384644 ], [ 5138854.976603417657316, 6913734.636144043877721 ], [ 5138852.724793320521712, 6913734.06346729490906 ], [ 5138847.829704627394676, 6913734.840345419943333 ], [ 5138840.924015794880688, 6913738.034750388935208 ], [ 5138835.793048707768321, 6913737.140484357252717 ], [ 5138831.175509872846305, 6913735.508688900619745 ], [ 5138827.066348055377603, 6913730.988908372819424 ], [ 5138824.097273916937411, 6913722.853340255096555 ], [ 5138820.090941959992051, 6913717.855713836848736 ], [ 5138812.037573439069092, 6913713.736042239703238 ], [ 5138801.965727945789695, 6913710.493146123364568 ], [ 5138797.33866673707962, 6913707.176509067416191 ], [ 5138794.505441677756608, 6913702.287313170731068 ], [ 5138793.483776541426778, 6913697.366187991574407 ], [ 5138794.807171524502337, 6913691.708632529713213 ], [ 5138800.684163797646761, 6913682.983527240343392 ], [ 5138812.471408825367689, 6913668.426141558215022 ], [ 5138816.737264333292842, 6913648.911569057032466 ], [ 5138823.976614160463214, 6913629.362772895023227 ], [ 5138833.148569472134113, 6913610.035600056871772 ], [ 5138842.808955788612366, 6913595.502656783908606 ], [ 5138859.893943188712001, 6913577.525440566241741 ], [ 5138869.139035471715033, 6913564.560256762430072 ], [ 5138871.606234773993492, 6913556.472962317056954 ], [ 5138871.938380909152329, 6913548.543269937857985 ], [ 5138871.332411699928343, 6913532.687424452975392 ], [ 5138874.144248981960118, 6913517.756634917110205 ], [ 5138879.567344882525504, 6913506.398446275852621 ], [ 5138881.997260998934507, 6913495.074718832969666 ], [ 5138881.89211100526154, 6913485.941780792549253 ], [ 5138878.80504594091326, 6913476.965113190002739 ], [ 5138875.323555866256356, 6913471.36286636069417 ], [ 5138871.219947717152536, 6913467.319699827581644 ], [ 5138861.342696533538401, 6913462.145808834582567 ], [ 5138849.763363382779062, 6913457.955910475924611 ], [ 5138829.775709753856063, 6913446.169704026542604 ], [ 5138810.375376894138753, 6913430.652103716507554 ], [ 5138803.238757025450468, 6913422.320620484650135 ], [ 5138798.540406617335975, 6913403.385861810296774 ], [ 5138797.320667203515768, 6913390.663084522821009 ], [ 5138795.702427146956325, 6913380.106493037194014 ], [ 5138792.868021466769278, 6913374.252905983477831 ], [ 5138788.967154058627784, 6913369.852657013572752 ], [ 5138783.465651486068964, 6913364.983079153113067 ], [ 5138775.862445316277444, 6913362.310366540215909 ], [ 5138738.548752278089523, 6913366.342304748483002 ], [ 5138714.86917657777667, 6913368.299603110179305 ], [ 5138692.694446358829737, 6913370.960083555430174 ], [ 5138673.834323804825544, 6913382.705470412038267 ], [ 5138647.599099209532142, 6913394.491265613585711 ], [ 5138640.30926151573658, 6913395.949616538360715 ], [ 5138636.431698425672948, 6913397.856487266719341 ], [ 5138633.067026860080659, 6913402.406805532053113 ], [ 5138624.118455207906663, 6913412.907499895431101 ], [ 5138606.98369902651757, 6913426.561755584552884 ], [ 5138603.262693468481302, 6913432.668075943365693 ], [ 5138602.065068301744759, 6913435.563969226554036 ], [ 5138601.892817445099354, 6913438.570015918463469 ], [ 5138603.085875783115625, 6913440.418606217950583 ], [ 5138605.066137021407485, 6913441.360255673527718 ], [ 5138613.429652977734804, 6913444.212785646319389 ], [ 5138622.844048734754324, 6913445.966890644282103 ], [ 5138627.34317191131413, 6913447.589034965261817 ], [ 5138628.878473616205156, 6913450.941265818662941 ], [ 5138628.543688756413758, 6913454.370415803045034 ], [ 5138626.270989232696593, 6913456.258836689405143 ], [ 5138622.65160147100687, 6913457.497627263888717 ], [ 5138606.385141490958631, 6913462.739378465339541 ], [ 5138582.123309398069978, 6913469.746824744157493 ], [ 5138577.04760945122689, 6913473.651676361449063 ], [ 5138568.188352311961353, 6913483.364253485575318 ], [ 5138559.529140663333237, 6913491.633460089564323 ], [ 5138547.897886462509632, 6913496.633433906361461 ], [ 5138540.147257281467319, 6913495.702628215774894 ], [ 5138532.846622355282307, 6913491.939944987185299 ], [ 5138525.963894446380436, 6913487.695798105560243 ], [ 5138521.277452534064651, 6913483.481850428506732 ], [ 5138512.325511292554438, 6913470.548559681512415 ], [ 5138508.37915663421154, 6913462.180275807157159 ], [ 5138504.665095550939441, 6913450.029299410060048 ], [ 5138506.572346653789282, 6913434.321960978209972 ], [ 5138510.711404935456812, 6913423.455357901751995 ], [ 5138512.973572343587875, 6913415.503522217273712 ], [ 5138513.505880502983928, 6913406.119401600211859 ], [ 5138511.078261098824441, 6913399.662487686611712 ], [ 5138507.408017492853105, 6913395.61422811076045 ], [ 5138501.830130632966757, 6913393.516683394089341 ], [ 5138494.581998048350215, 6913394.320444775745273 ], [ 5138474.552000156603754, 6913397.676424763165414 ], [ 5138449.490676335059106, 6913404.51542498730123 ], [ 5138430.542953567579389, 6913413.800526913255453 ], [ 5138413.624589878134429, 6913427.452013060450554 ], [ 5138381.931120531633496, 6913456.182467450387776 ], [ 5138355.939403276890516, 6913479.792619658634067 ], [ 5138346.099229012615979, 6913496.721594787202775 ], [ 5138330.120286397635937, 6913513.310814312659204 ], [ 5138321.238814405165613, 6913521.105729458853602 ], [ 5138318.502156672999263, 6913524.617834758013487 ], [ 5138316.411077692173421, 6913528.61028098501265 ], [ 5138315.505581751465797, 6913532.943854978308082 ], [ 5138315.657986687496305, 6913536.788638420403004 ], [ 5138317.090370031073689, 6913540.618744201026857 ], [ 5138319.575064372271299, 6913543.472378615289927 ], [ 5138326.008002731949091, 6913546.280735256150365 ], [ 5138331.292784329503775, 6913551.1530004106462 ], [ 5138335.527929318137467, 6913557.234492665156722 ], [ 5138340.373188366182148, 6913570.148495823144913 ], [ 5138348.426724732853472, 6913601.781697352416813 ], [ 5138353.009758564643562, 6913629.608169398270547 ], [ 5138352.471633366309106, 6913656.528974341228604 ], [ 5138346.348463345319033, 6913681.596111238002777 ], [ 5138335.917790491133928, 6913702.86611149366945 ], [ 5138321.175221716985106, 6913720.815673340111971 ], [ 5138301.256382806226611, 6913733.060309262946248 ], [ 5138277.373127973638475, 6913736.216233057901263 ], [ 5138251.752375001087785, 6913735.556578470394015 ], [ 5138229.04884188529104, 6913729.088106108829379 ], [ 5138207.125945405103266, 6913716.835313363932073 ], [ 5138177.758301774039865, 6913687.375016001984477 ], [ 5138151.775456652976573, 6913655.947081711143255 ], [ 5138131.87945915106684, 6913634.071256931871176 ], [ 5138116.361154125072062, 6913621.268309438601136 ], [ 5138097.068903436884284, 6913614.272798594087362 ], [ 5138062.320458122529089, 6913637.749727979302406 ], [ 5138037.820336797274649, 6913660.133789474144578 ], [ 5138019.319957902655005, 6913685.342356897890568 ], [ 5137988.449476592242718, 6913749.146562158130109 ], [ 5137972.244663532823324, 6913825.275826450437307 ], [ 5137943.669710851274431, 6913865.974480563774705 ], [ 5136961.443428365513682, 6914082.49410186521709 ], [ 5136890.042173686437309, 6914174.888962287455797 ], [ 5136886.239956052042544, 6914291.989965541288257 ], [ 5137023.83893275167793, 6914451.094489574432373 ], [ 5137227.136978875845671, 6914543.394905665889382 ], [ 5137806.338211491703987, 6914431.796301005408168 ], [ 5137883.740273248404264, 6914585.7926243878901 ], [ 5137781.041761083528399, 6914770.190666605718434 ], [ 5137156.741127143613994, 6915226.988663425669074 ], [ 5136458.542335021309555, 6915393.395757347345352 ], [ 5136256.139463093131781, 6915333.096474099904299 ], [ 5135985.241144627332687, 6914658.2944774646312 ], [ 5135889.543658584356308, 6914569.695103310979903 ], [ 5135682.645161639899015, 6914594.19325924385339 ], [ 5135564.346930936910212, 6914681.597549084573984 ], [ 5135405.647122586145997, 6915029.49569896236062 ], [ 5135428.943704067729414, 6915717.298612602055073 ], [ 5135278.437651623040438, 6915850.597449906170368 ], [ 5135010.944302226416767, 6915584.494515409693122 ], [ 5134401.540775340050459, 6914190.396716823801398 ], [ 5134252.141182804480195, 6914109.89880115352571 ], [ 5134006.14056096598506, 6914167.891940779983997 ], [ 5133171.942324833013117, 6914525.7915841601789 ], [ 5133087.24377035535872, 6914891.395113162696362 ], [ 5133538.347357423976064, 6915283.293993193656206 ], [ 5133469.041309463791549, 6915725.891416570171714 ], [ 5133632.043111788108945, 6916650.692266020923853 ], [ 5133584.642271898686886, 6916898.796406902372837 ], [ 5133405.643431993201375, 6917146.192854709923267 ], [ 5133945.546662756241858, 6917487.993329206481576 ], [ 5134779.945673481561244, 6918334.797019081190228 ], [ 5135734.139636617153883, 6918373.688286378979683 ], [ 5136015.442773261107504, 6918798.491812373511493 ], [ 5136172.143309713341296, 6918825.791973390616477 ], [ 5136575.442725339904428, 6918692.090721203014255 ], [ 5136854.640164505690336, 6918824.989125794731081 ], [ 5137392.541427352465689, 6918612.295604608952999 ], [ 5137333.346731390804052, 6918749.491024853661656 ], [ 5137491.743237297981977, 6918725.586651705205441 ], [ 5138058.646337838843465, 6919588.986773826181889 ], [ 5138527.041900034993887, 6919736.192053308710456 ], [ 5138522.137589303776622, 6919990.095171151682734 ], [ 5138671.544586950913072, 6919998.093124901875854 ], [ 5138772.246860359795392, 6920743.39219371881336 ], [ 5139009.539263255894184, 6920968.786100478842854 ], [ 5139032.64219060447067, 6921117.691769205033779 ], [ 5139524.340626058168709, 6921084.395539218559861 ], [ 5139580.740556770004332, 6921448.986162826418877 ], [ 5139875.444236102513969, 6921681.494773359037936 ], [ 5140176.340689051896334, 6922167.795189779251814 ], [ 5140477.844739662483335, 6922290.092546072788537 ], [ 5140592.945126867853105, 6922548.889565864577889 ], [ 5140209.938617383129895, 6922653.086890663951635 ], [ 5140072.537652057595551, 6922773.487303326837718 ], [ 5139563.339273118413985, 6922789.788887429982424 ], [ 5139066.541902240365744, 6922659.79295836109668 ], [ 5138727.147361089475453, 6922687.487066784873605 ], [ 5138691.047201300039887, 6922682.990113887004554 ], [ 5138421.146960735321045, 6922712.395391328260303 ], [ 5138448.238869086839259, 6924395.092795506119728 ], [ 5138997.441323493607342, 6924821.094266578555107 ], [ 5139204.241565555334091, 6925220.99336008913815 ], [ 5140028.643747654743493, 6925614.887929731979966 ], [ 5139670.046289410442114, 6925957.484321177005768 ], [ 5139526.542254455387592, 6926531.288095001131296 ], [ 5139830.247605879791081, 6926917.093018937855959 ], [ 5139889.245515459217131, 6926991.989798316732049 ], [ 5140575.247532176785171, 6927591.092334832064807 ], [ 5140639.438234222121537, 6927699.09195707552135 ], [ 5140546.643659808672965, 6928251.89009665325284 ], [ 5140641.345314650796354, 6928865.388672716915607 ], [ 5140568.342661884613335, 6929132.584604028612375 ], [ 5140776.540287681855261, 6929545.99090338498354 ], [ 5141156.246893777512014, 6930300.182045470923185 ], [ 5141823.450922037474811, 6929933.904715190641582 ], [ 5143639.439404899254441, 6928935.983644715510309 ], [ 5145797.940480995923281, 6927998.587276650592685 ], [ 5146956.878339643590152, 6927479.320816666819155 ], [ 5146912.333220398053527, 6927893.35397856682539 ], [ 5146910.43681831844151, 6927975.286330996081233 ], [ 5146908.919540253467858, 6928040.497430587187409 ], [ 5147322.715679078362882, 6928034.28126357588917 ], [ 5147345.695038129575551, 6928033.259414622560143 ], [ 5147381.024309318512678, 6928064.390134121291339 ], [ 5147426.909023443236947, 6928083.83046199195087 ], [ 5147448.15033486764878, 6928127.181988064199686 ], [ 5147463.928689047694206, 6928172.883477630093694 ], [ 5147450.11521403118968, 6928219.077721539884806 ], [ 5147425.330983897671103, 6928241.172736471518874 ], [ 5147360.861742850393057, 6928254.28298776037991 ], [ 5147333.787397414445877, 6928289.974065873771906 ], [ 5147325.71426760032773, 6928350.198942221701145 ], [ 5147335.463516937568784, 6928414.186989417299628 ], [ 5147332.049951184540987, 6928453.791982039809227 ], [ 5147309.23895160201937, 6928478.489971566945314 ], [ 5147236.345949756912887, 6928530.411708323284984 ], [ 5147190.75562194827944, 6928571.104876898229122 ], [ 5147176.507197144441307, 6928592.140308334492147 ], [ 5147145.316324441693723, 6928636.471934605389833 ], [ 5147124.016644979827106, 6928696.424665958620608 ], [ 5147117.003879402764142, 6928773.475026603788137 ], [ 5147127.336809458211064, 6928840.13872926030308 ], [ 5147165.178927902132273, 6928888.089345932006836 ], [ 5147234.187748190946877, 6928920.519161334261298 ], [ 5147264.498877032659948, 6928965.335056442767382 ], [ 5147312.900098016485572, 6929018.001382810994983 ], [ 5147356.803792744874954, 6929037.233405337668955 ], [ 5147410.94326978828758, 6929013.518329123966396 ], [ 5147451.721690921112895, 6929007.613211628049612 ], [ 5147485.498748373240232, 6929018.687096701003611 ], [ 5147523.292991458438337, 6929031.718495241366327 ], [ 5147523.585226798430085, 6929061.434706911444664 ], [ 5147535.172989713959396, 6929098.108193575404584 ], [ 5147583.49868930131197, 6929142.804094123654068 ], [ 5147625.021160684525967, 6929206.139431573450565 ], [ 5147622.255043997429311, 6929251.911155977286398 ], [ 5147615.893850799649954, 6929289.09113681782037 ], [ 5147623.575483071617782, 6929328.040221402421594 ], [ 5147644.859943634830415, 6929389.31594437174499 ], [ 5147689.343650363385677, 6929433.370945178903639 ], [ 5147744.718882239423692, 6929486.771167827770114 ], [ 5147765.419142826460302, 6929520.240727409720421 ], [ 5147805.118778658099473, 6929557.602626599371433 ], [ 5147873.094548916444182, 6929611.624826744198799 ], [ 5147922.403518630191684, 6929651.784734392538667 ], [ 5147946.141277802176774, 6929686.846546065062284 ], [ 5147992.532828092575073, 6929740.011607619002461 ], [ 5148033.77896370459348, 6929796.531615165993571 ], [ 5148037.714523687027395, 6929833.009819446131587 ], [ 5148053.979164623655379, 6929865.701647873036563 ], [ 5148077.778866328299046, 6929900.928761758841574 ], [ 5148111.931557701900601, 6929911.020970922894776 ], [ 5148145.012236673384905, 6929952.043202913366258 ], [ 5148202.951193623244762, 6929997.816792281344533 ], [ 5148252.707614874467254, 6930021.918437507003546 ], [ 5148303.553720391355455, 6930027.039536722004414 ], [ 5148374.223790264688432, 6930035.676060989499092 ], [ 5148440.813616966828704, 6930040.448945112526417 ], [ 5148498.767155184410512, 6930053.430523913353682 ], [ 5148536.091795993968844, 6930048.683816174976528 ], [ 5148533.298971870914102, 6930075.101158818230033 ], [ 5148530.719314781017601, 6930097.181513532996178 ], [ 5148516.144500416703522, 6930163.251238938421011 ], [ 5148507.780789074487984, 6930226.806170599535108 ], [ 5148524.865948626771569, 6930288.542146241292357 ], [ 5148549.416485912166536, 6930335.797956701368093 ], [ 5148581.185834894888103, 6930400.801725518889725 ], [ 5148617.182593617588282, 6930427.664367923513055 ], [ 5148604.233657215721905, 6930488.803455153480172 ], [ 5148600.449053465388715, 6930526.041166758164763 ], [ 5148610.16948308609426, 6930576.571203157305717 ], [ 5148608.38337950501591, 6930628.040223384276032 ], [ 5148655.133585686795413, 6930590.775363720953465 ], [ 5148667.801272845827043, 6930621.847723545506597 ], [ 5148643.691812454722822, 6930668.701434990391135 ], [ 5148625.350710445083678, 6930726.802628620527685 ], [ 5148598.497370085678995, 6930763.823841102421284 ], [ 5148567.139845736324787, 6930837.337657980620861 ], [ 5148585.782861758954823, 6930884.466174377128482 ], [ 5148617.225817794911563, 6930915.430758500471711 ], [ 5148668.844728070311248, 6931055.860047161579132 ], [ 5148642.644267250783741, 6931119.688786709681153 ], [ 5148851.441906735301018, 6931322.786883060820401 ], [ 5148766.940236423164606, 6931580.082469535991549 ], [ 5148873.140756553970277, 6931701.983880184590816 ], [ 5149077.446491302922368, 6931605.485207414254546 ], [ 5149309.83672003634274, 6931804.284787759184837 ], [ 5149551.544168246909976, 6931731.462227195501328 ], [ 5149588.447984261438251, 6931723.381046400405467 ], [ 5149615.968897987157106, 6931730.203248518519104 ], [ 5149640.303570352494717, 6931708.142843023873866 ], [ 5149661.562662113457918, 6931667.796115489676595 ], [ 5149677.909629026427865, 6931618.597212918102741 ], [ 5149671.903161272406578, 6931572.943953575566411 ], [ 5149638.305909170769155, 6931537.175182970240712 ], [ 5149529.636342705227435, 6931504.43704985268414 ], [ 5149436.289168195798993, 6931456.954341318458319 ], [ 5149420.014798582531512, 6931435.150074500590563 ], [ 5149418.767032476142049, 6931409.879650952294469 ], [ 5149412.779982443898916, 6931244.670125644654036 ], [ 5149414.30181816406548, 6931195.221635261550546 ], [ 5149422.321046163327992, 6931168.894925401546061 ], [ 5149444.282329506240785, 6931158.392865685746074 ], [ 5149465.375395623035729, 6931163.088443252258003 ], [ 5149531.051570473238826, 6931214.857975729741156 ], [ 5149579.603948247618973, 6931227.861835233867168 ], [ 5149620.120390302501619, 6931232.173789707943797 ], [ 5149680.305246296338737, 6931312.011956762522459 ], [ 5149691.121236589737236, 6931319.804710652679205 ], [ 5149703.931781276129186, 6931318.992764781229198 ], [ 5149714.142308703623712, 6931313.667840953916311 ], [ 5149722.256104241125286, 6931299.057015167549253 ], [ 5149728.407380585558712, 6931245.250203379429877 ], [ 5149747.812812113203108, 6931186.635163754224777 ], [ 5149770.41823342628777, 6931140.418445044197142 ], [ 5149804.361075857654214, 6931104.315825290977955 ], [ 5149838.636392463929951, 6931081.589093522168696 ], [ 5149885.764975935220718, 6931067.937770133838058 ], [ 5149899.496190184727311, 6931058.644976958632469 ], [ 5149905.436479104682803, 6931044.548590054735541 ], [ 5149902.929858305491507, 6931027.629924575798213 ], [ 5149891.693438827060163, 6931017.72523739375174 ], [ 5149852.42199863307178, 6931015.959589716047049 ], [ 5149813.22075682412833, 6931024.679753909818828 ], [ 5149786.998454126529396, 6931018.285474620759487 ], [ 5149767.454900231212378, 6931008.882220208644867 ], [ 5149757.063030853867531, 6930993.080644411966205 ], [ 5149758.594324613921344, 6930983.705669610761106 ], [ 5149766.624024051241577, 6930974.29488879442215 ], [ 5149771.42740867100656, 6930957.563180103898048 ], [ 5149773.374911205843091, 6930915.569775016978383 ], [ 5149774.999719968065619, 6930880.996490638703108 ], [ 5149782.490291869267821, 6930872.656543508172035 ], [ 5149795.108335345052183, 6930873.066244402900338 ], [ 5149807.248609827831388, 6930885.9085807595402 ], [ 5149832.17125213611871, 6930902.883243697695434 ], [ 5149867.503324124962091, 6930896.316978935152292 ], [ 5149901.361159466207027, 6930875.779004810377955 ], [ 5149927.867495471611619, 6930855.675352090969682 ], [ 5149961.434303699992597, 6930825.163906234316528 ], [ 5149982.080798122100532, 6930809.699688918888569 ], [ 5149989.049044265411794, 6930792.619651354849339 ], [ 5149985.645498825237155, 6930771.754574747756124 ], [ 5149970.394755915738642, 6930724.253436611965299 ], [ 5149967.320791654288769, 6930693.340885842218995 ], [ 5149968.999111394397914, 6930678.321569508872926 ], [ 5149975.949998547323048, 6930669.422795232385397 ], [ 5149995.147584372200072, 6930663.620759091340005 ], [ 5150028.755438876338303, 6930672.406433693133295 ], [ 5150084.047284091822803, 6930711.397860947996378 ], [ 5150136.333822200074792, 6930734.607296789065003 ], [ 5150177.612502329982817, 6930754.4164187181741 ], [ 5150185.197167478501797, 6930753.712906211614609 ], [ 5150189.634635827504098, 6930747.317145930603147 ], [ 5150190.855126697570086, 6930729.587514984421432 ], [ 5150190.303717174567282, 6930703.344011816196144 ], [ 5150197.429322677664459, 6930693.434166338294744 ], [ 5150226.396882940083742, 6930682.633303429931402 ], [ 5150258.813556334935129, 6930684.393835095688701 ], [ 5150329.765697311609983, 6930731.304925909265876 ], [ 5150376.129351398907602, 6930777.079069147817791 ], [ 5150397.265405884943902, 6930781.284722967073321 ], [ 5150415.926306947134435, 6930775.943173006176949 ], [ 5150495.493159659206867, 6930703.855119243264198 ], [ 5150522.795164982788265, 6930657.356832466088235 ], [ 5150636.921749569475651, 6930563.566239604726434 ], [ 5150639.241157432086766, 6930555.777635322883725 ], [ 5150636.14104784373194, 6930547.535255774855614 ], [ 5150615.189835088327527, 6930533.561446106992662 ], [ 5150592.784369871020317, 6930528.751149608753622 ], [ 5150586.810779535211623, 6930524.967501402832568 ], [ 5150584.343564419075847, 6930517.659525265917182 ], [ 5150585.205318227410316, 6930508.425730303861201 ], [ 5150596.072787987999618, 6930494.932948175817728 ], [ 5150614.56363339163363, 6930481.489694388583302 ], [ 5150619.941177478991449, 6930472.998025814071298 ], [ 5150616.570189747028053, 6930430.992669861763716 ], [ 5150581.539536975324154, 6930386.187428873032331 ], [ 5150522.839389923028648, 6930355.465914050117135 ], [ 5150491.757999379187822, 6930342.82582838460803 ], [ 5150478.993127380497754, 6930342.463042258284986 ], [ 5150473.782917562872171, 6930344.567347912117839 ], [ 5150470.351308536715806, 6930343.778472013771534 ], [ 5150467.369856842793524, 6930340.323505166918039 ], [ 5150466.820952, 6930331.838845297694206 ], [ 5150470.397305890917778, 6930322.02822688780725 ], [ 5150496.971640997566283, 6930263.832700023427606 ], [ 5150520.778571434319019, 6930224.239565217867494 ], [ 5150528.924164906144142, 6930191.65814714320004 ], [ 5150523.400676384568214, 6930174.056404300965369 ], [ 5150485.056536485441029, 6930144.268481485545635 ], [ 5150461.355540467426181, 6930120.795037940144539 ], [ 5150449.598786431364715, 6930110.254368727095425 ], [ 5150447.104661658406258, 6930100.762867359444499 ], [ 5150457.536067760549486, 6930081.54440891649574 ], [ 5150479.517471672967076, 6930068.124573258683085 ], [ 5150513.825465016067028, 6930064.284898286685348 ], [ 5150544.929854923859239, 6930076.44793239235878 ], [ 5150581.291496795602143, 6930111.769736684858799 ], [ 5150614.034963790327311, 6930167.012585241347551 ], [ 5150628.078914151526988, 6930177.491469459608197 ], [ 5150644.591163778677583, 6930177.087030548602343 ], [ 5150649.136100272648036, 6930173.826926819980145 ], [ 5150651.46663580276072, 6930168.53240473754704 ], [ 5150649.871218710206449, 6930156.779431633651257 ], [ 5150642.409155360423028, 6930135.543584856204689 ], [ 5150629.562104422599077, 6930091.981900857761502 ], [ 5150623.05526150111109, 6930037.256061445921659 ], [ 5150621.118259312584996, 6929992.406098120845854 ], [ 5150624.747739970684052, 6929984.512544760480523 ], [ 5150631.669721749611199, 6929982.098698486573994 ], [ 5150638.347952052019536, 6929984.67633699811995 ], [ 5150659.18431903142482, 6930007.741580286994576 ], [ 5150681.917988930828869, 6930025.561980117112398 ], [ 5150705.901592709124088, 6930028.091033708304167 ], [ 5150775.46112950425595, 6930001.930152850225568 ], [ 5150814.975743582472205, 6929976.685379537753761 ], [ 5150823.660211010836065, 6929951.047602195292711 ], [ 5150825.069213195703924, 6929870.006275802850723 ], [ 5150883.093141171149909, 6929805.188826996833086 ], [ 5150902.164613378234208, 6929753.692416962236166 ], [ 5150927.431143724359572, 6929727.792934137396514 ], [ 5150945.02290821634233, 6929720.678988041356206 ], [ 5150955.212106490507722, 6929722.514397788792849 ], [ 5150969.423249386250973, 6929738.522464597597718 ], [ 5150976.97915028128773, 6929770.443392174318433 ], [ 5150982.914494443684816, 6929784.647680643945932 ], [ 5150990.160869370214641, 6929790.887356606312096 ], [ 5150998.569959653541446, 6929790.716231958940625 ], [ 5151014.674552186392248, 6929778.986951628699899 ], [ 5151045.747645623981953, 6929761.7059974540025 ], [ 5151093.212696856819093, 6929735.995468256063759 ], [ 5151135.47591055650264, 6929730.469709465280175 ], [ 5151141.569536057300866, 6929727.278801744803786 ], [ 5151144.628155209124088, 6929721.088257484138012 ], [ 5151143.358812442049384, 6929703.090117447078228 ], [ 5151134.533127256669104, 6929688.012877613306046 ], [ 5151136.784396775066853, 6929656.579604856669903 ], [ 5151140.694158223457634, 6929647.474058287218213 ], [ 5151149.33832982275635, 6929642.433358290232718 ], [ 5151164.581924833357334, 6929645.524818825535476 ], [ 5151192.089595776051283, 6929699.866995483636856 ], [ 5151200.206609561108053, 6929728.49951795488596 ], [ 5151208.084601254202425, 6929738.733069278299809 ], [ 5151216.49610869307071, 6929745.091126441024244 ], [ 5151228.614100084640086, 6929749.773426877334714 ], [ 5151240.072022243402898, 6929747.380299532786012 ], [ 5151259.188293934799731, 6929736.799299200065434 ], [ 5151268.622770695015788, 6929733.455835556611419 ], [ 5151277.365701949223876, 6929732.382428234443069 ], [ 5151277.525860292837024, 6929710.420031127519906 ], [ 5151279.897746466100216, 6929693.440717945806682 ], [ 5151284.529342282563448, 6929684.503491086885333 ], [ 5151295.352916439063847, 6929677.107561675831676 ], [ 5151364.201757372356951, 6929670.916987828910351 ], [ 5151371.772779488004744, 6929667.596678839996457 ], [ 5151377.312355424277484, 6929662.683216380886734 ], [ 5151379.271226210519671, 6929658.457372568547726 ], [ 5151378.916887550614774, 6929652.974460122175515 ], [ 5151375.623283971101046, 6929642.683835773728788 ], [ 5151374.620540807954967, 6929631.067632704041898 ], [ 5151387.79248992074281, 6929570.043832739815116 ], [ 5151392.095970499329269, 6929558.527722470462322 ], [ 5151416.44648256059736, 6929530.454711142927408 ], [ 5151443.802758772857487, 6929513.31880538072437 ], [ 5151530.660817554220557, 6929476.716587597504258 ], [ 5151684.51518671028316, 6929423.135983280837536 ], [ 5151740.517233110032976, 6929399.832470712251961 ], [ 5151802.547897269017994, 6929353.206887738779187 ], [ 5151819.617853974923491, 6929340.721648024395108 ], [ 5151872.934340745210648, 6929286.455883804708719 ], [ 5151900.830710961483419, 6929266.086219364777207 ], [ 5151954.54256294015795, 6929243.453279238194227 ], [ 5152051.389295085333288, 6929179.595672154799104 ], [ 5152062.124999776482582, 6929165.26054061204195 ], [ 5152069.288604638539255, 6929141.270295638591051 ], [ 5152090.113693063147366, 6929015.409843538887799 ], [ 5152095.0105638820678, 6928913.638383459299803 ], [ 5152092.681226261891425, 6928899.289599951356649 ], [ 5152087.408266955055296, 6928890.808722474612296 ], [ 5152046.773752723820508, 6928879.689233753830194 ], [ 5152031.467267681844532, 6928873.096668624319136 ], [ 5152025.806969190016389, 6928868.323199419304729 ], [ 5152022.960917371325195, 6928859.157840104773641 ], [ 5152025.399776362814009, 6928801.98119106143713 ], [ 5152024.948777804151177, 6928794.315630245953798 ], [ 5152021.773110649548471, 6928787.171973885968328 ], [ 5152016.550650385208428, 6928782.71449775993824 ], [ 5152009.04562736582011, 6928780.225591321475804 ], [ 5151908.444028881378472, 6928773.093811353668571 ], [ 5151897.220609179697931, 6928771.294355325400829 ], [ 5151887.653734197840095, 6928763.986799472942948 ], [ 5151860.591821849346161, 6928735.913265408948064 ], [ 5151832.178547508083284, 6928692.026412794366479 ], [ 5151824.127002451568842, 6928667.916314269416034 ], [ 5151820.179676616564393, 6928628.246157458983362 ], [ 5151815.476712978444993, 6928619.591760385781527 ], [ 5151739.758067411370575, 6928535.612597741186619 ], [ 5151734.6683927224949, 6928518.892726493999362 ], [ 5151737.016972786746919, 6928500.128763265907764 ], [ 5151768.459598192945123, 6928442.589400790631771 ], [ 5151771.728167047724128, 6928428.01534204557538 ], [ 5151769.48960133548826, 6928352.317895606160164 ], [ 5151781.464146887883544, 6928242.38776664249599 ], [ 5151780.781307809986174, 6928233.516775687225163 ], [ 5151779.165622466243804, 6928230.466291237622499 ], [ 5151774.687639819458127, 6928228.748630782589316 ], [ 5151746.968626892194152, 6928227.643211571499705 ], [ 5151739.524580219760537, 6928229.997786563821137 ], [ 5151734.001924499869347, 6928236.197183180600405 ], [ 5151698.540296114049852, 6928282.169090766459703 ], [ 5151687.680016956292093, 6928286.506324801594019 ], [ 5151676.167176651768386, 6928284.388829194009304 ], [ 5151669.505781069397926, 6928279.949212507344782 ], [ 5151665.954606490209699, 6928271.92332858312875 ], [ 5151663.988492937758565, 6928263.711342986673117 ], [ 5151664.303216342814267, 6928254.184916086494923 ], [ 5151674.912646072916687, 6928206.916478520259261 ], [ 5151676.71371612418443, 6928190.099339336156845 ], [ 5151672.351178660988808, 6928117.177664536051452 ], [ 5151665.940679485909641, 6928098.889051458798349 ], [ 5151643.290152525529265, 6928076.52445275709033 ], [ 5151621.247531088069081, 6928060.193845072761178 ], [ 5151601.759018029086292, 6928051.790706424973905 ], [ 5151572.817002127878368, 6928049.037366467528045 ], [ 5151553.660027771256864, 6928042.703008836135268 ], [ 5151531.58311146683991, 6928023.61237426660955 ], [ 5151515.80745567008853, 6928004.609274148009717 ], [ 5151592.656702605076134, 6927913.556734308600426 ], [ 5151577.751504833810031, 6927902.668547671288252 ], [ 5151516.711447954177856, 6927867.813350649550557 ], [ 5151484.365843573585153, 6927864.06030260771513 ], [ 5151418.887720117345452, 6927866.962020076811314 ], [ 5151393.343377196229994, 6927866.238858293741941 ], [ 5151355.781974679790437, 6927863.248963797464967 ], [ 5151291.50876429118216, 6927864.73817827180028 ], [ 5151239.279330989345908, 6927845.335832681506872 ], [ 5151195.820646418258548, 6927838.261909058317542 ], [ 5151128.398784422315657, 6927833.914185292087495 ], [ 5151078.658873557113111, 6927841.794897538609803 ], [ 5151059.258520537056029, 6927839.619897265918553 ], [ 5151041.020207500085235, 6927832.586018931120634 ], [ 5151013.408765659667552, 6927813.907079910859466 ], [ 5150979.961698998697102, 6927770.746288103982806 ], [ 5150954.077565064653754, 6927742.700624905526638 ], [ 5150913.406751465052366, 6927712.422275129705667 ], [ 5150903.352638712152839, 6927695.95235048327595 ], [ 5150896.172972067259252, 6927662.485803085379303 ], [ 5150885.39151718094945, 6927636.679819575510919 ], [ 5150879.107122837565839, 6927626.038304397836328 ], [ 5150866.137869842350483, 6927621.698926839977503 ], [ 5150809.868997007608414, 6927623.784473574720323 ], [ 5150792.250854859128594, 6927617.429836556315422 ], [ 5150759.334262945689261, 6927592.253701340407133 ], [ 5150743.341534061357379, 6927567.543345484882593 ], [ 5150726.194105926901102, 6927549.077383570373058 ], [ 5150706.64697668235749, 6927535.84032906871289 ], [ 5150672.326041845604777, 6927521.390037263743579 ], [ 5150645.354075649753213, 6927504.088070519268513 ], [ 5150621.65029632113874, 6927478.442406998947263 ], [ 5150578.187466778792441, 6927420.87191656511277 ], [ 5150557.382669198326766, 6927405.566181480884552 ], [ 5150519.91389574483037, 6927385.279250358231366 ], [ 5150461.788628580980003, 6927361.612486417405307 ], [ 5150431.159478485584259, 6927347.470482271164656 ], [ 5150422.274244445376098, 6927349.653693966567516 ], [ 5150415.872232894413173, 6927354.921123266220093 ], [ 5150412.598424679599702, 6927363.60842427238822 ], [ 5150411.482153970748186, 6927372.967349335551262 ], [ 5150409.533704697154462, 6927413.797251967713237 ], [ 5150384.837827637791634, 6927469.486700026318431 ], [ 5150374.7005510404706, 6927482.017083045095205 ], [ 5150356.987370893359184, 6927492.612743624486029 ], [ 5150331.873957668431103, 6927501.92551463842392 ], [ 5150302.68667826615274, 6927504.703939978033304 ], [ 5150294.145479881204665, 6927509.997809519059956 ], [ 5150267.437079891562462, 6927539.383866285905242 ], [ 5150245.511572882533073, 6927556.948894363828003 ], [ 5150191.680059246718884, 6927581.482761131599545 ], [ 5150168.775089832022786, 6927595.601097306236625 ], [ 5150135.337845341302454, 6927632.58610896486789 ], [ 5150105.851827181875706, 6927655.864796187728643 ], [ 5150088.682229534722865, 6927660.23435169365257 ], [ 5150068.618415022268891, 6927654.596250426024199 ], [ 5150005.806597261689603, 6927600.378275766037405 ], [ 5149942.810874572955072, 6927555.163684404455125 ], [ 5149923.776321449317038, 6927508.352261619642377 ], [ 5149880.042812094092369, 6927454.939856885932386 ], [ 5149866.236549098975956, 6927432.285498743876815 ], [ 5149850.192597504705191, 6927378.530770154669881 ], [ 5149845.278139984235168, 6927329.471765670925379 ], [ 5149848.622897053137422, 6927301.761088959872723 ], [ 5149869.287783481180668, 6927231.645029778592288 ], [ 5149869.472772208973765, 6927196.357669999822974 ], [ 5149856.424069482833147, 6927161.58860619738698 ], [ 5149725.412246757186949, 6927013.79708999581635 ], [ 5149700.373703446239233, 6926978.82120680809021 ], [ 5149668.83461972232908, 6926915.568892132490873 ], [ 5149662.954949464648962, 6926887.284838669002056 ], [ 5149649.9158516805619, 6926778.143043278716505 ], [ 5149643.440875962376595, 6926751.939313067123294 ], [ 5149598.572237414307892, 6926654.963089903816581 ], [ 5149579.66818512417376, 6926618.525616761296988 ], [ 5149555.938477199524641, 6926590.461756365373731 ], [ 5149485.39345988444984, 6926556.057904433459044 ], [ 5149445.514683151617646, 6926515.04561298713088 ], [ 5149403.903775286860764, 6926483.044863315299153 ], [ 5149321.891422649845481, 6926466.762062218040228 ], [ 5149279.210672254674137, 6926447.910357277840376 ], [ 5149217.866013983264565, 6926412.006048239767551 ], [ 5149160.124328559264541, 6926368.452492211014032 ], [ 5149148.503170981071889, 6926348.530819870531559 ], [ 5149133.108558775857091, 6926297.527614301070571 ], [ 5149118.020426697097719, 6926271.429634086787701 ], [ 5149062.926593300886452, 6926242.708678372204304 ], [ 5149028.38085104804486, 6926235.174117797985673 ], [ 5148999.56287144869566, 6926242.102073137648404 ], [ 5148986.352693287655711, 6926243.650135241448879 ], [ 5148967.216930761933327, 6926238.697340885177255 ], [ 5148912.153288808651268, 6926212.391983491368592 ], [ 5148859.224776753224432, 6926210.625501539558172 ], [ 5148822.680598829872906, 6926214.532911650836468 ], [ 5148789.914704293012619, 6926226.696822131983936 ], [ 5148756.949289587326348, 6926247.509727342054248 ], [ 5148738.748451163992286, 6926268.130282605998218 ], [ 5148736.145743955858052, 6926280.965894704684615 ], [ 5148735.843016254715621, 6926306.9095204686746 ], [ 5148729.717934004962444, 6926333.955532087944448 ], [ 5148721.056780041195452, 6926355.168461166322231 ], [ 5148707.19696506485343, 6926378.507049619220197 ], [ 5148655.219252111390233, 6926428.607769565656781 ], [ 5148636.890887739136815, 6926438.864833628758788 ], [ 5148620.019530678167939, 6926442.530348366126418 ], [ 5148603.411325605586171, 6926442.733961100690067 ], [ 5148518.316604167222977, 6926425.785211015492678 ], [ 5148471.8516562320292, 6926424.625092291273177 ], [ 5148430.982468656264246, 6926427.198574749752879 ], [ 5148360.528282230719924, 6926425.644457601010799 ], [ 5148335.884174908511341, 6926422.487407390959561 ], [ 5148307.029855159111321, 6926400.725077523849905 ], [ 5148354.213668205775321, 6926387.332964235916734 ], [ 5148633.031983649358153, 6926300.211304982192814 ], [ 5148666.604637394659221, 6926279.047661900520325 ], [ 5148702.284895408898592, 6926228.803147653117776 ], [ 5149069.716523514129221, 6925644.609237672761083 ], [ 5149107.049014961346984, 6925579.13371061347425 ], [ 5149119.695897564291954, 6925507.03343159891665 ], [ 5149153.528641861863434, 6925120.454741264693439 ], [ 5149059.285764503292739, 6925109.165586553514004 ], [ 5148950.101044226437807, 6925083.526373460888863 ], [ 5148912.404379338957369, 6925068.769423082470894 ], [ 5148904.743918454274535, 6925059.008601972833276 ], [ 5148890.353264597244561, 6925026.150792770087719 ], [ 5148856.614028088748455, 6924983.686829347163439 ], [ 5148829.075497037731111, 6924945.28148621506989 ], [ 5148796.195229193195701, 6924922.16202886775136 ], [ 5148759.135855669155717, 6924909.480876007117331 ], [ 5148743.625550352036953, 6924906.611733557656407 ], [ 5148717.124781197868288, 6924894.089037611149251 ], [ 5148700.851394446566701, 6924878.835674604400992 ], [ 5148687.192374668084085, 6924860.557133095338941 ], [ 5148657.251673312857747, 6924776.531037056818604 ], [ 5148626.793774771504104, 6924625.410990835167468 ], [ 5148622.726171201094985, 6924594.332949387840927 ], [ 5148622.38486977852881, 6924583.384710377082229 ], [ 5148625.021811967715621, 6924572.566211476922035 ], [ 5148640.523018511943519, 6924549.828195662237704 ], [ 5148645.707534682936966, 6924537.781199742108583 ], [ 5148647.061165965162218, 6924522.788140071555972 ], [ 5148639.672633957117796, 6924471.686179712414742 ], [ 5148596.176931007765234, 6924385.753316603600979 ], [ 5148567.656302656978369, 6924316.929952180013061 ], [ 5148554.908020842820406, 6924280.426724264398217 ], [ 5148552.206864477135241, 6924261.093567527830601 ], [ 5148545.879316492937505, 6924246.638144668191671 ], [ 5148509.214096352458, 6924215.272527873516083 ], [ 5148497.153297326527536, 6924184.9797586761415 ], [ 5148489.74865681771189, 6924132.503332244232297 ], [ 5148494.69383566826582, 6924034.214501715265214 ], [ 5148507.206470526754856, 6923951.053185870870948 ], [ 5148541.080033441074193, 6923754.868549815379083 ], [ 5148544.274964418262243, 6923714.02377737686038 ], [ 5148541.361669187434018, 6923677.388808432035148 ], [ 5148526.287725677713752, 6923601.483102913945913 ], [ 5148506.916473317891359, 6923476.521489119157195 ], [ 5148499.927536037750542, 6923457.928201928734779 ], [ 5148491.791674046777189, 6923446.266305910423398 ], [ 5148399.999705637805164, 6923383.750068785622716 ], [ 5148366.360841039568186, 6923348.190011603757739 ], [ 5148346.937608827836812, 6923319.384111603721976 ], [ 5148323.922096382826567, 6923298.215730695053935 ], [ 5148301.918210519477725, 6923259.054310015402734 ], [ 5148289.752115460112691, 6923119.471155408769846 ], [ 5148281.451598071493208, 6923094.331238387152553 ], [ 5148266.18605655990541, 6923078.255839341320097 ], [ 5148236.301525112241507, 6923048.192223621532321 ], [ 5148191.523423900827765, 6922956.73116766102612 ], [ 5148186.339864009991288, 6922935.011702856048942 ], [ 5148181.196017348207533, 6922648.426937708631158 ], [ 5148183.809004459530115, 6922602.656345504336059 ], [ 5148192.964148045517504, 6922564.820440378040075 ], [ 5148216.648211793974042, 6922497.452314020134509 ], [ 5148238.08892534673214, 6922415.911115932278335 ], [ 5148279.390888636000454, 6922273.599880248308182 ], [ 5148318.136637344025075, 6922123.016730313189328 ], [ 5148324.438157942146063, 6922085.592536587268114 ], [ 5148293.459544200450182, 6922066.594777437858284 ], [ 5148242.943234057165682, 6922014.092120409011841 ], [ 5148159.019090387970209, 6921934.051878748461604 ], [ 5148080.393721224740148, 6921890.738926153630018 ], [ 5147933.947224454954267, 6921782.540218053385615 ], [ 5147787.149965956807137, 6921644.601884273812175 ], [ 5147731.719309526495636, 6921587.168859423138201 ], [ 5147696.716278996318579, 6921540.216975588351488 ], [ 5147643.027749464847147, 6921474.470405232161283 ], [ 5147609.207332781516016, 6921449.286771237850189 ], [ 5147592.424539079889655, 6921434.614845911972225 ], [ 5147435.339798007160425, 6921284.692836593836546 ], [ 5147248.976984632201493, 6921128.551724071614444 ], [ 5147202.153506066650152, 6921070.324441919103265 ] ] ] } },
{ "type": "Feature", "properties": { "lv_id": "LOC_072006", "id": 423496.0, "CD_SETOR": "431090005000008", "SITUACAO": "Rural", "CD_SIT": "8", "CD_TIPO": "0", "AREA_KM2": 14.805894046142406, "CD_REGIAO": "4", "NM_REGIAO": "Sul", "CD_UF": "43", "NM_UF": "Rio Grande do Sul", "CD_MUN": "4310900", "NM_MUN": "Jacutinga", "CD_DIST": "431090005", "NM_DIST": "Jacutinga", "CD_SUBDIST": "43109000500", "NM_SUBDIST": null, "CD_BAIRRO": null, "NM_BAIRRO": null, "CD_NU": null, "NM_NU": null, "CD_FCU": null, "NM_FCU": null, "CD_AGLOM": null, "NM_AGLOM": null, "CD_RGINT": "4306", "NM_RGINT": "Passo Fundo", "CD_RGI": "430026", "NM_RGI": "Erechim", "CD_CONCURB": null, "NM_CONCURB": null, "mun_code_x": "4310900", "index_right": 71484, "dist_m": 1139.6300229970172, "local_id": 750740, "ano": 2022, "cod_localidade_ibge": 4310900, "NR_ZONA": "148", "nr_cep": 99730000.0, "nm_localidade": "JACUTINGA", "nm_locvot": "ASSISTÊNCIA SOCIAL E CRAS", "ds_endereco": "RUA ANGELO TORTELLI N 156", "ds_bairro": "CENTRO", "pred_long": -52.531593, "pred_lat": -27.7305315, "pred_dist": 0.0, "tse_long": -52.537981, "tse_lat": -27.728569, "long": -52.537981, "lat": -27.728569, "ID_UNICO": "LOC_072006", "SG_UF": "RS", "CD_MUNICIPIO": "87190", "NR_LOCAL_VOTACAO": "1058", "QT_SECOES_AGREGADAS": 0, "QT_ELEITORES_TRANSFERIDOS": 0, "CIRO GOMES (PDT) (NÃO ELEITO) 1T": 11.0, "CONSTITUINTE EYMAEL (DC) (NÃO ELEITO) 1T": 0.0, "FELIPE D AVILA (NOVO) (NÃO ELEITO) 1T": 2.0, "JAIR BOLSONARO (PL) (2º TURNO) 1T": 237.0, "LULA (PT) (2º TURNO) 1T": 132.0, "LÉO PÉRICLES (UP) (NÃO ELEITO) 1T": 0.0, "PADRE KELMON (PTB) (NÃO ELEITO) 1T": 0.0, "SIMONE TEBET (MDB) (NÃO ELEITO) 1T": 12.0, "SOFIA MANZANO (PCB) (NÃO ELEITO) 1T": 0.0, "SORAYA THRONICKE (UNIÃO) (NÃO ELEITO) 1T": 0.0, "VERA (PSTU) (NÃO ELEITO) 1T": 0.0, "Total_Votos_Validos 1T": 394.0, "Votos_Brancos 1T": 6.0, "Votos_Nulos 1T": 7.0, "Abstenções 1T": 56.0, "Eleitores_Aptos 1T": 463.0, "JAIR BOLSONARO (PL) (NÃO ELEITO) 2T": 252.0, "LULA (PT) (ELEITO) 2T": 146.0, "Total_Votos_Validos 2T": 398.0, "Votos_Brancos 2T": 6.0, "Votos_Nulos 2T": 11.0, "Abstenções 2T": 48.0, "Eleitores_Aptos 2T": 463.0, "mun_code_y": "4310900", "mun_code": "4310900" }, "geometry": { "type": "Polygon", "coordinates": [ [ [ 5146956.878339643590152, 6927479.320816666819155 ], [ 5145797.940480995923281, 6927998.587276650592685 ], [ 5143639.439404899254441, 6928935.983644715510309 ], [ 5144677.759537652134895, 6929292.561917018145323 ], [ 5144608.828968687914312, 6929379.637293826788664 ], [ 5144569.781183851882815, 6929445.771101200021803 ], [ 5144568.822487612254918, 6929478.694397278130054 ], [ 5144574.710498665459454, 6929513.57580054178834 ], [ 5144619.847763976082206, 6929589.403756750747561 ], [ 5144621.862668465822935, 6929631.891382180154324 ], [ 5144577.807149659842253, 6929671.724291121587157 ], [ 5144585.921085518784821, 6929786.680597543716431 ], [ 5144526.72960926219821, 6929872.963046440854669 ], [ 5144529.167595557868481, 6929926.996357654221356 ], [ 5144571.852235961705446, 6929884.563928131014109 ], [ 5144614.000165483914316, 6929848.423015031963587 ], [ 5144633.874882323667407, 6929831.503018446266651 ], [ 5144667.602006854489446, 6929806.99081898573786 ], [ 5144682.538047780282795, 6929792.690273585729301 ], [ 5145030.392978673800826, 6930176.60890331491828 ], [ 5145033.815468955785036, 6930226.196382272988558 ], [ 5144949.774988876655698, 6930249.714163858443499 ], [ 5144869.239990915171802, 6930271.183095994405448 ], [ 5144767.768325613811612, 6930298.321819775737822 ], [ 5144720.786282172426581, 6930312.87148255854845 ], [ 5144667.899735287763178, 6930329.276033468544483 ], [ 5144575.660946167074144, 6930350.937853263691068 ], [ 5144521.992786590009928, 6930367.982910703867674 ], [ 5144467.355066397227347, 6930381.458756023086607 ], [ 5144441.333860508166254, 6930407.341828778386116 ], [ 5144403.15220302529633, 6930466.25912515539676 ], [ 5144364.487612725235522, 6930513.620212119072676 ], [ 5144372.784918077290058, 6930520.593868598341942 ], [ 5144462.474863842129707, 6930582.113726167008281 ], [ 5144558.99518921226263, 6930649.060964062809944 ], [ 5144655.80355535633862, 6930718.575812755152583 ], [ 5144734.873944791033864, 6930773.336433801800013 ], [ 5144831.581764353439212, 6930843.350011810660362 ], [ 5145001.336570523679256, 6930974.601005501113832 ], [ 5144997.91252550855279, 6931012.420153707265854 ], [ 5144994.938602128066123, 6931038.383876949548721 ], [ 5144991.761406248435378, 6931106.795135984197259 ], [ 5144984.467271108180285, 6931199.609650620259345 ], [ 5145011.461009039543569, 6931274.943610267713666 ], [ 5145049.9622055394575, 6931379.039116151630878 ], [ 5145042.799511041492224, 6931421.736042361706495 ], [ 5144980.358176463283598, 6931493.171686520799994 ], [ 5144943.53264104295522, 6931517.898814233019948 ], [ 5144912.75990027654916, 6931563.094400967471302 ], [ 5144845.743209636770189, 6931636.368555692955852 ], [ 5144787.668510443530977, 6931714.424250447191298 ], [ 5144739.802143668755889, 6931766.961910079233348 ], [ 5144650.27761962544173, 6931807.945971458218992 ], [ 5144646.141194419935346, 6931858.122233720496297 ], [ 5144542.869364137761295, 6931898.426669362001121 ], [ 5144421.454976696521044, 6931936.651282576844096 ], [ 5144385.871279787272215, 6931916.710920227691531 ], [ 5144282.42718861810863, 6931884.49625532887876 ], [ 5144346.461776212789118, 6931823.787122482433915 ], [ 5144328.532011831179261, 6931785.590223658829927 ], [ 5144318.833724630065262, 6931737.961826020851731 ], [ 5144257.258910406380892, 6931699.330018192529678 ], [ 5144112.285223916172981, 6931599.58891979418695 ], [ 5144034.756016675382853, 6931492.849962486885488 ], [ 5144028.443004969507456, 6931490.242232359014452 ], [ 5143062.953520090319216, 6931032.167634764686227 ], [ 5142807.355522722005844, 6931780.734903535805643 ], [ 5144018.4886395605281, 6932296.036990145221353 ], [ 5144931.466406448744237, 6932217.649042104370892 ], [ 5144930.021723346784711, 6932344.580132098868489 ], [ 5144934.925705188885331, 6932419.180090697482228 ], [ 5144952.148521988652647, 6932564.068091602995992 ], [ 5144991.294105863198638, 6932647.537741396576166 ], [ 5145037.595521352253854, 6932734.701907688751817 ], [ 5145041.885201502591372, 6932760.257391534745693 ], [ 5145072.536599812097847, 6932853.372523036785424 ], [ 5145129.865246598608792, 6932971.831131099723279 ], [ 5145206.166757299564779, 6933052.70587298180908 ], [ 5145340.103194468654692, 6933149.452261665835977 ], [ 5145446.680722448974848, 6933188.516094515100121 ], [ 5145494.577028469182551, 6933220.621838232502341 ], [ 5145595.321641142480075, 6933291.402404616586864 ], [ 5145672.294255261309445, 6933375.181830844841897 ], [ 5145816.32725483737886, 6933491.567189862020314 ], [ 5145927.143687814474106, 6933596.59951781667769 ], [ 5145986.758578464388847, 6933682.713879577815533 ], [ 5146018.888047263026237, 6933756.87580147664994 ], [ 5146032.164211834780872, 6933925.987011587247252 ], [ 5146038.267072628252208, 6934064.522761534899473 ], [ 5146095.892104026861489, 6934140.77262856811285 ], [ 5146099.212119808420539, 6934214.305059058591723 ], [ 5146028.845768894068897, 6934810.279937418177724 ], [ 5146125.145304246805608, 6934755.282483046874404 ], [ 5146091.339350617490709, 6934509.786320384591818 ], [ 5146211.0385831175372, 6933985.082589918747544 ], [ 5146491.845743076875806, 6933810.480004506185651 ], [ 5146781.042806762270629, 6933837.985711839981377 ], [ 5146706.544695028103888, 6934489.087972089648247 ], [ 5146866.338585482910275, 6934870.485469439998269 ], [ 5147825.941760499030352, 6934665.587083093822002 ], [ 5148254.440804759040475, 6934435.682783426716924 ], [ 5148229.247218665666878, 6934205.083460181951523 ], [ 5148137.841034647077322, 6934113.280705758370459 ], [ 5147562.546663234010339, 6933818.680469195358455 ], [ 5147197.745461302809417, 6933520.28777708299458 ], [ 5147203.247058673761785, 6933271.678845275193453 ], [ 5147589.838055023923516, 6933054.884754043072462 ], [ 5147267.838781106285751, 6932609.583201486617327 ], [ 5147296.54499024245888, 6932537.580094996839762 ], [ 5147143.34589400421828, 6932424.482261255383492 ], [ 5147145.938817634247243, 6932310.38354585506022 ], [ 5147662.643330806866288, 6932372.588170357048512 ], [ 5147897.244496518746018, 6932488.879334457218647 ], [ 5148367.145173138007522, 6932250.081391523592174 ], [ 5148893.540127616375685, 6932191.584582705050707 ], [ 5148717.546063189394772, 6931907.583227491006255 ], [ 5148569.845425496809185, 6932142.182693916372955 ], [ 5148478.440355573780835, 6932105.188836956396699 ], [ 5148559.744889138266444, 6931783.185624664649367 ], [ 5148384.23968762345612, 6931444.479038313031197 ], [ 5148580.437699271366, 6931314.088952602818608 ], [ 5148642.644267250783741, 6931119.688786709681153 ], [ 5148668.844728070311248, 6931055.860047161579132 ], [ 5148617.225817794911563, 6930915.430758500471711 ], [ 5148585.782861758954823, 6930884.466174377128482 ], [ 5148567.139845736324787, 6930837.337657980620861 ], [ 5148598.497370085678995, 6930763.823841102421284 ], [ 5148625.350710445083678, 6930726.802628620527685 ], [ 5148643.691812454722822, 6930668.701434990391135 ], [ 5148667.801272845827043, 6930621.847723545506597 ], [ 5148655.133585686795413, 6930590.775363720953465 ], [ 5148608.38337950501591, 6930628.040223384276032 ], [ 5148610.16948308609426, 6930576.571203157305717 ], [ 5148600.449053465388715, 6930526.041166758164763 ], [ 5148604.233657215721905, 6930488.803455153480172 ], [ 5148617.182593617588282, 6930427.664367923513055 ], [ 5148581.185834894888103, 6930400.801725518889725 ], [ 5148549.416485912166536, 6930335.797956701368093 ], [ 5148524.865948626771569, 6930288.542146241292357 ], [ 5148507.780789074487984, 6930226.806170599535108 ], [ 5148516.144500416703522, 6930163.251238938421011 ], [ 5148530.719314781017601, 6930097.181513532996178 ], [ 5148533.298971870914102, 6930075.101158818230033 ], [ 5148536.091795993968844, 6930048.683816174976528 ], [ 5148498.767155184410512, 6930053.430523913353682 ], [ 5148440.813616966828704, 6930040.448945112526417 ], [ 5148374.223790264688432, 6930035.676060989499092 ], [ 5148303.553720391355455, 6930027.039536722004414 ], [ 5148252.707614874467254, 6930021.918437507003546 ], [ 5148202.951193623244762, 6929997.816792281344533 ], [ 5148145.012236673384905, 6929952.043202913366258 ], [ 5148111.931557701900601, 6929911.020970922894776 ], [ 5148077.778866328299046, 6929900.928761758841574 ], [ 5148053.979164623655379, 6929865.701647873036563 ], [ 5148037.714523687027395, 6929833.009819446131587 ], [ 5148033.77896370459348, 6929796.531615165993571 ], [ 5147992.532828092575073, 6929740.011607619002461 ], [ 5147946.141277802176774, 6929686.846546065062284 ], [ 5147922.403518630191684, 6929651.784734392538667 ], [ 5147873.094548916444182, 6929611.624826744198799 ], [ 5147805.118778658099473, 6929557.602626599371433 ], [ 5147765.419142826460302, 6929520.240727409720421 ], [ 5147744.718882239423692, 6929486.771167827770114 ], [ 5147689.343650363385677, 6929433.370945178903639 ], [ 5147644.859943634830415, 6929389.31594437174499 ], [ 5147623.575483071617782, 6929328.040221402421594 ], [ 5147615.893850799649954, 6929289.09113681782037 ], [ 5147622.255043997429311, 6929251.911155977286398 ], [ 5147625.021160684525967, 6929206.139431573450565 ], [ 5147583.49868930131197, 6929142.804094123654068 ], [ 5147535.172989713959396, 6929098.108193575404584 ], [ 5147523.585226798430085, 6929061.434706911444664 ], [ 5147523.292991458438337, 6929031.718495241366327 ], [ 5147485.498748373240232, 6929018.687096701003611 ], [ 5147451.721690921112895, 6929007.613211628049612 ], [ 5147410.94326978828758, 6929013.518329123966396 ], [ 5147356.803792744874954, 6929037.233405337668955 ], [ 5147312.900098016485572, 6929018.001382810994983 ], [ 5147264.498877032659948, 6928965.335056442767382 ], [ 5147234.187748190946877, 6928920.519161334261298 ], [ 5147165.178927902132273, 6928888.089345932006836 ], [ 5147127.336809458211064, 6928840.13872926030308 ], [ 5147117.003879402764142, 6928773.475026603788137 ], [ 5147124.016644979827106, 6928696.424665958620608 ], [ 5147145.316324441693723, 6928636.471934605389833 ], [ 5147176.507197144441307, 6928592.140308334492147 ], [ 5147190.75562194827944, 6928571.104876898229122 ], [ 5147236.345949756912887, 6928530.411708323284984 ], [ 5147309.23895160201937, 6928478.489971566945314 ], [ 5147332.049951184540987, 6928453.791982039809227 ], [ 5147335.463516937568784, 6928414.186989417299628 ], [ 5147325.71426760032773, 6928350.198942221701145 ], [ 5147333.787397414445877, 6928289.974065873771906 ], [ 5147360.861742850393057, 6928254.28298776037991 ], [ 5147425.330983897671103, 6928241.172736471518874 ], [ 5147450.11521403118968, 6928219.077721539884806 ], [ 5147463.928689047694206, 6928172.883477630093694 ], [ 5147448.15033486764878, 6928127.181988064199686 ], [ 5147426.909023443236947, 6928083.83046199195087 ], [ 5147381.024309318512678, 6928064.390134121291339 ], [ 5147345.695038129575551, 6928033.259414622560143 ], [ 5147322.715679078362882, 6928034.28126357588917 ], [ 5146908.919540253467858, 6928040.497430587187409 ], [ 5146910.43681831844151, 6927975.286330996081233 ], [ 5146912.333220398053527, 6927893.35397856682539 ], [ 5146956.878339643590152, 6927479.320816666819155 ] ] ] } }
]
}
