{
"type": "FeatureCollection",
"name": "4321436",
"crs": { "type": "name", "properties": { "name": "urn:ogc:def:crs:EPSG::5880" } },
"features": [
{ "type": "Feature", "properties": { "lv_id": "LOC_068809", "id": 436681.0, "CD_SETOR": "432143605000031", "SITUACAO": "Urbana", "CD_SIT": "1", "CD_TIPO": "0", "AREA_KM2": 0.38114218263592903, "CD_REGIAO": "4", "NM_REGIAO": "Sul", "CD_UF": "43", "NM_UF": "Rio Grande do Sul", "CD_MUN": "4321436", "NM_MUN": "Terra de Areia", "CD_DIST": "432143605", "NM_DIST": "Terra de Areia", "CD_SUBDIST": "43214360500", "NM_SUBDIST": null, "CD_BAIRRO": null, "NM_BAIRRO": null, "CD_NU": null, "NM_NU": null, "CD_FCU": null, "NM_FCU": null, "CD_AGLOM": null, "NM_AGLOM": null, "CD_RGINT": "4301", "NM_RGINT": "Porto Alegre", "CD_RGI": "430003", "NM_RGI": "Tramandaí - Osório", "CD_CONCURB": null, "NM_CONCURB": null, "mun_code_x": "4321436", "index_right": 68437, "dist_m": 6055.5624231669772, "local_id": 720891, "ano": 2022, "cod_localidade_ibge": 4321436, "NR_ZONA": "77", "nr_cep": 95535000.0, "nm_localidade": "TERRA DE AREIA", "nm_locvot": "E M E F DR ARI DE ABREU LIMA", "ds_endereco": "ESTRADA GERAL DA SANGA FUNDA, S/N", "ds_bairro": "SANGA FUNDA", "pred_long": -50.108659, "pred_lat": -29.6163205, "pred_dist": 0.0, "tse_long": -50.109403, "tse_lat": -29.615643, "long": -50.109403, "lat": -29.615643, "ID_UNICO": "LOC_068809", "SG_UF": "RS", "CD_MUNICIPIO": "85162", "NR_LOCAL_VOTACAO": "1023", "QT_SECOES_AGREGADAS": 0, "QT_ELEITORES_TRANSFERIDOS": 0, "CIRO GOMES (PDT) (NÃO ELEITO) 1T": 10.0, "CONSTITUINTE EYMAEL (DC) (NÃO ELEITO) 1T": 0.0, "FELIPE D AVILA (NOVO) (NÃO ELEITO) 1T": 3.0, "JAIR BOLSONARO (PL) (2º TURNO) 1T": 250.0, "LULA (PT) (2º TURNO) 1T": 220.0, "LÉO PÉRICLES (UP) (NÃO ELEITO) 1T": 0.0, "PADRE KELMON (PTB) (NÃO ELEITO) 1T": 0.0, "SIMONE TEBET (MDB) (NÃO ELEITO) 1T": 23.0, "SOFIA MANZANO (PCB) (NÃO ELEITO) 1T": 0.0, "SORAYA THRONICKE (UNIÃO) (NÃO ELEITO) 1T": 3.0, "VERA (PSTU) (NÃO ELEITO) 1T": 0.0, "Total_Votos_Validos 1T": 509.0, "Votos_Brancos 1T": 17.0, "Votos_Nulos 1T": 9.0, "Abstenções 1T": 141.0, "Eleitores_Aptos 1T": 676.0, "JAIR BOLSONARO (PL) (NÃO ELEITO) 2T": 287.0, "LULA (PT) (ELEITO) 2T": 225.0, "Total_Votos_Validos 2T": 512.0, "Votos_Brancos 2T": 10.0, "Votos_Nulos 2T": 14.0, "Abstenções 2T": 140.0, "Eleitores_Aptos 2T": 676.0, "mun_code_y": "4321436", "mun_code": "4321436" }, "geometry": { "type": "MultiPolygon", "coordinates": [ [ [ [ 5381866.30989901907742, 6712736.171280125156045 ], [ 5382000.629939650185406, 6712811.560996836051345 ], [ 5382437.83332359790802, 6712459.542941018007696 ], [ 5382469.76293265633285, 6712446.964564974419773 ], [ 5382525.383195381611586, 6712436.466493194922805 ], [ 5382566.733705160208046, 6712272.065977785736322 ], [ 5382562.207915098406374, 6712124.631226127967238 ], [ 5382494.2016741046682, 6712069.330099758692086 ], [ 5382452.853581349365413, 6711753.474085768684745 ], [ 5382387.107987466268241, 6711761.262238215655088 ], [ 5382134.630251636728644, 6712199.051614738069475 ], [ 5381770.376655865460634, 6712520.740697761997581 ], [ 5381866.30989901907742, 6712736.171280125156045 ] ] ], [ [ [ 5379779.807017625309527, 6716309.527820302173495 ], [ 5380065.706324922852218, 6715897.320348390378058 ], [ 5380101.908616901375353, 6715467.820045197382569 ], [ 5380311.406301490962505, 6714190.12639117706567 ], [ 5380332.30340563133359, 6713110.725575629621744 ], [ 5380150.859002611599863, 6712025.843595953658223 ], [ 5376396.488750237040222, 6712477.856519025750458 ], [ 5376349.498693462461233, 6712483.511938616633415 ], [ 5376290.369985681027174, 6712490.619058838114142 ], [ 5376274.086420524865389, 6712501.642719804309309 ], [ 5376259.803022742271423, 6712515.976729114539921 ], [ 5376245.190551889128983, 6712528.877426829189062 ], [ 5376231.144913494586945, 6712543.658929092809558 ], [ 5376216.545063570141792, 6712561.26990719512105 ], [ 5376203.572724926285446, 6712572.815583011135459 ], [ 5376200.956595964729786, 6712575.692066205665469 ], [ 5376199.081135662272573, 6712579.276966124773026 ], [ 5376197.166233950294554, 6712584.863035975024104 ], [ 5376194.165267284959555, 6712590.418895445764065 ], [ 5376181.288167720660567, 6712605.961033155210316 ], [ 5376168.986062856391072, 6712619.006266998127103 ], [ 5376163.161964302882552, 6712622.423699115402997 ], [ 5376156.327350161038339, 6712624.886227539740503 ], [ 5376150.432524489238858, 6712626.195077814161777 ], [ 5376144.052726552821696, 6712626.909135847352445 ], [ 5376132.626704558730125, 6712626.792606148868799 ], [ 5376126.903458338230848, 6712626.862448297441006 ], [ 5376121.578459708951414, 6712628.118830626830459 ], [ 5376115.253741458058357, 6712630.475340297445655 ], [ 5376108.927533926442266, 6712631.920855840668082 ], [ 5376104.083782415837049, 6712632.2167101604864 ], [ 5376099.939018039032817, 6712631.111438019201159 ], [ 5376093.096965135075152, 6712627.285777021199465 ], [ 5376085.716354927048087, 6712622.422709673643112 ], [ 5376077.011475376784801, 6712618.80397698841989 ], [ 5376067.481809717603028, 6712616.590581120923162 ], [ 5376057.008997555822134, 6712615.71982921846211 ], [ 5376026.149199698120356, 6712617.055129407905042 ], [ 5376002.464208159595728, 6712617.405276641249657 ], [ 5375988.370340969413519, 6712614.867185220122337 ], [ 5375983.425390711054206, 6712612.72213258035481 ], [ 5375979.291095009073615, 6712609.61662638373673 ], [ 5375976.066824985668063, 6712605.913971828296781 ], [ 5375973.502844942733645, 6712601.100365900434554 ], [ 5375968.407670605927706, 6712589.561094137839973 ], [ 5375959.594427317380905, 6712568.836164770647883 ], [ 5375946.038005935028195, 6712547.070422704331577 ], [ 5375928.784160502254963, 6712532.33924345113337 ], [ 5375913.550139212049544, 6712523.239844573661685 ], [ 5375893.130746386945248, 6712515.51423676405102 ], [ 5375872.807308652438223, 6712512.385007528588176 ], [ 5375852.13174581900239, 6712511.178508105687797 ], [ 5375808.178188512101769, 6712512.052396852523088 ], [ 5375769.881075262092054, 6712504.503814827650785 ], [ 5375726.045759523287416, 6712498.785075854510069 ], [ 5375695.761041668243706, 6712497.322686217725277 ], [ 5375674.648834022693336, 6712499.274688482284546 ], [ 5375645.236264010891318, 6712504.47126330435276 ], [ 5375616.971025439910591, 6712512.106878085061908 ], [ 5375555.440619741566479, 6712530.82291494961828 ], [ 5375541.140759362839162, 6712536.012765233404934 ], [ 5375526.075583425350487, 6712542.650338631123304 ], [ 5375519.334071721881628, 6712542.687333675101399 ], [ 5375515.875293880701065, 6712542.681003302335739 ], [ 5375514.157602432183921, 6712543.171848259866238 ], [ 5375512.837395621463656, 6712543.96046063862741 ], [ 5375509.298380734398961, 6712547.92314587533474 ], [ 5375504.047615174204111, 6712552.554236417636275 ], [ 5375500.550030776299536, 6712554.282386837527156 ], [ 5375496.680679539218545, 6712555.034186137840152 ], [ 5375489.427054754458368, 6712554.532810695469379 ], [ 5375478.031008502468467, 6712552.703660877421498 ], [ 5375471.039258568547666, 6712554.815499218180776 ], [ 5375465.205674428492785, 6712558.532839553430676 ], [ 5375461.346805647015572, 6712564.517160341143608 ], [ 5375459.939884423278272, 6712571.397037846967578 ], [ 5375458.098425747826695, 6712575.136185761541128 ], [ 5375454.578466395847499, 6712577.35391644667834 ], [ 5375447.082428303547204, 6712578.582706804387271 ], [ 5375442.055448633618653, 6712580.928684554994106 ], [ 5375434.835209862329066, 6712588.081051165238023 ], [ 5375429.53419893886894, 6712597.868894839659333 ], [ 5375427.554410768672824, 6712605.290130086243153 ], [ 5375425.875668279826641, 6712613.601203612983227 ], [ 5375421.268557446077466, 6712620.966005343943834 ], [ 5375412.716609572991729, 6712627.407465798780322 ], [ 5375402.43139576818794, 6712633.007047271355987 ], [ 5375389.443446058779955, 6712636.297343540005386 ], [ 5375370.833004845306277, 6712635.720715507864952 ], [ 5375361.934564493596554, 6712635.863173396326602 ], [ 5375353.402538212947547, 6712638.848660768941045 ], [ 5375348.870677444152534, 6712644.411061616614461 ], [ 5375347.292783931829035, 6712651.974357425235212 ], [ 5375347.322691073641181, 6712660.683707667514682 ], [ 5375345.724364751949906, 6712667.636628996580839 ], [ 5375340.915976479649544, 6712672.752768466249108 ], [ 5375333.193367781117558, 6712676.766594719141722 ], [ 5375324.501016058959067, 6712683.068244745954871 ], [ 5375306.673561220988631, 6712698.075024453923106 ], [ 5375291.217656975612044, 6712713.602313812822104 ], [ 5375133.111988984048367, 6712824.607501104474068 ], [ 5375052.970970617607236, 6712883.384099205955863 ], [ 5374981.318529502488673, 6712933.254631883464754 ], [ 5374913.576070881448686, 6712971.139399378560483 ], [ 5374847.542759091593325, 6713023.942916515283287 ], [ 5374784.94058349262923, 6713097.107086151838303 ], [ 5374699.56793225184083, 6713175.142589746043086 ], [ 5374588.137538236565888, 6713248.115199146792293 ], [ 5374494.938073594123125, 6713298.70191837567836 ], [ 5373920.437456294894218, 6713774.384601227007806 ], [ 5373821.280699945986271, 6713911.020769268274307 ], [ 5373775.915000220760703, 6713964.18294245749712 ], [ 5373722.90265089739114, 6714007.98964474722743 ], [ 5373641.119308714754879, 6714037.134179515764117 ], [ 5373554.795405466109514, 6714055.630516026169062 ], [ 5373428.815560131333768, 6714110.276133185252547 ], [ 5373317.063561892136931, 6714214.885231379419565 ], [ 5373244.679831988178194, 6714306.184207078069448 ], [ 5373151.200207747519016, 6714393.373889284208417 ], [ 5373039.699903181754053, 6714473.951707479543984 ], [ 5372924.294901350513101, 6714531.83853754773736 ], [ 5372845.40265435166657, 6714553.681234192103148 ], [ 5372738.754761096090078, 6714559.625575659796596 ], [ 5372610.614172226749361, 6714549.47388406842947 ], [ 5372477.32715732511133, 6714510.661958891898394 ], [ 5372346.698457674123347, 6714488.569313619285822 ], [ 5372290.711899943649769, 6714496.993647274561226 ], [ 5372238.985520000569522, 6714525.773678437806666 ], [ 5372136.895344590768218, 6714606.040319245308638 ], [ 5372092.444130194373429, 6714657.886255734600127 ], [ 5372050.120596558786929, 6714734.469250841066241 ], [ 5372003.009037842042744, 6714865.114807651378214 ], [ 5371935.745126309804618, 6714985.051897626370192 ], [ 5371861.253773421049118, 6715076.409572211094201 ], [ 5371787.31001282017678, 6715134.897299881093204 ], [ 5371704.288333080708981, 6715181.164688554592431 ], [ 5371631.13282447680831, 6715213.750823794864118 ], [ 5371580.887754352763295, 6715258.453646138310432 ], [ 5371542.419360438361764, 6715318.786201305687428 ], [ 5371514.046858825720847, 6715411.013131593354046 ], [ 5371500.47758957836777, 6715507.549112932756543 ], [ 5371501.40393091365695, 6715598.794655296951532 ], [ 5371518.987450893968344, 6715687.100121818482876 ], [ 5371559.400683556683362, 6715768.639380423352122 ], [ 5371607.102394303306937, 6715848.737366372719407 ], [ 5371641.045343327336013, 6715924.480453509837389 ], [ 5371665.679734981618822, 6716004.142400700598955 ], [ 5371714.548662282526493, 6716182.687958663329482 ], [ 5371775.166981289163232, 6716368.054395794868469 ], [ 5371797.579673575237393, 6716475.408286056481302 ], [ 5371799.585634763352573, 6716536.000198071822524 ], [ 5371795.030808293260634, 6716588.399466576054692 ], [ 5371786.439370102249086, 6716629.522880522534251 ], [ 5371768.428647729568183, 6716670.958249201998115 ], [ 5371738.328062273561954, 6716703.173061040230095 ], [ 5371711.966634975746274, 6716737.685835158452392 ], [ 5371706.795625425875187, 6716771.48574470821768 ], [ 5371712.168720634654164, 6716807.336164908483624 ], [ 5371737.472567524760962, 6716851.547562643885612 ], [ 5371765.23098087310791, 6716890.856082511134446 ], [ 5371846.013601586222649, 6716989.077765120193362 ], [ 5371897.390150750055909, 6717069.053613975644112 ], [ 5371917.533667149953544, 6717123.634315762668848 ], [ 5371944.354351483285427, 6717174.394283276982605 ], [ 5371988.535291580483317, 6717226.978704462759197 ], [ 5372054.215997658669949, 6717264.441398022696376 ], [ 5372143.411584761925042, 6717299.924531605094671 ], [ 5372226.721791718155146, 6717347.600556124001741 ], [ 5372309.290236007422209, 6717420.541758764535189 ], [ 5372349.887966907583177, 6717491.263765837997198 ], [ 5372377.953809067606926, 6717569.278167642652988 ], [ 5372387.937079376541078, 6717659.357390568591654 ], [ 5372410.725663529708982, 6717746.278968582861125 ], [ 5372439.451500652357936, 6717790.964708032086492 ], [ 5372477.438787644729018, 6717830.543841620907187 ], [ 5372559.868108121678233, 6717883.068907450884581 ], [ 5372633.002524895593524, 6717923.881229732185602 ], [ 5372671.588143282569945, 6717954.874440604820848 ], [ 5372690.61049378849566, 6717981.939605014398694 ], [ 5372698.017527308315039, 6718012.100988544523716 ], [ 5373162.463385778479278, 6718299.185177909210324 ], [ 5373212.373651669360697, 6718334.000127591192722 ], [ 5373297.020182603038847, 6718356.184104222804308 ], [ 5373748.977862641215324, 6718474.67173427529633 ], [ 5374331.752316666767001, 6718723.535796729847789 ], [ 5374617.972152475267649, 6718882.68758911639452 ], [ 5377400.908807096071541, 6718648.930095843970776 ], [ 5377433.913319695740938, 6718610.223946173675358 ], [ 5377954.214426475577056, 6718259.429722279310226 ], [ 5377993.307646005414426, 6718175.619510376825929 ], [ 5379096.302083795890212, 6717360.7061184681952 ], [ 5379234.606092006899416, 6717257.229428158141673 ], [ 5378951.224770075641572, 6716841.963336972519755 ], [ 5379059.367188495583832, 6716765.338190171867609 ], [ 5379779.807017625309527, 6716309.527820302173495 ] ] ] ] } },
{ "type": "Feature", "properties": { "lv_id": "LOC_068810", "id": 436656.0, "CD_SETOR": "432143605000003", "SITUACAO": "Urbana", "CD_SIT": "1", "CD_TIPO": "0", "AREA_KM2": 0.92283569043568303, "CD_REGIAO": "4", "NM_REGIAO": "Sul", "CD_UF": "43", "NM_UF": "Rio Grande do Sul", "CD_MUN": "4321436", "NM_MUN": "Terra de Areia", "CD_DIST": "432143605", "NM_DIST": "Terra de Areia", "CD_SUBDIST": "43214360500", "NM_SUBDIST": null, "CD_BAIRRO": "4321436001", "NM_BAIRRO": "Centro", "CD_NU": null, "NM_NU": null, "CD_FCU": null, "NM_FCU": null, "CD_AGLOM": "432143600002", "NM_AGLOM": "Comunidade Quilombola Zâmbia", "CD_RGINT": "4301", "NM_RGINT": "Porto Alegre", "CD_RGI": "430003", "NM_RGI": "Tramandaí - Osório", "CD_CONCURB": null, "NM_CONCURB": null, "mun_code_x": "4321436", "index_right": 68435, "dist_m": 167.36363321457142, "local_id": 720889, "ano": 2022, "cod_localidade_ibge": 4321436, "NR_ZONA": "77", "nr_cep": 95535000.0, "nm_localidade": "TERRA DE AREIA", "nm_locvot": "ESCOLA ESTADUAL ÉRICA MARQUES", "ds_endereco": "RUA OSVALDO BASTOS, 7022", "ds_bairro": "CENTRO", "pred_long": -50.066004, "pred_lat": -29.580921, "pred_dist": 0.0, "tse_long": -50.070879, "tse_lat": -29.587906, "long": -50.070879, "lat": -29.587906, "ID_UNICO": "LOC_068810", "SG_UF": "RS", "CD_MUNICIPIO": "85162", "NR_LOCAL_VOTACAO": "1163", "QT_SECOES_AGREGADAS": 0, "QT_ELEITORES_TRANSFERIDOS": 0, "CIRO GOMES (PDT) (NÃO ELEITO) 1T": 44.0, "CONSTITUINTE EYMAEL (DC) (NÃO ELEITO) 1T": 1.0, "FELIPE D AVILA (NOVO) (NÃO ELEITO) 1T": 7.0, "JAIR BOLSONARO (PL) (2º TURNO) 1T": 872.0, "LULA (PT) (2º TURNO) 1T": 625.0, "LÉO PÉRICLES (UP) (NÃO ELEITO) 1T": 0.0, "PADRE KELMON (PTB) (NÃO ELEITO) 1T": 1.0, "SIMONE TEBET (MDB) (NÃO ELEITO) 1T": 145.0, "SOFIA MANZANO (PCB) (NÃO ELEITO) 1T": 0.0, "SORAYA THRONICKE (UNIÃO) (NÃO ELEITO) 1T": 7.0, "VERA (PSTU) (NÃO ELEITO) 1T": 0.0, "Total_Votos_Validos 1T": 1702.0, "Votos_Brancos 1T": 24.0, "Votos_Nulos 1T": 31.0, "Abstenções 1T": 380.0, "Eleitores_Aptos 1T": 2137.0, "JAIR BOLSONARO (PL) (NÃO ELEITO) 2T": 1017.0, "LULA (PT) (ELEITO) 2T": 674.0, "Total_Votos_Validos 2T": 1691.0, "Votos_Brancos 2T": 45.0, "Votos_Nulos 2T": 50.0, "Abstenções 2T": 351.0, "Eleitores_Aptos 2T": 2137.0, "mun_code_y": "4321436", "mun_code": "4321436" }, "geometry": { "type": "Polygon", "coordinates": [ [ [ 5382000.629939650185406, 6712811.560996836051345 ], [ 5381866.30989901907742, 6712736.171280125156045 ], [ 5381770.376655865460634, 6712520.740697761997581 ], [ 5382134.630251636728644, 6712199.051614738069475 ], [ 5382387.107987466268241, 6711761.262238215655088 ], [ 5380150.859002611599863, 6712025.843595953658223 ], [ 5380332.30340563133359, 6713110.725575629621744 ], [ 5380311.406301490962505, 6714190.12639117706567 ], [ 5380101.908616901375353, 6715467.820045197382569 ], [ 5380065.706324922852218, 6715897.320348390378058 ], [ 5379779.807017625309527, 6716309.527820302173495 ], [ 5379059.367188495583832, 6716765.338190171867609 ], [ 5378951.224770075641572, 6716841.963336972519755 ], [ 5379234.606092006899416, 6717257.229428158141673 ], [ 5379096.302083795890212, 6717360.7061184681952 ], [ 5377993.307646005414426, 6718175.619510376825929 ], [ 5377954.214426475577056, 6718259.429722279310226 ], [ 5377433.913319695740938, 6718610.223946173675358 ], [ 5377400.908807096071541, 6718648.930095843970776 ], [ 5374617.972152475267649, 6718882.68758911639452 ], [ 5374741.457222829572856, 6719010.999604049138725 ], [ 5375131.510712220333517, 6719416.306618835777044 ], [ 5375394.275803484022617, 6719797.736931182444096 ], [ 5375596.590381075628102, 6719961.693805964663625 ], [ 5376042.343862619251013, 6720087.019532443955541 ], [ 5376218.905926904641092, 6720434.745610063895583 ], [ 5376672.842445010319352, 6720803.655302878469229 ], [ 5376965.853482295759022, 6722403.477977097965777 ], [ 5377335.046046520583332, 6722781.312842207029462 ], [ 5377557.879776115529239, 6722920.169935632497072 ], [ 5377837.354180605150759, 6723002.247840451076627 ], [ 5378111.719723096117377, 6723090.590652564540505 ], [ 5378326.603431957773864, 6723308.963027125224471 ], [ 5378827.12889498565346, 6723633.568778339773417 ], [ 5379101.107247099280357, 6723709.70453486777842 ], [ 5379357.037386437878013, 6723685.803890541195869 ], [ 5379509.605000846087933, 6723671.549612764269114 ], [ 5379708.939576526172459, 6723585.552530942484736 ], [ 5379897.442981662228703, 6723669.552976178005338 ], [ 5379910.911328540183604, 6723630.1225401815027 ], [ 5379939.114827618002892, 6723447.124024599790573 ], [ 5379983.866992061957717, 6723374.660975448787212 ], [ 5380013.714506972581148, 6723291.590434776619077 ], [ 5379855.901636568829417, 6723207.12326920311898 ], [ 5379656.20046372525394, 6723024.339582109823823 ], [ 5379446.677009951323271, 6722865.272086296230555 ], [ 5379323.608994054608047, 6722634.92403557151556 ], [ 5379197.510156339034438, 6722517.11540649458766 ], [ 5379142.714065795764327, 6722447.722013188526034 ], [ 5379001.713159912265837, 6722182.122801753692329 ], [ 5378897.210991128347814, 6722099.026471585035324 ], [ 5378799.796085796318948, 6721943.561792145483196 ], [ 5378789.971955749206245, 6721828.277536185458302 ], [ 5378772.798090347088873, 6721705.496846782974899 ], [ 5378761.737259245477617, 6721600.998024927452207 ], [ 5378779.245681715197861, 6721544.478400480002165 ], [ 5378806.142529753036797, 6721506.485772301442921 ], [ 5378864.182947808876634, 6721460.177605660632253 ], [ 5378989.14631577488035, 6721384.915335164405406 ], [ 5379065.02140642143786, 6721256.476144660264254 ], [ 5379191.31844103243202, 6721140.34619044419378 ], [ 5379254.071319382637739, 6721044.690371315926313 ], [ 5379278.449642797932029, 6721042.801436417736113 ], [ 5379329.687840132974088, 6721059.138608223758638 ], [ 5379361.912791012786329, 6721040.663410842418671 ], [ 5379414.269453346729279, 6720986.955022744834423 ], [ 5379494.368844459764659, 6720915.577461287379265 ], [ 5379574.822660685516894, 6720743.825553251430392 ], [ 5379560.070377968251705, 6720690.204100735485554 ], [ 5379554.350905016995966, 6720680.453253291547298 ], [ 5379556.283944155089557, 6720673.954977508634329 ], [ 5379555.787993773818016, 6720646.039780420251191 ], [ 5379552.137686191126704, 6720616.297844463959336 ], [ 5379554.033083688467741, 6720599.490239761769772 ], [ 5379563.491935134865344, 6720590.1935457829386 ], [ 5379617.349943337030709, 6720550.332382382825017 ], [ 5379757.516855445690453, 6720452.90256561525166 ], [ 5379794.134217471815646, 6720427.05550648458302 ], [ 5379829.278900389559567, 6720402.102471642196178 ], [ 5379953.067847752012312, 6720316.444841047748923 ], [ 5380030.990848941728473, 6720256.657560393214226 ], [ 5380229.42357530631125, 6720114.16356086358428 ], [ 5380325.459996127523482, 6720046.839104022830725 ], [ 5380289.728444382548332, 6719999.038966713473201 ], [ 5380434.603501527570188, 6719893.006598208099604 ], [ 5380605.430431062355638, 6720178.923537160269916 ], [ 5380629.448020273819566, 6720078.491577295586467 ], [ 5380638.187092548236251, 6720041.952468647621572 ], [ 5380680.857740410603583, 6719869.113262422382832 ], [ 5380716.3469163402915, 6719719.005077654495835 ], [ 5380754.712843561545014, 6719559.988321302458644 ], [ 5380765.722494181245565, 6719513.2390351658687 ], [ 5380770.833762679249048, 6719491.555440088734031 ], [ 5380772.698313818313181, 6719483.636962529271841 ], [ 5380965.459450687281787, 6719763.86154075525701 ], [ 5381114.790429031476378, 6719980.947543691843748 ], [ 5381152.516405335627496, 6720034.855524063110352 ], [ 5381155.80501118581742, 6720032.344071540981531 ], [ 5381366.695774873718619, 6719882.371922885999084 ], [ 5381419.988453359343112, 6719842.131091745570302 ], [ 5381468.557290344499052, 6719807.539046924561262 ], [ 5381691.70338087156415, 6719655.010332606732845 ], [ 5381693.295492446050048, 6719653.934057896956801 ], [ 5381654.360150806605816, 6719586.724580505862832 ], [ 5381598.713324856944382, 6719490.40541122853756 ], [ 5381562.580347210168839, 6719425.189432442188263 ], [ 5381713.624842623248696, 6719314.984053300693631 ], [ 5381776.266607774421573, 6719268.990135694853961 ], [ 5381777.310405269265175, 6719270.610193716362119 ], [ 5381953.212712535634637, 6719543.282815774902701 ], [ 5382245.138487494550645, 6720004.549764294177294 ], [ 5382901.417399239726365, 6719537.003313205204904 ], [ 5383286.058903841301799, 6719244.969108901917934 ], [ 5383508.25662730447948, 6719078.720694608986378 ], [ 5384168.642957090400159, 6718601.478214420378208 ], [ 5384296.233861991204321, 6718570.413950246758759 ], [ 5384749.47670132946223, 6718625.967978019267321 ], [ 5384994.4947828091681, 6718664.808244356885552 ], [ 5385150.201654656790197, 6718796.018772237934172 ], [ 5385290.886571748182178, 6718943.920957228168845 ], [ 5385399.182360459119081, 6719026.075608780607581 ], [ 5385758.856066705659032, 6719105.102205912582576 ], [ 5385850.270091028884053, 6719052.528582497499883 ], [ 5386942.860594571568072, 6718232.464340386912227 ], [ 5387997.194415125995874, 6717428.604972335509956 ], [ 5388073.529158163815737, 6717318.149466831237078 ], [ 5388178.604407956823707, 6716976.918369405902922 ], [ 5388149.609766150824726, 6716964.719923794269562 ], [ 5387969.90650044195354, 6716889.31480500753969 ], [ 5387894.703915797173977, 6716724.825301892124116 ], [ 5388074.107469607144594, 6716497.622414632700384 ], [ 5387911.806455604732037, 6716244.515989366918802 ], [ 5387878.305730173364282, 6715301.02589070238173 ], [ 5387694.502566988579929, 6715262.719727862626314 ], [ 5387519.406422581523657, 6715098.724879570305347 ], [ 5387512.906639397144318, 6715092.626773506402969 ], [ 5387349.90603122394532, 6715184.126803581602871 ], [ 5387339.302290871739388, 6714879.31994092464447 ], [ 5387262.106021095067263, 6714755.122175313532352 ], [ 5387198.907880170270801, 6714712.223290371708572 ], [ 5387131.409607335925102, 6714841.626388423144817 ], [ 5386957.305675756186247, 6714732.426787237636745 ], [ 5386856.203666102141142, 6714819.817938096821308 ], [ 5386349.501835592091084, 6714290.62088612280786 ], [ 5386183.905832157470286, 6714394.427815075963736 ], [ 5385641.107391864061356, 6714193.627621684223413 ], [ 5385186.102543372660875, 6714173.628265145234764 ], [ 5384962.810151802375913, 6713986.62220473587513 ], [ 5384580.307852018624544, 6714043.623956156894565 ], [ 5384541.207471139729023, 6713896.227785842493176 ], [ 5384739.808907344937325, 6713810.725245364010334 ], [ 5384620.708609560504556, 6713546.226077226921916 ], [ 5384510.109306483529508, 6713490.628789997659624 ], [ 5384352.710958664305508, 6713693.229411182925105 ], [ 5384259.403869092464447, 6713506.823117651045322 ], [ 5384101.205586019903421, 6713418.71922404691577 ], [ 5383507.605593902990222, 6713088.022290273569524 ], [ 5383460.703497217968106, 6712939.824773032218218 ], [ 5383130.503834696486592, 6712885.624887693673372 ], [ 5383059.004165386781096, 6712528.521066251210868 ], [ 5382562.207915098406374, 6712124.631226127967238 ], [ 5382566.733705160208046, 6712272.065977785736322 ], [ 5382525.383195381611586, 6712436.466493194922805 ], [ 5382469.76293265633285, 6712446.964564974419773 ], [ 5382437.83332359790802, 6712459.542941018007696 ], [ 5382000.629939650185406, 6712811.560996836051345 ] ] ] } },
{ "type": "Feature", "properties": { "lv_id": "LOC_068812", "id": 436655.0, "CD_SETOR": "432143605000002", "SITUACAO": "Urbana", "CD_SIT": "1", "CD_TIPO": "0", "AREA_KM2": 0.40451179267433801, "CD_REGIAO": "4", "NM_REGIAO": "Sul", "CD_UF": "43", "NM_UF": "Rio Grande do Sul", "CD_MUN": "4321436", "NM_MUN": "Terra de Areia", "CD_DIST": "432143605", "NM_DIST": "Terra de Areia", "CD_SUBDIST": "43214360500", "NM_SUBDIST": null, "CD_BAIRRO": "4321436001", "NM_BAIRRO": "Centro", "CD_NU": null, "NM_NU": null, "CD_FCU": null, "NM_FCU": null, "CD_AGLOM": null, "NM_AGLOM": null, "CD_RGINT": "4301", "NM_RGINT": "Porto Alegre", "CD_RGI": "430003", "NM_RGI": "Tramandaí - Osório", "CD_CONCURB": null, "NM_CONCURB": null, "mun_code_x": "4321436", "index_right": 68434, "dist_m": 64.877255630241862, "local_id": 720888, "ano": 2022, "cod_localidade_ibge": 4321436, "NR_ZONA": "77", "nr_cep": 95535000.0, "nm_localidade": "TERRA DE AREIA", "nm_locvot": "ESC MUN ENS FUND MARECHAL MASCARENHAS DE MORAIS", "ds_endereco": "RUA LAURINDO PERONI, S/N", "ds_bairro": "CENTRO", "pred_long": -50.06455, "pred_lat": -29.57732, "pred_dist": 0.0, "tse_long": -50.065643, "tse_lat": -29.576351, "long": -50.065643, "lat": -29.576351, "ID_UNICO": "LOC_068812", "SG_UF": "RS", "CD_MUNICIPIO": "85162", "NR_LOCAL_VOTACAO": "1546", "QT_SECOES_AGREGADAS": 0, "QT_ELEITORES_TRANSFERIDOS": 0, "CIRO GOMES (PDT) (NÃO ELEITO) 1T": 29.0, "CONSTITUINTE EYMAEL (DC) (NÃO ELEITO) 1T": 0.0, "FELIPE D AVILA (NOVO) (NÃO ELEITO) 1T": 4.0, "JAIR BOLSONARO (PL) (2º TURNO) 1T": 837.0, "LULA (PT) (2º TURNO) 1T": 586.0, "LÉO PÉRICLES (UP) (NÃO ELEITO) 1T": 2.0, "PADRE KELMON (PTB) (NÃO ELEITO) 1T": 0.0, "SIMONE TEBET (MDB) (NÃO ELEITO) 1T": 115.0, "SOFIA MANZANO (PCB) (NÃO ELEITO) 1T": 3.0, "SORAYA THRONICKE (UNIÃO) (NÃO ELEITO) 1T": 1.0, "VERA (PSTU) (NÃO ELEITO) 1T": 0.0, "Total_Votos_Validos 1T": 1577.0, "Votos_Brancos 1T": 37.0, "Votos_Nulos 1T": 32.0, "Abstenções 1T": 408.0, "Eleitores_Aptos 1T": 2054.0, "JAIR BOLSONARO (PL) (NÃO ELEITO) 2T": 981.0, "LULA (PT) (ELEITO) 2T": 626.0, "Total_Votos_Validos 2T": 1607.0, "Votos_Brancos 2T": 29.0, "Votos_Nulos 2T": 39.0, "Abstenções 2T": 379.0, "Eleitores_Aptos 2T": 2054.0, "mun_code_y": "4321436", "mun_code": "4321436" }, "geometry": { "type": "MultiPolygon", "coordinates": [ [ [ [ 5384749.47670132946223, 6718625.967978019267321 ], [ 5384296.233861991204321, 6718570.413950246758759 ], [ 5384168.642957090400159, 6718601.478214420378208 ], [ 5383508.25662730447948, 6719078.720694608986378 ], [ 5383286.058903841301799, 6719244.969108901917934 ], [ 5382901.417399239726365, 6719537.003313205204904 ], [ 5383121.62934329919517, 6719687.419524729251862 ], [ 5383426.803286460228264, 6719500.145216852426529 ], [ 5383557.124344213865697, 6719388.764405032619834 ], [ 5383740.001093733124435, 6719245.764684274792671 ], [ 5383942.425219570286572, 6719071.237620679661632 ], [ 5384107.161012896336615, 6718941.19496026262641 ], [ 5384149.959310354664922, 6718895.520170275121927 ], [ 5384910.095743220299482, 6719373.347230928018689 ], [ 5385290.886571748182178, 6718943.920957228168845 ], [ 5385150.201654656790197, 6718796.018772237934172 ], [ 5384994.4947828091681, 6718664.808244356885552 ], [ 5384749.47670132946223, 6718625.967978019267321 ] ] ], [ [ [ 5381776.266607774421573, 6719268.990135694853961 ], [ 5381713.624842623248696, 6719314.984053300693631 ], [ 5381562.580347210168839, 6719425.189432442188263 ], [ 5381598.713324856944382, 6719490.40541122853756 ], [ 5381654.360150806605816, 6719586.724580505862832 ], [ 5381693.295492446050048, 6719653.934057896956801 ], [ 5381691.70338087156415, 6719655.010332606732845 ], [ 5381468.557290344499052, 6719807.539046924561262 ], [ 5381419.988453359343112, 6719842.131091745570302 ], [ 5381366.695774873718619, 6719882.371922885999084 ], [ 5381155.80501118581742, 6720032.344071540981531 ], [ 5381152.516405335627496, 6720034.855524063110352 ], [ 5381114.790429031476378, 6719980.947543691843748 ], [ 5380965.459450687281787, 6719763.86154075525701 ], [ 5380772.698313818313181, 6719483.636962529271841 ], [ 5380770.833762679249048, 6719491.555440088734031 ], [ 5380765.722494181245565, 6719513.2390351658687 ], [ 5380754.712843561545014, 6719559.988321302458644 ], [ 5380716.3469163402915, 6719719.005077654495835 ], [ 5380680.857740410603583, 6719869.113262422382832 ], [ 5380638.187092548236251, 6720041.952468647621572 ], [ 5380629.448020273819566, 6720078.491577295586467 ], [ 5380605.430431062355638, 6720178.923537160269916 ], [ 5380434.603501527570188, 6719893.006598208099604 ], [ 5380289.728444382548332, 6719999.038966713473201 ], [ 5380325.459996127523482, 6720046.839104022830725 ], [ 5380229.42357530631125, 6720114.16356086358428 ], [ 5380030.990848941728473, 6720256.657560393214226 ], [ 5379953.067847752012312, 6720316.444841047748923 ], [ 5379829.278900389559567, 6720402.102471642196178 ], [ 5379794.134217471815646, 6720427.05550648458302 ], [ 5379757.516855445690453, 6720452.90256561525166 ], [ 5379617.349943337030709, 6720550.332382382825017 ], [ 5379563.491935134865344, 6720590.1935457829386 ], [ 5379554.033083688467741, 6720599.490239761769772 ], [ 5379552.137686191126704, 6720616.297844463959336 ], [ 5379555.787993773818016, 6720646.039780420251191 ], [ 5379556.283944155089557, 6720673.954977508634329 ], [ 5379554.350905016995966, 6720680.453253291547298 ], [ 5379560.070377968251705, 6720690.204100735485554 ], [ 5379574.822660685516894, 6720743.825553251430392 ], [ 5379494.368844459764659, 6720915.577461287379265 ], [ 5379414.269453346729279, 6720986.955022744834423 ], [ 5379361.912791012786329, 6721040.663410842418671 ], [ 5379329.687840132974088, 6721059.138608223758638 ], [ 5379278.449642797932029, 6721042.801436417736113 ], [ 5379254.071319382637739, 6721044.690371315926313 ], [ 5379191.31844103243202, 6721140.34619044419378 ], [ 5379065.02140642143786, 6721256.476144660264254 ], [ 5378989.14631577488035, 6721384.915335164405406 ], [ 5378864.182947808876634, 6721460.177605660632253 ], [ 5378806.142529753036797, 6721506.485772301442921 ], [ 5378779.245681715197861, 6721544.478400480002165 ], [ 5378761.737259245477617, 6721600.998024927452207 ], [ 5378772.798090347088873, 6721705.496846782974899 ], [ 5378789.971955749206245, 6721828.277536185458302 ], [ 5378799.796085796318948, 6721943.561792145483196 ], [ 5378897.210991128347814, 6722099.026471585035324 ], [ 5379001.713159912265837, 6722182.122801753692329 ], [ 5379142.714065795764327, 6722447.722013188526034 ], [ 5379197.510156339034438, 6722517.11540649458766 ], [ 5379323.608994054608047, 6722634.92403557151556 ], [ 5379446.677009951323271, 6722865.272086296230555 ], [ 5379656.20046372525394, 6723024.339582109823823 ], [ 5379855.901636568829417, 6723207.12326920311898 ], [ 5380013.714506972581148, 6723291.590434776619077 ], [ 5380200.723854135721922, 6723082.994008663110435 ], [ 5380343.124888376332819, 6722927.077037883922458 ], [ 5380462.484725401736796, 6722790.180555618368089 ], [ 5380596.915302444249392, 6722643.106276203878224 ], [ 5380778.086244961246848, 6722520.002497347071767 ], [ 5380844.074218868277967, 6722482.225651945918798 ], [ 5381174.019663746468723, 6722303.434186203405261 ], [ 5381273.487334474921227, 6722248.487103227525949 ], [ 5381442.435548624955118, 6722156.817444272339344 ], [ 5381615.632656754925847, 6722062.423009938560426 ], [ 5381710.301559280604124, 6722012.200838636606932 ], [ 5381752.508476419374347, 6721985.580151880159974 ], [ 5381788.413617481477559, 6721969.85070314258337 ], [ 5382147.308306747116148, 6721763.266586826182902 ], [ 5382596.090053046122193, 6721515.012086102738976 ], [ 5382816.87462801206857, 6721372.733398012816906 ], [ 5383035.061305342242122, 6721219.527065766975284 ], [ 5383052.035853820852935, 6721165.338134 ], [ 5383069.02025696914643, 6721111.159924083389342 ], [ 5383085.478832839056849, 6720958.400251391343772 ], [ 5383106.994007539004087, 6720863.04556386359036 ], [ 5383128.637232421897352, 6720801.641759304329753 ], [ 5383239.295381814241409, 6720809.181359047070146 ], [ 5383254.679280045442283, 6720745.923898825421929 ], [ 5383239.211762527003884, 6720685.773651426658034 ], [ 5383273.163766710087657, 6720652.738577990792692 ], [ 5383276.680451221764088, 6720604.285537876188755 ], [ 5383260.501364829950035, 6720553.415094763971865 ], [ 5383214.683308931998909, 6720510.766111006960273 ], [ 5383161.055686824023724, 6720450.883259179070592 ], [ 5383115.18034129217267, 6720376.358323208987713 ], [ 5383109.175442581996322, 6720321.029941964894533 ], [ 5383113.709263170138001, 6720272.542341869324446 ], [ 5383080.560070051811635, 6720207.861351982690394 ], [ 5383053.14773574937135, 6720160.462485456839204 ], [ 5382983.47494241874665, 6720204.991885425522923 ], [ 5382903.719080582261086, 6720044.21025459934026 ], [ 5382847.832485650666058, 6719917.581676968373358 ], [ 5382818.778235632926226, 6719821.90544256567955 ], [ 5382820.258593814447522, 6719713.889209114946425 ], [ 5382852.201956910081208, 6719591.457510747015476 ], [ 5382901.417399239726365, 6719537.003313205204904 ], [ 5382245.138487494550645, 6720004.549764294177294 ], [ 5381953.212712535634637, 6719543.282815774902701 ], [ 5381777.310405269265175, 6719270.610193716362119 ], [ 5381776.266607774421573, 6719268.990135694853961 ] ] ] ] } },
{ "type": "Feature", "properties": { "lv_id": "LOC_068813", "id": 436669.0, "CD_SETOR": "432143605000019", "SITUACAO": "Rural", "CD_SIT": "8", "CD_TIPO": "0", "AREA_KM2": 5.3721165809398936, "CD_REGIAO": "4", "NM_REGIAO": "Sul", "CD_UF": "43", "NM_UF": "Rio Grande do Sul", "CD_MUN": "4321436", "NM_MUN": "Terra de Areia", "CD_DIST": "432143605", "NM_DIST": "Terra de Areia", "CD_SUBDIST": "43214360500", "NM_SUBDIST": null, "CD_BAIRRO": null, "NM_BAIRRO": null, "CD_NU": null, "NM_NU": null, "CD_FCU": null, "NM_FCU": null, "CD_AGLOM": null, "NM_AGLOM": null, "CD_RGINT": "4301", "NM_RGINT": "Porto Alegre", "CD_RGI": "430003", "NM_RGI": "Tramandaí - Osório", "CD_CONCURB": null, "NM_CONCURB": null, "mun_code_x": "4321436", "index_right": 68438, "dist_m": 230.25786823776386, "local_id": 720892, "ano": 2022, "cod_localidade_ibge": 4321436, "NR_ZONA": "77", "nr_cep": 95535000.0, "nm_localidade": "TERRA DE AREIA", "nm_locvot": "ESC. MUN. DE ENS. FUND. JOSÉ DO PATROCÍNIO", "ds_endereco": "VILA OLARIA", "ds_bairro": "OLARIA", "pred_long": -50.04151, "pred_lat": -29.55795, "pred_dist": 0.0, "tse_long": -50.064411, "tse_lat": -29.579099, "long": -50.064411, "lat": -29.579099, "ID_UNICO": "LOC_068813", "SG_UF": "RS", "CD_MUNICIPIO": "85162", "NR_LOCAL_VOTACAO": "1619", "QT_SECOES_AGREGADAS": 0, "QT_ELEITORES_TRANSFERIDOS": 0, "CIRO GOMES (PDT) (NÃO ELEITO) 1T": 6.0, "CONSTITUINTE EYMAEL (DC) (NÃO ELEITO) 1T": 0.0, "FELIPE D AVILA (NOVO) (NÃO ELEITO) 1T": 1.0, "JAIR BOLSONARO (PL) (2º TURNO) 1T": 164.0, "LULA (PT) (2º TURNO) 1T": 71.0, "LÉO PÉRICLES (UP) (NÃO ELEITO) 1T": 0.0, "PADRE KELMON (PTB) (NÃO ELEITO) 1T": 0.0, "SIMONE TEBET (MDB) (NÃO ELEITO) 1T": 17.0, "SOFIA MANZANO (PCB) (NÃO ELEITO) 1T": 0.0, "SORAYA THRONICKE (UNIÃO) (NÃO ELEITO) 1T": 0.0, "VERA (PSTU) (NÃO ELEITO) 1T": 0.0, "Total_Votos_Validos 1T": 259.0, "Votos_Brancos 1T": 4.0, "Votos_Nulos 1T": 2.0, "Abstenções 1T": 45.0, "Eleitores_Aptos 1T": 310.0, "JAIR BOLSONARO (PL) (NÃO ELEITO) 2T": 192.0, "LULA (PT) (ELEITO) 2T": 73.0, "Total_Votos_Validos 2T": 265.0, "Votos_Brancos 2T": 3.0, "Votos_Nulos 2T": 5.0, "Abstenções 2T": 37.0, "Eleitores_Aptos 2T": 310.0, "mun_code_y": "4321436", "mun_code": "4321436" }, "geometry": { "type": "Polygon", "coordinates": [ [ [ 5382816.87462801206857, 6721372.733398012816906 ], [ 5382596.090053046122193, 6721515.012086102738976 ], [ 5382147.308306747116148, 6721763.266586826182902 ], [ 5381788.413617481477559, 6721969.85070314258337 ], [ 5381752.508476419374347, 6721985.580151880159974 ], [ 5381710.301559280604124, 6722012.200838636606932 ], [ 5381615.632656754925847, 6722062.423009938560426 ], [ 5381442.435548624955118, 6722156.817444272339344 ], [ 5381273.487334474921227, 6722248.487103227525949 ], [ 5381174.019663746468723, 6722303.434186203405261 ], [ 5380844.074218868277967, 6722482.225651945918798 ], [ 5380778.086244961246848, 6722520.002497347071767 ], [ 5380596.915302444249392, 6722643.106276203878224 ], [ 5380462.484725401736796, 6722790.180555618368089 ], [ 5380343.124888376332819, 6722927.077037883922458 ], [ 5380200.723854135721922, 6723082.994008663110435 ], [ 5380013.714506972581148, 6723291.590434776619077 ], [ 5379983.866992061957717, 6723374.660975448787212 ], [ 5379939.114827618002892, 6723447.124024599790573 ], [ 5379910.911328540183604, 6723630.1225401815027 ], [ 5379897.442981662228703, 6723669.552976178005338 ], [ 5380319.503304755315185, 6723857.611201679334044 ], [ 5380430.113823655992746, 6723835.418357016518712 ], [ 5380560.309757048264146, 6723740.220828484743834 ], [ 5380942.111394846811891, 6723199.624340206384659 ], [ 5381098.712916375137866, 6723165.522733819670975 ], [ 5381571.214687440544367, 6723472.322782253846526 ], [ 5382294.812779389321804, 6723677.215895853936672 ], [ 5382316.842882261611521, 6723917.084656542167068 ], [ 5382320.009640648961067, 6723951.520793052390218 ], [ 5382599.507981791161001, 6724182.5193921783939 ], [ 5383170.412987839430571, 6724072.41302128508687 ], [ 5384422.914045238867402, 6724193.919838010333478 ], [ 5384585.115580786950886, 6724172.512815735302866 ], [ 5384564.807967343367636, 6723517.013442609459162 ], [ 5384512.907562302425504, 6723221.7181302215904 ], [ 5384366.656822476536036, 6723002.913309535011649 ], [ 5384546.322637313045561, 6722856.50683580711484 ], [ 5384356.940347364172339, 6722720.010280342772603 ], [ 5384358.07735700905323, 6722330.146774454042315 ], [ 5384137.825853336602449, 6722346.925536930561066 ], [ 5384136.802275809459388, 6722105.259512576274574 ], [ 5383908.988964109681547, 6722112.003737919963896 ], [ 5383902.699160086922348, 6721997.251575152389705 ], [ 5383925.049311263486743, 6721887.24407066591084 ], [ 5383931.874588164500892, 6721815.022049091756344 ], [ 5383934.128393490798771, 6721699.7559536062181 ], [ 5383911.726660686545074, 6721587.387075195088983 ], [ 5383874.90055747050792, 6721385.010376767255366 ], [ 5383754.106609598733485, 6721382.955366497859359 ], [ 5383755.444282409735024, 6721331.4874522164464 ], [ 5383031.780864181928337, 6721290.349357426166534 ], [ 5383041.595125550404191, 6721214.937865378335118 ], [ 5383035.061305342242122, 6721219.527065766975284 ], [ 5382816.87462801206857, 6721372.733398012816906 ] ] ] } },
{ "type": "Feature", "properties": { "lv_id": "LOC_068817", "id": 436659.0, "CD_SETOR": "432143605000006", "SITUACAO": "Urbana", "CD_SIT": "3", "CD_TIPO": "0", "AREA_KM2": 0.22254529648233901, "CD_REGIAO": "4", "NM_REGIAO": "Sul", "CD_UF": "43", "NM_UF": "Rio Grande do Sul", "CD_MUN": "4321436", "NM_MUN": "Terra de Areia", "CD_DIST": "432143605", "NM_DIST": "Terra de Areia", "CD_SUBDIST": "43214360500", "NM_SUBDIST": null, "CD_BAIRRO": null, "NM_BAIRRO": null, "CD_NU": "4321436001", "NM_NU": "Ibicuí- Santa Rita de Cássia", "CD_FCU": null, "NM_FCU": null, "CD_AGLOM": null, "NM_AGLOM": null, "CD_RGINT": "4301", "NM_RGINT": "Porto Alegre", "CD_RGI": "430003", "NM_RGI": "Tramandaí - Osório", "CD_CONCURB": null, "NM_CONCURB": null, "mun_code_x": "4321436", "index_right": 68439, "dist_m": 1785.901985007521, "local_id": 720893, "ano": 2022, "cod_localidade_ibge": 4321436, "NR_ZONA": "77", "nr_cep": 95535000.0, "nm_localidade": "TERRA DE AREIA", "nm_locvot": "ESPAÇO MÚLTIPLO USO", "ds_endereco": "RUA 14, 350", "ds_bairro": "NOVO CURUMIM", "pred_long": -49.943778, "pred_lat": -29.620215, "pred_dist": 0.0, "tse_long": -49.929119, "tse_lat": -29.61257, "long": -49.929119, "lat": -29.61257, "ID_UNICO": "LOC_068817", "SG_UF": "RS", "CD_MUNICIPIO": "85162", "NR_LOCAL_VOTACAO": "1678", "QT_SECOES_AGREGADAS": 0, "QT_ELEITORES_TRANSFERIDOS": 0, "CIRO GOMES (PDT) (NÃO ELEITO) 1T": 3.0, "CONSTITUINTE EYMAEL (DC) (NÃO ELEITO) 1T": 0.0, "FELIPE D AVILA (NOVO) (NÃO ELEITO) 1T": 0.0, "JAIR BOLSONARO (PL) (2º TURNO) 1T": 98.0, "LULA (PT) (2º TURNO) 1T": 150.0, "LÉO PÉRICLES (UP) (NÃO ELEITO) 1T": 0.0, "PADRE KELMON (PTB) (NÃO ELEITO) 1T": 1.0, "SIMONE TEBET (MDB) (NÃO ELEITO) 1T": 6.0, "SOFIA MANZANO (PCB) (NÃO ELEITO) 1T": 0.0, "SORAYA THRONICKE (UNIÃO) (NÃO ELEITO) 1T": 0.0, "VERA (PSTU) (NÃO ELEITO) 1T": 0.0, "Total_Votos_Validos 1T": 258.0, "Votos_Brancos 1T": 3.0, "Votos_Nulos 1T": 4.0, "Abstenções 1T": 58.0, "Eleitores_Aptos 1T": 323.0, "JAIR BOLSONARO (PL) (NÃO ELEITO) 2T": 123.0, "LULA (PT) (ELEITO) 2T": 130.0, "Total_Votos_Validos 2T": 253.0, "Votos_Brancos 2T": 6.0, "Votos_Nulos 2T": 8.0, "Abstenções 2T": 56.0, "Eleitores_Aptos 2T": 323.0, "mun_code_y": "4321436", "mun_code": "4321436" }, "geometry": { "type": "Polygon", "coordinates": [ [ [ 5393948.586112648248672, 6714912.111319950781763 ], [ 5393741.677575099281967, 6714565.169662602245808 ], [ 5393727.785083396360278, 6714541.520566411316395 ], [ 5393637.905025240965188, 6714579.123870081268251 ], [ 5393553.152623347006738, 6714614.568446194753051 ], [ 5392896.444439713843167, 6714889.252083686180413 ], [ 5392561.501808776520193, 6715029.31421790830791 ], [ 5392499.437377252615988, 6715055.277275073342025 ], [ 5392464.670734029263258, 6715069.828346386551857 ], [ 5392435.844549830071628, 6715081.88236572034657 ], [ 5391449.207615182735026, 6715494.520805891603231 ], [ 5391416.315753526985645, 6715507.880518916994333 ], [ 5388306.306299789808691, 6716771.222701535560191 ], [ 5388178.604407956823707, 6716976.918369405902922 ], [ 5388073.529158163815737, 6717318.149466831237078 ], [ 5387997.194415125995874, 6717428.604972335509956 ], [ 5386942.860594571568072, 6718232.464340386912227 ], [ 5385850.270091028884053, 6719052.528582497499883 ], [ 5385758.856066705659032, 6719105.102205912582576 ], [ 5385399.182360459119081, 6719026.075608780607581 ], [ 5385290.886571748182178, 6718943.920957228168845 ], [ 5384910.095743220299482, 6719373.347230928018689 ], [ 5384149.959310354664922, 6718895.520170275121927 ], [ 5384107.161012896336615, 6718941.19496026262641 ], [ 5383942.425219570286572, 6719071.237620679661632 ], [ 5383740.001093733124435, 6719245.764684274792671 ], [ 5383557.124344213865697, 6719388.764405032619834 ], [ 5383426.803286460228264, 6719500.145216852426529 ], [ 5383121.62934329919517, 6719687.419524729251862 ], [ 5382901.417399239726365, 6719537.003313205204904 ], [ 5382852.201956910081208, 6719591.457510747015476 ], [ 5382820.258593814447522, 6719713.889209114946425 ], [ 5382818.778235632926226, 6719821.90544256567955 ], [ 5382847.832485650666058, 6719917.581676968373358 ], [ 5382903.719080582261086, 6720044.21025459934026 ], [ 5382983.47494241874665, 6720204.991885425522923 ], [ 5383053.14773574937135, 6720160.462485456839204 ], [ 5383080.560070051811635, 6720207.861351982690394 ], [ 5383113.709263170138001, 6720272.542341869324446 ], [ 5383109.175442581996322, 6720321.029941964894533 ], [ 5383115.18034129217267, 6720376.358323208987713 ], [ 5383161.055686824023724, 6720450.883259179070592 ], [ 5383214.683308931998909, 6720510.766111006960273 ], [ 5383260.501364829950035, 6720553.415094763971865 ], [ 5383276.680451221764088, 6720604.285537876188755 ], [ 5383273.163766710087657, 6720652.738577990792692 ], [ 5383239.211762527003884, 6720685.773651426658034 ], [ 5383254.679280045442283, 6720745.923898825421929 ], [ 5383239.295381814241409, 6720809.181359047070146 ], [ 5383128.637232421897352, 6720801.641759304329753 ], [ 5383106.994007539004087, 6720863.04556386359036 ], [ 5383085.478832839056849, 6720958.400251391343772 ], [ 5383069.02025696914643, 6721111.159924083389342 ], [ 5383052.035853820852935, 6721165.338134 ], [ 5383035.061305342242122, 6721219.527065766975284 ], [ 5383041.595125550404191, 6721214.937865378335118 ], [ 5383031.780864181928337, 6721290.349357426166534 ], [ 5383755.444282409735024, 6721331.4874522164464 ], [ 5383754.106609598733485, 6721382.955366497859359 ], [ 5383874.90055747050792, 6721385.010376767255366 ], [ 5383911.726660686545074, 6721587.387075195088983 ], [ 5383934.128393490798771, 6721699.7559536062181 ], [ 5383931.874588164500892, 6721815.022049091756344 ], [ 5383925.049311263486743, 6721887.24407066591084 ], [ 5383902.699160086922348, 6721997.251575152389705 ], [ 5383908.988964109681547, 6722112.003737919963896 ], [ 5384136.802275809459388, 6722105.259512576274574 ], [ 5384137.825853336602449, 6722346.925536930561066 ], [ 5384358.07735700905323, 6722330.146774454042315 ], [ 5384356.940347364172339, 6722720.010280342772603 ], [ 5384546.322637313045561, 6722856.50683580711484 ], [ 5384366.656822476536036, 6723002.913309535011649 ], [ 5384512.907562302425504, 6723221.7181302215904 ], [ 5384564.807967343367636, 6723517.013442609459162 ], [ 5384585.115580786950886, 6724172.512815735302866 ], [ 5385320.713053530082107, 6724075.71221967227757 ], [ 5386237.313178377225995, 6724128.912691353820264 ], [ 5386858.109238345175982, 6724329.414283007383347 ], [ 5387236.410561299882829, 6724564.917899590916932 ], [ 5388415.614560330286622, 6725036.614854095503688 ], [ 5389557.31308279465884, 6725215.014047032222152 ], [ 5389588.009950407780707, 6725012.116396898403764 ], [ 5389237.008848326280713, 6724729.913406189531088 ], [ 5388443.209215556271374, 6724535.014100663363934 ], [ 5388332.414766274392605, 6724412.218308568000793 ], [ 5388393.114224737510085, 6724218.814215628430247 ], [ 5388791.409061381593347, 6723921.015704341232777 ], [ 5389052.612071927636862, 6723855.209516132250428 ], [ 5389319.007524995133281, 6723568.51375581137836 ], [ 5389540.907049402594566, 6723528.61145727802068 ], [ 5389605.410842803306878, 6723322.908864947035909 ], [ 5389480.514686378650367, 6723291.318376483395696 ], [ 5388825.106564708985388, 6723711.317052721045911 ], [ 5387971.610265670344234, 6724373.610731597989798 ], [ 5387512.214129724539816, 6724341.81957371160388 ], [ 5387096.606266445480287, 6724136.320413988083601 ], [ 5386642.612501468509436, 6723486.012123670428991 ], [ 5386326.812793584540486, 6723173.714090254157782 ], [ 5386349.812567584216595, 6723485.111510360613465 ], [ 5386097.41231282800436, 6723611.720818340778351 ], [ 5385795.814187552779913, 6723634.318905089050531 ], [ 5385634.414056870155036, 6723760.719306196086109 ], [ 5384747.411358566954732, 6723504.916709804907441 ], [ 5384634.910759471356869, 6723400.816864447668195 ], [ 5384583.512741749174893, 6723036.815013704821467 ], [ 5384610.306726093403995, 6722150.713221242651343 ], [ 5385195.512933005578816, 6720777.919251214712858 ], [ 5385759.513458050787449, 6719799.922158075496554 ], [ 5386735.512933074496686, 6718647.02264959923923 ], [ 5388226.211258168332279, 6717288.214698585681617 ], [ 5388365.005509181879461, 6717288.915628330782056 ], [ 5388523.805840791203082, 6717335.314703868702054 ], [ 5388740.287099971435964, 6717363.15837983507663 ], [ 5391136.210789031349123, 6716875.619622772559524 ], [ 5391597.19446231238544, 6716828.303190065547824 ], [ 5392358.977152306586504, 6716750.0571916885674 ], [ 5393463.897638174705207, 6716636.479457667097449 ], [ 5393802.90897165518254, 6716601.612336698919535 ], [ 5393956.996429175138474, 6716585.782717891037464 ], [ 5394824.107733602635562, 6716496.612884732894599 ], [ 5394914.096077982336283, 6716487.357937506400049 ], [ 5394792.515057099051774, 6716295.971650026738644 ], [ 5394788.575103214010596, 6716289.764821643009782 ], [ 5394707.605512050911784, 6716151.002224519848824 ], [ 5394631.619193931110203, 6716020.787610030733049 ], [ 5394517.421225030906498, 6715853.37691486813128 ], [ 5394464.962415642105043, 6715776.475898860953748 ], [ 5394386.971356110647321, 6715643.685956683009863 ], [ 5394233.828434076160192, 6715382.928345933556557 ], [ 5394233.087418371811509, 6715381.420824782922864 ], [ 5394164.597470890730619, 6715242.250934444367886 ], [ 5394123.230706850066781, 6715158.19173564016819 ], [ 5393948.586112648248672, 6714912.111319950781763 ] ] ] } }
]
}
