{
"type": "FeatureCollection",
"name": "4321352",
"crs": { "type": "name", "properties": { "name": "urn:ogc:def:crs:EPSG::5880" } },
"features": [
{ "type": "Feature", "properties": { "lv_id": "LOC_076475", "id": 436599.0, "CD_SETOR": "432135205000007", "SITUACAO": "Rural", "CD_SIT": "8", "CD_TIPO": "0", "AREA_KM2": 14.181895107213915, "CD_REGIAO": "4", "NM_REGIAO": "Sul", "CD_UF": "43", "NM_UF": "Rio Grande do Sul", "CD_MUN": "4321352", "NM_MUN": "Tavares", "CD_DIST": "432135205", "NM_DIST": "Tavares", "CD_SUBDIST": "43213520500", "NM_SUBDIST": null, "CD_BAIRRO": null, "NM_BAIRRO": null, "CD_NU": null, "NM_NU": null, "CD_FCU": null, "NM_FCU": null, "CD_AGLOM": null, "NM_AGLOM": null, "CD_RGINT": "4301", "NM_RGINT": "Porto Alegre", "CD_RGI": "430001", "NM_RGI": "Porto Alegre", "CD_CONCURB": null, "NM_CONCURB": null, "mun_code_x": "4321352", "index_right": 75879, "dist_m": 18.184813993613613, "local_id": 793765, "ano": 2022, "cod_localidade_ibge": 4321352, "NR_ZONA": "122", "nr_cep": 96290000.0, "nm_localidade": "TAVARES", "nm_locvot": "E. M. DE 1º GRAU INCOMPLETO ONOFRE PIRES", "ds_endereco": "ESTRADA DO CAPÃO COMPRIDO, SN", "ds_bairro": "CAPÃO COMPRIDO", "pred_long": -51.064232, "pred_lat": -31.269, "pred_dist": 0.0, "tse_long": -51.165932, "tse_lat": -31.404072, "long": -51.165932, "lat": -31.404072, "ID_UNICO": "LOC_076475", "SG_UF": "RS", "CD_MUNICIPIO": "89710", "NR_LOCAL_VOTACAO": "1040", "QT_SECOES_AGREGADAS": 0, "QT_ELEITORES_TRANSFERIDOS": 0, "CIRO GOMES (PDT) (NÃO ELEITO) 1T": 2.0, "CONSTITUINTE EYMAEL (DC) (NÃO ELEITO) 1T": 0.0, "FELIPE D AVILA (NOVO) (NÃO ELEITO) 1T": 0.0, "JAIR BOLSONARO (PL) (2º TURNO) 1T": 75.0, "LULA (PT) (2º TURNO) 1T": 25.0, "LÉO PÉRICLES (UP) (NÃO ELEITO) 1T": 0.0, "PADRE KELMON (PTB) (NÃO ELEITO) 1T": 0.0, "SIMONE TEBET (MDB) (NÃO ELEITO) 1T": 12.0, "SOFIA MANZANO (PCB) (NÃO ELEITO) 1T": 0.0, "SORAYA THRONICKE (UNIÃO) (NÃO ELEITO) 1T": 5.0, "VERA (PSTU) (NÃO ELEITO) 1T": 0.0, "Total_Votos_Validos 1T": 119.0, "Votos_Brancos 1T": 1.0, "Votos_Nulos 1T": 2.0, "Abstenções 1T": 27.0, "Eleitores_Aptos 1T": 149.0, "JAIR BOLSONARO (PL) (NÃO ELEITO) 2T": 91.0, "LULA (PT) (ELEITO) 2T": 30.0, "Total_Votos_Validos 2T": 121.0, "Votos_Brancos 2T": 0.0, "Votos_Nulos 2T": 0.0, "Abstenções 2T": 28.0, "Eleitores_Aptos 2T": 149.0, "mun_code_y": "4321352", "mun_code": "4321352" }, "geometry": { "type": "Polygon", "coordinates": [ [ [ 5282645.041264548897743, 6533189.957626797258854 ], [ 5279959.561385125853121, 6530568.745775665156543 ], [ 5277127.127207083627582, 6527817.534528292715549 ], [ 5275901.44352063909173, 6526085.609156813472509 ], [ 5275607.411051157861948, 6526161.015964429825544 ], [ 5275223.915808143094182, 6526264.465823644772172 ], [ 5275061.569844948127866, 6526309.740190785378218 ], [ 5272937.819120620377362, 6526797.077181423082948 ], [ 5272997.149091516621411, 6526935.920870447531343 ], [ 5273124.198952156119049, 6527240.620906309224665 ], [ 5273155.174277161248028, 6527333.399165509268641 ], [ 5273194.629350421018898, 6527482.6961221229285 ], [ 5273216.350578041747212, 6527612.63918199390173 ], [ 5273244.146154643036425, 6527923.023221733048558 ], [ 5273284.559319510124624, 6528366.473916685208678 ], [ 5273291.69028749410063, 6528433.329986777156591 ], [ 5273297.666659642010927, 6528477.802218660712242 ], [ 5273316.683425167575479, 6528574.411260994151235 ], [ 5273357.101171288639307, 6528743.288135888054967 ], [ 5273403.544049908407032, 6528950.052675260230899 ], [ 5273437.151169832795858, 6529055.184525825083256 ], [ 5273528.116570283658803, 6529269.990679331123829 ], [ 5273542.069323883391917, 6529303.020041772164404 ], [ 5273576.833719254471362, 6529406.811459434218705 ], [ 5273641.154152407310903, 6529603.006630464456975 ], [ 5273665.862203254364431, 6529664.696894684806466 ], [ 5273697.940024936571717, 6529735.508959744125605 ], [ 5273748.189870259724557, 6529830.9471833454445 ], [ 5273774.967888968996704, 6529877.784913657233119 ], [ 5273819.360990036278963, 6529946.143736170604825 ], [ 5273961.887690792791545, 6530145.513260339386761 ], [ 5274029.841765183024108, 6530242.375323166139424 ], [ 5274100.327433604747057, 6530340.602999482303858 ], [ 5274138.05873598344624, 6530387.453559603542089 ], [ 5274164.832138555124402, 6530415.418033691123128 ], [ 5274185.850961660034955, 6530434.507303263060749 ], [ 5274213.790232079103589, 6530457.156856972724199 ], [ 5274244.192129764705896, 6530475.656589047983289 ], [ 5274280.146828890778124, 6530495.298836179077625 ], [ 5274459.464555056765676, 6530576.73474517930299 ], [ 5274623.735751668922603, 6530652.189446842297912 ], [ 5274768.611181907355785, 6530717.780922127887607 ], [ 5274886.726403866894543, 6530777.399709176272154 ], [ 5275002.731122683733702, 6530845.820707816630602 ], [ 5275151.892023737542331, 6530957.355791983194649 ], [ 5275193.567008191719651, 6530993.830739554017782 ], [ 5275316.992672217078507, 6531107.204500121995807 ], [ 5275472.262807736173272, 6531258.219470283947885 ], [ 5275693.366095493547618, 6531468.917688651010394 ], [ 5275734.251670820638537, 6531508.187011480331421 ], [ 5275876.832465088926256, 6531644.465461560525 ], [ 5275916.415797260589898, 6531681.603598742745817 ], [ 5276012.51854950748384, 6531774.096086799167097 ], [ 5276091.174335047602654, 6531849.506105352193117 ], [ 5276117.721209089271724, 6531875.407453995198011 ], [ 5276167.727000857703388, 6531920.952149936929345 ], [ 5276187.64224362000823, 6531933.683565119281411 ], [ 5276217.014761653728783, 6531954.392444344237447 ], [ 5276250.545777305029333, 6531976.057564990594983 ], [ 5276278.369945883750916, 6531992.566182119771838 ], [ 5276310.056639356538653, 6532008.917540004476905 ], [ 5276352.134833795018494, 6532024.950800528749824 ], [ 5276350.786417854949832, 6532043.914792407304049 ], [ 5276342.069271889515221, 6532059.720066647976637 ], [ 5276356.127355890348554, 6532053.976675974205136 ], [ 5276390.430525702424347, 6532057.558519192039967 ], [ 5276458.283989854156971, 6532061.444484582170844 ], [ 5276474.765412142500281, 6532061.654255459085107 ], [ 5276491.673759093508124, 6532064.69480637088418 ], [ 5276627.453937400132418, 6532083.187407413497567 ], [ 5276787.906104690395296, 6532105.845893185585737 ], [ 5276894.351720627397299, 6532121.345176707953215 ], [ 5276952.037406414747238, 6532131.11376834847033 ], [ 5276989.280642591416836, 6532138.179812679067254 ], [ 5277034.860889035277069, 6532148.63377901352942 ], [ 5277089.241031577810645, 6532164.494980311021209 ], [ 5277145.56884454190731, 6532185.222601890563965 ], [ 5277200.187913961708546, 6532210.480212138965726 ], [ 5277245.449320712126791, 6532232.643078884109855 ], [ 5277452.113925728946924, 6532355.808551187627017 ], [ 5277568.012751529924572, 6532426.494249701499939 ], [ 5277660.884886855259538, 6532482.089845885522664 ], [ 5277782.013230474665761, 6532556.298755061812699 ], [ 5277880.060561012476683, 6532615.541439946740866 ], [ 5277967.29921321477741, 6532669.396434534341097 ], [ 5278109.671851705759764, 6532755.140567926689982 ], [ 5278131.857773220166564, 6532775.779707421548665 ], [ 5278163.754227194003761, 6532808.118304477073252 ], [ 5278184.126481989398599, 6532824.642183513380587 ], [ 5278203.801337356679142, 6532839.286079230718315 ], [ 5278189.002154151909053, 6532836.836132411845028 ], [ 5278174.768670607358217, 6532838.123627880588174 ], [ 5278163.060453577898443, 6532840.898467442020774 ], [ 5278151.908091603778303, 6532845.601403458043933 ], [ 5278044.824546077288687, 6532910.342143841087818 ], [ 5277940.226249516010284, 6532974.027801817283034 ], [ 5277798.055968428961933, 6533059.822225047275424 ], [ 5277685.182236226275563, 6533128.719829647801816 ], [ 5277563.958758211694658, 6533202.488475038670003 ], [ 5277381.596660087816417, 6533313.507678480818868 ], [ 5277526.672053279355168, 6533545.788479601964355 ], [ 5277556.156614825129509, 6533601.839596126228571 ], [ 5277590.757186880335212, 6533636.650808874517679 ], [ 5278041.596020372584462, 6534152.252840727567673 ], [ 5277951.177449476905167, 6534208.36789633706212 ], [ 5277898.791719358414412, 6534238.463423727080226 ], [ 5277723.858141950331628, 6534341.741153977811337 ], [ 5277480.76303821709007, 6534483.951926728710532 ], [ 5277141.798665874637663, 6533960.091611754149199 ], [ 5276744.03809832315892, 6534223.733160170726478 ], [ 5276615.014930380508304, 6534010.669966250658035 ], [ 5276548.643351450562477, 6533901.078430277295411 ], [ 5276099.565056662075222, 6534207.055112624540925 ], [ 5276032.312794674187899, 6534164.926631468348205 ], [ 5275984.524625306949019, 6534134.15404991991818 ], [ 5275943.749815164133906, 6534106.372103750705719 ], [ 5275886.942855949513614, 6534073.471412669867277 ], [ 5275869.780445229262114, 6534073.200592370703816 ], [ 5275849.853324506431818, 6534069.938295824453235 ], [ 5275804.013693352229893, 6534044.77565636485815 ], [ 5275762.601603014394641, 6534019.174643620848656 ], [ 5275706.471265695989132, 6533984.06828661262989 ], [ 5275669.093007328920066, 6533960.803421173244715 ], [ 5275648.981978529132903, 6533948.34233452565968 ], [ 5275487.708122732117772, 6533847.685590604320168 ], [ 5275449.057885323651135, 6533825.641274056397378 ], [ 5275395.175949247553945, 6533793.016752311959863 ], [ 5275298.51279269810766, 6533728.608350350521505 ], [ 5275209.738572727888823, 6533676.237504906952381 ], [ 5275146.528135699220002, 6533641.6026895288378 ], [ 5275109.08773350995034, 6533661.33417334780097 ], [ 5274924.927517388015985, 6533770.02329062204808 ], [ 5274493.622692735865712, 6534023.440641110762954 ], [ 5274189.89882053155452, 6534200.838321294635534 ], [ 5274076.054894527420402, 6534268.198106789961457 ], [ 5274065.015327787958086, 6534278.077831997536123 ], [ 5274045.133723273873329, 6534313.799336482770741 ], [ 5274084.15332792699337, 6534427.481724133715034 ], [ 5273629.357779127545655, 6534739.787524066865444 ], [ 5273456.677805335260928, 6534824.946565019898117 ], [ 5273506.212238283827901, 6534909.471014393493533 ], [ 5273532.65009391028434, 6535139.081463501788676 ], [ 5273679.542368675582111, 6535392.143206648528576 ], [ 5274154.082188054919243, 6535799.608252158388495 ], [ 5274171.464111752808094, 6535879.795811757445335 ], [ 5274199.651947160251439, 6535900.885908209718764 ], [ 5274365.31167777441442, 6535957.265487847849727 ], [ 5274506.394709148444235, 6536011.509176754392684 ], [ 5274579.614668928086758, 6536090.826241366565228 ], [ 5274645.507391947321594, 6536221.50117432884872 ], [ 5274872.817324944771826, 6536405.461988013237715 ], [ 5274998.758116563782096, 6536464.725166746415198 ], [ 5275029.736974966712296, 6536538.128469313494861 ], [ 5275054.463792346417904, 6536733.11278 ], [ 5275124.955028575845063, 6536878.241558030247688 ], [ 5275669.310213697142899, 6537184.152440564706922 ], [ 5276104.924850778654218, 6537243.417992187663913 ], [ 5276251.46488974429667, 6537303.803242502734065 ], [ 5276527.474577096290886, 6537420.565251961350441 ], [ 5276709.266866974532604, 6537485.701624021865427 ], [ 5279387.341772860847414, 6535971.134608870372176 ], [ 5279483.502631979994476, 6535914.211540811695158 ], [ 5279682.070473017171025, 6535793.179756433703005 ], [ 5279763.290093162097037, 6535742.002590789459646 ], [ 5280892.107912046834826, 6535170.23006934300065 ], [ 5283495.941020589321852, 6533951.508505121804774 ], [ 5282645.041264548897743, 6533189.957626797258854 ] ] ] } },
{ "type": "Feature", "properties": { "lv_id": "LOC_076476", "id": 436594.0, "CD_SETOR": "432135205000001", "SITUACAO": "Urbana", "CD_SIT": "1", "CD_TIPO": "0", "AREA_KM2": 0.58488191590929695, "CD_REGIAO": "4", "NM_REGIAO": "Sul", "CD_UF": "43", "NM_UF": "Rio Grande do Sul", "CD_MUN": "4321352", "NM_MUN": "Tavares", "CD_DIST": "432135205", "NM_DIST": "Tavares", "CD_SUBDIST": "43213520500", "NM_SUBDIST": null, "CD_BAIRRO": null, "NM_BAIRRO": null, "CD_NU": null, "NM_NU": null, "CD_FCU": null, "NM_FCU": null, "CD_AGLOM": null, "NM_AGLOM": null, "CD_RGINT": "4301", "NM_RGINT": "Porto Alegre", "CD_RGI": "430001", "NM_RGI": "Porto Alegre", "CD_CONCURB": null, "NM_CONCURB": null, "mun_code_x": "4321352", "index_right": 75875, "dist_m": 469.3460827631576, "local_id": 793761, "ano": 2022, "cod_localidade_ibge": 4321352, "NR_ZONA": "122", "nr_cep": 96290000.0, "nm_localidade": "TAVARES", "nm_locvot": "E. E. DE 1º E 2º GRAU EDGARDO PEREIRA VELHO", "ds_endereco": "RUA MENOTTI GARIBALDI, 220", "ds_bairro": "CENTRO", "pred_long": -51.095158, "pred_lat": -31.286633, "pred_dist": 0.0, "tse_long": -51.09522, "tse_lat": -31.286703, "long": -51.09522, "lat": -31.286703, "ID_UNICO": "LOC_076476", "SG_UF": "RS", "CD_MUNICIPIO": "89710", "NR_LOCAL_VOTACAO": "1023", "QT_SECOES_AGREGADAS": 0, "QT_ELEITORES_TRANSFERIDOS": 0, "CIRO GOMES (PDT) (NÃO ELEITO) 1T": 32.0, "CONSTITUINTE EYMAEL (DC) (NÃO ELEITO) 1T": 0.0, "FELIPE D AVILA (NOVO) (NÃO ELEITO) 1T": 5.0, "JAIR BOLSONARO (PL) (2º TURNO) 1T": 405.0, "LULA (PT) (2º TURNO) 1T": 516.0, "LÉO PÉRICLES (UP) (NÃO ELEITO) 1T": 0.0, "PADRE KELMON (PTB) (NÃO ELEITO) 1T": 0.0, "SIMONE TEBET (MDB) (NÃO ELEITO) 1T": 122.0, "SOFIA MANZANO (PCB) (NÃO ELEITO) 1T": 0.0, "SORAYA THRONICKE (UNIÃO) (NÃO ELEITO) 1T": 2.0, "VERA (PSTU) (NÃO ELEITO) 1T": 0.0, "Total_Votos_Validos 1T": 1082.0, "Votos_Brancos 1T": 25.0, "Votos_Nulos 1T": 37.0, "Abstenções 1T": 324.0, "Eleitores_Aptos 1T": 1468.0, "JAIR BOLSONARO (PL) (NÃO ELEITO) 2T": 516.0, "LULA (PT) (ELEITO) 2T": 544.0, "Total_Votos_Validos 2T": 1060.0, "Votos_Brancos 2T": 31.0, "Votos_Nulos 2T": 57.0, "Abstenções 2T": 320.0, "Eleitores_Aptos 2T": 1468.0, "mun_code_y": "4321352", "mun_code": "4321352" }, "geometry": { "type": "Polygon", "coordinates": [ [ [ 5268103.329911437816918, 6510593.158032922074199 ], [ 5267578.611338458023965, 6509991.685633638873696 ], [ 5267298.319431967101991, 6509671.941357463598251 ], [ 5266612.496201989240944, 6510367.794683361425996 ], [ 5266587.198954616673291, 6510393.464244692586362 ], [ 5264335.130353642627597, 6512953.509846465662122 ], [ 5263120.933454209938645, 6514318.67205523699522 ], [ 5262530.86038666125387, 6515005.322114586830139 ], [ 5262696.148232280276716, 6515192.614640940912068 ], [ 5262959.20145751349628, 6515526.301887850277126 ], [ 5263398.455873145721853, 6516130.74727678950876 ], [ 5263513.731721493415534, 6516313.563737982884049 ], [ 5263761.324033996090293, 6516659.570003909990191 ], [ 5263992.072992744855583, 6517053.409132799133658 ], [ 5264062.189108293503523, 6517129.108180779963732 ], [ 5264099.950258070603013, 6517226.073027659207582 ], [ 5264145.777728516608477, 6517267.451869332231581 ], [ 5264174.921617743559182, 6517311.68377701099962 ], [ 5264193.039619866758585, 6517373.789391865953803 ], [ 5264271.936198139563203, 6517455.481598027050495 ], [ 5264317.501306938938797, 6517581.87641704082489 ], [ 5264364.377280012704432, 6517632.652546230703592 ], [ 5264404.042016725987196, 6517735.152159650810063 ], [ 5264445.540744215250015, 6517787.607184233143926 ], [ 5264479.821989214979112, 6517869.373416116461158 ], [ 5264552.366354391910136, 6517977.15639179572463 ], [ 5264720.54176783375442, 6518264.802066944539547 ], [ 5264885.544608564116061, 6518505.758386744186282 ], [ 5264985.622108187526464, 6518629.314451036974788 ], [ 5265072.558423300273716, 6518791.145958574488759 ], [ 5265157.261930024251342, 6518874.261920358985662 ], [ 5265230.711110206320882, 6518907.764658991247416 ], [ 5265267.456720938906074, 6518956.99646644666791 ], [ 5265320.55337898619473, 6519006.634374532848597 ], [ 5265329.976293686777353, 6519095.679391847923398 ], [ 5265396.781531397253275, 6519140.139944662339985 ], [ 5265425.839236069470644, 6519190.332583295181394 ], [ 5265445.53576102014631, 6519249.05537049844861 ], [ 5265513.398053538054228, 6519296.130461981520057 ], [ 5265561.210955906659365, 6519401.994478174485266 ], [ 5265563.741765757091343, 6519470.899991448968649 ], [ 5265620.163841562345624, 6519557.296068008057773 ], [ 5265703.733676224015653, 6519624.607431765645742 ], [ 5265758.990061029791832, 6519656.105281623080373 ], [ 5265797.291473580524325, 6519708.726263169199228 ], [ 5265853.44570201728493, 6519783.350095368921757 ], [ 5265960.67111936584115, 6519996.30139902420342 ], [ 5266016.322737694717944, 6520061.168555025011301 ], [ 5266038.189788423478603, 6520157.911536501720548 ], [ 5266150.285820802673697, 6520347.436648244038224 ], [ 5266206.611288045533001, 6520416.615249598398805 ], [ 5266262.345926091074944, 6520560.806620365008712 ], [ 5266325.003311994485557, 6520666.001425130292773 ], [ 5266398.677132143639028, 6520846.967816982418299 ], [ 5266426.809072908014059, 6520901.555803787894547 ], [ 5266467.979403020814061, 6520944.399621614255011 ], [ 5266762.933695434592664, 6521476.984164976514876 ], [ 5267034.701721306890249, 6522106.888875821605325 ], [ 5267292.606172006577253, 6522701.76433533616364 ], [ 5267555.500020891427994, 6523334.484639877453446 ], [ 5267586.483242381364107, 6523447.67757660895586 ], [ 5267628.980526438914239, 6523494.247364253737032 ], [ 5267772.332185444422066, 6523857.324676659889519 ], [ 5267818.895255528390408, 6524047.104210731573403 ], [ 5267902.947184883989394, 6524258.958756918087602 ], [ 5268117.949181898497045, 6524742.554536814801395 ], [ 5268346.02032136823982, 6525120.818583600223064 ], [ 5268447.036220585927367, 6525401.994570449925959 ], [ 5268586.589212086051702, 6525951.027486260049045 ], [ 5268670.378287590108812, 6526158.655375888571143 ], [ 5268855.672483237460256, 6526846.342129067517817 ], [ 5269149.304011757485569, 6527873.602867459878325 ], [ 5269307.348191598430276, 6528367.649357302114367 ], [ 5269460.499624004587531, 6528926.462005824781954 ], [ 5269632.435834008269012, 6529548.477542566135526 ], [ 5269730.928441508673131, 6530056.784702556207776 ], [ 5269923.389465012587607, 6531146.270816867239773 ], [ 5270125.700053425505757, 6531845.452886113896966 ], [ 5270212.455279376357794, 6532075.932446049526334 ], [ 5270286.917632549069822, 6532094.396775153465569 ], [ 5270354.604522534646094, 6532607.191093731671572 ], [ 5270519.389115002937615, 6533403.371419072151184 ], [ 5270633.20881222654134, 6533972.757746767252684 ], [ 5271499.180737047456205, 6534124.474408244714141 ], [ 5271622.437929354608059, 6534232.066746026277542 ], [ 5272253.262941748835146, 6534006.24203950446099 ], [ 5272402.466023872606456, 6534231.093627749010921 ], [ 5272446.334907477721572, 6534301.426081039942801 ], [ 5272551.88497974909842, 6534450.820326411165297 ], [ 5272947.906380856409669, 6534471.477011462673545 ], [ 5273043.2896818658337, 6534497.617482297122478 ], [ 5273629.357779127545655, 6534739.787524066865444 ], [ 5274084.15332792699337, 6534427.481724133715034 ], [ 5274045.133723273873329, 6534313.799336482770741 ], [ 5274065.015327787958086, 6534278.077831997536123 ], [ 5274076.054894527420402, 6534268.198106789961457 ], [ 5274189.89882053155452, 6534200.838321294635534 ], [ 5274493.622692735865712, 6534023.440641110762954 ], [ 5274924.927517388015985, 6533770.02329062204808 ], [ 5275109.08773350995034, 6533661.33417334780097 ], [ 5275146.528135699220002, 6533641.6026895288378 ], [ 5275209.738572727888823, 6533676.237504906952381 ], [ 5275298.51279269810766, 6533728.608350350521505 ], [ 5275395.175949247553945, 6533793.016752311959863 ], [ 5275449.057885323651135, 6533825.641274056397378 ], [ 5275487.708122732117772, 6533847.685590604320168 ], [ 5275648.981978529132903, 6533948.34233452565968 ], [ 5275669.093007328920066, 6533960.803421173244715 ], [ 5275706.471265695989132, 6533984.06828661262989 ], [ 5275762.601603014394641, 6534019.174643620848656 ], [ 5275804.013693352229893, 6534044.77565636485815 ], [ 5275849.853324506431818, 6534069.938295824453235 ], [ 5275869.780445229262114, 6534073.200592370703816 ], [ 5275886.942855949513614, 6534073.471412669867277 ], [ 5275943.749815164133906, 6534106.372103750705719 ], [ 5275984.524625306949019, 6534134.15404991991818 ], [ 5276032.312794674187899, 6534164.926631468348205 ], [ 5276099.565056662075222, 6534207.055112624540925 ], [ 5276548.643351450562477, 6533901.078430277295411 ], [ 5276615.014930380508304, 6534010.669966250658035 ], [ 5276744.03809832315892, 6534223.733160170726478 ], [ 5277141.798665874637663, 6533960.091611754149199 ], [ 5277480.76303821709007, 6534483.951926728710532 ], [ 5277723.858141950331628, 6534341.741153977811337 ], [ 5277898.791719358414412, 6534238.463423727080226 ], [ 5277951.177449476905167, 6534208.36789633706212 ], [ 5278041.596020372584462, 6534152.252840727567673 ], [ 5277590.757186880335212, 6533636.650808874517679 ], [ 5277556.156614825129509, 6533601.839596126228571 ], [ 5277526.672053279355168, 6533545.788479601964355 ], [ 5277381.596660087816417, 6533313.507678480818868 ], [ 5277563.958758211694658, 6533202.488475038670003 ], [ 5277685.182236226275563, 6533128.719829647801816 ], [ 5277798.055968428961933, 6533059.822225047275424 ], [ 5277940.226249516010284, 6532974.027801817283034 ], [ 5278044.824546077288687, 6532910.342143841087818 ], [ 5278151.908091603778303, 6532845.601403458043933 ], [ 5278163.060453577898443, 6532840.898467442020774 ], [ 5278174.768670607358217, 6532838.123627880588174 ], [ 5278189.002154151909053, 6532836.836132411845028 ], [ 5278203.801337356679142, 6532839.286079230718315 ], [ 5278184.126481989398599, 6532824.642183513380587 ], [ 5278163.754227194003761, 6532808.118304477073252 ], [ 5278131.857773220166564, 6532775.779707421548665 ], [ 5278109.671851705759764, 6532755.140567926689982 ], [ 5277967.29921321477741, 6532669.396434534341097 ], [ 5277880.060561012476683, 6532615.541439946740866 ], [ 5277782.013230474665761, 6532556.298755061812699 ], [ 5277660.884886855259538, 6532482.089845885522664 ], [ 5277568.012751529924572, 6532426.494249701499939 ], [ 5277452.113925728946924, 6532355.808551187627017 ], [ 5277245.449320712126791, 6532232.643078884109855 ], [ 5277200.187913961708546, 6532210.480212138965726 ], [ 5277145.56884454190731, 6532185.222601890563965 ], [ 5277089.241031577810645, 6532164.494980311021209 ], [ 5277034.860889035277069, 6532148.63377901352942 ], [ 5276989.280642591416836, 6532138.179812679067254 ], [ 5276952.037406414747238, 6532131.11376834847033 ], [ 5276894.351720627397299, 6532121.345176707953215 ], [ 5276787.906104690395296, 6532105.845893185585737 ], [ 5276627.453937400132418, 6532083.187407413497567 ], [ 5276491.673759093508124, 6532064.69480637088418 ], [ 5276474.765412142500281, 6532061.654255459085107 ], [ 5276458.283989854156971, 6532061.444484582170844 ], [ 5276390.430525702424347, 6532057.558519192039967 ], [ 5276356.127355890348554, 6532053.976675974205136 ], [ 5276342.069271889515221, 6532059.720066647976637 ], [ 5276350.786417854949832, 6532043.914792407304049 ], [ 5276352.134833795018494, 6532024.950800528749824 ], [ 5276310.056639356538653, 6532008.917540004476905 ], [ 5276278.369945883750916, 6531992.566182119771838 ], [ 5276250.545777305029333, 6531976.057564990594983 ], [ 5276217.014761653728783, 6531954.392444344237447 ], [ 5276187.64224362000823, 6531933.683565119281411 ], [ 5276167.727000857703388, 6531920.952149936929345 ], [ 5276117.721209089271724, 6531875.407453995198011 ], [ 5276091.174335047602654, 6531849.506105352193117 ], [ 5276012.51854950748384, 6531774.096086799167097 ], [ 5275916.415797260589898, 6531681.603598742745817 ], [ 5275876.832465088926256, 6531644.465461560525 ], [ 5275734.251670820638537, 6531508.187011480331421 ], [ 5275693.366095493547618, 6531468.917688651010394 ], [ 5275472.262807736173272, 6531258.219470283947885 ], [ 5275316.992672217078507, 6531107.204500121995807 ], [ 5275193.567008191719651, 6530993.830739554017782 ], [ 5275151.892023737542331, 6530957.355791983194649 ], [ 5275002.731122683733702, 6530845.820707816630602 ], [ 5274886.726403866894543, 6530777.399709176272154 ], [ 5274768.611181907355785, 6530717.780922127887607 ], [ 5274623.735751668922603, 6530652.189446842297912 ], [ 5274459.464555056765676, 6530576.73474517930299 ], [ 5274280.146828890778124, 6530495.298836179077625 ], [ 5274244.192129764705896, 6530475.656589047983289 ], [ 5274213.790232079103589, 6530457.156856972724199 ], [ 5274185.850961660034955, 6530434.507303263060749 ], [ 5274164.832138555124402, 6530415.418033691123128 ], [ 5274138.05873598344624, 6530387.453559603542089 ], [ 5274100.327433604747057, 6530340.602999482303858 ], [ 5274029.841765183024108, 6530242.375323166139424 ], [ 5273961.887690792791545, 6530145.513260339386761 ], [ 5273819.360990036278963, 6529946.143736170604825 ], [ 5273774.967888968996704, 6529877.784913657233119 ], [ 5273748.189870259724557, 6529830.9471833454445 ], [ 5273697.940024936571717, 6529735.508959744125605 ], [ 5273665.862203254364431, 6529664.696894684806466 ], [ 5273641.154152407310903, 6529603.006630464456975 ], [ 5273576.833719254471362, 6529406.811459434218705 ], [ 5273542.069323883391917, 6529303.020041772164404 ], [ 5273528.116570283658803, 6529269.990679331123829 ], [ 5273437.151169832795858, 6529055.184525825083256 ], [ 5273403.544049908407032, 6528950.052675260230899 ], [ 5273357.101171288639307, 6528743.288135888054967 ], [ 5273316.683425167575479, 6528574.411260994151235 ], [ 5273297.666659642010927, 6528477.802218660712242 ], [ 5273291.69028749410063, 6528433.329986777156591 ], [ 5273284.559319510124624, 6528366.473916685208678 ], [ 5273244.146154643036425, 6527923.023221733048558 ], [ 5273216.350578041747212, 6527612.63918199390173 ], [ 5273194.629350421018898, 6527482.6961221229285 ], [ 5273155.174277161248028, 6527333.399165509268641 ], [ 5273124.198952156119049, 6527240.620906309224665 ], [ 5272997.149091516621411, 6526935.920870447531343 ], [ 5272937.819120620377362, 6526797.077181423082948 ], [ 5275061.569844948127866, 6526309.740190785378218 ], [ 5275223.915808143094182, 6526264.465823644772172 ], [ 5275607.411051157861948, 6526161.015964429825544 ], [ 5275901.44352063909173, 6526085.609156813472509 ], [ 5276217.670304976403713, 6525460.877052890136838 ], [ 5276701.418877209536731, 6524504.986279619857669 ], [ 5279291.423013957217336, 6522944.987072914838791 ], [ 5279114.980001961812377, 6522736.044889721088111 ], [ 5278866.064296616241336, 6522469.880175963044167 ], [ 5278755.290944412350655, 6522363.13209019228816 ], [ 5278376.785714975558221, 6521950.820095387287438 ], [ 5277927.696303996257484, 6521496.32018512673676 ], [ 5277655.010329690761864, 6521189.131072578951716 ], [ 5277345.348737439140677, 6520856.394455024041235 ], [ 5277086.672623217105865, 6520584.492690734565258 ], [ 5276843.661508633755147, 6520319.897850836627185 ], [ 5276392.913025240413845, 6519827.563919631764293 ], [ 5276122.50741065107286, 6519526.088801155798137 ], [ 5275896.11453946121037, 6519279.932642830535769 ], [ 5275572.784949012100697, 6518944.583676068112254 ], [ 5275323.829259523190558, 6518672.534583121538162 ], [ 5274950.454321060329676, 6518244.122942031361163 ], [ 5274359.655205671675503, 6517566.162325352430344 ], [ 5274356.384224638342857, 6517573.064781274646521 ], [ 5273514.98445444367826, 6516617.896675633266568 ], [ 5272405.794602639041841, 6515409.412530114874244 ], [ 5271463.557650867849588, 6514355.441325766965747 ], [ 5270557.332170507870615, 6513327.155269911512733 ], [ 5269653.641700005158782, 6512323.796370150521398 ], [ 5269573.945940904319286, 6512237.324151143431664 ], [ 5269188.208274154923856, 6511818.758588552474976 ], [ 5268626.474697951227427, 6511184.070214662700891 ], [ 5268103.329911437816918, 6510593.158032922074199 ] ] ] } },
{ "type": "Feature", "properties": { "lv_id": "LOC_076478", "id": 436601.0, "CD_SETOR": "432135205000009", "SITUACAO": "Rural", "CD_SIT": "8", "CD_TIPO": "0", "AREA_KM2": 55.804675046184435, "CD_REGIAO": "4", "NM_REGIAO": "Sul", "CD_UF": "43", "NM_UF": "Rio Grande do Sul", "CD_MUN": "4321352", "NM_MUN": "Tavares", "CD_DIST": "432135205", "NM_DIST": "Tavares", "CD_SUBDIST": "43213520500", "NM_SUBDIST": null, "CD_BAIRRO": null, "NM_BAIRRO": null, "CD_NU": null, "NM_NU": null, "CD_FCU": null, "NM_FCU": null, "CD_AGLOM": "432135200001", "NM_AGLOM": "Praia do Lagamarzinho", "CD_RGINT": "4301", "NM_RGINT": "Porto Alegre", "CD_RGI": "430001", "NM_RGI": "Porto Alegre", "CD_CONCURB": null, "NM_CONCURB": null, "mun_code_x": "4321352", "index_right": 75876, "dist_m": 3363.3551677211567, "local_id": 793762, "ano": 2022, "cod_localidade_ibge": 4321352, "NR_ZONA": "122", "nr_cep": 96290000.0, "nm_localidade": "TAVARES", "nm_locvot": "POSTO DE SAÚDE IZAIR JOSÉ MOREIRA", "ds_endereco": "TAPERA - OLHOS DÁGUA", "ds_bairro": "TAPERA / OLHOS DÁGUA", "pred_long": -51.039815819444499, "pred_lat": -31.255466652777798, "pred_dist": 0.0, "tse_long": -51.033915, "tse_lat": -31.252055, "long": -51.033915, "lat": -31.252055, "ID_UNICO": "LOC_076478", "SG_UF": "RS", "CD_MUNICIPIO": "89710", "NR_LOCAL_VOTACAO": "1031", "QT_SECOES_AGREGADAS": 0, "QT_ELEITORES_TRANSFERIDOS": 0, "CIRO GOMES (PDT) (NÃO ELEITO) 1T": 5.0, "CONSTITUINTE EYMAEL (DC) (NÃO ELEITO) 1T": 0.0, "FELIPE D AVILA (NOVO) (NÃO ELEITO) 1T": 0.0, "JAIR BOLSONARO (PL) (2º TURNO) 1T": 105.0, "LULA (PT) (2º TURNO) 1T": 103.0, "LÉO PÉRICLES (UP) (NÃO ELEITO) 1T": 0.0, "PADRE KELMON (PTB) (NÃO ELEITO) 1T": 0.0, "SIMONE TEBET (MDB) (NÃO ELEITO) 1T": 12.0, "SOFIA MANZANO (PCB) (NÃO ELEITO) 1T": 0.0, "SORAYA THRONICKE (UNIÃO) (NÃO ELEITO) 1T": 1.0, "VERA (PSTU) (NÃO ELEITO) 1T": 0.0, "Total_Votos_Validos 1T": 226.0, "Votos_Brancos 1T": 3.0, "Votos_Nulos 1T": 4.0, "Abstenções 1T": 64.0, "Eleitores_Aptos 1T": 297.0, "JAIR BOLSONARO (PL) (NÃO ELEITO) 2T": 123.0, "LULA (PT) (ELEITO) 2T": 106.0, "Total_Votos_Validos 2T": 229.0, "Votos_Brancos 2T": 3.0, "Votos_Nulos 2T": 10.0, "Abstenções 2T": 55.0, "Eleitores_Aptos 2T": 297.0, "mun_code_y": "4321352", "mun_code": "4321352" }, "geometry": { "type": "Polygon", "coordinates": [ [ [ 5285760.126390437595546, 6528998.236081164330244 ], [ 5285240.231938624754548, 6528557.757220110855997 ], [ 5284831.404255998320878, 6528206.869141072034836 ], [ 5284436.502875422127545, 6527889.675006586126983 ], [ 5284124.176297826692462, 6527582.109689866192639 ], [ 5283752.464566968381405, 6527255.904997051693499 ], [ 5283417.140065877698362, 6526953.319506598636508 ], [ 5283053.569861019030213, 6526601.660066146403551 ], [ 5282768.845231030136347, 6526365.615519074723125 ], [ 5282450.712073314003646, 6526068.435757977887988 ], [ 5282228.665681827813387, 6525849.762681465595961 ], [ 5282019.094667707569897, 6525681.565765853971243 ], [ 5281796.732018969021738, 6525489.084314757026732 ], [ 5281583.644442438147962, 6525332.243620526045561 ], [ 5281415.752667522057891, 6525087.896687399595976 ], [ 5281187.246914212591946, 6524867.458389488048851 ], [ 5281132.054120317101479, 6524814.216963484883308 ], [ 5280846.795022229664028, 6524555.627593515440822 ], [ 5280469.129305352456868, 6524182.545213320292532 ], [ 5280052.282059367746115, 6523719.106213850900531 ], [ 5279754.668948968872428, 6523415.670040091499686 ], [ 5279480.553349169902503, 6523143.096410267986357 ], [ 5279291.423013957217336, 6522944.987072914838791 ], [ 5276701.418877209536731, 6524504.986279619857669 ], [ 5276217.670304976403713, 6525460.877052890136838 ], [ 5275901.44352063909173, 6526085.609156813472509 ], [ 5277127.127207083627582, 6527817.534528292715549 ], [ 5279959.561385125853121, 6530568.745775665156543 ], [ 5282645.041264548897743, 6533189.957626797258854 ], [ 5283495.941020589321852, 6533951.508505121804774 ], [ 5280892.107912046834826, 6535170.23006934300065 ], [ 5279763.290093162097037, 6535742.002590789459646 ], [ 5279682.070473017171025, 6535793.179756433703005 ], [ 5279483.502631979994476, 6535914.211540811695158 ], [ 5279387.341772860847414, 6535971.134608870372176 ], [ 5276709.266866974532604, 6537485.701624021865427 ], [ 5276527.474577096290886, 6537420.565251961350441 ], [ 5276389.781790257431567, 6537921.916718978434801 ], [ 5276379.473568469285965, 6538269.524757584556937 ], [ 5276513.879319954663515, 6538536.628541858866811 ], [ 5276518.475581338629127, 6538710.825826488435268 ], [ 5276475.980186033062637, 6538970.821839570999146 ], [ 5276491.072112405672669, 6539289.219870701432228 ], [ 5276606.175043012015522, 6539544.818732546642423 ], [ 5277024.671074477955699, 6540128.927204033359885 ], [ 5277200.277498710900545, 6540208.52148400247097 ], [ 5277569.374451224692166, 6540499.518642242066562 ], [ 5277878.076422685757279, 6540647.321025216951966 ], [ 5277980.479110198095441, 6540764.916353164240718 ], [ 5277996.777195594273508, 6540902.825069522485137 ], [ 5278142.67231058049947, 6540928.924525508657098 ], [ 5278278.271920970641077, 6540895.422202102839947 ], [ 5278600.779689204879105, 6541139.115605337545276 ], [ 5278835.678645993582904, 6541235.023775763809681 ], [ 5278909.272973828017712, 6541437.615182371810079 ], [ 5278994.076235333457589, 6541585.721226115711033 ], [ 5279098.37148804590106, 6541564.917247096076608 ], [ 5279379.977957360446453, 6541659.521248931065202 ], [ 5279700.633926657959819, 6542007.237510423175991 ], [ 5275309.776154211722314, 6545510.420237454585731 ], [ 5275562.276091159321368, 6545918.718899732455611 ], [ 5275788.475416319444776, 6546141.019060992635787 ], [ 5275890.874131072312593, 6546270.415216573514044 ], [ 5276312.774234725162387, 6546866.612474939785898 ], [ 5276477.374038103967905, 6546988.613398492336273 ], [ 5276845.674123344011605, 6547104.814541813917458 ], [ 5277184.375187329947948, 6547252.11065334174782 ], [ 5277325.973707012832165, 6547343.1200468596071 ], [ 5282806.571045445278287, 6543008.813244847580791 ], [ 5282923.975922463461757, 6543108.112953079864383 ], [ 5283003.974353784695268, 6544579.419209930114448 ], [ 5283104.368399522267282, 6545346.718226226046681 ], [ 5283110.752241202630103, 6545356.47222650796175 ], [ 5283110.771828025579453, 6545371.060007106512785 ], [ 5283111.480196448974311, 6545383.952862750738859 ], [ 5283114.571759534068406, 6545392.196526607498527 ], [ 5283123.634530024603009, 6545396.238680233247578 ], [ 5283134.216617809608579, 6545396.487488780170679 ], [ 5283223.412874710746109, 6545362.972879284992814 ], [ 5283237.467055775225163, 6545357.577220845967531 ], [ 5283250.796379061415792, 6545347.915551671758294 ], [ 5283409.262200096622109, 6545152.244308322668076 ], [ 5283416.490559741854668, 6545144.444997327402234 ], [ 5283420.297045974060893, 6545133.151624443009496 ], [ 5283425.589409469626844, 6545089.499663173221052 ], [ 5283433.980863349512219, 6545062.884062930010259 ], [ 5283459.123671623878181, 6545038.293961469084024 ], [ 5283949.600042915903032, 6544675.530384643003345 ], [ 5284434.060690744780004, 6544319.009111888706684 ], [ 5284834.823659211397171, 6544024.721679219976068 ], [ 5285330.786140447482467, 6543649.756209942512214 ], [ 5285496.756048285402358, 6543529.429388344287872 ], [ 5285537.062139159999788, 6543504.233925342559814 ], [ 5285847.960516049526632, 6543269.358774488791823 ], [ 5286070.7471047276631, 6543108.477003255859017 ], [ 5286337.852526401169598, 6542905.217139696702361 ], [ 5286790.426878459751606, 6542575.495176941156387 ], [ 5287197.440694676712155, 6542270.230966200120747 ], [ 5287229.296833995729685, 6542244.536797880195081 ], [ 5287248.110289788804948, 6542267.073043867945671 ], [ 5287555.494240300729871, 6542601.073309887200594 ], [ 5287857.813751249574125, 6542927.344042088836432 ], [ 5288142.357281534001231, 6543235.374620987102389 ], [ 5288431.30227624066174, 6543542.001811422407627 ], [ 5288706.875213855877519, 6543849.632905777543783 ], [ 5288993.500924050807953, 6544152.936081376858056 ], [ 5289258.467121080495417, 6544448.2003681845963 ], [ 5289503.685978624038398, 6544711.725470370613039 ], [ 5289525.15268312767148, 6544734.37442147731781 ], [ 5289551.601727820001543, 6544718.981187611818314 ], [ 5289692.411931393668056, 6544703.233271513134241 ], [ 5289931.110398729331791, 6544680.029031766578555 ], [ 5290175.699463081546128, 6544657.456606611609459 ], [ 5290408.879243397153914, 6544637.513211084529757 ], [ 5290655.833104729652405, 6544612.221838487312198 ], [ 5291080.675995641387999, 6544567.669849269092083 ], [ 5291141.510635659098625, 6544563.081167154014111 ], [ 5292365.300256013870239, 6544452.038624243810773 ], [ 5298826.077607903629541, 6543863.372517968527973 ], [ 5299212.843956629745662, 6543827.450830871239305 ], [ 5300949.243955497629941, 6543662.059620003215969 ], [ 5300618.479164661839604, 6543279.987997958436608 ], [ 5300488.314152473583817, 6543130.662708453834057 ], [ 5300465.711885374970734, 6543104.734932438470423 ], [ 5300279.357237691991031, 6542890.928810055367649 ], [ 5299875.107995023950934, 6542424.331850275397301 ], [ 5299473.897987778298557, 6542002.774433232843876 ], [ 5299465.200702279806137, 6541993.627651609480381 ], [ 5299012.560104297474027, 6541511.235666058026254 ], [ 5298655.325186771340668, 6541139.472384849563241 ], [ 5298211.463156159035861, 6540634.707416314631701 ], [ 5297803.449058208614588, 6540203.965091329067945 ], [ 5297307.341548145748675, 6539655.222025541588664 ], [ 5296811.468875006772578, 6539176.963149532675743 ], [ 5296346.55058064404875, 6538734.367173388600349 ], [ 5295901.595584137365222, 6538276.447301253676414 ], [ 5295764.285398511216044, 6538131.008023986592889 ], [ 5295428.104890247806907, 6537788.91202406771481 ], [ 5295269.601649538613856, 6537637.289560960605741 ], [ 5295034.508463753387332, 6537412.386918186210096 ], [ 5294618.235807100310922, 6537029.212337190285325 ], [ 5294427.273796794936061, 6536849.097665913403034 ], [ 5294251.976873527280986, 6536683.742563335224986 ], [ 5293816.964207073673606, 6536278.204248392954469 ], [ 5293470.467156827449799, 6535951.779870854690671 ], [ 5293355.34467541705817, 6535843.325581046752632 ], [ 5292912.556090769357979, 6535403.874997449107468 ], [ 5292372.82470206450671, 6534922.205040236935019 ], [ 5291853.630378683097661, 6534465.490507155656815 ], [ 5291592.653574414551258, 6534232.139318477362394 ], [ 5291266.260355427861214, 6533940.283809098415077 ], [ 5291159.611280397512019, 6533841.445676291361451 ], [ 5290860.421193060465157, 6533564.148215301334858 ], [ 5290306.743583991192281, 6533057.21723759919405 ], [ 5289947.13945687469095, 6532703.923863995820284 ], [ 5289604.422445122152567, 6532407.124875376001 ], [ 5289270.610737553797662, 6532117.94328430108726 ], [ 5288867.477464866824448, 6531737.905873596668243 ], [ 5288381.764122107997537, 6531261.819201393052936 ], [ 5287833.750811696983874, 6530794.251903520897031 ], [ 5287459.571924265474081, 6530447.639506056904793 ], [ 5287328.588010243140161, 6530326.297620095312595 ], [ 5287231.658619275316596, 6530247.367786807008088 ], [ 5286771.467837065458298, 6529872.612304356880486 ], [ 5286314.500631360337138, 6529470.70527665130794 ], [ 5285760.126390437595546, 6528998.236081164330244 ] ] ] } },
{ "type": "Feature", "properties": { "lv_id": "LOC_076480", "id": 436598.0, "CD_SETOR": "432135205000006", "SITUACAO": "Rural", "CD_SIT": "8", "CD_TIPO": "0", "AREA_KM2": 20.109075471902962, "CD_REGIAO": "4", "NM_REGIAO": "Sul", "CD_UF": "43", "NM_UF": "Rio Grande do Sul", "CD_MUN": "4321352", "NM_MUN": "Tavares", "CD_DIST": "432135205", "NM_DIST": "Tavares", "CD_SUBDIST": "43213520500", "NM_SUBDIST": null, "CD_BAIRRO": null, "NM_BAIRRO": null, "CD_NU": null, "NM_NU": null, "CD_FCU": null, "NM_FCU": null, "CD_AGLOM": null, "NM_AGLOM": null, "CD_RGINT": "4301", "NM_RGINT": "Porto Alegre", "CD_RGI": "430001", "NM_RGI": "Porto Alegre", "CD_CONCURB": null, "NM_CONCURB": null, "mun_code_x": "4321352", "index_right": 75882, "dist_m": 2686.5190690978834, "local_id": 793768, "ano": 2022, "cod_localidade_ibge": 4321352, "NR_ZONA": "122", "nr_cep": 96290000.0, "nm_localidade": "TAVARES", "nm_locvot": "SALÃO PAROQUIAL NOSSA SENHORA DE FÁTIMA", "ds_endereco": "ESTRADA DA BARROSA, 729", "ds_bairro": "BUTIÁS", "pred_long": -51.145364, "pred_lat": -31.215222, "pred_dist": 0.0, "tse_long": -51.100829, "tse_lat": -31.28443, "long": -51.100829, "lat": -31.28443, "ID_UNICO": "LOC_076480", "SG_UF": "RS", "CD_MUNICIPIO": "89710", "NR_LOCAL_VOTACAO": "1104", "QT_SECOES_AGREGADAS": 0, "QT_ELEITORES_TRANSFERIDOS": 2, "CIRO GOMES (PDT) (NÃO ELEITO) 1T": 2.0, "CONSTITUINTE EYMAEL (DC) (NÃO ELEITO) 1T": 0.0, "FELIPE D AVILA (NOVO) (NÃO ELEITO) 1T": 0.0, "JAIR BOLSONARO (PL) (2º TURNO) 1T": 13.0, "LULA (PT) (2º TURNO) 1T": 20.0, "LÉO PÉRICLES (UP) (NÃO ELEITO) 1T": 0.0, "PADRE KELMON (PTB) (NÃO ELEITO) 1T": 0.0, "SIMONE TEBET (MDB) (NÃO ELEITO) 1T": 6.0, "SOFIA MANZANO (PCB) (NÃO ELEITO) 1T": 0.0, "SORAYA THRONICKE (UNIÃO) (NÃO ELEITO) 1T": 1.0, "VERA (PSTU) (NÃO ELEITO) 1T": 0.0, "Total_Votos_Validos 1T": 42.0, "Votos_Brancos 1T": 1.0, "Votos_Nulos 1T": 0.0, "Abstenções 1T": 10.0, "Eleitores_Aptos 1T": 53.0, "JAIR BOLSONARO (PL) (NÃO ELEITO) 2T": 19.0, "LULA (PT) (ELEITO) 2T": 22.0, "Total_Votos_Validos 2T": 41.0, "Votos_Brancos 2T": 0.0, "Votos_Nulos 2T": 1.0, "Abstenções 2T": 11.0, "Eleitores_Aptos 2T": 53.0, "mun_code_y": "4321352", "mun_code": "4321352" }, "geometry": { "type": "Polygon", "coordinates": [ [ [ 5276527.474577096290886, 6537420.565251961350441 ], [ 5276251.46488974429667, 6537303.803242502734065 ], [ 5276104.924850778654218, 6537243.417992187663913 ], [ 5275669.310213697142899, 6537184.152440564706922 ], [ 5275124.955028575845063, 6536878.241558030247688 ], [ 5275054.463792346417904, 6536733.11278 ], [ 5275029.736974966712296, 6536538.128469313494861 ], [ 5274998.758116563782096, 6536464.725166746415198 ], [ 5274872.817324944771826, 6536405.461988013237715 ], [ 5274645.507391947321594, 6536221.50117432884872 ], [ 5274579.614668928086758, 6536090.826241366565228 ], [ 5274506.394709148444235, 6536011.509176754392684 ], [ 5274365.31167777441442, 6535957.265487847849727 ], [ 5274199.651947160251439, 6535900.885908209718764 ], [ 5274171.464111752808094, 6535879.795811757445335 ], [ 5274154.082188054919243, 6535799.608252158388495 ], [ 5273679.542368675582111, 6535392.143206648528576 ], [ 5273532.65009391028434, 6535139.081463501788676 ], [ 5273506.212238283827901, 6534909.471014393493533 ], [ 5273456.677805335260928, 6534824.946565019898117 ], [ 5273629.357779127545655, 6534739.787524066865444 ], [ 5273043.2896818658337, 6534497.617482297122478 ], [ 5272947.906380856409669, 6534471.477011462673545 ], [ 5272551.88497974909842, 6534450.820326411165297 ], [ 5272446.334907477721572, 6534301.426081039942801 ], [ 5272402.466023872606456, 6534231.093627749010921 ], [ 5272253.262941748835146, 6534006.24203950446099 ], [ 5271622.437929354608059, 6534232.066746026277542 ], [ 5271499.180737047456205, 6534124.474408244714141 ], [ 5270633.20881222654134, 6533972.757746767252684 ], [ 5270657.77702591009438, 6534315.260684033855796 ], [ 5270686.584426327608526, 6534594.899616291746497 ], [ 5270724.947549553588033, 6535337.941765202209353 ], [ 5270775.806364428251982, 6535817.887025399133563 ], [ 5270787.355386902578175, 6536245.204318827018142 ], [ 5270790.223383730277419, 6537055.111222051084042 ], [ 5270788.824590411037207, 6538201.900312369689345 ], [ 5270747.624482778832316, 6539180.931032119318843 ], [ 5270686.358431722968817, 6539739.823965679854155 ], [ 5270668.346967658959329, 6540221.028384138830006 ], [ 5270589.163782123476267, 6541108.580622946843505 ], [ 5270536.36514310259372, 6541589.03393923304975 ], [ 5270474.615861020982265, 6542370.574466340243816 ], [ 5270326.672172414138913, 6543682.351437750272453 ], [ 5270103.364025696180761, 6545004.532033160328865 ], [ 5270006.900857578031719, 6545549.590911611914635 ], [ 5269868.664150724187493, 6546220.955999905243516 ], [ 5269578.257841029204428, 6547369.577021474018693 ], [ 5269253.503904617391527, 6548624.836891205981374 ], [ 5269108.44571672193706, 6549128.666978769935668 ], [ 5269018.635393216274679, 6549521.788765927776694 ], [ 5268971.191448101773858, 6549935.176686206832528 ], [ 5268939.539453775621951, 6550270.967674570158124 ], [ 5268943.90379563998431, 6550602.500075548887253 ], [ 5269010.992716140113771, 6550722.943720697425306 ], [ 5273211.314865868538618, 6551775.908424588851631 ], [ 5273347.379737036302686, 6551810.111788159236312 ], [ 5273510.02264013979584, 6551843.381530296057463 ], [ 5273661.968215777538717, 6551861.806132196448743 ], [ 5273894.599569594487548, 6551856.046809042803943 ], [ 5273979.288750431500375, 6551821.070177037268877 ], [ 5274057.466239403933287, 6551767.167669189162552 ], [ 5274125.058595932088792, 6551691.802968674339354 ], [ 5274191.564637183211744, 6551598.504217825829983 ], [ 5274241.324473577551544, 6551526.154475158080459 ], [ 5274292.672969705425203, 6551417.98406233265996 ], [ 5274362.188046691007912, 6551237.838824210688472 ], [ 5274391.188369769603014, 6551157.201584003865719 ], [ 5274400.503441422246397, 6551080.150460477918386 ], [ 5274378.88836560305208, 6550974.828464017249644 ], [ 5274342.471177728846669, 6550867.10439183190465 ], [ 5274260.788999087177217, 6550742.238369660452008 ], [ 5274188.339131699874997, 6550699.203389524482191 ], [ 5274135.940263006836176, 6550623.676298880949616 ], [ 5274148.188107580877841, 6550577.266353514045477 ], [ 5274200.340805074200034, 6550519.396715774200857 ], [ 5274239.076148252002895, 6550438.973293400369585 ], [ 5274364.591053808107972, 6550320.861118637025356 ], [ 5274405.000771617516875, 6550227.482663804665208 ], [ 5274374.507480907253921, 6550131.449904228560627 ], [ 5274390.130080121569335, 6550047.551805010065436 ], [ 5274430.512329751625657, 6549948.401162411086261 ], [ 5274495.94821796938777, 6549849.38737790286541 ], [ 5274543.737304072827101, 6549762.954344394616783 ], [ 5274652.233217842876911, 6549636.842971218749881 ], [ 5274643.904538672417402, 6549563.424921495839953 ], [ 5274726.68093916028738, 6549412.803601147606969 ], [ 5274817.041522478684783, 6549182.743046608753502 ], [ 5274856.785590714775026, 6548966.643355771899223 ], [ 5274854.948173886165023, 6548733.297615132294595 ], [ 5277942.191376624628901, 6548027.898307040333748 ], [ 5277655.759003278799355, 6547659.647536716423929 ], [ 5277648.655287949368358, 6547639.773825412616134 ], [ 5277663.445972007699311, 6547627.716925634071231 ], [ 5277749.091183798387647, 6547610.176423296332359 ], [ 5278769.280631819739938, 6547448.492571271955967 ], [ 5279841.841744126752019, 6547284.24187271669507 ], [ 5280959.078878183849156, 6547108.953475778922439 ], [ 5280991.944540955126286, 6547099.985032399185002 ], [ 5281011.350571915507317, 6547086.98965404368937 ], [ 5281908.226001862436533, 6546441.573803727515042 ], [ 5282745.590881757438183, 6545842.829517560079694 ], [ 5282757.082342391833663, 6545827.888810476288199 ], [ 5282746.561694294214249, 6545802.902311853133142 ], [ 5282721.956845914013684, 6545758.731329368427396 ], [ 5282576.274204921908677, 6545465.119911573827267 ], [ 5282569.810807476751506, 6545443.122090140357614 ], [ 5282578.940835351124406, 6545423.337666874751449 ], [ 5282671.473896238021553, 6545350.22588656283915 ], [ 5282691.725302513688803, 6545342.2890007160604 ], [ 5282712.084530241787434, 6545340.155617667362094 ], [ 5282947.898405846208334, 6545343.001665351912379 ], [ 5283092.206646278500557, 6545342.326264346018434 ], [ 5283104.368399522267282, 6545346.718226226046681 ], [ 5283003.974353784695268, 6544579.419209930114448 ], [ 5282923.975922463461757, 6543108.112953079864383 ], [ 5282806.571045445278287, 6543008.813244847580791 ], [ 5277325.973707012832165, 6547343.1200468596071 ], [ 5277184.375187329947948, 6547252.11065334174782 ], [ 5276845.674123344011605, 6547104.814541813917458 ], [ 5276477.374038103967905, 6546988.613398492336273 ], [ 5276312.774234725162387, 6546866.612474939785898 ], [ 5275890.874131072312593, 6546270.415216573514044 ], [ 5275788.475416319444776, 6546141.019060992635787 ], [ 5275562.276091159321368, 6545918.718899732455611 ], [ 5275309.776154211722314, 6545510.420237454585731 ], [ 5279700.633926657959819, 6542007.237510423175991 ], [ 5279379.977957360446453, 6541659.521248931065202 ], [ 5279098.37148804590106, 6541564.917247096076608 ], [ 5278994.076235333457589, 6541585.721226115711033 ], [ 5278909.272973828017712, 6541437.615182371810079 ], [ 5278835.678645993582904, 6541235.023775763809681 ], [ 5278600.779689204879105, 6541139.115605337545276 ], [ 5278278.271920970641077, 6540895.422202102839947 ], [ 5278142.67231058049947, 6540928.924525508657098 ], [ 5277996.777195594273508, 6540902.825069522485137 ], [ 5277980.479110198095441, 6540764.916353164240718 ], [ 5277878.076422685757279, 6540647.321025216951966 ], [ 5277569.374451224692166, 6540499.518642242066562 ], [ 5277200.277498710900545, 6540208.52148400247097 ], [ 5277024.671074477955699, 6540128.927204033359885 ], [ 5276606.175043012015522, 6539544.818732546642423 ], [ 5276491.072112405672669, 6539289.219870701432228 ], [ 5276475.980186033062637, 6538970.821839570999146 ], [ 5276518.475581338629127, 6538710.825826488435268 ], [ 5276513.879319954663515, 6538536.628541858866811 ], [ 5276379.473568469285965, 6538269.524757584556937 ], [ 5276389.781790257431567, 6537921.916718978434801 ], [ 5276527.474577096290886, 6537420.565251961350441 ] ] ] } }
]
}
