{
"type": "FeatureCollection",
"name": "4322251",
"crs": { "type": "name", "properties": { "name": "urn:ogc:def:crs:EPSG::5880" } },
"features": [
{ "type": "Feature", "properties": { "lv_id": "LOC_069647", "id": 437512.0, "CD_SETOR": "432225105000008", "SITUACAO": "Rural", "CD_SIT": "8", "CD_TIPO": "0", "AREA_KM2": 9.3923967037431151, "CD_REGIAO": "4", "NM_REGIAO": "Sul", "CD_UF": "43", "NM_UF": "Rio Grande do Sul", "CD_MUN": "4322251", "NM_MUN": "Tupandi", "CD_DIST": "432225105", "NM_DIST": "Tupandi", "CD_SUBDIST": "43222510500", "NM_SUBDIST": null, "CD_BAIRRO": null, "NM_BAIRRO": null, "CD_NU": null, "NM_NU": null, "CD_FCU": null, "NM_FCU": null, "CD_AGLOM": null, "NM_AGLOM": null, "CD_RGINT": "4301", "NM_RGINT": "Porto Alegre", "CD_RGI": "430002", "NM_RGI": "Novo Hamburgo - São Leopoldo", "CD_CONCURB": null, "NM_CONCURB": null, "mun_code_x": "4322251", "index_right": 69207, "dist_m": 65.914531274560446, "local_id": 728564, "ano": 2022, "cod_localidade_ibge": 4322251, "NR_ZONA": "11", "nr_cep": 95775000.0, "nm_localidade": "TUPANDI", "nm_locvot": "E. M. E. F. JOÃO ALVARENGA PEIXOTO", "ds_endereco": "RUA CARLOS FRANCISCO MONBACH, S/N.", "ds_bairro": "JÚLIO DE CASTILHOS", "pred_long": -51.432829, "pred_lat": -29.465961, "pred_dist": 0.0, "tse_long": -51.423407, "tse_lat": -29.475754, "long": -51.423407, "lat": -29.475754, "ID_UNICO": "LOC_069647", "SG_UF": "RS", "CD_MUNICIPIO": "85723", "NR_LOCAL_VOTACAO": "1040", "QT_SECOES_AGREGADAS": 0, "QT_ELEITORES_TRANSFERIDOS": 0, "CIRO GOMES (PDT) (NÃO ELEITO) 1T": 12.0, "CONSTITUINTE EYMAEL (DC) (NÃO ELEITO) 1T": 0.0, "FELIPE D AVILA (NOVO) (NÃO ELEITO) 1T": 2.0, "JAIR BOLSONARO (PL) (2º TURNO) 1T": 182.0, "LULA (PT) (2º TURNO) 1T": 51.0, "LÉO PÉRICLES (UP) (NÃO ELEITO) 1T": 0.0, "PADRE KELMON (PTB) (NÃO ELEITO) 1T": 0.0, "SIMONE TEBET (MDB) (NÃO ELEITO) 1T": 8.0, "SOFIA MANZANO (PCB) (NÃO ELEITO) 1T": 0.0, "SORAYA THRONICKE (UNIÃO) (NÃO ELEITO) 1T": 2.0, "VERA (PSTU) (NÃO ELEITO) 1T": 0.0, "Total_Votos_Validos 1T": 257.0, "Votos_Brancos 1T": 7.0, "Votos_Nulos 1T": 4.0, "Abstenções 1T": 37.0, "Eleitores_Aptos 1T": 305.0, "JAIR BOLSONARO (PL) (NÃO ELEITO) 2T": 211.0, "LULA (PT) (ELEITO) 2T": 50.0, "Total_Votos_Validos 2T": 261.0, "Votos_Brancos 2T": 5.0, "Votos_Nulos 2T": 10.0, "Abstenções 2T": 29.0, "Eleitores_Aptos 2T": 305.0, "mun_code_y": "4322251", "mun_code": "4322251" }, "geometry": { "type": "Polygon", "coordinates": [ [ [ 5249261.609986638650298, 6735530.427353316918015 ], [ 5249249.841066227294505, 6735488.180053478106856 ], [ 5249196.438658053986728, 6735476.066227088682353 ], [ 5249168.724821630865335, 6735446.753101585432887 ], [ 5249076.520656988024712, 6735417.653259107843041 ], [ 5249054.685033159330487, 6735400.160124225541949 ], [ 5248970.674502288922668, 6735365.563987767323852 ], [ 5248959.480999195948243, 6735265.307438233867288 ], [ 5249498.5922622801736, 6735204.686695629730821 ], [ 5249461.828369333408773, 6734703.801005037501454 ], [ 5249768.054205557331443, 6734669.556963756680489 ], [ 5249764.255758441984653, 6734506.61306825093925 ], [ 5249797.006251661106944, 6734085.330785261467099 ], [ 5249788.314787390641868, 6733811.350068882107735 ], [ 5249826.885059664025903, 6733808.84301396459341 ], [ 5249882.761331812478602, 6733798.49635954760015 ], [ 5249959.481127545237541, 6733740.320421004667878 ], [ 5249993.418397683650255, 6733746.747535863891244 ], [ 5250009.901485368609428, 6733760.88439114484936 ], [ 5250036.51096327137202, 6733757.043808277696371 ], [ 5250068.632703896611929, 6733767.771666495129466 ], [ 5250088.944342739880085, 6733766.444989209994674 ], [ 5250127.125912262126803, 6733738.525333983823657 ], [ 5250064.070435618981719, 6733680.494432369247079 ], [ 5250009.163520319387317, 6733533.1290812054649 ], [ 5250007.636319704353809, 6733505.346099705435336 ], [ 5249912.576862756162882, 6733523.695919671095908 ], [ 5249871.263709008693695, 6733520.560934994369745 ], [ 5249850.300404697656631, 6733508.642393458634615 ], [ 5249769.400235770270228, 6733507.604053666815162 ], [ 5249705.052809630520642, 6733502.836864749900997 ], [ 5249672.241603412665427, 6733492.023466399870813 ], [ 5249570.699046332389116, 6733415.912557658739388 ], [ 5249535.177847856655717, 6733402.717700364999473 ], [ 5249487.388303804211318, 6733398.814751329831779 ], [ 5249261.816572750918567, 6733447.350399708375335 ], [ 5249195.180679207667708, 6733460.594675103202462 ], [ 5249167.624194812960923, 6733461.058983666822314 ], [ 5249003.92683176510036, 6733433.172325680032372 ], [ 5248937.340566457249224, 6733430.203348282724619 ], [ 5248904.150490573607385, 6733443.50682494789362 ], [ 5248852.476567826233804, 6733475.026236798614264 ], [ 5248809.45115040615201, 6733476.030538843944669 ], [ 5248680.195783793926239, 6733449.343642359599471 ], [ 5248625.335172276012599, 6733461.281994445249438 ], [ 5248594.207584558054805, 6733467.837371806614101 ], [ 5248504.470554431900382, 6733482.163399450480938 ], [ 5248455.856124624609947, 6733489.247736847959459 ], [ 5248442.188457772135735, 6733504.63858862221241 ], [ 5248424.310742382891476, 6733522.219163509085774 ], [ 5248404.060165644623339, 6733570.375705007463694 ], [ 5248407.8965985160321, 6733610.268390122801065 ], [ 5248399.498254373669624, 6733630.181093001738191 ], [ 5248391.958881453610957, 6733661.359014792367816 ], [ 5248366.317331770434976, 6733680.541681088507175 ], [ 5248301.014074263162911, 6733720.513493221253157 ], [ 5248240.635590958409011, 6733796.104050455614924 ], [ 5248219.451890795491636, 6733842.472086668014526 ], [ 5248209.751141998916864, 6733887.877398541197181 ], [ 5248139.685536460019648, 6733950.454495090991259 ], [ 5247955.907235898077488, 6734033.504677874036133 ], [ 5247901.652376865036786, 6734110.73376587126404 ], [ 5247867.327156377956271, 6734134.333225151523948 ], [ 5247822.705174423754215, 6734147.118690500035882 ], [ 5247752.557460710406303, 6734188.447049850597978 ], [ 5247706.796267049387097, 6734222.715618763118982 ], [ 5247511.794713064096868, 6734241.073755544610322 ], [ 5247428.422764929942787, 6734227.035327184945345 ], [ 5247387.075061222538352, 6734216.635469519533217 ], [ 5247317.866577730514109, 6734234.063046261668205 ], [ 5247256.51055296510458, 6734269.880765048786998 ], [ 5247230.684885522350669, 6734331.304756842553616 ], [ 5247220.854340739548206, 6734385.610140436328948 ], [ 5247189.701087748631835, 6734443.422620055265725 ], [ 5247155.091145328246057, 6734487.363765422254801 ], [ 5247145.081678845919669, 6734536.180726353079081 ], [ 5247130.075274576433003, 6734569.440383858047426 ], [ 5247027.244306394830346, 6734647.284019489772618 ], [ 5246961.712532604113221, 6734769.535359413363039 ], [ 5246908.556260040029883, 6734832.277380966581404 ], [ 5246815.231813120655715, 6734915.613796224817634 ], [ 5246800.542582015506923, 6734950.141895653679967 ], [ 5246757.891788144595921, 6735000.06015819311142 ], [ 5246698.590607455931604, 6735034.742021501064301 ], [ 5246679.780739431269467, 6735124.470485853031278 ], [ 5246659.885794422589242, 6735166.312938547693193 ], [ 5246634.049123043194413, 6735183.96417105384171 ], [ 5246620.274356469511986, 6735202.217308595776558 ], [ 5246622.445684948936105, 6735223.905629118904471 ], [ 5246663.147650871425867, 6735239.703874461352825 ], [ 5246746.480647907592356, 6735192.181313375942409 ], [ 5246873.831581775099039, 6735139.989811495877802 ], [ 5246923.767451566644013, 6735132.196202686056495 ], [ 5246966.17301282659173, 6735127.851317714899778 ], [ 5246989.894689893350005, 6735145.706317029893398 ], [ 5246963.345364460721612, 6735211.483421202749014 ], [ 5246937.026401846669614, 6735266.9589002430439 ], [ 5246904.0801599053666, 6735301.08751552645117 ], [ 5246847.733485428616405, 6735346.7231135815382 ], [ 5246795.89736002497375, 6735409.668390400707722 ], [ 5246781.932248670607805, 6735453.400776155292988 ], [ 5246758.046358423307538, 6735506.636731388047338 ], [ 5246706.688714482821524, 6735608.870676450431347 ], [ 5246666.608093219809234, 6735632.691403064876795 ], [ 5246590.405718170106411, 6735667.497414001263678 ], [ 5246597.275142203085124, 6735671.974153645336628 ], [ 5246842.663764327764511, 6735831.667110629379749 ], [ 5246589.05750737618655, 6737861.666748822666705 ], [ 5245640.063993338495493, 6738559.772165233269334 ], [ 5245481.032304342836142, 6738676.763634411618114 ], [ 5245432.35743295121938, 6738712.570546671748161 ], [ 5245413.056462777778506, 6738881.170013297349215 ], [ 5245251.362317748367786, 6739072.164509092457592 ], [ 5245263.492764767259359, 6739079.767834442667663 ], [ 5245404.679613585583866, 6739168.183841020800173 ], [ 5245427.956974041648209, 6739182.768016597256064 ], [ 5245254.850534719415009, 6739433.967922981828451 ], [ 5245196.263028197921813, 6739500.222640263848007 ], [ 5245172.21470489166677, 6739545.002519797533751 ], [ 5245147.45455314964056, 6739599.039997989311814 ], [ 5245182.345936701633036, 6739605.417738973163068 ], [ 5245200.740566974505782, 6739636.040891258046031 ], [ 5245226.428691642358899, 6739665.551687750034034 ], [ 5245242.825874079018831, 6739660.436302092857659 ], [ 5245264.058536443859339, 6739640.215400701388717 ], [ 5245297.011387123726308, 6739661.912851604633033 ], [ 5245371.011295671574771, 6739744.674968784675002 ], [ 5245374.703374464064837, 6739777.081437975168228 ], [ 5245391.252861176617444, 6739793.298502331599593 ], [ 5245430.708423119038343, 6739786.351096005178988 ], [ 5245473.323071432299912, 6739778.292035671882331 ], [ 5245510.61792211048305, 6739802.812714802101254 ], [ 5245554.737859946675599, 6739803.741034427657723 ], [ 5245575.751724272966385, 6739805.193124218843877 ], [ 5245590.171869569458067, 6739844.012622794136405 ], [ 5245613.413524952717125, 6739899.793656401336193 ], [ 5245640.805861478671432, 6739936.201120352372527 ], [ 5245704.768779342994094, 6739976.684905100613832 ], [ 5245751.749394242651761, 6740006.064964456483722 ], [ 5245786.01604513451457, 6740032.303828377276659 ], [ 5245811.035970008000731, 6740058.199899795465171 ], [ 5245835.149281571619213, 6740113.384706158190966 ], [ 5245857.413314837962389, 6740138.841312457807362 ], [ 5245917.481461740098894, 6740132.220901867374778 ], [ 5245967.707070996053517, 6740134.024647234939039 ], [ 5246049.449841974303126, 6740130.649060597643256 ], [ 5246105.813375925645232, 6740130.410299956798553 ], [ 5246155.538199238479137, 6740154.248092461377382 ], [ 5246182.761407202109694, 6740174.747602084651589 ], [ 5246215.986713169142604, 6740212.380549931898713 ], [ 5246241.618784186430275, 6740255.637563538737595 ], [ 5246277.500492922030389, 6740310.953782493248582 ], [ 5246296.582769079133868, 6740343.557662414386868 ], [ 5246311.816934030503035, 6740369.699133626185358 ], [ 5246327.330743351951241, 6740366.776131551712751 ], [ 5246314.804097346961498, 6740342.850241175852716 ], [ 5246311.324713673442602, 6740319.892338683828712 ], [ 5246315.124227076768875, 6740251.895788282155991 ], [ 5246297.478034584783018, 6740213.923875594511628 ], [ 5246268.415224380791187, 6740126.760242139920592 ], [ 5246262.858173013664782, 6739962.871761009097099 ], [ 5246415.663032225333154, 6739864.668314234353602 ], [ 5246920.168618340045214, 6739886.573600417934358 ], [ 5246968.08015556819737, 6739963.79359108954668 ], [ 5246993.501666377298534, 6740002.626712480559945 ], [ 5247037.53972411621362, 6740017.53119495138526 ], [ 5247067.159881390631199, 6740053.509750400669873 ], [ 5247087.789194113574922, 6740103.087761946022511 ], [ 5247096.732310338877141, 6740189.058395709842443 ], [ 5247121.704075458459556, 6740228.145223265513778 ], [ 5247151.977093745954335, 6740255.321886924095452 ], [ 5247189.225632159970701, 6740261.930710252374411 ], [ 5247219.525759833864868, 6740253.024719914421439 ], [ 5247243.080617941915989, 6740227.245894422754645 ], [ 5247243.097907702438533, 6740207.606837119907141 ], [ 5247391.812127247452736, 6740357.958743661642075 ], [ 5247819.811862172558904, 6740246.812663353979588 ], [ 5247749.40988436434418, 6739984.074815640226007 ], [ 5247785.094329494982958, 6739987.531531823799014 ], [ 5247851.716074439696968, 6740007.674468155950308 ], [ 5247880.744759146124125, 6740011.221264456398785 ], [ 5247906.658179908059537, 6740005.915598817169666 ], [ 5247925.085980600677431, 6740014.654257848858833 ], [ 5247923.76355757471174, 6740030.926856247708201 ], [ 5247918.576037125661969, 6740050.634972677566111 ], [ 5247925.111395251005888, 6740060.987935464829206 ], [ 5247944.568047942593694, 6740064.411531118676066 ], [ 5247976.678415844216943, 6740054.897868633270264 ], [ 5248011.277173642069101, 6740058.399893219582736 ], [ 5248094.179516305215657, 6740066.32352537009865 ], [ 5248138.065715976059437, 6740068.023717662319541 ], [ 5248159.057120023295283, 6740067.962618723511696 ], [ 5248180.260238382965326, 6740064.27974003367126 ], [ 5248199.313891228288412, 6740060.388793893158436 ], [ 5248224.407696608453989, 6740056.653739713132381 ], [ 5248241.10487577598542, 6740047.544125040993094 ], [ 5248257.740620060823858, 6740028.117116732522845 ], [ 5248798.738041048869491, 6740183.95954205468297 ], [ 5250217.754523310810328, 6740013.664252415299416 ], [ 5250252.787984471768141, 6740010.891977781429887 ], [ 5250303.895415196195245, 6739934.943621879443526 ], [ 5250354.519822651520371, 6739873.163619831204414 ], [ 5250403.999839838594198, 6739837.316870550625026 ], [ 5250406.857827082276344, 6739835.334057392552495 ], [ 5250437.261959455907345, 6739814.178397450596094 ], [ 5250534.179058276116848, 6739777.824191271327436 ], [ 5250599.330838030204177, 6739793.623329397290945 ], [ 5250843.253428713418543, 6739764.327050663530827 ], [ 5250957.76535423938185, 6739722.763295613229275 ], [ 5251025.95223518460989, 6739672.384804376401007 ], [ 5251102.097753789275885, 6739636.919226815924048 ], [ 5251157.774789383634925, 6739571.294760972261429 ], [ 5251218.855554889887571, 6739479.830159040167928 ], [ 5251241.867440585978329, 6739407.796240321360528 ], [ 5251307.171909117139876, 6739340.525590609759092 ], [ 5251377.713996905833483, 6739279.706697786226869 ], [ 5251448.680335270240903, 6739193.479816654697061 ], [ 5251449.455599715001881, 6739156.325291734188795 ], [ 5251433.958665577694774, 6739123.216388585045934 ], [ 5251407.884364939294755, 6739098.431420128792524 ], [ 5251295.335961143486202, 6739095.662895793095231 ], [ 5251021.160973904654384, 6739114.956890770234168 ], [ 5251023.038659548386931, 6739213.988307416439056 ], [ 5250710.508361172862351, 6739227.634954100474715 ], [ 5250568.634038631804287, 6739064.223450478166342 ], [ 5250485.479749199002981, 6739063.114487336948514 ], [ 5250389.268943504430354, 6739040.79078918043524 ], [ 5250317.006332716904581, 6739024.027625038288534 ], [ 5250185.205278935842216, 6738944.038608998991549 ], [ 5250090.408610251732171, 6738929.414843181148171 ], [ 5249810.847408462315798, 6738850.581107173115015 ], [ 5249762.984938585199416, 6738792.565867021679878 ], [ 5249582.401188867166638, 6738705.270928615704179 ], [ 5249421.116013494320214, 6738713.179869711399078 ], [ 5249337.084387984126806, 6738746.522558018565178 ], [ 5249037.107398594729602, 6738804.783961314707994 ], [ 5248920.908576348796487, 6738921.21578692831099 ], [ 5248770.194679764099419, 6738936.027876518666744 ], [ 5248772.336694380268455, 6738822.973506796173751 ], [ 5248829.033676312305033, 6738745.544331311248243 ], [ 5248844.262285817414522, 6738655.702006367966533 ], [ 5248892.229982455261052, 6738601.46544130332768 ], [ 5249234.870497095398605, 6738537.895260930992663 ], [ 5249332.85278997104615, 6738496.079214848577976 ], [ 5249483.422614770941436, 6738471.065428483299911 ], [ 5249682.559388602152467, 6738475.878051661886275 ], [ 5249769.642631126567721, 6738529.42094278242439 ], [ 5249872.71498535387218, 6738595.070149888284504 ], [ 5249939.574738685041666, 6738648.537379863671958 ], [ 5250190.424342091195285, 6738712.347150878049433 ], [ 5250235.116613415069878, 6738707.263732679188251 ], [ 5250200.463544191792607, 6738560.381688043475151 ], [ 5250202.036950168199837, 6738464.836007574573159 ], [ 5250257.807305822148919, 6738342.11576861422509 ], [ 5250366.607586237601936, 6738221.127686312422156 ], [ 5250371.034427323378623, 6738217.26821868494153 ], [ 5250411.56915245577693, 6738181.851825546473265 ], [ 5250423.668693412095308, 6738124.408042922616005 ], [ 5250461.828440951183438, 6738030.86968719214201 ], [ 5250607.902304642833769, 6737917.219071512110531 ], [ 5250721.181680181995034, 6737879.988392785191536 ], [ 5250840.344509596005082, 6737866.980906556360424 ], [ 5251085.249649435281754, 6737848.005933512933552 ], [ 5251057.01900942157954, 6737830.835611250251532 ], [ 5251021.482306845486164, 6737790.970407638698816 ], [ 5251014.658693275414407, 6737755.482649695128202 ], [ 5251004.178339181467891, 6737723.992881875485182 ], [ 5250980.353489764966071, 6737692.400032239034772 ], [ 5250950.051864367909729, 6737643.985682980157435 ], [ 5250932.966792840510607, 6737592.526079410687089 ], [ 5250925.121385039761662, 6737547.274598533287644 ], [ 5250926.466184707358479, 6737479.783037954941392 ], [ 5250958.204318910837173, 6737345.996662668883801 ], [ 5250990.095383127219975, 6737205.593676703982055 ], [ 5251009.725666797719896, 6737125.690291414968669 ], [ 5251021.041490054689348, 6737098.265553314238787 ], [ 5251060.880905921570957, 6737040.570422201417387 ], [ 5251058.208690987899899, 6737005.889181410893798 ], [ 5251049.314595153555274, 6736929.171457761898637 ], [ 5251039.315063772723079, 6736900.089921055361629 ], [ 5250954.944698726758361, 6736772.300111333839595 ], [ 5250928.260968972928822, 6736715.872086094692349 ], [ 5250895.87940261606127, 6736628.735652331262827 ], [ 5250858.81809586007148, 6736482.441029816865921 ], [ 5250617.143709866330028, 6736504.448940088972449 ], [ 5250500.547491245903075, 6736520.105824541300535 ], [ 5250418.598336392082274, 6736530.067002328112721 ], [ 5250407.969741082750261, 6736427.42379239294678 ], [ 5250400.916663966141641, 6736408.184955429285765 ], [ 5250384.267102484591305, 6736384.96468547731638 ], [ 5250373.762012848630548, 6736371.505516284145415 ], [ 5250334.070246452465653, 6736329.045665504410863 ], [ 5250329.03610831964761, 6736321.223850019276142 ], [ 5250317.018478129990399, 6736302.549921716563404 ], [ 5250299.46298804320395, 6736267.765782939270139 ], [ 5250274.888835792429745, 6736214.840440200641751 ], [ 5250263.763574691489339, 6736164.612896190956235 ], [ 5250267.51764512527734, 6736114.654820019379258 ], [ 5250292.193895856849849, 6736034.252675967290998 ], [ 5250251.182887381874025, 6736036.41525904648006 ], [ 5250249.585192390717566, 6735965.605004031211138 ], [ 5250190.2072067046538, 6735968.141060549765825 ], [ 5250189.240654173307121, 6736002.037442742846906 ], [ 5250165.127356123179197, 6736004.491126081906259 ], [ 5250043.715447584167123, 6735981.637645162642002 ], [ 5250023.768952356651425, 6735972.026603796519339 ], [ 5249991.715565725229681, 6735969.041312938556075 ], [ 5249778.154314737766981, 6735987.81351819448173 ], [ 5249773.033117332495749, 6735907.139734133146703 ], [ 5249765.467787552624941, 6735905.920098804868758 ], [ 5249753.611626869998872, 6735901.511052766814828 ], [ 5249728.518625976517797, 6735885.533511148765683 ], [ 5249703.972520625218749, 6735866.20405463501811 ], [ 5249664.974520752206445, 6735836.50899968482554 ], [ 5249637.153212504461408, 6735814.278205133974552 ], [ 5249621.019570318982005, 6735790.590692829340696 ], [ 5249584.857553781010211, 6735759.257142661139369 ], [ 5249567.471297351643443, 6735745.172740858048201 ], [ 5249545.818020009435713, 6735731.604239858686924 ], [ 5249522.081348525360227, 6735711.557535726577044 ], [ 5249505.983442232944071, 6735700.451486751437187 ], [ 5249492.777496539056301, 6735693.775233631953597 ], [ 5249483.096733024343848, 6735691.647942270152271 ], [ 5249429.174196713604033, 6735687.668554738163948 ], [ 5249407.459141587838531, 6735695.016325435601175 ], [ 5249396.652486179023981, 6735677.04716541338712 ], [ 5249346.751819043420255, 6735628.918086469173431 ], [ 5249315.281319633126259, 6735581.0809490326792 ], [ 5249300.34012604970485, 6735557.311258159577847 ], [ 5249291.264451055787504, 6735548.746127977967262 ], [ 5249276.836456755176187, 6735542.950986147858202 ], [ 5249261.609986638650298, 6735530.427353316918015 ] ] ] } },
{ "type": "Feature", "properties": { "lv_id": "LOC_069648", "id": 437506.0, "CD_SETOR": "432225105000001", "SITUACAO": "Urbana", "CD_SIT": "1", "CD_TIPO": "0", "AREA_KM2": 0.86920096379408396, "CD_REGIAO": "4", "NM_REGIAO": "Sul", "CD_UF": "43", "NM_UF": "Rio Grande do Sul", "CD_MUN": "4322251", "NM_MUN": "Tupandi", "CD_DIST": "432225105", "NM_DIST": "Tupandi", "CD_SUBDIST": "43222510500", "NM_SUBDIST": null, "CD_BAIRRO": null, "NM_BAIRRO": null, "CD_NU": null, "NM_NU": null, "CD_FCU": null, "NM_FCU": null, "CD_AGLOM": null, "NM_AGLOM": null, "CD_RGINT": "4301", "NM_RGINT": "Porto Alegre", "CD_RGI": "430002", "NM_RGI": "Novo Hamburgo - São Leopoldo", "CD_CONCURB": null, "NM_CONCURB": null, "mun_code_x": "4322251", "index_right": 69206, "dist_m": 68.962960439073811, "local_id": 728563, "ano": 2022, "cod_localidade_ibge": 4322251, "NR_ZONA": "11", "nr_cep": 95775000.0, "nm_localidade": "TUPANDI", "nm_locvot": "E. M. E. F. SÃO FRANCISCO", "ds_endereco": "RUA CARLOS WEBER, 418", "ds_bairro": "CENTRO", "pred_long": -51.420795, "pred_lat": -29.476378, "pred_dist": 0.0, "tse_long": -51.4208027, "tse_lat": -29.4764336, "long": -51.4208027, "lat": -29.4764336, "ID_UNICO": "LOC_069648", "SG_UF": "RS", "CD_MUNICIPIO": "85723", "NR_LOCAL_VOTACAO": "1147", "QT_SECOES_AGREGADAS": 0, "QT_ELEITORES_TRANSFERIDOS": 0, "CIRO GOMES (PDT) (NÃO ELEITO) 1T": 67.0, "CONSTITUINTE EYMAEL (DC) (NÃO ELEITO) 1T": 1.0, "FELIPE D AVILA (NOVO) (NÃO ELEITO) 1T": 25.0, "JAIR BOLSONARO (PL) (2º TURNO) 1T": 1908.0, "LULA (PT) (2º TURNO) 1T": 638.0, "LÉO PÉRICLES (UP) (NÃO ELEITO) 1T": 1.0, "PADRE KELMON (PTB) (NÃO ELEITO) 1T": 0.0, "SIMONE TEBET (MDB) (NÃO ELEITO) 1T": 94.0, "SOFIA MANZANO (PCB) (NÃO ELEITO) 1T": 0.0, "SORAYA THRONICKE (UNIÃO) (NÃO ELEITO) 1T": 7.0, "VERA (PSTU) (NÃO ELEITO) 1T": 0.0, "Total_Votos_Validos 1T": 2741.0, "Votos_Brancos 1T": 46.0, "Votos_Nulos 1T": 42.0, "Abstenções 1T": 406.0, "Eleitores_Aptos 1T": 3235.0, "JAIR BOLSONARO (PL) (NÃO ELEITO) 2T": 2124.0, "LULA (PT) (ELEITO) 2T": 620.0, "Total_Votos_Validos 2T": 2744.0, "Votos_Brancos 2T": 45.0, "Votos_Nulos 2T": 44.0, "Abstenções 2T": 402.0, "Eleitores_Aptos 2T": 3235.0, "mun_code_y": "4322251", "mun_code": "4322251" }, "geometry": { "type": "Polygon", "coordinates": [ [ [ 5251264.380468626506627, 6732392.429880002513528 ], [ 5252433.755849439650774, 6732176.645954127423465 ], [ 5252418.290013015270233, 6731853.036122281104326 ], [ 5252234.782131478190422, 6731924.926938972435892 ], [ 5252251.951750204898417, 6731217.81203930079937 ], [ 5251756.165486097335815, 6731230.069953775033355 ], [ 5251534.954643378965557, 6731474.411108960397542 ], [ 5251112.698686840943992, 6731557.665506361052394 ], [ 5251234.767568106763065, 6732177.187618219293654 ], [ 5251075.350013014860451, 6732318.414075285196304 ], [ 5251038.666769523173571, 6732292.600754538550973 ], [ 5251001.24943876452744, 6732303.097930025309324 ], [ 5250973.404312049038708, 6732262.563366202637553 ], [ 5250972.322119294665754, 6732227.868788687512279 ], [ 5250960.004176392219961, 6732202.123309725895524 ], [ 5250890.501915017142892, 6732106.137869402766228 ], [ 5250868.887142915278673, 6732097.5756467692554 ], [ 5250839.969613255001605, 6732062.856673430651426 ], [ 5250800.133510645478964, 6732070.100503221154213 ], [ 5250718.915849399752915, 6732042.114272905513644 ], [ 5250715.721629096195102, 6732007.488877969793975 ], [ 5250689.52988141681999, 6731978.434386376291513 ], [ 5250641.545757908374071, 6731975.573045145720243 ], [ 5250609.185808712616563, 6731982.306092340499163 ], [ 5250528.915789995342493, 6731973.79274005163461 ], [ 5250501.94600420165807, 6731975.623471059836447 ], [ 5250474.391619076021016, 6731991.747322724200785 ], [ 5250446.212029392831028, 6732013.787909537553787 ], [ 5250426.202603085897863, 6732026.836991770192981 ], [ 5250403.543578719720244, 6732010.530109265819192 ], [ 5250363.456966993398964, 6732013.916646575555205 ], [ 5250324.847524557262659, 6732000.393670683726668 ], [ 5250318.739833428524435, 6731980.834348786622286 ], [ 5250282.521268244832754, 6731965.782444033771753 ], [ 5250270.75412873737514, 6731917.133700083941221 ], [ 5250279.91890899464488, 6731899.19935779646039 ], [ 5250274.380668233148754, 6731885.630162659101188 ], [ 5250261.470941675826907, 6731884.70723239518702 ], [ 5250237.649379943497479, 6731874.117959788069129 ], [ 5250230.681440130807459, 6731884.846786616370082 ], [ 5250221.480928999371827, 6731898.987144554033875 ], [ 5250215.742677323520184, 6731929.738614035770297 ], [ 5250200.678012548014522, 6731972.458443198353052 ], [ 5250218.337782533839345, 6732003.445281127467752 ], [ 5250233.850892953574657, 6732027.722445735707879 ], [ 5250274.774388300254941, 6732091.779711193405092 ], [ 5250275.824316655285656, 6732139.978356897830963 ], [ 5250275.164843650534749, 6732158.778023453429341 ], [ 5250280.9508105982095, 6732200.55811008438468 ], [ 5250279.340730363503098, 6732241.647952600382268 ], [ 5250288.856894232332706, 6732260.52139201387763 ], [ 5250303.269639487378299, 6732272.340245855040848 ], [ 5250321.143958093598485, 6732280.620396384969354 ], [ 5250340.363719496876001, 6732281.34776602871716 ], [ 5250355.629921062849462, 6732286.16841422393918 ], [ 5250369.876118985004723, 6732293.974240943789482 ], [ 5250393.371117137372494, 6732304.226603526622057 ], [ 5250409.809168505482376, 6732313.337401458993554 ], [ 5250415.167721858248115, 6732327.099172149784863 ], [ 5250411.962935607880354, 6732342.205020327121019 ], [ 5250367.538852761499584, 6732395.374357694759965 ], [ 5250241.999666005373001, 6732395.086794257164001 ], [ 5250167.469692125916481, 6732394.920398293994367 ], [ 5250246.840317728929222, 6732613.331646323204041 ], [ 5250346.109231678768992, 6732886.502095041796565 ], [ 5250415.817969055846334, 6732901.787124764174223 ], [ 5250485.715381681919098, 6732904.152143016457558 ], [ 5250453.436036492697895, 6732952.225307811051607 ], [ 5250414.669069242663682, 6732992.065099842846394 ], [ 5250573.45916220266372, 6732991.235622284002602 ], [ 5250583.285026803612709, 6733076.864960907027125 ], [ 5250564.866648188792169, 6733146.367063356563449 ], [ 5250543.110499245114625, 6733185.685217657126486 ], [ 5250487.699821799993515, 6733238.699228641577065 ], [ 5250415.922230835072696, 6733282.833463706076145 ], [ 5250329.570298014208674, 6733325.437571367248893 ], [ 5250287.096329488791525, 6733342.102428834885359 ], [ 5250263.201006387360394, 6733351.065184492617846 ], [ 5250247.809588854201138, 6733356.84344687871635 ], [ 5250206.933789620175958, 6733372.540498228743672 ], [ 5250171.689645243808627, 6733387.191586470231414 ], [ 5250135.549181766808033, 6733398.167567419819534 ], [ 5250098.736537561751902, 6733414.706160387024283 ], [ 5250073.991820730268955, 6733429.124191962182522 ], [ 5250047.469246529042721, 6733446.921356812119484 ], [ 5250014.32085526175797, 6733472.565653350204229 ], [ 5250007.636319704353809, 6733505.346099705435336 ], [ 5250009.163520319387317, 6733533.1290812054649 ], [ 5250064.070435618981719, 6733680.494432369247079 ], [ 5250127.125912262126803, 6733738.525333983823657 ], [ 5250088.944342739880085, 6733766.444989209994674 ], [ 5250068.632703896611929, 6733767.771666495129466 ], [ 5250036.51096327137202, 6733757.043808277696371 ], [ 5250009.901485368609428, 6733760.88439114484936 ], [ 5249993.418397683650255, 6733746.747535863891244 ], [ 5249959.481127545237541, 6733740.320421004667878 ], [ 5249882.761331812478602, 6733798.49635954760015 ], [ 5249826.885059664025903, 6733808.84301396459341 ], [ 5249788.314787390641868, 6733811.350068882107735 ], [ 5249797.006251661106944, 6734085.330785261467099 ], [ 5249764.255758441984653, 6734506.61306825093925 ], [ 5249768.054205557331443, 6734669.556963756680489 ], [ 5249461.828369333408773, 6734703.801005037501454 ], [ 5249498.5922622801736, 6735204.686695629730821 ], [ 5248959.480999195948243, 6735265.307438233867288 ], [ 5248970.674502288922668, 6735365.563987767323852 ], [ 5249054.685033159330487, 6735400.160124225541949 ], [ 5249076.520656988024712, 6735417.653259107843041 ], [ 5249168.724821630865335, 6735446.753101585432887 ], [ 5249196.438658053986728, 6735476.066227088682353 ], [ 5249249.841066227294505, 6735488.180053478106856 ], [ 5249261.609986638650298, 6735530.427353316918015 ], [ 5249276.836456755176187, 6735542.950986147858202 ], [ 5249291.264451055787504, 6735548.746127977967262 ], [ 5249300.34012604970485, 6735557.311258159577847 ], [ 5249315.281319633126259, 6735581.0809490326792 ], [ 5249346.751819043420255, 6735628.918086469173431 ], [ 5249396.652486179023981, 6735677.04716541338712 ], [ 5249407.459141587838531, 6735695.016325435601175 ], [ 5249429.174196713604033, 6735687.668554738163948 ], [ 5249483.096733024343848, 6735691.647942270152271 ], [ 5249492.777496539056301, 6735693.775233631953597 ], [ 5249505.983442232944071, 6735700.451486751437187 ], [ 5249522.081348525360227, 6735711.557535726577044 ], [ 5249545.818020009435713, 6735731.604239858686924 ], [ 5249567.471297351643443, 6735745.172740858048201 ], [ 5249584.857553781010211, 6735759.257142661139369 ], [ 5249621.019570318982005, 6735790.590692829340696 ], [ 5249637.153212504461408, 6735814.278205133974552 ], [ 5249664.974520752206445, 6735836.50899968482554 ], [ 5249703.972520625218749, 6735866.20405463501811 ], [ 5249728.518625976517797, 6735885.533511148765683 ], [ 5249753.611626869998872, 6735901.511052766814828 ], [ 5249765.467787552624941, 6735905.920098804868758 ], [ 5249773.033117332495749, 6735907.139734133146703 ], [ 5249778.154314737766981, 6735987.81351819448173 ], [ 5249991.715565725229681, 6735969.041312938556075 ], [ 5250023.768952356651425, 6735972.026603796519339 ], [ 5250043.715447584167123, 6735981.637645162642002 ], [ 5250165.127356123179197, 6736004.491126081906259 ], [ 5250189.240654173307121, 6736002.037442742846906 ], [ 5250190.2072067046538, 6735968.141060549765825 ], [ 5250249.585192390717566, 6735965.605004031211138 ], [ 5250251.182887381874025, 6736036.41525904648006 ], [ 5250292.193895856849849, 6736034.252675967290998 ], [ 5250267.51764512527734, 6736114.654820019379258 ], [ 5250263.763574691489339, 6736164.612896190956235 ], [ 5250274.888835792429745, 6736214.840440200641751 ], [ 5250299.46298804320395, 6736267.765782939270139 ], [ 5250317.018478129990399, 6736302.549921716563404 ], [ 5250329.03610831964761, 6736321.223850019276142 ], [ 5250334.070246452465653, 6736329.045665504410863 ], [ 5250373.762012848630548, 6736371.505516284145415 ], [ 5250384.267102484591305, 6736384.96468547731638 ], [ 5250400.916663966141641, 6736408.184955429285765 ], [ 5250407.969741082750261, 6736427.42379239294678 ], [ 5250418.598336392082274, 6736530.067002328112721 ], [ 5250500.547491245903075, 6736520.105824541300535 ], [ 5250617.143709866330028, 6736504.448940088972449 ], [ 5250576.865256895311177, 6736305.664959937334061 ], [ 5250540.312621221877635, 6736229.782580832019448 ], [ 5250510.166962200775743, 6736184.67052661255002 ], [ 5250490.400278147310019, 6736160.887097042053938 ], [ 5250473.502511373721063, 6736141.345132954418659 ], [ 5250472.25119736045599, 6736108.973563867621124 ], [ 5250482.967098692432046, 6736063.243717717006803 ], [ 5250505.624903921037912, 6735999.085384777747095 ], [ 5250526.550521662458777, 6735943.45358510594815 ], [ 5250536.538544058799744, 6735876.735691307112575 ], [ 5250518.05350146163255, 6735831.542562398128211 ], [ 5250495.772974399849772, 6735779.687438284978271 ], [ 5250487.754227446392179, 6735756.708649082109332 ], [ 5250586.077090301550925, 6735732.879693359136581 ], [ 5250543.40729758143425, 6735097.789030004292727 ], [ 5250517.303627745248377, 6734683.345372371375561 ], [ 5250475.4915821980685, 6734683.285673443228006 ], [ 5250542.4214983060956, 6734502.893515108153224 ], [ 5250547.92953195143491, 6734419.309462468139827 ], [ 5250564.251077538356185, 6734336.051225295290351 ], [ 5250601.71671134699136, 6734193.238881181925535 ], [ 5250657.389340497553349, 6734104.191189172677696 ], [ 5250671.623420468531549, 6734025.284139187075198 ], [ 5250687.463869266211987, 6733977.664559677243233 ], [ 5250717.564815610647202, 6733798.210600889287889 ], [ 5250710.096780070103705, 6733641.039214411750436 ], [ 5250706.533966133370996, 6733550.510711741633713 ], [ 5250915.1684161843732, 6733550.910808105021715 ], [ 5250911.954450597986579, 6733414.19397215731442 ], [ 5251646.963014616630971, 6733409.231915330514312 ], [ 5251651.456166411750019, 6733391.056632391177118 ], [ 5251677.213694548234344, 6733345.58847704809159 ], [ 5251682.554621833376586, 6733325.851944783702493 ], [ 5251683.132899472489953, 6733286.104934792965651 ], [ 5251607.43537281267345, 6732692.691506308503449 ], [ 5251575.991717142052948, 6732672.732396896928549 ], [ 5251376.395079570822418, 6732600.587763795629144 ], [ 5251362.587340989150107, 6732572.024196051061153 ], [ 5251311.265327202156186, 6732478.653768512420356 ], [ 5251292.130353143438697, 6732433.853630678728223 ], [ 5251264.380468626506627, 6732392.429880002513528 ] ] ] } },
{ "type": "Feature", "properties": { "lv_id": "LOC_069649", "id": 437509.0, "CD_SETOR": "432225105000005", "SITUACAO": "Urbana", "CD_SIT": "3", "CD_TIPO": "0", "AREA_KM2": 1.0561051232335981, "CD_REGIAO": "4", "NM_REGIAO": "Sul", "CD_UF": "43", "NM_UF": "Rio Grande do Sul", "CD_MUN": "4322251", "NM_MUN": "Tupandi", "CD_DIST": "432225105", "NM_DIST": "Tupandi", "CD_SUBDIST": "43222510500", "NM_SUBDIST": null, "CD_BAIRRO": null, "NM_BAIRRO": null, "CD_NU": "4322251001", "NM_NU": "Morro da Manteiga", "CD_FCU": null, "NM_FCU": null, "CD_AGLOM": null, "NM_AGLOM": null, "CD_RGINT": "4301", "NM_RGINT": "Porto Alegre", "CD_RGI": "430002", "NM_RGI": "Novo Hamburgo - São Leopoldo", "CD_CONCURB": null, "NM_CONCURB": null, "mun_code_x": "4322251", "index_right": 69208, "dist_m": 0.0, "local_id": 728565, "ano": 2022, "cod_localidade_ibge": 4322251, "NR_ZONA": "11", "nr_cep": 95775000.0, "nm_localidade": "TUPANDI", "nm_locvot": "E. M. E. F. PADRE BALDUÍNO RAMBO", "ds_endereco": "RUA PADRE BALDUÍNO RAMBO, S/N.", "ds_bairro": "MORRO DA MANTEIGA", "pred_long": -51.416784, "pred_lat": -29.448913, "pred_dist": 0.0, "tse_long": -51.4214325, "tse_lat": -29.4763158, "long": -51.4214325, "lat": -29.4763158, "ID_UNICO": "LOC_069649", "SG_UF": "RS", "CD_MUNICIPIO": "85723", "NR_LOCAL_VOTACAO": "1139", "QT_SECOES_AGREGADAS": 0, "QT_ELEITORES_TRANSFERIDOS": 0, "CIRO GOMES (PDT) (NÃO ELEITO) 1T": 5.0, "CONSTITUINTE EYMAEL (DC) (NÃO ELEITO) 1T": 0.0, "FELIPE D AVILA (NOVO) (NÃO ELEITO) 1T": 2.0, "JAIR BOLSONARO (PL) (2º TURNO) 1T": 346.0, "LULA (PT) (2º TURNO) 1T": 91.0, "LÉO PÉRICLES (UP) (NÃO ELEITO) 1T": 0.0, "PADRE KELMON (PTB) (NÃO ELEITO) 1T": 1.0, "SIMONE TEBET (MDB) (NÃO ELEITO) 1T": 15.0, "SOFIA MANZANO (PCB) (NÃO ELEITO) 1T": 1.0, "SORAYA THRONICKE (UNIÃO) (NÃO ELEITO) 1T": 1.0, "VERA (PSTU) (NÃO ELEITO) 1T": 0.0, "Total_Votos_Validos 1T": 462.0, "Votos_Brancos 1T": 13.0, "Votos_Nulos 1T": 5.0, "Abstenções 1T": 42.0, "Eleitores_Aptos 1T": 522.0, "JAIR BOLSONARO (PL) (NÃO ELEITO) 2T": 390.0, "LULA (PT) (ELEITO) 2T": 78.0, "Total_Votos_Validos 2T": 468.0, "Votos_Brancos 2T": 7.0, "Votos_Nulos 2T": 7.0, "Abstenções 2T": 40.0, "Eleitores_Aptos 2T": 522.0, "mun_code_y": "4322251", "mun_code": "4322251" }, "geometry": { "type": "Polygon", "coordinates": [ [ [ 5251701.515252297744155, 6738583.32639875728637 ], [ 5251726.350273706018925, 6738573.819170014001429 ], [ 5251750.307954807765782, 6738585.05824535805732 ], [ 5251770.890244194306433, 6738573.271133363246918 ], [ 5251785.782126549631357, 6738543.014270532876253 ], [ 5251811.593715434893966, 6738515.487803806550801 ], [ 5251848.015905799344182, 6738499.908004585653543 ], [ 5251891.851302744820714, 6738489.089407168328762 ], [ 5251936.694919317029417, 6738477.793237123638391 ], [ 5251983.234085811302066, 6738459.413283037021756 ], [ 5252008.923684133216739, 6738449.520177828148007 ], [ 5252023.126839300617576, 6738421.053599305450916 ], [ 5252052.752696401439607, 6738379.660525506362319 ], [ 5252089.035689202137291, 6738332.626488378271461 ], [ 5252116.824354449287057, 6738317.227171980775893 ], [ 5252145.974368942901492, 6738309.353633377701044 ], [ 5252165.547752586193383, 6738285.438349950127304 ], [ 5252193.718776473775506, 6738258.912326512858272 ], [ 5252226.103812756948173, 6738245.118909640237689 ], [ 5252254.793847902677953, 6738240.561873380094767 ], [ 5252281.59013189189136, 6738228.546278847381473 ], [ 5252325.856369033455849, 6738168.395466341637075 ], [ 5252377.194046027958393, 6738097.279235427267849 ], [ 5252444.929874431341887, 6738032.220931991934776 ], [ 5252486.925476654432714, 6737997.784639427438378 ], [ 5252515.871581722050905, 6737920.87646990455687 ], [ 5252520.31174031086266, 6737831.200774908065796 ], [ 5252583.255514414981008, 6737726.370090713724494 ], [ 5252740.485218768939376, 6737584.589736182242632 ], [ 5252826.294178556650877, 6737442.79607161693275 ], [ 5252903.185974949039519, 6737254.709470337256789 ], [ 5252949.19303410127759, 6737205.0464869402349 ], [ 5252977.369751716032624, 6737152.542505636811256 ], [ 5252963.288109173066914, 6737042.320762512274086 ], [ 5252946.081521471962333, 6736984.519269002601504 ], [ 5252970.358874825760722, 6736881.383318249136209 ], [ 5252986.912620953284204, 6736750.957930750213563 ], [ 5252954.313380276784301, 6736543.429464011453092 ], [ 5252957.018976859748363, 6736494.391687553375959 ], [ 5252941.589238984510303, 6736424.921951845288277 ], [ 5252942.065937410108745, 6736307.528004172258079 ], [ 5252935.482409623451531, 6736239.247154083102942 ], [ 5252941.264283595606685, 6736178.978015748783946 ], [ 5252945.300102578476071, 6736124.795221086591482 ], [ 5252935.039106162264943, 6736069.933966225013137 ], [ 5252920.218360529281199, 6736026.78110733628273 ], [ 5252912.447058187797666, 6736006.849398017860949 ], [ 5252906.445489911362529, 6735984.059703077189624 ], [ 5252904.901639193296432, 6735961.902514992281795 ], [ 5252899.873670907691121, 6735935.362801313400269 ], [ 5252910.268244311213493, 6735913.426493585109711 ], [ 5252933.754081427119672, 6735909.838073695078492 ], [ 5252951.004617655649781, 6735924.586509691551328 ], [ 5252972.819545786827803, 6735931.299128212966025 ], [ 5253017.923163288272917, 6735946.411092944443226 ], [ 5253064.186306946910918, 6735937.052652655169368 ], [ 5253097.305162673816085, 6735917.824744895100594 ], [ 5253117.531732480041683, 6735895.645675979554653 ], [ 5253140.818552949465811, 6735892.704840167425573 ], [ 5253156.430530093610287, 6735907.056972824037075 ], [ 5253177.219748005270958, 6735902.19697686843574 ], [ 5253181.418075974099338, 6735875.672412975691259 ], [ 5253177.247303205542266, 6735847.582310507073998 ], [ 5253192.708816207945347, 6735828.383740638382733 ], [ 5253213.215180799365044, 6735820.001505215652287 ], [ 5253256.673470413312316, 6735793.317804722115397 ], [ 5253271.919697583653033, 6735780.104632487520576 ], [ 5253278.060875800438225, 6735763.655907159671187 ], [ 5253288.944945030845702, 6735777.004300765693188 ], [ 5253283.16456666123122, 6735800.89030078984797 ], [ 5253299.160964360460639, 6735798.634128857403994 ], [ 5253308.504387138411403, 6735784.809869473800063 ], [ 5253316.062502760440111, 6735764.057407703250647 ], [ 5253338.603945446200669, 6735743.035404575057328 ], [ 5253366.977550136856735, 6735735.486106886528432 ], [ 5253390.764354983344674, 6735741.443532779812813 ], [ 5253439.287990993820131, 6735731.267112841829658 ], [ 5253497.481505940668285, 6735713.183935822919011 ], [ 5253529.118811054155231, 6735704.51793528907001 ], [ 5253553.804910349659622, 6735717.256645014509559 ], [ 5253579.046506993472576, 6735720.595663210377097 ], [ 5253624.385805292986333, 6735695.210805946029723 ], [ 5253656.841231517493725, 6735672.43420101609081 ], [ 5253655.878102157264948, 6735654.60244595259428 ], [ 5253651.744363847188652, 6735644.631266381591558 ], [ 5253642.99339828453958, 6735627.351696450263262 ], [ 5253615.820022093132138, 6735592.843314215540886 ], [ 5253609.036572442390025, 6735566.831408327445388 ], [ 5253607.846425298601389, 6735546.663506973534822 ], [ 5253599.126640248112381, 6735528.606497055850923 ], [ 5253578.212544521316886, 6735503.233694892376661 ], [ 5253573.041133613325655, 6735485.929183972999454 ], [ 5253558.680487276054919, 6735453.851486338302493 ], [ 5253544.352199080400169, 6735446.55029908940196 ], [ 5253525.828421712853014, 6735428.247347706928849 ], [ 5253519.083853935822845, 6735405.252633813768625 ], [ 5253481.298712049610913, 6735393.695643849670887 ], [ 5253452.90502433013171, 6735370.476729454472661 ], [ 5253436.79793996643275, 6735338.37154215388 ], [ 5253433.927047626115382, 6735292.143722042441368 ], [ 5253400.753488272428513, 6735211.965585939586163 ], [ 5253378.888209486380219, 6735105.236247133463621 ], [ 5253373.166689686477184, 6735055.177721883170307 ], [ 5253383.720702545717359, 6735019.677974516525865 ], [ 5253415.757602001540363, 6734953.681500811129808 ], [ 5253416.874341655522585, 6734862.947090758010745 ], [ 5253376.085783340968192, 6734639.63577950745821 ], [ 5253352.817838505841792, 6734465.174966868013144 ], [ 5253333.857006655074656, 6734374.569387244060636 ], [ 5252638.120376674458385, 6733806.16409233585 ], [ 5252645.535533724352717, 6733785.11561743542552 ], [ 5252632.900221643969417, 6733751.922177904285491 ], [ 5252625.829495582729578, 6733720.312926983460784 ], [ 5252625.438409647904336, 6733685.935510162264109 ], [ 5252586.807214567437768, 6733625.439995811320841 ], [ 5252570.234705289825797, 6733605.716283129528165 ], [ 5252543.973696603439748, 6733583.035962716676295 ], [ 5252508.308038996532559, 6733554.474404644221067 ], [ 5252439.950025700964034, 6733504.92954090796411 ], [ 5252361.131281150504947, 6733426.535993194207549 ], [ 5252293.83419818803668, 6733347.1520413197577 ], [ 5252208.433109002187848, 6733243.661703675985336 ], [ 5252204.599478491581976, 6733198.420797855593264 ], [ 5252215.702345935627818, 6733163.120768897235394 ], [ 5252194.797654692083597, 6733025.877297891303897 ], [ 5252177.48022903688252, 6732997.06008405983448 ], [ 5252151.001291375607252, 6732985.368809310719371 ], [ 5252117.818965824320912, 6732973.627558650448918 ], [ 5252091.076074466109276, 6732959.667402157559991 ], [ 5252099.970705619081855, 6732912.788369260728359 ], [ 5252121.553489246405661, 6732867.711783055216074 ], [ 5252155.651708084158599, 6732788.501910476014018 ], [ 5252240.953355153091252, 6732726.28880962356925 ], [ 5252314.568851165473461, 6732683.698684511706233 ], [ 5252388.838844100013375, 6732656.083929331973195 ], [ 5252463.948507826775312, 6732645.204663052223623 ], [ 5252580.470229445025325, 6732533.223833404481411 ], [ 5252665.515025150962174, 6732454.968170002102852 ], [ 5252713.185758608393371, 6732400.406786161474884 ], [ 5252745.537634189240634, 6732391.57077394425869 ], [ 5252803.714639036916196, 6732370.471855108626187 ], [ 5252862.388809721916914, 6732350.792846681550145 ], [ 5252920.484608756378293, 6732329.983601877465844 ], [ 5252958.844313338398933, 6732304.912005400285125 ], [ 5252996.869855703786016, 6732266.676864067092538 ], [ 5253018.200503131374717, 6732238.691503452137113 ], [ 5253089.431536609306931, 6732218.918146224692464 ], [ 5253224.336271372623742, 6732192.710616410709918 ], [ 5253298.263046242296696, 6732172.07644740305841 ], [ 5253300.396345943212509, 6732144.843383835628629 ], [ 5253292.80324830301106, 6732137.979063918814063 ], [ 5253291.54519459232688, 6732117.368794558569789 ], [ 5253274.369984813034534, 6732107.92347408272326 ], [ 5253241.593091134913266, 6732097.341604322195053 ], [ 5253207.706760032102466, 6732074.057472079060972 ], [ 5253189.812530033290386, 6732046.830238919705153 ], [ 5253197.513616197742522, 6732030.423937300220132 ], [ 5253187.372687766328454, 6732016.337801331654191 ], [ 5253176.676204239949584, 6732008.611026071943343 ], [ 5253169.044185122475028, 6731991.794424606487155 ], [ 5253161.952717795968056, 6731980.48038284946233 ], [ 5253159.618960042484105, 6731954.279703893698752 ], [ 5253141.141266586259007, 6731939.936839943751693 ], [ 5253096.318337574601173, 6731946.601819004863501 ], [ 5253090.876190921291709, 6731947.411903724074364 ], [ 5253050.024342969059944, 6731938.708434980362654 ], [ 5253041.808336607180536, 6731904.495308566838503 ], [ 5253033.888523649424314, 6731876.566943058744073 ], [ 5253035.479611293412745, 6731831.625885896384716 ], [ 5253030.721037015318871, 6731807.565654029138386 ], [ 5253019.517600383609533, 6731777.22546593286097 ], [ 5252989.471258357167244, 6731738.287009116262197 ], [ 5252958.953307180665433, 6731712.474490175023675 ], [ 5252926.547351740300655, 6731695.447860615327954 ], [ 5252886.074063040316105, 6731684.54949944652617 ], [ 5252851.987098512239754, 6731667.804482830688357 ], [ 5252814.178644345141947, 6731637.761099468916655 ], [ 5252787.048580838367343, 6731602.973270301707089 ], [ 5252759.253825474530458, 6731549.769930442795157 ], [ 5252753.48980089277029, 6731497.692730320617557 ], [ 5252764.958760685287416, 6731447.315259324386716 ], [ 5252765.46181770414114, 6731445.961372837424278 ], [ 5252771.807681009173393, 6731428.797933519817889 ], [ 5252775.936968876048923, 6731399.278914030641317 ], [ 5252779.287813762202859, 6731381.3282222263515 ], [ 5252769.973085329867899, 6731374.635369239374995 ], [ 5252751.202240417711437, 6731371.816151402890682 ], [ 5252717.160333842039108, 6731366.986857086420059 ], [ 5252679.83300435449928, 6731353.165710560977459 ], [ 5252621.316993307322264, 6731308.24018826149404 ], [ 5252578.290989299304783, 6731287.212007543072104 ], [ 5252536.759341755881906, 6731282.239298846572638 ], [ 5252501.965434399433434, 6731267.195792553946376 ], [ 5252498.066025746054947, 6731245.069083613343537 ], [ 5252509.612681875936687, 6731224.982068203389645 ], [ 5252523.792422503232956, 6731186.494494590908289 ], [ 5252520.879134545102715, 6731167.263930540531874 ], [ 5252525.723181227222085, 6731153.185659712180495 ], [ 5252537.236607395112514, 6731148.944330330938101 ], [ 5252547.481464135460556, 6731145.652367396280169 ], [ 5252573.122496164403856, 6731092.816122129559517 ], [ 5252602.038783672265708, 6731060.223065076395869 ], [ 5252619.167065087705851, 6731053.814178805798292 ], [ 5252629.424194239079952, 6731056.269552117213607 ], [ 5252651.175456929951906, 6731057.956919422373176 ], [ 5252684.361464072018862, 6731055.360131572932005 ], [ 5252723.868508719839156, 6731045.320414720103145 ], [ 5252754.843402008526027, 6731023.255205383524299 ], [ 5252769.063738482072949, 6730985.332195231691003 ], [ 5252767.940604074858129, 6730942.149738503620028 ], [ 5252754.917664963752031, 6730904.127406820654869 ], [ 5252770.067247531376779, 6730855.753342403098941 ], [ 5252784.200504870153964, 6730788.006300067529082 ], [ 5252767.309798543341458, 6730757.405145396478474 ], [ 5252704.726568589918315, 6730715.223399884067476 ], [ 5252659.974276207387447, 6730675.493349965661764 ], [ 5252594.226474366150796, 6730478.60468084178865 ], [ 5252707.374002976343036, 6730227.208312928676605 ], [ 5252632.935436215251684, 6730088.158265609294176 ], [ 5252406.594830804504454, 6729993.621632993221283 ], [ 5252396.980478700250387, 6729799.402862142771482 ], [ 5252342.673618699423969, 6729799.176644574850798 ], [ 5252365.949554107151926, 6729728.318247949704528 ], [ 5252365.495955232530832, 6729718.020281185396016 ], [ 5252312.801082347519696, 6729717.01442630123347 ], [ 5252085.305495405569673, 6729803.638869202695787 ], [ 5252061.599849141202867, 6729726.586561342701316 ], [ 5252034.239161216653883, 6729682.504250745289028 ], [ 5251981.197778487578034, 6729765.311969563364983 ], [ 5251985.983922166749835, 6729844.940089087933302 ], [ 5252007.456783518195152, 6729951.823846882209182 ], [ 5251967.234938294626772, 6730019.531633505597711 ], [ 5251917.794492926448584, 6729960.708025386556983 ], [ 5251860.302122404798865, 6729907.7785889133811 ], [ 5251852.015577643178403, 6729940.95186219830066 ], [ 5251873.702622748911381, 6729971.114003780297935 ], [ 5251862.002020159736276, 6730003.387147219851613 ], [ 5251829.481873943470418, 6730015.686909187585115 ], [ 5251807.765710399486125, 6730072.339514810591936 ], [ 5251750.335357449017465, 6730133.340586673468351 ], [ 5251732.5827253786847, 6730169.499134056270123 ], [ 5251702.260759332217276, 6730277.673153294250369 ], [ 5251634.397079000249505, 6730306.639701839536428 ], [ 5251571.34036931861192, 6730307.248468440026045 ], [ 5251535.506405543535948, 6730327.976413171738386 ], [ 5251486.656545279547572, 6730367.735550746321678 ], [ 5251519.375819347798824, 6730414.284849564544857 ], [ 5251580.319805052131414, 6730444.12622629199177 ], [ 5251596.244734177365899, 6730515.916005623526871 ], [ 5251579.792840079404414, 6730594.342542968690395 ], [ 5251545.076896565966308, 6730626.540771097876132 ], [ 5251483.544142257422209, 6730557.732571278698742 ], [ 5251416.918709967285395, 6730531.002155132591724 ], [ 5251383.292872861027718, 6730551.646978382021189 ], [ 5251327.450443207286298, 6730557.075387457385659 ], [ 5251293.217766900546849, 6730595.753071204759181 ], [ 5251237.20582445897162, 6730628.835572585463524 ], [ 5251223.26980288233608, 6730689.729346873238683 ], [ 5251197.652211491018534, 6730729.479580936953425 ], [ 5251156.416284723207355, 6730713.710328063927591 ], [ 5251123.431242622435093, 6730669.995410745963454 ], [ 5251071.915120777674019, 6730632.396441603079438 ], [ 5250999.794222278520465, 6730705.958889447152615 ], [ 5250947.28854007832706, 6730669.635237127542496 ], [ 5250722.153856752440333, 6730658.778163813054562 ], [ 5250664.466768943704665, 6730646.258012715727091 ], [ 5250650.694493535906076, 6730606.475266151130199 ], [ 5250675.521329509094357, 6730572.524896508082747 ], [ 5250682.490292842499912, 6730535.298937428742647 ], [ 5250669.467149291187525, 6730466.839175913482904 ], [ 5250623.800523082725704, 6730437.075043994933367 ], [ 5250553.943556816317141, 6730449.812697807326913 ], [ 5250581.95071318000555, 6730509.218148894608021 ], [ 5250561.137867154553533, 6730543.578383825719357 ], [ 5250524.321018063463271, 6730528.041603025048971 ], [ 5250485.148735762573779, 6730472.39042673073709 ], [ 5250451.302892027422786, 6730488.432493671774864 ], [ 5250393.930632773786783, 6730445.93446009606123 ], [ 5250345.913706170395017, 6730560.521613851189613 ], [ 5250298.58448232896626, 6730627.070844204165041 ], [ 5250269.985712023451924, 6730631.822380249388516 ], [ 5250246.963902486488223, 6730658.463957211002707 ], [ 5250213.71812148578465, 6730755.335363924503326 ], [ 5250205.877205930650234, 6730766.893620323389769 ], [ 5250170.915461588650942, 6730818.365937164053321 ], [ 5250136.286671176552773, 6730832.404872459359467 ], [ 5250090.432084243744612, 6730821.705203506164253 ], [ 5250060.523157382383943, 6730791.456063833087683 ], [ 5250040.187955192290246, 6730733.754533238708973 ], [ 5249993.566159746609628, 6730704.175545604899526 ], [ 5249964.606335560791194, 6730716.712375102564692 ], [ 5249879.247764337807894, 6730679.880931279622018 ], [ 5249799.551682221703231, 6730692.010735589079559 ], [ 5249779.277466860599816, 6730724.104912860319018 ], [ 5249763.225262056104839, 6730762.496608823537827 ], [ 5249758.070371527224779, 6730784.136452408507466 ], [ 5249743.215291492640972, 6730803.905215211212635 ], [ 5249707.10966145247221, 6730829.659261291846633 ], [ 5249647.031264102086425, 6730848.831779239699244 ], [ 5249635.076549706049263, 6730862.955017933622003 ], [ 5249639.581676457077265, 6730914.450122985988855 ], [ 5249653.858939802274108, 6730936.458436300978065 ], [ 5249669.757073381915689, 6730927.429527262225747 ], [ 5249682.749203596264124, 6730928.184769262559712 ], [ 5249694.818426331505179, 6730935.873044623062015 ], [ 5249694.672490679658949, 6730961.252086519263685 ], [ 5249673.144176010042429, 6730975.287819564342499 ], [ 5249633.418195207603276, 6730971.585067911073565 ], [ 5249618.591139094904065, 6730997.02288459520787 ], [ 5249628.347931071184576, 6731073.289279855787754 ], [ 5249686.612777225673199, 6731117.125086490064859 ], [ 5249689.793153360486031, 6731130.680133728310466 ], [ 5249654.987769096158445, 6731160.466111347079277 ], [ 5249665.070895035751164, 6731180.936244985088706 ], [ 5249681.292981469072402, 6731183.894599250517786 ], [ 5249707.516828185878694, 6731169.044767495244741 ], [ 5249726.679432598873973, 6731169.907418105751276 ], [ 5249733.880151761695743, 6731182.829716133885086 ], [ 5249739.759302133694291, 6731201.761854628100991 ], [ 5249689.498060361482203, 6731258.386743107810616 ], [ 5249685.760865900665522, 6731281.881370387971401 ], [ 5249723.591113231144845, 6731320.799307137727737 ], [ 5249722.188274775631726, 6731398.034056100994349 ], [ 5249666.459892656654119, 6731427.662017955444753 ], [ 5249638.492995720356703, 6731440.031565967947245 ], [ 5249642.47823004797101, 6731464.098586007021368 ], [ 5249651.347867541015148, 6731479.24750308599323 ], [ 5249665.851681860163808, 6731493.062233759090304 ], [ 5249684.446929068304598, 6731490.176137652248144 ], [ 5249721.927866335958242, 6731469.928666431456804 ], [ 5249747.748679532669485, 6731476.702097712084651 ], [ 5249772.788440882228315, 6731511.265244336798787 ], [ 5249778.042097116820514, 6731568.946223702281713 ], [ 5249813.8241828950122, 6731574.888599425554276 ], [ 5249846.809394062496722, 6731563.583580445498228 ], [ 5249840.874294601380825, 6731536.885739342309535 ], [ 5249850.680654041469097, 6731501.495143759995699 ], [ 5249868.514695793390274, 6731482.636732319369912 ], [ 5249906.883378501981497, 6731489.775285496376455 ], [ 5249919.624845528043807, 6731540.022630048915744 ], [ 5249953.075705967843533, 6731585.18401341047138 ], [ 5249960.867220923304558, 6731608.989076003432274 ], [ 5249950.511869935318828, 6731641.041056230664253 ], [ 5249922.443537755869329, 6731663.288689061067998 ], [ 5249919.893434312194586, 6731688.698845149949193 ], [ 5249932.514302605763078, 6731705.484277063980699 ], [ 5249962.70220813434571, 6731739.48915608972311 ], [ 5250014.723580438643694, 6731760.471785832196474 ], [ 5250056.584044013172388, 6731778.517242157831788 ], [ 5250094.267862377688289, 6731789.70927993580699 ], [ 5250111.772635217756033, 6731775.240601517260075 ], [ 5250172.927540577016771, 6731769.423558369278908 ], [ 5250188.916390067897737, 6731784.558435090817511 ], [ 5250201.04679003264755, 6731814.624957723543048 ], [ 5250229.894654243253171, 6731849.380171546712518 ], [ 5250232.565377593971789, 6731852.605238422751427 ], [ 5250237.649379943497479, 6731874.117959788069129 ], [ 5250261.470941675826907, 6731884.70723239518702 ], [ 5250274.380668233148754, 6731885.630162659101188 ], [ 5250279.91890899464488, 6731899.19935779646039 ], [ 5250270.75412873737514, 6731917.133700083941221 ], [ 5250282.521268244832754, 6731965.782444033771753 ], [ 5250318.739833428524435, 6731980.834348786622286 ], [ 5250324.847524557262659, 6732000.393670683726668 ], [ 5250363.456966993398964, 6732013.916646575555205 ], [ 5250403.543578719720244, 6732010.530109265819192 ], [ 5250426.202603085897863, 6732026.836991770192981 ], [ 5250446.212029392831028, 6732013.787909537553787 ], [ 5250474.391619076021016, 6731991.747322724200785 ], [ 5250501.94600420165807, 6731975.623471059836447 ], [ 5250528.915789995342493, 6731973.79274005163461 ], [ 5250609.185808712616563, 6731982.306092340499163 ], [ 5250641.545757908374071, 6731975.573045145720243 ], [ 5250689.52988141681999, 6731978.434386376291513 ], [ 5250715.721629096195102, 6732007.488877969793975 ], [ 5250718.915849399752915, 6732042.114272905513644 ], [ 5250800.133510645478964, 6732070.100503221154213 ], [ 5250839.969613255001605, 6732062.856673430651426 ], [ 5250868.887142915278673, 6732097.5756467692554 ], [ 5250890.501915017142892, 6732106.137869402766228 ], [ 5250960.004176392219961, 6732202.123309725895524 ], [ 5250972.322119294665754, 6732227.868788687512279 ], [ 5250973.404312049038708, 6732262.563366202637553 ], [ 5251001.24943876452744, 6732303.097930025309324 ], [ 5251038.666769523173571, 6732292.600754538550973 ], [ 5251075.350013014860451, 6732318.414075285196304 ], [ 5251234.767568106763065, 6732177.187618219293654 ], [ 5251112.698686840943992, 6731557.665506361052394 ], [ 5251534.954643378965557, 6731474.411108960397542 ], [ 5251756.165486097335815, 6731230.069953775033355 ], [ 5252251.951750204898417, 6731217.81203930079937 ], [ 5252234.782131478190422, 6731924.926938972435892 ], [ 5252418.290013015270233, 6731853.036122281104326 ], [ 5252433.755849439650774, 6732176.645954127423465 ], [ 5251264.380468626506627, 6732392.429880002513528 ], [ 5251292.130353143438697, 6732433.853630678728223 ], [ 5251311.265327202156186, 6732478.653768512420356 ], [ 5251362.587340989150107, 6732572.024196051061153 ], [ 5251376.395079570822418, 6732600.587763795629144 ], [ 5251575.991717142052948, 6732672.732396896928549 ], [ 5251607.43537281267345, 6732692.691506308503449 ], [ 5251683.132899472489953, 6733286.104934792965651 ], [ 5251682.554621833376586, 6733325.851944783702493 ], [ 5251677.213694548234344, 6733345.58847704809159 ], [ 5251651.456166411750019, 6733391.056632391177118 ], [ 5251646.963014616630971, 6733409.231915330514312 ], [ 5250911.954450597986579, 6733414.19397215731442 ], [ 5250915.1684161843732, 6733550.910808105021715 ], [ 5250706.533966133370996, 6733550.510711741633713 ], [ 5250710.096780070103705, 6733641.039214411750436 ], [ 5250717.564815610647202, 6733798.210600889287889 ], [ 5250687.463869266211987, 6733977.664559677243233 ], [ 5250671.623420468531549, 6734025.284139187075198 ], [ 5250657.389340497553349, 6734104.191189172677696 ], [ 5250601.71671134699136, 6734193.238881181925535 ], [ 5250564.251077538356185, 6734336.051225295290351 ], [ 5250547.92953195143491, 6734419.309462468139827 ], [ 5250542.4214983060956, 6734502.893515108153224 ], [ 5250475.4915821980685, 6734683.285673443228006 ], [ 5250517.303627745248377, 6734683.345372371375561 ], [ 5250543.40729758143425, 6735097.789030004292727 ], [ 5250586.077090301550925, 6735732.879693359136581 ], [ 5250487.754227446392179, 6735756.708649082109332 ], [ 5250495.772974399849772, 6735779.687438284978271 ], [ 5250518.05350146163255, 6735831.542562398128211 ], [ 5250536.538544058799744, 6735876.735691307112575 ], [ 5250526.550521662458777, 6735943.45358510594815 ], [ 5250505.624903921037912, 6735999.085384777747095 ], [ 5250482.967098692432046, 6736063.243717717006803 ], [ 5250472.25119736045599, 6736108.973563867621124 ], [ 5250473.502511373721063, 6736141.345132954418659 ], [ 5250490.400278147310019, 6736160.887097042053938 ], [ 5250510.166962200775743, 6736184.67052661255002 ], [ 5250540.312621221877635, 6736229.782580832019448 ], [ 5250576.865256895311177, 6736305.664959937334061 ], [ 5250617.143709866330028, 6736504.448940088972449 ], [ 5250858.81809586007148, 6736482.441029816865921 ], [ 5250895.87940261606127, 6736628.735652331262827 ], [ 5250928.260968972928822, 6736715.872086094692349 ], [ 5250954.944698726758361, 6736772.300111333839595 ], [ 5251039.315063772723079, 6736900.089921055361629 ], [ 5251049.314595153555274, 6736929.171457761898637 ], [ 5251058.208690987899899, 6737005.889181410893798 ], [ 5251060.880905921570957, 6737040.570422201417387 ], [ 5251021.041490054689348, 6737098.265553314238787 ], [ 5251009.725666797719896, 6737125.690291414968669 ], [ 5250990.095383127219975, 6737205.593676703982055 ], [ 5250958.204318910837173, 6737345.996662668883801 ], [ 5250926.466184707358479, 6737479.783037954941392 ], [ 5250925.121385039761662, 6737547.274598533287644 ], [ 5250932.966792840510607, 6737592.526079410687089 ], [ 5250950.051864367909729, 6737643.985682980157435 ], [ 5250980.353489764966071, 6737692.400032239034772 ], [ 5251004.178339181467891, 6737723.992881875485182 ], [ 5251014.658693275414407, 6737755.482649695128202 ], [ 5251021.482306845486164, 6737790.970407638698816 ], [ 5251057.01900942157954, 6737830.835611250251532 ], [ 5251085.249649435281754, 6737848.005933512933552 ], [ 5250840.344509596005082, 6737866.980906556360424 ], [ 5250721.181680181995034, 6737879.988392785191536 ], [ 5250607.902304642833769, 6737917.219071512110531 ], [ 5250461.828440951183438, 6738030.86968719214201 ], [ 5250423.668693412095308, 6738124.408042922616005 ], [ 5250411.56915245577693, 6738181.851825546473265 ], [ 5250371.034427323378623, 6738217.26821868494153 ], [ 5250366.607586237601936, 6738221.127686312422156 ], [ 5250257.807305822148919, 6738342.11576861422509 ], [ 5250202.036950168199837, 6738464.836007574573159 ], [ 5250200.463544191792607, 6738560.381688043475151 ], [ 5250235.116613415069878, 6738707.263732679188251 ], [ 5250190.424342091195285, 6738712.347150878049433 ], [ 5249939.574738685041666, 6738648.537379863671958 ], [ 5249872.71498535387218, 6738595.070149888284504 ], [ 5249769.642631126567721, 6738529.42094278242439 ], [ 5249682.559388602152467, 6738475.878051661886275 ], [ 5249483.422614770941436, 6738471.065428483299911 ], [ 5249332.85278997104615, 6738496.079214848577976 ], [ 5249234.870497095398605, 6738537.895260930992663 ], [ 5248892.229982455261052, 6738601.46544130332768 ], [ 5248844.262285817414522, 6738655.702006367966533 ], [ 5248829.033676312305033, 6738745.544331311248243 ], [ 5248772.336694380268455, 6738822.973506796173751 ], [ 5248770.194679764099419, 6738936.027876518666744 ], [ 5248920.908576348796487, 6738921.21578692831099 ], [ 5249037.107398594729602, 6738804.783961314707994 ], [ 5249337.084387984126806, 6738746.522558018565178 ], [ 5249421.116013494320214, 6738713.179869711399078 ], [ 5249582.401188867166638, 6738705.270928615704179 ], [ 5249762.984938585199416, 6738792.565867021679878 ], [ 5249810.847408462315798, 6738850.581107173115015 ], [ 5250090.408610251732171, 6738929.414843181148171 ], [ 5250185.205278935842216, 6738944.038608998991549 ], [ 5250317.006332716904581, 6739024.027625038288534 ], [ 5250389.268943504430354, 6739040.79078918043524 ], [ 5250485.479749199002981, 6739063.114487336948514 ], [ 5250568.634038631804287, 6739064.223450478166342 ], [ 5250710.508361172862351, 6739227.634954100474715 ], [ 5251023.038659548386931, 6739213.988307416439056 ], [ 5251021.160973904654384, 6739114.956890770234168 ], [ 5251295.335961143486202, 6739095.662895793095231 ], [ 5251407.884364939294755, 6739098.431420128792524 ], [ 5251433.958665577694774, 6739123.216388585045934 ], [ 5251449.455599715001881, 6739156.325291734188795 ], [ 5251448.680335270240903, 6739193.479816654697061 ], [ 5251377.713996905833483, 6739279.706697786226869 ], [ 5251307.171909117139876, 6739340.525590609759092 ], [ 5251241.867440585978329, 6739407.796240321360528 ], [ 5251218.855554889887571, 6739479.830159040167928 ], [ 5251157.774789383634925, 6739571.294760972261429 ], [ 5251102.097753789275885, 6739636.919226815924048 ], [ 5251025.95223518460989, 6739672.384804376401007 ], [ 5250957.76535423938185, 6739722.763295613229275 ], [ 5250843.253428713418543, 6739764.327050663530827 ], [ 5250599.330838030204177, 6739793.623329397290945 ], [ 5250534.179058276116848, 6739777.824191271327436 ], [ 5250437.261959455907345, 6739814.178397450596094 ], [ 5250406.857827082276344, 6739835.334057392552495 ], [ 5250403.999839838594198, 6739837.316870550625026 ], [ 5250354.519822651520371, 6739873.163619831204414 ], [ 5250303.895415196195245, 6739934.943621879443526 ], [ 5250252.787984471768141, 6740010.891977781429887 ], [ 5250410.467723684385419, 6739998.425834208726883 ], [ 5251821.888465199619532, 6739886.712445753626525 ], [ 5251915.961861941963434, 6739879.269385663792491 ], [ 5251913.112681440077722, 6739862.023517599329352 ], [ 5251701.515252297744155, 6738583.32639875728637 ] ] ] } },
{ "type": "Feature", "properties": { "lv_id": "LOC_069651", "id": 437511.0, "CD_SETOR": "432225105000007", "SITUACAO": "Rural", "CD_SIT": "8", "CD_TIPO": "0", "AREA_KM2": 10.630923928376872, "CD_REGIAO": "4", "NM_REGIAO": "Sul", "CD_UF": "43", "NM_UF": "Rio Grande do Sul", "CD_MUN": "4322251", "NM_MUN": "Tupandi", "CD_DIST": "432225105", "NM_DIST": "Tupandi", "CD_SUBDIST": "43222510500", "NM_SUBDIST": null, "CD_BAIRRO": null, "NM_BAIRRO": null, "CD_NU": null, "NM_NU": null, "CD_FCU": null, "NM_FCU": null, "CD_AGLOM": null, "NM_AGLOM": null, "CD_RGINT": "4301", "NM_RGINT": "Porto Alegre", "CD_RGI": "430002", "NM_RGI": "Novo Hamburgo - São Leopoldo", "CD_CONCURB": null, "NM_CONCURB": null, "mun_code_x": "4322251", "index_right": 69209, "dist_m": 0.0, "local_id": 728566, "ano": 2022, "cod_localidade_ibge": 4322251, "NR_ZONA": "11", "nr_cep": 95775000.0, "nm_localidade": "TUPANDI", "nm_locvot": "SALÃO COMUNITÁRIO DE SANTA RITA", "ds_endereco": "ESTRADA SANTA RITA, S/N.", "ds_bairro": "SANTA RITA", "pred_long": -51.445648, "pred_lat": -29.489005, "pred_dist": 0.0, "tse_long": -51.4298569, "tse_lat": -29.4919158, "long": -51.4298569, "lat": -29.4919158, "ID_UNICO": "LOC_069651", "SG_UF": "RS", "CD_MUNICIPIO": "85723", "NR_LOCAL_VOTACAO": "1287", "QT_SECOES_AGREGADAS": 0, "QT_ELEITORES_TRANSFERIDOS": 0, "CIRO GOMES (PDT) (NÃO ELEITO) 1T": 3.0, "CONSTITUINTE EYMAEL (DC) (NÃO ELEITO) 1T": 0.0, "FELIPE D AVILA (NOVO) (NÃO ELEITO) 1T": 0.0, "JAIR BOLSONARO (PL) (2º TURNO) 1T": 124.0, "LULA (PT) (2º TURNO) 1T": 21.0, "LÉO PÉRICLES (UP) (NÃO ELEITO) 1T": 0.0, "PADRE KELMON (PTB) (NÃO ELEITO) 1T": 0.0, "SIMONE TEBET (MDB) (NÃO ELEITO) 1T": 1.0, "SOFIA MANZANO (PCB) (NÃO ELEITO) 1T": 0.0, "SORAYA THRONICKE (UNIÃO) (NÃO ELEITO) 1T": 0.0, "VERA (PSTU) (NÃO ELEITO) 1T": 0.0, "Total_Votos_Validos 1T": 149.0, "Votos_Brancos 1T": 6.0, "Votos_Nulos 1T": 2.0, "Abstenções 1T": 19.0, "Eleitores_Aptos 1T": 176.0, "JAIR BOLSONARO (PL) (NÃO ELEITO) 2T": 137.0, "LULA (PT) (ELEITO) 2T": 20.0, "Total_Votos_Validos 2T": 157.0, "Votos_Brancos 2T": 3.0, "Votos_Nulos 2T": 2.0, "Abstenções 2T": 14.0, "Eleitores_Aptos 2T": 176.0, "mun_code_y": "4322251", "mun_code": "4322251" }, "geometry": { "type": "Polygon", "coordinates": [ [ [ 5250274.774388300254941, 6732091.779711193405092 ], [ 5250233.850892953574657, 6732027.722445735707879 ], [ 5250218.337782533839345, 6732003.445281127467752 ], [ 5250200.678012548014522, 6731972.458443198353052 ], [ 5250215.742677323520184, 6731929.738614035770297 ], [ 5250221.480928999371827, 6731898.987144554033875 ], [ 5250230.681440130807459, 6731884.846786616370082 ], [ 5250237.649379943497479, 6731874.117959788069129 ], [ 5250232.565377593971789, 6731852.605238422751427 ], [ 5250229.894654243253171, 6731849.380171546712518 ], [ 5250201.04679003264755, 6731814.624957723543048 ], [ 5250188.916390067897737, 6731784.558435090817511 ], [ 5250172.927540577016771, 6731769.423558369278908 ], [ 5250111.772635217756033, 6731775.240601517260075 ], [ 5250094.267862377688289, 6731789.70927993580699 ], [ 5250056.584044013172388, 6731778.517242157831788 ], [ 5250014.723580438643694, 6731760.471785832196474 ], [ 5249962.70220813434571, 6731739.48915608972311 ], [ 5249932.514302605763078, 6731705.484277063980699 ], [ 5249919.893434312194586, 6731688.698845149949193 ], [ 5249922.443537755869329, 6731663.288689061067998 ], [ 5249950.511869935318828, 6731641.041056230664253 ], [ 5249960.867220923304558, 6731608.989076003432274 ], [ 5249953.075705967843533, 6731585.18401341047138 ], [ 5249919.624845528043807, 6731540.022630048915744 ], [ 5249906.883378501981497, 6731489.775285496376455 ], [ 5249868.514695793390274, 6731482.636732319369912 ], [ 5249850.680654041469097, 6731501.495143759995699 ], [ 5249840.874294601380825, 6731536.885739342309535 ], [ 5249846.809394062496722, 6731563.583580445498228 ], [ 5249813.8241828950122, 6731574.888599425554276 ], [ 5249778.042097116820514, 6731568.946223702281713 ], [ 5249772.788440882228315, 6731511.265244336798787 ], [ 5249747.748679532669485, 6731476.702097712084651 ], [ 5249721.927866335958242, 6731469.928666431456804 ], [ 5249684.446929068304598, 6731490.176137652248144 ], [ 5249665.851681860163808, 6731493.062233759090304 ], [ 5249651.347867541015148, 6731479.24750308599323 ], [ 5249642.47823004797101, 6731464.098586007021368 ], [ 5249638.492995720356703, 6731440.031565967947245 ], [ 5249666.459892656654119, 6731427.662017955444753 ], [ 5249722.188274775631726, 6731398.034056100994349 ], [ 5249723.591113231144845, 6731320.799307137727737 ], [ 5249685.760865900665522, 6731281.881370387971401 ], [ 5249689.498060361482203, 6731258.386743107810616 ], [ 5249739.759302133694291, 6731201.761854628100991 ], [ 5249733.880151761695743, 6731182.829716133885086 ], [ 5249726.679432598873973, 6731169.907418105751276 ], [ 5249707.516828185878694, 6731169.044767495244741 ], [ 5249681.292981469072402, 6731183.894599250517786 ], [ 5249665.070895035751164, 6731180.936244985088706 ], [ 5249654.987769096158445, 6731160.466111347079277 ], [ 5249689.793153360486031, 6731130.680133728310466 ], [ 5249686.612777225673199, 6731117.125086490064859 ], [ 5249628.347931071184576, 6731073.289279855787754 ], [ 5249618.591139094904065, 6730997.02288459520787 ], [ 5249633.418195207603276, 6730971.585067911073565 ], [ 5249673.144176010042429, 6730975.287819564342499 ], [ 5249694.672490679658949, 6730961.252086519263685 ], [ 5249694.818426331505179, 6730935.873044623062015 ], [ 5249682.749203596264124, 6730928.184769262559712 ], [ 5249669.757073381915689, 6730927.429527262225747 ], [ 5249653.858939802274108, 6730936.458436300978065 ], [ 5249639.581676457077265, 6730914.450122985988855 ], [ 5249635.076549706049263, 6730862.955017933622003 ], [ 5249647.031264102086425, 6730848.831779239699244 ], [ 5249707.10966145247221, 6730829.659261291846633 ], [ 5249743.215291492640972, 6730803.905215211212635 ], [ 5249758.070371527224779, 6730784.136452408507466 ], [ 5249763.225262056104839, 6730762.496608823537827 ], [ 5249723.365074780769646, 6730738.691836595535278 ], [ 5249714.04297421593219, 6730679.014961898326874 ], [ 5249682.974447895772755, 6730658.521544238552451 ], [ 5249672.87224696483463, 6730610.900746044702828 ], [ 5249566.333141703158617, 6730612.028506955131888 ], [ 5249183.453534904867411, 6730529.54839394800365 ], [ 5249055.619822778739035, 6730596.506489152088761 ], [ 5248909.24760015308857, 6730668.931981521658599 ], [ 5248569.751866351813078, 6730415.544397777877748 ], [ 5248443.351982340216637, 6730522.574238969944417 ], [ 5248431.547948343679309, 6730692.774140240624547 ], [ 5248311.001585080288351, 6730841.236993474885821 ], [ 5248277.615418838337064, 6731083.577935332432389 ], [ 5248135.088709780015051, 6731230.791384391486645 ], [ 5248083.413496290333569, 6731386.611310030333698 ], [ 5247907.165944490581751, 6731560.570987276732922 ], [ 5247659.558066136203706, 6731659.225402418524027 ], [ 5247498.458676479756832, 6731893.326338939368725 ], [ 5247344.188851630315185, 6732155.25722286477685 ], [ 5247137.402389985509217, 6732380.900125226005912 ], [ 5246910.367361766286194, 6732419.158740857616067 ], [ 5246535.658263928256929, 6733091.36842312105 ], [ 5245191.260267465375364, 6734756.868500782176852 ], [ 5246531.357543535530567, 6735629.065460772253573 ], [ 5246545.184787914156914, 6735638.072546655312181 ], [ 5246590.405718170106411, 6735667.497414001263678 ], [ 5246666.608093219809234, 6735632.691403064876795 ], [ 5246706.688714482821524, 6735608.870676450431347 ], [ 5246758.046358423307538, 6735506.636731388047338 ], [ 5246781.932248670607805, 6735453.400776155292988 ], [ 5246795.89736002497375, 6735409.668390400707722 ], [ 5246847.733485428616405, 6735346.7231135815382 ], [ 5246904.0801599053666, 6735301.08751552645117 ], [ 5246937.026401846669614, 6735266.9589002430439 ], [ 5246963.345364460721612, 6735211.483421202749014 ], [ 5246989.894689893350005, 6735145.706317029893398 ], [ 5246966.17301282659173, 6735127.851317714899778 ], [ 5246923.767451566644013, 6735132.196202686056495 ], [ 5246873.831581775099039, 6735139.989811495877802 ], [ 5246746.480647907592356, 6735192.181313375942409 ], [ 5246663.147650871425867, 6735239.703874461352825 ], [ 5246622.445684948936105, 6735223.905629118904471 ], [ 5246620.274356469511986, 6735202.217308595776558 ], [ 5246634.049123043194413, 6735183.96417105384171 ], [ 5246659.885794422589242, 6735166.312938547693193 ], [ 5246679.780739431269467, 6735124.470485853031278 ], [ 5246698.590607455931604, 6735034.742021501064301 ], [ 5246757.891788144595921, 6735000.06015819311142 ], [ 5246800.542582015506923, 6734950.141895653679967 ], [ 5246815.231813120655715, 6734915.613796224817634 ], [ 5246908.556260040029883, 6734832.277380966581404 ], [ 5246961.712532604113221, 6734769.535359413363039 ], [ 5247027.244306394830346, 6734647.284019489772618 ], [ 5247130.075274576433003, 6734569.440383858047426 ], [ 5247145.081678845919669, 6734536.180726353079081 ], [ 5247155.091145328246057, 6734487.363765422254801 ], [ 5247189.701087748631835, 6734443.422620055265725 ], [ 5247220.854340739548206, 6734385.610140436328948 ], [ 5247230.684885522350669, 6734331.304756842553616 ], [ 5247256.51055296510458, 6734269.880765048786998 ], [ 5247317.866577730514109, 6734234.063046261668205 ], [ 5247387.075061222538352, 6734216.635469519533217 ], [ 5247428.422764929942787, 6734227.035327184945345 ], [ 5247511.794713064096868, 6734241.073755544610322 ], [ 5247706.796267049387097, 6734222.715618763118982 ], [ 5247752.557460710406303, 6734188.447049850597978 ], [ 5247822.705174423754215, 6734147.118690500035882 ], [ 5247867.327156377956271, 6734134.333225151523948 ], [ 5247901.652376865036786, 6734110.73376587126404 ], [ 5247955.907235898077488, 6734033.504677874036133 ], [ 5248139.685536460019648, 6733950.454495090991259 ], [ 5248209.751141998916864, 6733887.877398541197181 ], [ 5248219.451890795491636, 6733842.472086668014526 ], [ 5248240.635590958409011, 6733796.104050455614924 ], [ 5248301.014074263162911, 6733720.513493221253157 ], [ 5248366.317331770434976, 6733680.541681088507175 ], [ 5248391.958881453610957, 6733661.359014792367816 ], [ 5248399.498254373669624, 6733630.181093001738191 ], [ 5248407.8965985160321, 6733610.268390122801065 ], [ 5248404.060165644623339, 6733570.375705007463694 ], [ 5248424.310742382891476, 6733522.219163509085774 ], [ 5248442.188457772135735, 6733504.63858862221241 ], [ 5248455.856124624609947, 6733489.247736847959459 ], [ 5248504.470554431900382, 6733482.163399450480938 ], [ 5248594.207584558054805, 6733467.837371806614101 ], [ 5248625.335172276012599, 6733461.281994445249438 ], [ 5248680.195783793926239, 6733449.343642359599471 ], [ 5248809.45115040615201, 6733476.030538843944669 ], [ 5248852.476567826233804, 6733475.026236798614264 ], [ 5248904.150490573607385, 6733443.50682494789362 ], [ 5248937.340566457249224, 6733430.203348282724619 ], [ 5249003.92683176510036, 6733433.172325680032372 ], [ 5249167.624194812960923, 6733461.058983666822314 ], [ 5249195.180679207667708, 6733460.594675103202462 ], [ 5249261.816572750918567, 6733447.350399708375335 ], [ 5249487.388303804211318, 6733398.814751329831779 ], [ 5249535.177847856655717, 6733402.717700364999473 ], [ 5249570.699046332389116, 6733415.912557658739388 ], [ 5249672.241603412665427, 6733492.023466399870813 ], [ 5249705.052809630520642, 6733502.836864749900997 ], [ 5249769.400235770270228, 6733507.604053666815162 ], [ 5249850.300404697656631, 6733508.642393458634615 ], [ 5249871.263709008693695, 6733520.560934994369745 ], [ 5249912.576862756162882, 6733523.695919671095908 ], [ 5250007.636319704353809, 6733505.346099705435336 ], [ 5250014.32085526175797, 6733472.565653350204229 ], [ 5250047.469246529042721, 6733446.921356812119484 ], [ 5250073.991820730268955, 6733429.124191962182522 ], [ 5250098.736537561751902, 6733414.706160387024283 ], [ 5250135.549181766808033, 6733398.167567419819534 ], [ 5250171.689645243808627, 6733387.191586470231414 ], [ 5250206.933789620175958, 6733372.540498228743672 ], [ 5250247.809588854201138, 6733356.84344687871635 ], [ 5250263.201006387360394, 6733351.065184492617846 ], [ 5250287.096329488791525, 6733342.102428834885359 ], [ 5250329.570298014208674, 6733325.437571367248893 ], [ 5250415.922230835072696, 6733282.833463706076145 ], [ 5250487.699821799993515, 6733238.699228641577065 ], [ 5250543.110499245114625, 6733185.685217657126486 ], [ 5250564.866648188792169, 6733146.367063356563449 ], [ 5250583.285026803612709, 6733076.864960907027125 ], [ 5250573.45916220266372, 6732991.235622284002602 ], [ 5250414.669069242663682, 6732992.065099842846394 ], [ 5250453.436036492697895, 6732952.225307811051607 ], [ 5250485.715381681919098, 6732904.152143016457558 ], [ 5250415.817969055846334, 6732901.787124764174223 ], [ 5250346.109231678768992, 6732886.502095041796565 ], [ 5250246.840317728929222, 6732613.331646323204041 ], [ 5250167.469692125916481, 6732394.920398293994367 ], [ 5250241.999666005373001, 6732395.086794257164001 ], [ 5250367.538852761499584, 6732395.374357694759965 ], [ 5250411.962935607880354, 6732342.205020327121019 ], [ 5250415.167721858248115, 6732327.099172149784863 ], [ 5250409.809168505482376, 6732313.337401458993554 ], [ 5250393.371117137372494, 6732304.226603526622057 ], [ 5250369.876118985004723, 6732293.974240943789482 ], [ 5250355.629921062849462, 6732286.16841422393918 ], [ 5250340.363719496876001, 6732281.34776602871716 ], [ 5250321.143958093598485, 6732280.620396384969354 ], [ 5250303.269639487378299, 6732272.340245855040848 ], [ 5250288.856894232332706, 6732260.52139201387763 ], [ 5250279.340730363503098, 6732241.647952600382268 ], [ 5250280.9508105982095, 6732200.55811008438468 ], [ 5250275.164843650534749, 6732158.778023453429341 ], [ 5250275.824316655285656, 6732139.978356897830963 ], [ 5250274.774388300254941, 6732091.779711193405092 ] ] ] } }
]
}
