{
"type": "FeatureCollection",
"name": "5004007",
"crs": { "type": "name", "properties": { "name": "urn:ogc:def:crs:EPSG::5880" } },
"features": [
{ "type": "Feature", "properties": { "lv_id": "LOC_077853", "id": 442694.0, "CD_SETOR": "500400705000006", "SITUACAO": "Urbana", "CD_SIT": "1", "CD_TIPO": "0", "AREA_KM2": 0.44440611458538898, "CD_REGIAO": "5", "NM_REGIAO": "Centro-Oeste", "CD_UF": "50", "NM_UF": "Mato Grosso do Sul", "CD_MUN": "5004007", "NM_MUN": "Glória de Dourados", "CD_DIST": "500400705", "NM_DIST": "Glória de Dourados", "CD_SUBDIST": "50040070500", "NM_SUBDIST": null, "CD_BAIRRO": null, "NM_BAIRRO": null, "CD_NU": null, "NM_NU": null, "CD_FCU": null, "NM_FCU": null, "CD_AGLOM": null, "NM_AGLOM": null, "CD_RGINT": "5002", "NM_RGINT": "Dourados", "CD_RGI": "500005", "NM_RGI": "Dourados", "CD_CONCURB": null, "NM_CONCURB": null, "mun_code_x": "5004007", "index_right": 40424, "dist_m": 0.0, "local_id": 806109, "ano": 2022, "cod_localidade_ibge": 5004007, "NR_ZONA": "39", "nr_cep": 79730000.0, "nm_localidade": "GLÓRIA DE DOURADOS", "nm_locvot": "EEPSG PROFA. VÂNIA MEDEIROS LOPES", "ds_endereco": "R. RIO GRANDE DO SUL, 842", "ds_bairro": "VILA INDUSTRIAL", "pred_long": -54.2314455, "pred_lat": -22.4266827, "pred_dist": 0.0, "tse_long": -54.23077033, "tse_lat": -22.42689166, "long": -54.23077033, "lat": -22.42689166, "ID_UNICO": "LOC_077853", "SG_UF": "MS", "CD_MUNICIPIO": "90794", "NR_LOCAL_VOTACAO": "1023", "QT_SECOES_AGREGADAS": 0, "QT_ELEITORES_TRANSFERIDOS": 2, "CIRO GOMES (PDT) (NÃO ELEITO) 1T": 15.0, "CONSTITUINTE EYMAEL (DC) (NÃO ELEITO) 1T": 0.0, "FELIPE D AVILA (NOVO) (NÃO ELEITO) 1T": 2.0, "JAIR BOLSONARO (PL) (2º TURNO) 1T": 439.0, "LULA (PT) (2º TURNO) 1T": 751.0, "LÉO PÉRICLES (UP) (NÃO ELEITO) 1T": 0.0, "PADRE KELMON (PTB) (NÃO ELEITO) 1T": 1.0, "SIMONE TEBET (MDB) (NÃO ELEITO) 1T": 48.0, "SOFIA MANZANO (PCB) (NÃO ELEITO) 1T": 0.0, "SORAYA THRONICKE (UNIÃO) (NÃO ELEITO) 1T": 4.0, "VERA (PSTU) (NÃO ELEITO) 1T": 0.0, "Total_Votos_Validos 1T": 1260.0, "Votos_Brancos 1T": 22.0, "Votos_Nulos 1T": 35.0, "Abstenções 1T": 388.0, "Eleitores_Aptos 1T": 1705.0, "JAIR BOLSONARO (PL) (NÃO ELEITO) 2T": 486.0, "LULA (PT) (ELEITO) 2T": 735.0, "Total_Votos_Validos 2T": 1221.0, "Votos_Brancos 2T": 18.0, "Votos_Nulos 2T": 51.0, "Abstenções 2T": 415.0, "Eleitores_Aptos 2T": 1705.0, "mun_code_y": "5004007", "mun_code": "5004007" }, "geometry": { "type": "Polygon", "coordinates": [ [ [ 4977088.211022742092609, 7520068.83093545679003 ], [ 4977266.198085257783532, 7520472.850741174072027 ], [ 4977280.978801256045699, 7520812.479729329235852 ], [ 4977104.69104490801692, 7520871.397588338702917 ], [ 4976899.774102168157697, 7520960.524001283571124 ], [ 4976797.049863738939166, 7521006.636111084371805 ], [ 4976690.68512836098671, 7521049.386738903820515 ], [ 4977169.032381305471063, 7522170.244576928205788 ], [ 4978145.65556800365448, 7524458.446917556226254 ], [ 4987299.06000807415694, 7520630.079269439913332 ], [ 4986352.867367534898221, 7518128.659337013028562 ], [ 4984482.611226165667176, 7513737.48607362806797 ], [ 4975230.570465506985784, 7517703.282094713300467 ], [ 4975630.937243095599115, 7518595.629317103885114 ], [ 4975688.177183721214533, 7518719.567762036807835 ], [ 4975739.652612519450486, 7518830.540691452100873 ], [ 4975742.351047837175429, 7518836.369693126529455 ], [ 4975772.355789761058986, 7518898.783830932341516 ], [ 4975858.802266929298639, 7519090.571573621593416 ], [ 4975901.770063523203135, 7519192.350511617958546 ], [ 4975945.743649439886212, 7519296.522795338183641 ], [ 4975995.84653530176729, 7519412.054986618459225 ], [ 4976173.961230268701911, 7519836.6742146871984 ], [ 4976282.062319093383849, 7519791.803668301552534 ], [ 4976385.961580463685095, 7519747.324609097093344 ], [ 4976488.191290036775172, 7519703.55103413388133 ], [ 4976591.337409042753279, 7519659.324153296649456 ], [ 4976864.066283098421991, 7519542.198431996628642 ], [ 4977088.211022742092609, 7520068.83093545679003 ] ] ] } },
{ "type": "Feature", "properties": { "lv_id": "LOC_077854", "id": 442691.0, "CD_SETOR": "500400705000001", "SITUACAO": "Urbana", "CD_SIT": "1", "CD_TIPO": "0", "AREA_KM2": 0.38444981588043198, "CD_REGIAO": "5", "NM_REGIAO": "Centro-Oeste", "CD_UF": "50", "NM_UF": "Mato Grosso do Sul", "CD_MUN": "5004007", "NM_MUN": "Glória de Dourados", "CD_DIST": "500400705", "NM_DIST": "Glória de Dourados", "CD_SUBDIST": "50040070500", "NM_SUBDIST": null, "CD_BAIRRO": null, "NM_BAIRRO": null, "CD_NU": null, "NM_NU": null, "CD_FCU": null, "NM_FCU": null, "CD_AGLOM": null, "NM_AGLOM": null, "CD_RGINT": "5002", "NM_RGINT": "Dourados", "CD_RGI": "500005", "NM_RGI": "Dourados", "CD_CONCURB": null, "NM_CONCURB": null, "mun_code_x": "5004007", "index_right": 40425, "dist_m": 163.90153808135926, "local_id": 806110, "ano": 2022, "cod_localidade_ibge": 5004007, "NR_ZONA": "39", "nr_cep": 79730000.0, "nm_localidade": "GLÓRIA DE DOURADOS", "nm_locvot": "ESCOLA 2 DE MAIO", "ds_endereco": "RUA DR. TANCREDO DE ALMEIDA NEVES, 1605", "ds_bairro": "CENTRO", "pred_long": -54.233366, "pred_lat": -22.410537, "pred_dist": 0.0, "tse_long": -54.23380151, "tse_lat": -22.41071689, "long": -54.23380151, "lat": -22.41071689, "ID_UNICO": "LOC_077854", "SG_UF": "MS", "CD_MUNICIPIO": "90794", "NR_LOCAL_VOTACAO": "1015", "QT_SECOES_AGREGADAS": 0, "QT_ELEITORES_TRANSFERIDOS": 4, "CIRO GOMES (PDT) (NÃO ELEITO) 1T": 12.0, "CONSTITUINTE EYMAEL (DC) (NÃO ELEITO) 1T": 0.0, "FELIPE D AVILA (NOVO) (NÃO ELEITO) 1T": 1.0, "JAIR BOLSONARO (PL) (2º TURNO) 1T": 482.0, "LULA (PT) (2º TURNO) 1T": 324.0, "LÉO PÉRICLES (UP) (NÃO ELEITO) 1T": 0.0, "PADRE KELMON (PTB) (NÃO ELEITO) 1T": 0.0, "SIMONE TEBET (MDB) (NÃO ELEITO) 1T": 34.0, "SOFIA MANZANO (PCB) (NÃO ELEITO) 1T": 0.0, "SORAYA THRONICKE (UNIÃO) (NÃO ELEITO) 1T": 5.0, "VERA (PSTU) (NÃO ELEITO) 1T": 0.0, "Total_Votos_Validos 1T": 858.0, "Votos_Brancos 1T": 9.0, "Votos_Nulos 1T": 17.0, "Abstenções 1T": 232.0, "Eleitores_Aptos 1T": 1116.0, "JAIR BOLSONARO (PL) (NÃO ELEITO) 2T": 512.0, "LULA (PT) (ELEITO) 2T": 342.0, "Total_Votos_Validos 2T": 854.0, "Votos_Brancos 2T": 8.0, "Votos_Nulos 2T": 30.0, "Abstenções 2T": 224.0, "Eleitores_Aptos 2T": 1116.0, "mun_code_y": "5004007", "mun_code": "5004007" }, "geometry": { "type": "Polygon", "coordinates": [ [ [ 4976282.062319093383849, 7519791.803668301552534 ], [ 4976173.961230268701911, 7519836.6742146871984 ], [ 4976067.668620813637972, 7519883.440408727154136 ], [ 4975964.048749903216958, 7519925.835923513397574 ], [ 4975758.355038511566818, 7520015.045707445591688 ], [ 4975393.586190551519394, 7520176.810070334002376 ], [ 4975436.904377342201769, 7520278.41355486959219 ], [ 4975263.807713953778148, 7520349.983850795775652 ], [ 4974863.196342347189784, 7520517.481061201542616 ], [ 4973294.01858975738287, 7521179.174400093965232 ], [ 4971296.631814592517912, 7522006.215560212731361 ], [ 4967092.327730453573167, 7523767.178074888885021 ], [ 4966959.714656494557858, 7523826.073839876800776 ], [ 4967891.986107367090881, 7526056.460267620161176 ], [ 4968826.010472294874489, 7528293.794405184686184 ], [ 4970629.322787309065461, 7532704.460091321729124 ], [ 4971086.954735938459635, 7533818.431975282728672 ], [ 4976995.981835514307022, 7531407.481722768396139 ], [ 4980449.929139596410096, 7529996.72413981333375 ], [ 4988162.806318402290344, 7526842.91548948828131 ], [ 4988158.988835232332349, 7526729.79643695987761 ], [ 4988171.097043416462839, 7526655.092538120225072 ], [ 4988123.811221738345921, 7526463.783228067681193 ], [ 4988090.126268560998142, 7526401.679152619093657 ], [ 4987986.781595087610185, 7526261.552416943944991 ], [ 4987982.894739091396332, 7526199.969447383657098 ], [ 4987940.410209568217397, 7526104.128193596377969 ], [ 4987890.36373901925981, 7526037.825122292153537 ], [ 4987828.720989731140435, 7525904.916488614864647 ], [ 4987873.19624671433121, 7525797.892287376336753 ], [ 4987880.589805330149829, 7525747.15907627157867 ], [ 4987880.728147150948644, 7525675.568700756877661 ], [ 4987848.110468875616789, 7525542.99279815889895 ], [ 4987845.935834913514555, 7525492.285309016704559 ], [ 4987852.595653987489641, 7525457.807491564191878 ], [ 4987939.970220376737416, 7525239.516327602788806 ], [ 4987950.494000396691263, 7525189.117695244029164 ], [ 4987952.036766451783478, 7525112.312723571434617 ], [ 4987933.443704473786056, 7525010.443703759461641 ], [ 4987880.878631250932813, 7524863.722367971204221 ], [ 4987884.859239652752876, 7524659.396167416125536 ], [ 4987914.288655549287796, 7524533.302354304119945 ], [ 4987940.826724663376808, 7524482.705771748907864 ], [ 4988083.655943259596825, 7524300.102449501864612 ], [ 4988144.662882992066443, 7524235.379958560690284 ], [ 4988218.678534258157015, 7524181.319889677688479 ], [ 4988245.078530488535762, 7524147.731666261330247 ], [ 4988263.360875947400928, 7524090.030098896473646 ], [ 4988221.227989706210792, 7524011.198633022606373 ], [ 4988226.420301689766347, 7523954.461619465611875 ], [ 4988283.684707065112889, 7523906.390369215980172 ], [ 4988326.068589237518609, 7523870.809762025251985 ], [ 4988377.202763845212758, 7523770.665623283945024 ], [ 4988379.355021450668573, 7523715.841993579640985 ], [ 4988386.294252119027078, 7523512.115630657412112 ], [ 4988395.856611121445894, 7523435.704068079590797 ], [ 4987299.06000807415694, 7520630.079269439913332 ], [ 4978145.65556800365448, 7524458.446917556226254 ], [ 4977169.032381305471063, 7522170.244576928205788 ], [ 4976690.68512836098671, 7521049.386738903820515 ], [ 4976797.049863738939166, 7521006.636111084371805 ], [ 4976899.774102168157697, 7520960.524001283571124 ], [ 4977104.69104490801692, 7520871.397588338702917 ], [ 4977280.978801256045699, 7520812.479729329235852 ], [ 4977266.198085257783532, 7520472.850741174072027 ], [ 4977088.211022742092609, 7520068.83093545679003 ], [ 4976864.066283098421991, 7519542.198431996628642 ], [ 4976591.337409042753279, 7519659.324153296649456 ], [ 4976488.191290036775172, 7519703.55103413388133 ], [ 4976385.961580463685095, 7519747.324609097093344 ], [ 4976282.062319093383849, 7519791.803668301552534 ] ] ] } },
{ "type": "Feature", "properties": { "lv_id": "LOC_077855", "id": 442712.0, "CD_SETOR": "500400715000001", "SITUACAO": "Urbana", "CD_SIT": "1", "CD_TIPO": "0", "AREA_KM2": 0.44067133939590403, "CD_REGIAO": "5", "NM_REGIAO": "Centro-Oeste", "CD_UF": "50", "NM_UF": "Mato Grosso do Sul", "CD_MUN": "5004007", "NM_MUN": "Glória de Dourados", "CD_DIST": "500400715", "NM_DIST": "Guaçulândia", "CD_SUBDIST": "50040071500", "NM_SUBDIST": null, "CD_BAIRRO": null, "NM_BAIRRO": null, "CD_NU": null, "NM_NU": null, "CD_FCU": null, "NM_FCU": null, "CD_AGLOM": null, "NM_AGLOM": null, "CD_RGINT": "5002", "NM_RGINT": "Dourados", "CD_RGI": "500005", "NM_RGI": "Dourados", "CD_CONCURB": null, "NM_CONCURB": null, "mun_code_x": "5004007", "index_right": 40428, "dist_m": 0.0, "local_id": 806113, "ano": 2022, "cod_localidade_ibge": 5004007, "NR_ZONA": "39", "nr_cep": 79730000.0, "nm_localidade": "GLÓRIA DE DOURADOS", "nm_locvot": "EEPG WEIMAR GONÇALVES TORRES", "ds_endereco": "AV. SÃO JOSÉ, 13", "ds_bairro": "DISTRITO DE GUASSULÂNDIA", "pred_long": -54.1601639, "pred_lat": -22.4915099, "pred_dist": 0.0, "tse_long": -54.16018049, "tse_lat": -22.49149612, "long": -54.16018049, "lat": -22.49149612, "ID_UNICO": "LOC_077855", "SG_UF": "MS", "CD_MUNICIPIO": "90794", "NR_LOCAL_VOTACAO": "1058", "QT_SECOES_AGREGADAS": 1, "QT_ELEITORES_TRANSFERIDOS": 4, "CIRO GOMES (PDT) (NÃO ELEITO) 1T": 4.0, "CONSTITUINTE EYMAEL (DC) (NÃO ELEITO) 1T": 0.0, "FELIPE D AVILA (NOVO) (NÃO ELEITO) 1T": 0.0, "JAIR BOLSONARO (PL) (2º TURNO) 1T": 110.0, "LULA (PT) (2º TURNO) 1T": 197.0, "LÉO PÉRICLES (UP) (NÃO ELEITO) 1T": 0.0, "PADRE KELMON (PTB) (NÃO ELEITO) 1T": 0.0, "SIMONE TEBET (MDB) (NÃO ELEITO) 1T": 19.0, "SOFIA MANZANO (PCB) (NÃO ELEITO) 1T": 0.0, "SORAYA THRONICKE (UNIÃO) (NÃO ELEITO) 1T": 1.0, "VERA (PSTU) (NÃO ELEITO) 1T": 0.0, "Total_Votos_Validos 1T": 331.0, "Votos_Brancos 1T": 2.0, "Votos_Nulos 1T": 13.0, "Abstenções 1T": 105.0, "Eleitores_Aptos 1T": 451.0, "JAIR BOLSONARO (PL) (NÃO ELEITO) 2T": 125.0, "LULA (PT) (ELEITO) 2T": 208.0, "Total_Votos_Validos 2T": 333.0, "Votos_Brancos 2T": 3.0, "Votos_Nulos 2T": 13.0, "Abstenções 2T": 102.0, "Eleitores_Aptos 2T": 451.0, "mun_code_y": "5004007", "mun_code": "5004007" }, "geometry": { "type": "Polygon", "coordinates": [ [ [ 4997105.122086489573121, 7505937.580318434163928 ], [ 4997085.210219482891262, 7505924.332326497882605 ], [ 4997067.972128360532224, 7505914.783458106219769 ], [ 4997047.18519370816648, 7505905.654692247509956 ], [ 4997001.774063723161817, 7505890.15369681455195 ], [ 4996976.687814042903483, 7505879.540110792964697 ], [ 4996952.774740647524595, 7505866.390822658315301 ], [ 4996912.334257495589554, 7505840.160062005743384 ], [ 4996891.681587185710669, 7505829.303603415377438 ], [ 4996872.303610175848007, 7505822.544671922922134 ], [ 4996852.996797126717865, 7505819.971616277471185 ], [ 4996839.335937957279384, 7505823.313092512078583 ], [ 4996834.233005445450544, 7505827.874436398968101 ], [ 4996830.847625590860844, 7505833.665321443229914 ], [ 4996826.988054508343339, 7505844.395009984262288 ], [ 4996823.095936997793615, 7505863.26391270942986 ], [ 4996815.595800000242889, 7505919.782888179644942 ], [ 4996808.645687597803771, 7505952.692692749202251 ], [ 4996803.510338058695197, 7505964.496264826506376 ], [ 4996798.149492219090462, 7505972.401821019127965 ], [ 4996790.453805770725012, 7505979.4763552416116 ], [ 4996780.341092365793884, 7505985.210453363135457 ], [ 4996753.893161465413868, 7505992.956530218943954 ], [ 4996716.5113506000489, 7505997.965008893981576 ], [ 4996679.213019344955683, 7505997.359013399109244 ], [ 4996628.80060484725982, 7505991.8997458582744 ], [ 4996590.103549235500395, 7505990.363030640408397 ], [ 4996548.247319956310093, 7505994.439910393208265 ], [ 4996501.483110601082444, 7506004.440026974305511 ], [ 4996476.126227742992342, 7506008.420792521908879 ], [ 4996456.304248467087746, 7506008.792744144797325 ], [ 4996438.602131258696318, 7506005.433300970122218 ], [ 4996421.117394730448723, 7505996.238011138513684 ], [ 4996404.220857730135322, 7505979.11401931848377 ], [ 4996392.601023906841874, 7505963.021108386106789 ], [ 4996375.141641381196678, 7505933.870836554095149 ], [ 4996364.43777812179178, 7505915.99524221662432 ], [ 4996350.637550606392324, 7505898.982659416273236 ], [ 4996335.839018847793341, 7505884.328539291396737 ], [ 4996320.87542818672955, 7505871.789455542340875 ], [ 4996294.259117841720581, 7505852.470403745770454 ], [ 4996225.259257984347641, 7505808.081008405424654 ], [ 4996185.849354880861938, 7505779.58953595161438 ], [ 4996147.603445946238935, 7505745.096267785876989 ], [ 4996109.461375240236521, 7505707.424755954183638 ], [ 4996013.09661769028753, 7505602.509266704320908 ], [ 4996002.411700891330838, 7505593.392774030566216 ], [ 4995990.574364690110087, 7505585.759859181940556 ], [ 4995980.145238376222551, 7505581.947756186127663 ], [ 4995969.530325449071825, 7505580.582901832647622 ], [ 4995954.327231030911207, 7505581.409440747462213 ], [ 4995939.493577921763062, 7505585.480678558349609 ], [ 4995925.502659522928298, 7505592.265200555324554 ], [ 4995910.327866669744253, 7505602.648371916264296 ], [ 4995894.431935323402286, 7505617.106485014781356 ], [ 4995881.641999022103846, 7505633.027152381837368 ], [ 4995874.273843915201724, 7505645.217402929440141 ], [ 4995858.228722773492336, 7505678.622666870243847 ], [ 4995850.469747861847281, 7505690.458439348265529 ], [ 4995843.678944965824485, 7505697.554894099012017 ], [ 4995835.180930231697857, 7505703.532432081177831 ], [ 4995819.873083228245378, 7505710.836967816576362 ], [ 4995774.116725725121796, 7505722.961312836036086 ], [ 4995757.194075149483979, 7505729.611989352852106 ], [ 4995746.093470446765423, 7505736.042784096673131 ], [ 4995735.64012960717082, 7505745.208972592838109 ], [ 4995723.745095981284976, 7505760.155262926593423 ], [ 4995698.4496800750494, 7505802.505389422178268 ], [ 4995682.602839831262827, 7505823.851181683130562 ], [ 4995674.742454556748271, 7505829.784514354541898 ], [ 4995662.695411161519587, 7505836.192834466695786 ], [ 4995634.076479558832943, 7505844.944087082520127 ], [ 4995569.033440114930272, 7505854.725764747709036 ], [ 4995529.625847338698804, 7505857.427429165691137 ], [ 4995489.849551927298307, 7505854.614145398139954 ], [ 4995443.512712340801954, 7505844.722674259915948 ], [ 4995424.884477919898927, 7505843.919829454272985 ], [ 4995408.415840242058039, 7505844.878337278962135 ], [ 4995370.960932474583387, 7505853.249950075522065 ], [ 4995301.274153725244105, 7505877.469296222552657 ], [ 4995236.599057708866894, 7505893.749984838068485 ], [ 4995192.509400672279298, 7505901.654006961733103 ], [ 4995132.39336596429348, 7505910.261557671241462 ], [ 4995069.501472291536629, 7505914.12840842269361 ], [ 4994976.625761589035392, 7505915.250010903924704 ], [ 4994911.74028149805963, 7505913.00284187309444 ], [ 4994885.027355995960534, 7505910.923180876299739 ], [ 4994825.338779574260116, 7505901.922373581677675 ], [ 4994790.470418735407293, 7505895.144520597532392 ], [ 4994762.946690527722239, 7505887.870772586204112 ], [ 4994730.590261719189584, 7505875.224538892507553 ], [ 4994692.382914929650724, 7505856.972887869924307 ], [ 4994670.199819187633693, 7505844.130707750096917 ], [ 4994655.071732510812581, 7505835.366099203005433 ], [ 4994574.653233661316335, 7505777.986844390630722 ], [ 4994535.481990519911051, 7505752.470063147135079 ], [ 4994500.515085322782397, 7505734.927804765291512 ], [ 4994456.188100916333497, 7505716.58478130120784 ], [ 4994432.84240338485688, 7505705.569009443745017 ], [ 4994414.382739843800664, 7505694.388871597126126 ], [ 4994400.048382698558271, 7505681.781697673723102 ], [ 4994388.070787528529763, 7505665.875385193154216 ], [ 4994377.206143953837454, 7505644.443655241280794 ], [ 4994349.368545202538371, 7505569.364304939284921 ], [ 4994329.020274564623833, 7505519.978830522857606 ], [ 4994297.344960331916809, 7505448.917739966884255 ], [ 4994287.097383555956185, 7505428.493883373215795 ], [ 4994271.864831421524286, 7505398.123907132074237 ], [ 4994253.269431680440903, 7505366.135885443538427 ], [ 4994240.181978396140039, 7505348.556895021349192 ], [ 4994221.787443909794092, 7505329.813151463866234 ], [ 4994198.99024473503232, 7505311.942552892491221 ], [ 4994183.143376431427896, 7505302.014454178512096 ], [ 4994166.483276745304465, 7505293.835687888786197 ], [ 4994153.030947072431445, 7505289.478579136542976 ], [ 4994139.813862469978631, 7505288.631937298923731 ], [ 4994130.905584923923016, 7505290.389269130304456 ], [ 4994112.265004489570856, 7505296.893522865138948 ], [ 4994065.321221837773919, 7505320.473696088418365 ], [ 4994031.650783380493522, 7505332.198865711688995 ], [ 4994013.711090561002493, 7505334.761005618609488 ], [ 4993995.504952163435519, 7505334.776050616055727 ], [ 4993978.66779947374016, 7505332.35537841822952 ], [ 4993963.405332645401359, 7505327.565516971051693 ], [ 4993941.192748812958598, 7505314.733335793949664 ], [ 4993925.337973047047853, 7505299.201633706688881 ], [ 4993910.700762826949358, 7505274.091575150378048 ], [ 4993887.135402251034975, 7505223.231406269595027 ], [ 4993868.22291443310678, 7505189.338092715479434 ], [ 4993856.801707964390516, 7505173.387281829491258 ], [ 4993845.523333846591413, 7505160.415367371402681 ], [ 4993832.588627866469324, 7505148.273313567042351 ], [ 4993819.077041358686984, 7505138.356847394257784 ], [ 4993792.833047431893647, 7505124.946989077143371 ], [ 4993762.246716298162937, 7505115.909468728117645 ], [ 4993722.638642176054418, 7505109.647724647074938 ], [ 4993636.529749409295619, 7505100.409991338849068 ], [ 4993605.489675653167069, 7505094.516925612464547 ], [ 4993583.563191212713718, 7505087.763849970884621 ], [ 4993557.699450028128922, 7505075.815487046726048 ], [ 4993529.822191235609353, 7505058.04142097197473 ], [ 4993500.208681625314057, 7505035.593431430868804 ], [ 4993466.555729141458869, 7505006.64335392229259 ], [ 4993448.821108220145106, 7504987.256675127893686 ], [ 4993432.126741911284626, 7504964.70331668201834 ], [ 4993416.42098933737725, 7504939.492653854191303 ], [ 4993402.08415240328759, 7504912.256058680824935 ], [ 4993391.767502198927104, 7504888.631233868189156 ], [ 4993381.833131298422813, 7504861.1085922755301 ], [ 4993357.777606077492237, 7504783.781011871993542 ], [ 4993345.468939326703548, 7504752.702629722654819 ], [ 4993335.326344004832208, 7504731.37011232227087 ], [ 4993307.914156584069133, 7504686.907998705282807 ], [ 4993262.459148085676134, 7504624.088657640852034 ], [ 4993247.885166168212891, 7504599.465218354016542 ], [ 4993236.129037076607347, 7504575.762130128219724 ], [ 4993222.854160139337182, 7504544.218116503208876 ], [ 4993209.160754754208028, 7504505.619898364879191 ], [ 4993172.40368178114295, 7504360.171456588432193 ], [ 4993161.032747456803918, 7504326.723534110933542 ], [ 4993149.771459873765707, 7504301.215562957338989 ], [ 4993133.34689558390528, 7504275.982120396569371 ], [ 4993111.716681874357164, 7504253.824841546826065 ], [ 4993086.474388250149786, 7504236.184015632607043 ], [ 4993073.332691703923047, 7504229.95462086610496 ], [ 4993060.889354241080582, 7504226.039954027161002 ], [ 4993047.15956558752805, 7504223.907576279714704 ], [ 4993032.914591336622834, 7504223.823605183511972 ], [ 4993000.287417197600007, 7504229.30137556605041 ], [ 4992976.669564774259925, 7504235.879504652693868 ], [ 4992921.603928316384554, 7504255.144784175790846 ], [ 4992883.31791930925101, 7504264.617338541895151 ], [ 4992857.428768484853208, 7504267.229812304489315 ], [ 4992832.673077445477247, 7504265.3578832577914 ], [ 4992817.318829630501568, 7504261.917833962477744 ], [ 4992801.430670164525509, 7504256.528530638664961 ], [ 4992771.651916418224573, 7504241.077671762555838 ], [ 4992738.390699508599937, 7504216.821438886225224 ], [ 4992688.300236720591784, 7504176.810188841074705 ], [ 4992653.085073874332011, 7504152.630354972556233 ], [ 4992640.169340772554278, 7504147.56344529800117 ], [ 4992626.737923390232027, 7504145.486203122884035 ], [ 4992613.428451008163393, 7504146.487524184398353 ], [ 4992599.387317038141191, 7504150.423038165085018 ], [ 4992577.865938459523022, 7504160.412295082584023 ], [ 4992559.727607070468366, 7504171.942419055849314 ], [ 4992548.830900337547064, 7504181.648859208449721 ], [ 4992540.092912104912102, 7504193.737207003869116 ], [ 4992533.462045196443796, 7504208.561802522279322 ], [ 4992526.313904200680554, 7504229.55424936581403 ], [ 4992504.474323507398367, 7504322.220227205194533 ], [ 4992488.252110061235726, 7504369.065540807321668 ], [ 4992468.452136212959886, 7504412.575868623331189 ], [ 4992455.996258675120771, 7504434.207955596968532 ], [ 4992445.096338333562016, 7504449.938463855534792 ], [ 4992440.815117936581373, 7504455.041377947665751 ], [ 4992432.890737746842206, 7504464.483424872159958 ], [ 4992419.976341098546982, 7504477.167628563940525 ], [ 4992405.355003893375397, 7504488.931852449662983 ], [ 4992391.774125039577484, 7504497.352291280403733 ], [ 4992380.982275645248592, 7504502.341224815696478 ], [ 4992369.286195552907884, 7504505.535746701061726 ], [ 4992338.274501309730113, 7504507.989768017083406 ], [ 4992298.378395729698241, 7504506.087273464538157 ], [ 4992267.565422347746789, 7504501.963416763581336 ], [ 4992260.900940506719053, 7504501.063083356246352 ], [ 4992237.277921210974455, 7504496.056882504373789 ], [ 4992162.286926042288542, 7504476.31852163001895 ], [ 4992125.869446474127471, 7504470.386490939185023 ], [ 4992061.764263566583395, 7504463.520966223441064 ], [ 4992019.711665565147996, 7504455.293494544923306 ], [ 4992003.042007693089545, 7504449.692558208480477 ], [ 4991971.791609153151512, 7504436.66454622708261 ], [ 4991888.604786083102226, 7504395.63671994023025 ], [ 4991835.708604337647557, 7504373.959421589970589 ], [ 4991802.759400970302522, 7504364.728473711758852 ], [ 4991770.456585164181888, 7504358.532022228464484 ], [ 4991734.778736220672727, 7504355.091063180007041 ], [ 4991688.485386554151773, 7504353.670786497183144 ], [ 4991652.788494915701449, 7504347.472250455990434 ], [ 4991632.437697937712073, 7504340.50683225877583 ], [ 4991609.743527085520327, 7504330.516959796659648 ], [ 4991549.376596289686859, 7504297.893674311228096 ], [ 4991513.541635441593826, 7504281.307512428611517 ], [ 4991462.535098283551633, 7504266.396059330552816 ], [ 4991415.876512628979981, 7504256.49222495034337 ], [ 4991386.555515743792057, 7504252.577833195216954 ], [ 4991356.811144842766225, 7504251.675221245735884 ], [ 4991314.610620567575097, 7504252.094369884580374 ], [ 4991271.267313905991614, 7504254.483890002593398 ], [ 4991201.035300995223224, 7504262.284071980975568 ], [ 4991142.855406386777759, 7504273.745241791941226 ], [ 4991105.938388966023922, 7504279.415845196694136 ], [ 4991051.36184727307409, 7504284.610982705838978 ], [ 4991019.662524903193116, 7504284.924697371199727 ], [ 4990984.456998067907989, 7504283.420185588300228 ], [ 4990952.903698520734906, 7504280.289895602501929 ], [ 4990931.605123968794942, 7504276.611907973885536 ], [ 4990886.019036033190787, 7504262.454755848273635 ], [ 4990860.487020318396389, 7504251.996989469975233 ], [ 4990838.052791993133724, 7504238.351773031055927 ], [ 4990818.388554152101278, 7504219.30416326597333 ], [ 4990804.165933169424534, 7504199.085963217541575 ], [ 4990792.516900474205613, 7504175.104198858141899 ], [ 4990767.937560291960835, 7504102.943607011809945 ], [ 4990750.127562843263149, 7504062.402763457037508 ], [ 4990740.047996999695897, 7504045.619873931631446 ], [ 4990728.599629228003323, 7504030.342188833281398 ], [ 4990715.505131596699357, 7504015.960478190332651 ], [ 4990700.312144946306944, 7504002.17547114379704 ], [ 4990676.893231319263577, 7503984.952577507123351 ], [ 4990651.703288708813488, 7503971.106080978177488 ], [ 4990588.702493356540799, 7503945.575700558722019 ], [ 4990553.866792908869684, 7503929.386555161327124 ], [ 4990523.568257290869951, 7503910.918925818055868 ], [ 4990470.951621689833701, 7503875.47232973575592 ], [ 4990442.914053973741829, 7503860.10660857334733 ], [ 4990428.395932455547154, 7503853.287174541503191 ], [ 4990414.474178292788565, 7503846.744944145902991 ], [ 4990385.230774617753923, 7503835.542116524651647 ], [ 4990353.290867938660085, 7503827.349615685641766 ], [ 4990321.585413325577974, 7503822.545781848952174 ], [ 4990266.708353507332504, 7503817.206745352596045 ], [ 4990225.207951076328754, 7503818.276694770902395 ], [ 4990153.44441644847393, 7503826.890571473166347 ], [ 4990091.444557846523821, 7503830.327872110530734 ], [ 4990020.406198712065816, 7503830.691606353968382 ], [ 4989911.768203821964562, 7503827.807880565524101 ], [ 4989884.988458885811269, 7503824.390606052242219 ], [ 4989857.707031076774001, 7503817.540071865543723 ], [ 4989831.013899611309171, 7503807.622432727366686 ], [ 4989805.855041897855699, 7503795.014829102903605 ], [ 4989783.135568779893219, 7503779.673575295135379 ], [ 4989746.963146645575762, 7503749.440107381902635 ], [ 4989726.848688895814121, 7503729.892458938062191 ], [ 4989710.385200528427958, 7503710.657296951860189 ], [ 4989694.068557967431843, 7503687.225239843130112 ], [ 4989677.168767148628831, 7503659.274656392633915 ], [ 4989641.351506542414427, 7503591.15765128005296 ], [ 4989620.045780737884343, 7503554.289606710895896 ], [ 4989566.319524666294456, 7503476.636817342601717 ], [ 4989538.00884606782347, 7503441.856842741370201 ], [ 4989519.170025399886072, 7503422.797029510140419 ], [ 4989497.366066695190966, 7503408.419389689341187 ], [ 4989469.954751774668694, 7503397.337871911004186 ], [ 4989451.415282709524035, 7503391.854680548422039 ], [ 4989439.023744084872305, 7503389.719989599660039 ], [ 4989428.821542280726135, 7503389.469345178455114 ], [ 4989420.325462866574526, 7503390.858794737607241 ], [ 4989413.2579554785043, 7503393.688821019604802 ], [ 4989406.333093591034412, 7503398.456860682927072 ], [ 4989402.42208247166127, 7503402.573622306808829 ], [ 4989398.459623038768768, 7503406.723568866960704 ], [ 4989389.513524069450796, 7503419.352616177871823 ], [ 4989374.819305316545069, 7503445.354853833094239 ], [ 4989365.260347185656428, 7503466.676409460604191 ], [ 4989357.686542431823909, 7503487.667120192199945 ], [ 4989347.577309521846473, 7503546.041274114511907 ], [ 4989338.219228905625641, 7503603.784731952473521 ], [ 4989334.83568886294961, 7503618.366597999818623 ], [ 4989325.27080324664712, 7503647.982409102842212 ], [ 4989316.094201353378594, 7503666.413930177688599 ], [ 4989303.237485338933766, 7503682.140871668234468 ], [ 4989287.204546554014087, 7503695.252166526392102 ], [ 4989266.873189997859299, 7503707.385945273563266 ], [ 4989246.153504332527518, 7503715.909361504018307 ], [ 4989221.908408780582249, 7503721.119205310940742 ], [ 4989193.614213026128709, 7503721.841267093084753 ], [ 4989158.010998199693859, 7503717.563827743753791 ], [ 4989097.93430923204869, 7503706.956876501441002 ], [ 4989074.630354600958526, 7503704.780921084806323 ], [ 4989054.574763673357666, 7503704.932747139595449 ], [ 4989033.170274320058525, 7503707.298346938565373 ], [ 4989010.951737059280276, 7503711.811654716730118 ], [ 4988955.021128924563527, 7503728.193999515846372 ], [ 4988917.609098861925304, 7503736.405965933576226 ], [ 4988846.84534422121942, 7503741.570504197850823 ], [ 4988806.549675613641739, 7503740.854610099457204 ], [ 4988789.036744885146618, 7503737.79653596598655 ], [ 4988773.24263431597501, 7503733.045404533855617 ], [ 4988763.073621946386993, 7503729.306091035716236 ], [ 4988751.859937789849937, 7503733.627744065597653 ], [ 4988726.076240016147494, 7503746.952786373905838 ], [ 4988708.026746622286737, 7503760.272400362417102 ], [ 4988692.885901132598519, 7503776.240776957944036 ], [ 4988678.511919357813895, 7503798.278154984116554 ], [ 4988667.39578584395349, 7503823.617920625954866 ], [ 4988660.83539277035743, 7503849.58117562904954 ], [ 4988658.583604197017848, 7503876.599621964618564 ], [ 4988659.816325556486845, 7503920.386395711451769 ], [ 4988664.889052457176149, 7504000.99643213301897 ], [ 4988667.270683947019279, 7504062.856509328819811 ], [ 4988669.172722331248224, 7504245.066407498903573 ], [ 4988665.052198055200279, 7504379.233644261956215 ], [ 4988635.399448690935969, 7504727.084298891015351 ], [ 4988630.084645546972752, 7504862.258288484998047 ], [ 4988629.057694211602211, 7504957.370416269637644 ], [ 4988640.745863636024296, 7505272.517252842895687 ], [ 4988661.478377535007894, 7505403.258735284209251 ], [ 4988656.578214469365776, 7505408.714500729925931 ], [ 4988612.617433422245085, 7505475.966373633593321 ], [ 4988580.533714848570526, 7505547.246734257787466 ], [ 4988548.276132611557841, 7505658.204296344891191 ], [ 4988260.605405109934509, 7506934.606592429801822 ], [ 4988228.453460079617798, 7507021.765870701521635 ], [ 4988208.472255875356495, 7507053.410493725910783 ], [ 4988000.646549256518483, 7507139.71380687598139 ], [ 4985404.867258802987635, 7508222.534068487584591 ], [ 4984660.218574402853847, 7508533.049317017197609 ], [ 4983024.224380570463836, 7509215.093230019323528 ], [ 4982695.814114714972675, 7509351.975957085378468 ], [ 4973326.816366422921419, 7513253.111179599538445 ], [ 4973722.572756656445563, 7514210.454618450254202 ], [ 4974269.714304523542523, 7515467.994284210726619 ], [ 4974725.573676621541381, 7516534.650756796821952 ], [ 4975196.172718959860504, 7517622.842776104807854 ], [ 4975230.570465506985784, 7517703.282094713300467 ], [ 4984482.611226165667176, 7513737.48607362806797 ], [ 4986352.867367534898221, 7518128.659337013028562 ], [ 4987299.06000807415694, 7520630.079269439913332 ], [ 4988395.856611121445894, 7523435.704068079590797 ], [ 4988429.87338865082711, 7523322.192154452204704 ], [ 4988477.464793931692839, 7523246.827652309089899 ], [ 4988552.312883446924388, 7523159.246864817105234 ], [ 4988575.573007564991713, 7523121.026976941153407 ], [ 4988584.098498894833028, 7523080.603632757440209 ], [ 4988570.816824143752456, 7523007.463931569829583 ], [ 4988582.396428868174553, 7522930.909748921170831 ], [ 4988666.82254973333329, 7522838.762057168409228 ], [ 4988686.792158436961472, 7522793.04277048073709 ], [ 4988687.635836922563612, 7522751.738930895924568 ], [ 4988644.83509536832571, 7522588.69340855255723 ], [ 4988642.463796995580196, 7522550.49888083525002 ], [ 4988654.931479440070689, 7522497.709171660244465 ], [ 4988705.327685329131782, 7522426.144212741404772 ], [ 4988836.843857158906758, 7522285.616118054836988 ], [ 4988858.641681562177837, 7522230.429988926276565 ], [ 4988865.864267162978649, 7522109.98777334112674 ], [ 4988849.666627114638686, 7521881.539035922847688 ], [ 4988822.389543890021741, 7521653.835229327902198 ], [ 4988800.270075203850865, 7521570.999828208237886 ], [ 4988713.78256081789732, 7521365.743265761993825 ], [ 4988680.97763143107295, 7521097.959669686853886 ], [ 4988685.718424761667848, 7521021.499915601685643 ], [ 4988708.039807655848563, 7520952.671630738303065 ], [ 4988924.659950527362525, 7520571.696850426495075 ], [ 4989012.789607026614249, 7520404.969002300873399 ], [ 4989059.562316669151187, 7520291.420136591419578 ], [ 4989090.59272297564894, 7520176.808032009750605 ], [ 4989134.972548613324761, 7519803.702785232104361 ], [ 4989180.738669752143323, 7519638.760124836117029 ], [ 4989211.923352078534663, 7519432.690788151696324 ], [ 4989254.147863018326461, 7519309.526155050843954 ], [ 4989318.33480788487941, 7519196.287472009658813 ], [ 4989339.887295868247747, 7519070.118406580761075 ], [ 4989321.992208789102733, 7518939.082927754148841 ], [ 4989301.239244896918535, 7518862.051510008051991 ], [ 4989293.369463645853102, 7518779.226402960717678 ], [ 4989325.695477171801031, 7518674.946249174885452 ], [ 4989434.144987178966403, 7518564.450559057295322 ], [ 4989482.411353851668537, 7518527.707946930080652 ], [ 4989632.287854980677366, 7518366.222769469022751 ], [ 4989677.726480629295111, 7518292.104138106107712 ], [ 4989672.2538359798491, 7518054.892165694385767 ], [ 4989686.418387165293097, 7517994.096289429813623 ], [ 4989724.135265190154314, 7517919.429733762517571 ], [ 4989960.387728040106595, 7517591.31807866320014 ], [ 4990053.318196138367057, 7517471.162732745520771 ], [ 4990125.961811007000506, 7517409.152637124992907 ], [ 4990198.828062944114208, 7517336.035475789569318 ], [ 4990250.841699842363596, 7517273.601963235065341 ], [ 4990297.854471976868808, 7517223.766940226778388 ], [ 4990350.995066333562136, 7517185.164276368916035 ], [ 4990412.63904631882906, 7517145.049619222059846 ], [ 4990509.480434278026223, 7517049.488490035757422 ], [ 4990668.89441292360425, 7516871.521372568793595 ], [ 4990770.296038333326578, 7516804.608874010853469 ], [ 4990912.610604428686202, 7516760.48725257627666 ], [ 4991017.992174839600921, 7516749.896041500382125 ], [ 4991150.011799079366028, 7516777.955351991578937 ], [ 4991184.74944172706455, 7516765.594878287985921 ], [ 4991228.953345040790737, 7516687.373650058172643 ], [ 4991272.023236900568008, 7516666.070201653055847 ], [ 4991397.68169837910682, 7516674.744920294731855 ], [ 4991504.707758470438421, 7516648.260622941888869 ], [ 4991561.803985971957445, 7516576.302136429585516 ], [ 4991626.369781763292849, 7516395.814646476879716 ], [ 4991643.532917222939432, 7516312.073921772651374 ], [ 4991624.801915784366429, 7516212.05762404948473 ], [ 4991617.218211188912392, 7516169.718934306874871 ], [ 4991613.306367331184447, 7516132.608997829258442 ], [ 4991633.742386759258807, 7516049.069363194517791 ], [ 4991650.946866259910166, 7516040.385856123641133 ], [ 4991705.041487840004265, 7516013.096303559839725 ], [ 4991730.818319170735776, 7515988.371584005653858 ], [ 4991801.361722346395254, 7515882.013518190942705 ], [ 4991877.501909075304866, 7515817.826552465558052 ], [ 4991923.317749642767012, 7515755.162613993510604 ], [ 4991983.162145202979445, 7515692.993068205192685 ], [ 4992085.271806472912431, 7515604.135348228737712 ], [ 4992122.085881446488202, 7515509.773378221318126 ], [ 4992136.925273191183805, 7515414.137737344950438 ], [ 4992163.646212081424892, 7515351.086822635494173 ], [ 4992216.944910082034767, 7515262.70166757889092 ], [ 4992304.299431054852903, 7515156.748360458761454 ], [ 4992432.201228116638958, 7514953.488038172014058 ], [ 4992460.461326573975384, 7514895.952024718746543 ], [ 4992500.14366552978754, 7514736.643428621813655 ], [ 4992558.242202300578356, 7514696.274810077622533 ], [ 4992605.915694669820368, 7514696.286651870235801 ], [ 4992719.41372948884964, 7514771.087875032797456 ], [ 4992774.239381714724004, 7514773.638438404537737 ], [ 4992795.550206987187266, 7514761.101936206221581 ], [ 4992806.806079415604472, 7514747.276175688952208 ], [ 4992827.53976000379771, 7514669.847663810476661 ], [ 4992852.848553993739188, 7514646.970132539048791 ], [ 4992976.485058355145156, 7514609.143876943737268 ], [ 4992988.185866791754961, 7514589.493435087613761 ], [ 4992981.748760299757123, 7514508.918486939743161 ], [ 4992987.197270394302905, 7514477.471739698201418 ], [ 4993014.853051195852458, 7514452.491008523851633 ], [ 4993101.83466889243573, 7514421.501712184399366 ], [ 4993105.961476025171578, 7514399.123666817322373 ], [ 4993082.784707753919065, 7514374.308269836008549 ], [ 4992999.85292044095695, 7514326.565488941967487 ], [ 4993005.367464660666883, 7514285.45144260302186 ], [ 4993027.060457350686193, 7514267.987005215138197 ], [ 4993140.646277876570821, 7514258.558855480514467 ], [ 4993180.85261713899672, 7514244.701365110464394 ], [ 4993193.430197461508214, 7514219.392501602880657 ], [ 4993202.09335760306567, 7514201.955285085365176 ], [ 4993272.905753857456148, 7514168.510606538504362 ], [ 4993331.983360513113439, 7514163.032636118121445 ], [ 4993344.313582647591829, 7514113.959436254575849 ], [ 4993361.663143458776176, 7514095.717495372518897 ], [ 4993478.746129396371543, 7514111.990361712872982 ], [ 4993505.111273143440485, 7514093.453078864142299 ], [ 4993499.342446419410408, 7514033.032679723575711 ], [ 4993481.916985778138041, 7513987.8779526213184 ], [ 4993489.36958497017622, 7513935.8237484684214 ], [ 4993579.855006329715252, 7513859.685848671942949 ], [ 4993652.044160274788737, 7513826.073891825973988 ], [ 4993770.098349926993251, 7513726.713614285923541 ], [ 4993789.591551076620817, 7513698.693994292058051 ], [ 4993785.768048457801342, 7513584.223830366507173 ], [ 4993821.40060184430331, 7513549.776851756498218 ], [ 4993849.146033807657659, 7513550.50773009378463 ], [ 4993886.498669591732323, 7513563.866364831104875 ], [ 4993961.711217718198895, 7513609.718878730200231 ], [ 4994006.411885323934257, 7513623.932769579812884 ], [ 4994085.920280917547643, 7513633.464675441384315 ], [ 4994095.643713670782745, 7513584.998906517401338 ], [ 4994072.615798084996641, 7513546.819100299850106 ], [ 4994018.244171415455639, 7513498.793705526739359 ], [ 4994031.442956076003611, 7513458.756388310343027 ], [ 4994042.47947942931205, 7513447.974889642558992 ], [ 4994111.731685330159962, 7513416.928733412176371 ], [ 4994113.798935969360173, 7513393.397948870435357 ], [ 4994089.465667136013508, 7513351.563345551490784 ], [ 4994123.535701406188309, 7513309.319191631861031 ], [ 4994166.83479034435004, 7513272.393822344020009 ], [ 4994165.504162305034697, 7513253.269067822024226 ], [ 4994146.109837207943201, 7513213.861551616340876 ], [ 4994158.240982077084482, 7513165.330193295143545 ], [ 4994177.887210089713335, 7513137.121874062344432 ], [ 4994248.938852129504085, 7513078.070424293167889 ], [ 4994280.568604505620897, 7513008.760914010927081 ], [ 4994281.062876675277948, 7512980.20205987803638 ], [ 4994260.932725046761334, 7512927.151620265096426 ], [ 4994262.792772610671818, 7512906.555253707803786 ], [ 4994266.625386868603528, 7512867.156497837975621 ], [ 4994354.869911123998463, 7512784.65685653872788 ], [ 4994376.256762265227735, 7512750.136908968910575 ], [ 4994396.699009643867612, 7512681.099895817227662 ], [ 4994399.801706494763494, 7512610.262624323368073 ], [ 4994374.674016958102584, 7512518.862299639731646 ], [ 4994381.935189708136022, 7512473.628913527354598 ], [ 4994404.748545644804835, 7512448.511000851169229 ], [ 4994449.162912509404123, 7512449.390804287046194 ], [ 4994486.607212209142745, 7512488.173238560557365 ], [ 4994518.017826723866165, 7512507.829169470816851 ], [ 4994560.888759224675596, 7512508.708101660013199 ], [ 4994585.858028062619269, 7512497.543535175733268 ], [ 4994609.68757266830653, 7512449.558502423577011 ], [ 4994624.154133472591639, 7512367.252792535349727 ], [ 4994650.592441352084279, 7512332.911390983499587 ], [ 4994700.507332295179367, 7512287.426821160130203 ], [ 4994796.67227428779006, 7512258.989111365750432 ], [ 4994856.954253383912146, 7512228.833522635512054 ], [ 4994895.318402430973947, 7512163.821535470895469 ], [ 4994889.853429671376944, 7512041.798663121648133 ], [ 4994907.914859196171165, 7511943.149066401645541 ], [ 4994992.182205583900213, 7511849.592846008948982 ], [ 4995004.366465630941093, 7511720.942550601437688 ], [ 4995055.089035487733781, 7511650.319767251610756 ], [ 4995065.320121109485626, 7511545.621189759112895 ], [ 4995160.282303444109857, 7511398.260306552052498 ], [ 4995183.055866629816592, 7511293.798105389811099 ], [ 4995182.87193692009896, 7511223.845443971455097 ], [ 4995156.005311136133969, 7511059.337089068256319 ], [ 4995161.771748295985162, 7511013.31656514108181 ], [ 4995175.303321179002523, 7510978.682244347408414 ], [ 4995207.64231638982892, 7510950.764440634287894 ], [ 4995231.980331001803279, 7510941.514370180666447 ], [ 4995272.274871962144971, 7510941.249945135787129 ], [ 4995383.434195048175752, 7510976.553421191871166 ], [ 4995456.556714903563261, 7510963.818245010450482 ], [ 4995486.234372338280082, 7510921.447880383580923 ], [ 4995515.814251103438437, 7510790.233042998239398 ], [ 4995533.784850060939789, 7510702.135808039456606 ], [ 4995558.774798290804029, 7510642.34498156607151 ], [ 4995575.591123010963202, 7510595.087209939956665 ], [ 4995593.897947702556849, 7510552.602615099400282 ], [ 4995606.044060424901545, 7510500.493182003498077 ], [ 4995611.945836044847965, 7510443.498450085520744 ], [ 4995620.640840495936573, 7510405.584520407021046 ], [ 4995642.220643143169582, 7510358.416607769206166 ], [ 4995648.028282749466598, 7510306.183525278232992 ], [ 4995648.915418779477477, 7510261.767093398608267 ], [ 4995635.374900445342064, 7510225.009590730071068 ], [ 4995612.442276801913977, 7510181.704833704046905 ], [ 4995580.14897518325597, 7510130.280319993384182 ], [ 4995570.649604533798993, 7510103.124829210340977 ], [ 4995569.639201998710632, 7510074.5432661306113 ], [ 4995573.813112253323197, 7510050.824556441046298 ], [ 4995585.677004675380886, 7510012.989056572318077 ], [ 4995618.389505362138152, 7509964.451203065924346 ], [ 4995663.975958404131234, 7509906.670349843800068 ], [ 4995682.020942349918187, 7509876.87603235989809 ], [ 4995698.679509326815605, 7509837.546829899773002 ], [ 4995709.375747781246901, 7509779.058405219577253 ], [ 4995718.477137994021177, 7509720.536304876208305 ], [ 4995714.422765795141459, 7509685.553279658779502 ], [ 4995703.801076464354992, 7509661.531409338116646 ], [ 4995674.520939266309142, 7509618.103132780641317 ], [ 4995662.252262221649289, 7509597.236781034618616 ], [ 4995662.659333789721131, 7509576.617616899311543 ], [ 4995692.285126187838614, 7509524.202910559251904 ], [ 4995703.894483140669763, 7509511.139155996032059 ], [ 4995711.450466622598469, 7509496.612531996332109 ], [ 4995714.293131300248206, 7509485.927176337689161 ], [ 4995714.830758598633111, 7509476.536804830655456 ], [ 4995713.405359226278961, 7509459.538235654123127 ], [ 4995705.147448144853115, 7509408.596783781424165 ], [ 4995703.58223360683769, 7509376.515754474326968 ], [ 4995708.035096723586321, 7509347.226982560008764 ], [ 4995723.582679010927677, 7509304.940735370852053 ], [ 4995728.261276381090283, 7509277.656363258138299 ], [ 4995727.983053845353425, 7509242.131758598610759 ], [ 4995722.337018836289644, 7509196.51749275252223 ], [ 4995719.734618930146098, 7509157.360054664313793 ], [ 4995722.058540037833154, 7509124.947887117043138 ], [ 4995728.939281709492207, 7509095.991987591609359 ], [ 4995736.485774599015713, 7509077.766715610399842 ], [ 4995746.151065522804856, 7509061.723550641909242 ], [ 4995758.686506520025432, 7509046.77746999822557 ], [ 4995774.318470641039312, 7509032.806717814877629 ], [ 4995781.778954546898603, 7509027.781289089471102 ], [ 4995792.542626433074474, 7509020.519865809008479 ], [ 4995812.010897065512836, 7509011.001764021813869 ], [ 4995830.634474913589656, 7509005.248478195630014 ], [ 4995848.372253820300102, 7509003.138189280405641 ], [ 4995860.66674898006022, 7509003.68411320541054 ], [ 4995873.156270440667868, 7509005.924360814504325 ], [ 4995899.296625144779682, 7509015.244356479495764 ], [ 4995937.317458812147379, 7509034.699913511052728 ], [ 4996016.969233485870063, 7509079.126397297717631 ], [ 4996049.734016017057002, 7509094.494106723926961 ], [ 4996070.432595695368946, 7509101.586592870764434 ], [ 4996096.595022303052247, 7509106.12240544706583 ], [ 4996121.719695437699556, 7509105.231783479452133 ], [ 4996142.503996494226158, 7509098.891757376492023 ], [ 4996145.86887956596911, 7509096.677853807806969 ], [ 4996160.98512301966548, 7509086.704198455438018 ], [ 4996172.912670181132853, 7509073.739828056655824 ], [ 4996180.80736190173775, 7509059.833180977031589 ], [ 4996185.286700097844005, 7509044.231402577832341 ], [ 4996186.093664308078587, 7509026.203565696254373 ], [ 4996183.599275594577193, 7509003.224951587617397 ], [ 4996178.625500278547406, 7508979.813845548778772 ], [ 4996171.265047353692353, 7508955.560540046542883 ], [ 4996158.917153256945312, 7508921.738280314952135 ], [ 4996151.382666173391044, 7508894.251389720477164 ], [ 4996149.815315914340317, 7508867.208937702700496 ], [ 4996151.650071293115616, 7508853.466891508549452 ], [ 4996154.904145921580493, 7508841.574513284489512 ], [ 4996163.776815102435648, 7508824.888608207926154 ], [ 4996178.389408183284104, 7508811.880604148842394 ], [ 4996192.404161393642426, 7508803.301932429894805 ], [ 4996233.726599765941501, 7508783.899840630590916 ], [ 4996248.204613445326686, 7508773.903793084435165 ], [ 4996258.01194538641721, 7508763.087140558287501 ], [ 4996262.643722115084529, 7508754.572562920860946 ], [ 4996267.503260774537921, 7508740.177885115146637 ], [ 4996273.593321753665805, 7508700.037065945565701 ], [ 4996278.618386576883495, 7508681.744468461722136 ], [ 4996283.528913845308125, 7508669.066226070746779 ], [ 4996291.814598736353219, 7508653.708951085805893 ], [ 4996303.197393896989524, 7508636.724576218985021 ], [ 4996332.784451679326594, 7508600.620195887051523 ], [ 4996343.055479552596807, 7508586.016379402950406 ], [ 4996354.531923249363899, 7508564.126321630552411 ], [ 4996361.379019103012979, 7508540.850943684577942 ], [ 4996363.504143876023591, 7508516.400630749762058 ], [ 4996362.179939795285463, 7508503.886992715299129 ], [ 4996359.363680955022573, 7508492.591112812049687 ], [ 4996348.659452710300684, 7508468.802184646949172 ], [ 4996333.418516283854842, 7508443.838351708836854 ], [ 4996309.48687235545367, 7508407.975860787555575 ], [ 4996305.212797249667346, 7508384.088776970282197 ], [ 4996305.785489829257131, 7508355.540810634382069 ], [ 4996309.662118257023394, 7508320.714824672788382 ], [ 4996321.585364861413836, 7508279.700540257617831 ], [ 4996335.103163397870958, 7508238.719845904037356 ], [ 4996382.130509318783879, 7508145.290731492452323 ], [ 4996406.28878182079643, 7508090.758204277604818 ], [ 4996439.824210258200765, 7508013.836696363985538 ], [ 4996467.246918719261885, 7507943.436143299564719 ], [ 4996480.848274513147771, 7507893.983909677714109 ], [ 4996490.684531475417316, 7507843.390207136049867 ], [ 4996497.867714736610651, 7507787.569082871079445 ], [ 4996498.467741974629462, 7507772.863282211124897 ], [ 4996497.87329313158989, 7507717.870912598446012 ], [ 4996492.755900488235056, 7507692.411198202520609 ], [ 4996488.255060044117272, 7507670.085493152961135 ], [ 4996471.956465343944728, 7507639.075265397317708 ], [ 4996436.097382263280451, 7507581.239876872859895 ], [ 4996418.84348828997463, 7507544.936115167103708 ], [ 4996410.087528524920344, 7507506.674264007247984 ], [ 4996403.290336067788303, 7507450.78345107100904 ], [ 4996399.909424026496708, 7507435.268333327956498 ], [ 4996396.403750236146152, 7507425.389725346118212 ], [ 4996384.680650429800153, 7507406.340120113454759 ], [ 4996370.529298721812665, 7507389.294282011687756 ], [ 4996349.319673283025622, 7507377.340683401562274 ], [ 4996321.127716321498156, 7507354.023716034367681 ], [ 4996308.662578114308417, 7507341.230544412508607 ], [ 4996301.227414746768773, 7507330.631176069378853 ], [ 4996296.734454929828644, 7507319.899627582170069 ], [ 4996294.588538192212582, 7507302.779087143950164 ], [ 4996296.095982843078673, 7507279.923221500590444 ], [ 4996302.865204370580614, 7507236.249961825087667 ], [ 4996316.194693440571427, 7507204.781548112630844 ], [ 4996318.570233119651675, 7507165.160219657234848 ], [ 4996314.6191944219172, 7507125.415563115850091 ], [ 4996298.130436670966446, 7507076.277345338836312 ], [ 4996294.155471140518785, 7507050.762451831251383 ], [ 4996294.22215932328254, 7507030.154205491766334 ], [ 4996298.104691824875772, 7507012.282095784321427 ], [ 4996309.117561387829483, 7506988.52045838534832 ], [ 4996324.923543532378972, 7506967.329070558771491 ], [ 4996343.999838072806597, 7506950.00318552646786 ], [ 4996372.221473473124206, 7506931.727093359455466 ], [ 4996409.660418337211013, 7506912.511834258213639 ], [ 4996459.392630286514759, 7506891.538591233082116 ], [ 4996501.983401295728981, 7506879.987333402968943 ], [ 4996590.095815171487629, 7506860.140799095854163 ], [ 4996629.600632785819471, 7506847.126766912639141 ], [ 4996663.540517164394259, 7506832.383920313790441 ], [ 4996694.775565913878381, 7506814.406879739835858 ], [ 4996725.970667066983879, 7506790.449936598539352 ], [ 4996754.481508183293045, 7506763.081645235419273 ], [ 4996769.915593912824988, 7506745.333657007664442 ], [ 4996807.56609171256423, 7506693.527392786927521 ], [ 4996848.354684279300272, 7506637.491500247269869 ], [ 4996901.751431670971215, 7506546.010927935130894 ], [ 4996928.822126667015254, 7506514.821568356826901 ], [ 4996962.527878985740244, 7506482.448579643853009 ], [ 4996998.856330909766257, 7506451.438101164996624 ], [ 4997024.526911937631667, 7506424.190556993708014 ], [ 4997033.091518052853644, 7506392.631983484141529 ], [ 4997035.342923967167735, 7506346.39944938197732 ], [ 4997038.89016732852906, 7506301.518161613494158 ], [ 4997051.529159900732338, 7506264.744613954797387 ], [ 4997074.84649052657187, 7506222.912378522567451 ], [ 4997083.327837568707764, 7506195.318162940442562 ], [ 4997091.053209949284792, 7506139.939716158434749 ], [ 4997091.117652330547571, 7506071.182702161371708 ], [ 4997093.067782795056701, 7506039.489944929257035 ], [ 4997098.903621003031731, 7506021.274697285145521 ], [ 4997104.481572158634663, 7506006.846627609804273 ], [ 4997122.969834838062525, 7505987.592813813127577 ], [ 4997141.468335540965199, 7505968.350053095258772 ], [ 4997136.212652894668281, 7505964.838689870201051 ], [ 4997105.122086489573121, 7505937.580318434163928 ] ] ] } },
{ "type": "Feature", "properties": { "lv_id": "LOC_077856", "id": 442695.0, "CD_SETOR": "500400705000009", "SITUACAO": "Urbana", "CD_SIT": "1", "CD_TIPO": "0", "AREA_KM2": 0.50066143312979206, "CD_REGIAO": "5", "NM_REGIAO": "Centro-Oeste", "CD_UF": "50", "NM_UF": "Mato Grosso do Sul", "CD_MUN": "5004007", "NM_MUN": "Glória de Dourados", "CD_DIST": "500400705", "NM_DIST": "Glória de Dourados", "CD_SUBDIST": "50040070500", "NM_SUBDIST": null, "CD_BAIRRO": null, "NM_BAIRRO": null, "CD_NU": null, "NM_NU": null, "CD_FCU": null, "NM_FCU": null, "CD_AGLOM": null, "NM_AGLOM": null, "CD_RGINT": "5002", "NM_RGINT": "Dourados", "CD_RGI": "500005", "NM_RGI": "Dourados", "CD_CONCURB": null, "NM_CONCURB": null, "mun_code_x": "5004007", "index_right": 40426, "dist_m": 180.75529109585557, "local_id": 806111, "ano": 2022, "cod_localidade_ibge": 5004007, "NR_ZONA": "39", "nr_cep": 79730000.0, "nm_localidade": "GLÓRIA DE DOURADOS", "nm_locvot": "ESCOLA MUNICIPAL MARINHA DO BRASIL", "ds_endereco": "RUA JOAQUIM PINTO NETO, 98", "ds_bairro": "VILA INDUSTRIAL", "pred_long": -54.23829, "pred_lat": -22.42333, "pred_dist": 0.0, "tse_long": -54.23828928, "tse_lat": -22.42333325, "long": -54.23828928, "lat": -22.42333325, "ID_UNICO": "LOC_077856", "SG_UF": "MS", "CD_MUNICIPIO": "90794", "NR_LOCAL_VOTACAO": "1090", "QT_SECOES_AGREGADAS": 0, "QT_ELEITORES_TRANSFERIDOS": 0, "CIRO GOMES (PDT) (NÃO ELEITO) 1T": 4.0, "CONSTITUINTE EYMAEL (DC) (NÃO ELEITO) 1T": 0.0, "FELIPE D AVILA (NOVO) (NÃO ELEITO) 1T": 1.0, "JAIR BOLSONARO (PL) (2º TURNO) 1T": 44.0, "LULA (PT) (2º TURNO) 1T": 145.0, "LÉO PÉRICLES (UP) (NÃO ELEITO) 1T": 0.0, "PADRE KELMON (PTB) (NÃO ELEITO) 1T": 0.0, "SIMONE TEBET (MDB) (NÃO ELEITO) 1T": 7.0, "SOFIA MANZANO (PCB) (NÃO ELEITO) 1T": 0.0, "SORAYA THRONICKE (UNIÃO) (NÃO ELEITO) 1T": 2.0, "VERA (PSTU) (NÃO ELEITO) 1T": 0.0, "Total_Votos_Validos 1T": 203.0, "Votos_Brancos 1T": 3.0, "Votos_Nulos 1T": 3.0, "Abstenções 1T": 45.0, "Eleitores_Aptos 1T": 254.0, "JAIR BOLSONARO (PL) (NÃO ELEITO) 2T": 56.0, "LULA (PT) (ELEITO) 2T": 135.0, "Total_Votos_Validos 2T": 191.0, "Votos_Brancos 2T": 3.0, "Votos_Nulos 2T": 14.0, "Abstenções 2T": 46.0, "Eleitores_Aptos 2T": 254.0, "mun_code_y": "5004007", "mun_code": "5004007" }, "geometry": { "type": "Polygon", "coordinates": [ [ [ 4975393.586190551519394, 7520176.810070334002376 ], [ 4975758.355038511566818, 7520015.045707445591688 ], [ 4975964.048749903216958, 7519925.835923513397574 ], [ 4976067.668620813637972, 7519883.440408727154136 ], [ 4976173.961230268701911, 7519836.6742146871984 ], [ 4975995.84653530176729, 7519412.054986618459225 ], [ 4975945.743649439886212, 7519296.522795338183641 ], [ 4975901.770063523203135, 7519192.350511617958546 ], [ 4975858.802266929298639, 7519090.571573621593416 ], [ 4975772.355789761058986, 7518898.783830932341516 ], [ 4975742.351047837175429, 7518836.369693126529455 ], [ 4975739.652612519450486, 7518830.540691452100873 ], [ 4975688.177183721214533, 7518719.567762036807835 ], [ 4975630.937243095599115, 7518595.629317103885114 ], [ 4975230.570465506985784, 7517703.282094713300467 ], [ 4975196.172718959860504, 7517622.842776104807854 ], [ 4974725.573676621541381, 7516534.650756796821952 ], [ 4974269.714304523542523, 7515467.994284210726619 ], [ 4973722.572756656445563, 7514210.454618450254202 ], [ 4973326.816366422921419, 7513253.111179599538445 ], [ 4973314.530044664628804, 7513258.21709109377116 ], [ 4973253.5247872620821, 7513192.122683461755514 ], [ 4973213.947480030357838, 7513160.90341260842979 ], [ 4973164.416163986548781, 7513137.086161504499614 ], [ 4973099.91635216306895, 7513128.092605686746538 ], [ 4973041.571735175326467, 7513130.305147647857666 ], [ 4972929.616562471725047, 7513163.950555330142379 ], [ 4972345.915091523900628, 7513407.468718426302075 ], [ 4972162.643144032917917, 7513489.018699739128351 ], [ 4971813.119144152849913, 7513644.568810484372079 ], [ 4971073.556526397354901, 7513953.232973948121071 ], [ 4970466.582995398901403, 7514193.7577173281461 ], [ 4970416.143865164369345, 7514230.54793416429311 ], [ 4970368.385307650081813, 7514259.425364844501019 ], [ 4970249.093294045887887, 7514311.774241821840405 ], [ 4969809.112988806329668, 7514484.291182504966855 ], [ 4969038.049996497109532, 7514796.838836132548749 ], [ 4968639.141371018253267, 7514958.519477896392345 ], [ 4968616.623587816022336, 7514967.642825711518526 ], [ 4968133.972368804737926, 7515196.059084379114211 ], [ 4966273.78493326716125, 7516090.648453030735254 ], [ 4964864.284602071158588, 7516770.717084786854684 ], [ 4964595.086895940825343, 7516900.275330137461424 ], [ 4964588.759574649855494, 7516903.317205014638603 ], [ 4964154.548403767868876, 7517112.286763876676559 ], [ 4966492.320991735905409, 7522704.297660630196333 ], [ 4966694.967925299890339, 7523192.444192728027701 ], [ 4966844.206699131056666, 7523543.015275302343071 ], [ 4966959.714656494557858, 7523826.073839876800776 ], [ 4967092.327730453573167, 7523767.178074888885021 ], [ 4971296.631814592517912, 7522006.215560212731361 ], [ 4973294.01858975738287, 7521179.174400093965232 ], [ 4974863.196342347189784, 7520517.481061201542616 ], [ 4975263.807713953778148, 7520349.983850795775652 ], [ 4975436.904377342201769, 7520278.41355486959219 ], [ 4975393.586190551519394, 7520176.810070334002376 ] ] ] } }
]
}
