{
"type": "FeatureCollection",
"name": "5107206",
"crs": { "type": "name", "properties": { "name": "urn:ogc:def:crs:EPSG::5880" } },
"features": [
{ "type": "Feature", "properties": { "lv_id": "LOC_076685", "id": 451676.0, "CD_SETOR": "510720605000004", "SITUACAO": "Urbana", "CD_SIT": "1", "CD_TIPO": "0", "AREA_KM2": 0.20122119586185699, "CD_REGIAO": "5", "NM_REGIAO": "Centro-Oeste", "CD_UF": "51", "NM_UF": "Mato Grosso", "CD_MUN": "5107206", "NM_MUN": "Rio Branco", "CD_DIST": "510720605", "NM_DIST": "Rio Branco", "CD_SUBDIST": "51072060500", "NM_SUBDIST": null, "CD_BAIRRO": null, "NM_BAIRRO": null, "CD_NU": null, "NM_NU": null, "CD_FCU": null, "NM_FCU": null, "CD_AGLOM": "510720600002", "NM_AGLOM": "Roncador", "CD_RGINT": "5102", "NM_RGINT": "Cáceres", "CD_RGI": "510004", "NM_RGI": "Cáceres", "CD_CONCURB": null, "NM_CONCURB": null, "mun_code_x": "5107206", "index_right": 41016, "dist_m": 402.25677150768428, "local_id": 795432, "ano": 2022, "cod_localidade_ibge": 5107206, "NR_ZONA": "52", "nr_cep": 78275000.0, "nm_localidade": "RIO BRANCO", "nm_locvot": "ESC.ESTADUAL DEPUTADO FRANCISCO E. RANGEL TORRES", "ds_endereco": "AV. 7 DE SETEMBRO 166", "ds_bairro": "CENTRO", "pred_long": -58.11657, "pred_lat": -15.24859, "pred_dist": 0.0, "tse_long": -58.11548658, "tse_lat": -15.2461, "long": -58.11548658, "lat": -15.2461, "ID_UNICO": "LOC_076685", "SG_UF": "MT", "CD_MUNICIPIO": "89958", "NR_LOCAL_VOTACAO": "1015", "QT_SECOES_AGREGADAS": 7, "QT_ELEITORES_TRANSFERIDOS": 3, "CIRO GOMES (PDT) (NÃO ELEITO) 1T": 24.0, "CONSTITUINTE EYMAEL (DC) (NÃO ELEITO) 1T": 0.0, "FELIPE D AVILA (NOVO) (NÃO ELEITO) 1T": 1.0, "JAIR BOLSONARO (PL) (2º TURNO) 1T": 1077.0, "LULA (PT) (2º TURNO) 1T": 770.0, "LÉO PÉRICLES (UP) (NÃO ELEITO) 1T": 0.0, "PADRE KELMON (PTB) (NÃO ELEITO) 1T": 5.0, "SIMONE TEBET (MDB) (NÃO ELEITO) 1T": 86.0, "SOFIA MANZANO (PCB) (NÃO ELEITO) 1T": 0.0, "SORAYA THRONICKE (UNIÃO) (NÃO ELEITO) 1T": 17.0, "VERA (PSTU) (NÃO ELEITO) 1T": 0.0, "Total_Votos_Validos 1T": 1980.0, "Votos_Brancos 1T": 22.0, "Votos_Nulos 1T": 41.0, "Abstenções 1T": 615.0, "Eleitores_Aptos 1T": 2658.0, "JAIR BOLSONARO (PL) (NÃO ELEITO) 2T": 1179.0, "LULA (PT) (ELEITO) 2T": 801.0, "Total_Votos_Validos 2T": 1980.0, "Votos_Brancos 2T": 27.0, "Votos_Nulos 2T": 46.0, "Abstenções 2T": 605.0, "Eleitores_Aptos 2T": 2658.0, "mun_code_y": "5107206", "mun_code": "5107206" }, "geometry": { "type": "Polygon", "coordinates": [ [ [ 4560221.056085621006787, 8308310.57504460029304 ], [ 4560370.568845119327307, 8308303.701913463883102 ], [ 4560412.246227938681841, 8308280.734249988570809 ], [ 4560446.981042830273509, 8308238.422059427946806 ], [ 4560540.133885742165148, 8308128.982877403497696 ], [ 4560583.950135365128517, 8308050.454630273394287 ], [ 4560584.63365560490638, 8307987.744838936254382 ], [ 4560554.677751180715859, 8307932.379865790717304 ], [ 4560512.895124569535255, 8307911.226720811799169 ], [ 4560415.622701696120203, 8307913.435844715684652 ], [ 4560312.943556660786271, 8307868.905662287957966 ], [ 4560230.925209711305797, 8307783.784065019339323 ], [ 4560163.82629849947989, 8307631.460657198913395 ], [ 4560139.433736382983625, 8307530.005848934873939 ], [ 4560173.271624885499477, 8307501.100520985201001 ], [ 4560452.628858426585793, 8307519.801470775157213 ], [ 4560602.134022070094943, 8307581.119870152324438 ], [ 4560824.317973042838275, 8307580.203963994979858 ], [ 4560982.738826770335436, 8307710.366654421202838 ], [ 4561023.895979641936719, 8307830.693692049011588 ], [ 4561185.686897894367576, 8307917.675348941236734 ], [ 4561435.805131970904768, 8307924.909420510753989 ], [ 4561582.854904790408909, 8307981.082260695286095 ], [ 4561751.005215721204877, 8308274.215155953541398 ], [ 4561777.947624731808901, 8308335.777872147038579 ], [ 4561963.418709115125239, 8308522.392629838548601 ], [ 4562224.114851426333189, 8308646.837677271105349 ], [ 4562363.714474101550877, 8308692.691897185519338 ], [ 4562489.641305825673044, 8308786.622646434232593 ], [ 4562556.186286362819374, 8308915.05125695373863 ], [ 4562802.066336046904325, 8308534.270305341109633 ], [ 4563035.87815825175494, 8308183.80279129743576 ], [ 4563095.472539998590946, 8308137.859253927133977 ], [ 4563165.222334587015212, 8308094.64571744389832 ], [ 4563277.212850730866194, 8308045.864787572994828 ], [ 4563763.634870660491288, 8307842.558113976381719 ], [ 4564410.975056496448815, 8307567.210126470774412 ], [ 4564684.984849091619253, 8307456.582464753650129 ], [ 4564746.599316323176026, 8307438.650201094336808 ], [ 4564791.541240410879254, 8307429.880699696950614 ], [ 4564821.634872068651021, 8307422.886817198246717 ], [ 4564855.491939539089799, 8307416.295768151059747 ], [ 4564860.252602830529213, 8307375.806380273774266 ], [ 4564869.977576659992337, 8307340.467823350802064 ], [ 4564851.215692949481308, 8307312.962888575159013 ], [ 4564818.120984419248998, 8307287.254289276897907 ], [ 4564784.713262800127268, 8307277.214156296104193 ], [ 4564674.169315588660538, 8307275.765086643397808 ], [ 4564517.642707138322294, 8307164.758243130519986 ], [ 4564527.169684193097055, 8307052.397298105061054 ], [ 4564518.376934419386089, 8306975.935724758543074 ], [ 4564404.869992340914905, 8306763.984081118367612 ], [ 4564466.258989977650344, 8306621.418745260685682 ], [ 4564495.75386177841574, 8306476.994122337549925 ], [ 4564713.833163154311478, 8306352.613923720084131 ], [ 4564834.345794459804893, 8306256.942190686240792 ], [ 4564841.800872379913926, 8306199.852472925558686 ], [ 4564736.769449014216661, 8306149.573890889063478 ], [ 4564761.753212545998394, 8306041.938459873199463 ], [ 4564822.867330133914948, 8305982.044025422073901 ], [ 4564858.48860907740891, 8305989.064205279573798 ], [ 4564935.768230214715004, 8305952.355645088478923 ], [ 4565004.833495606668293, 8305946.010567313060164 ], [ 4565114.610510565340519, 8306015.45630494132638 ], [ 4565187.238804536871612, 8306023.165205527096987 ], [ 4565166.930953903123736, 8305947.75441035721451 ], [ 4565110.701223408803344, 8305843.975367233157158 ], [ 4565080.750829810276628, 8305777.015056449919939 ], [ 4565251.696495569311082, 8305578.008399283513427 ], [ 4565339.683621029369533, 8305514.797811675816774 ], [ 4565432.937832962721586, 8305511.442565414123237 ], [ 4565568.002275057137012, 8305525.404677079059184 ], [ 4565636.510288792662323, 8305479.623668479733169 ], [ 4565649.843283521942794, 8305312.014356206171215 ], [ 4565741.236677461303771, 8305271.761887216940522 ], [ 4565807.001623534597456, 8305269.469093065708876 ], [ 4565954.954394506290555, 8305246.508069993928075 ], [ 4565969.245572975836694, 8305209.890174746513367 ], [ 4565986.306886092759669, 8305199.358691668137908 ], [ 4566000.339409825392067, 8305172.03178277425468 ], [ 4565980.113264694809914, 8305090.433844421058893 ], [ 4565891.173965184018016, 8304986.592091207392514 ], [ 4565784.428665085695684, 8304923.561852138489485 ], [ 4565751.184810642153025, 8304837.883029106073081 ], [ 4565711.712161266244948, 8304798.91117337346077 ], [ 4565681.904070168733597, 8304797.091705810278654 ], [ 4565621.661027248948812, 8304841.007287714630365 ], [ 4565587.566259292885661, 8304834.016266915015876 ], [ 4565544.254057030193508, 8304756.047582192346454 ], [ 4565468.47683902643621, 8304667.24639458488673 ], [ 4565463.147006028331816, 8304622.897499077022076 ], [ 4565485.507671119645238, 8304559.07497001439333 ], [ 4565455.163297022692859, 8304497.787126301787794 ], [ 4565466.737057929858565, 8304430.602195482701063 ], [ 4565418.985172000713646, 8304332.11706970166415 ], [ 4565415.02316576987505, 8304286.440252477303147 ], [ 4565427.106546849943697, 8304268.628312053158879 ], [ 4565463.576941539533436, 8304214.897076306864619 ], [ 4565481.252049073576927, 8304169.06877532042563 ], [ 4565514.915261019021273, 8304121.86332144588232 ], [ 4565558.488615718670189, 8304120.489776611328125 ], [ 4565616.130172881297767, 8304091.612674282863736 ], [ 4565661.842868588864803, 8304039.928168339654803 ], [ 4565669.45936022233218, 8303869.638834858313203 ], [ 4565665.437335240654647, 8303802.363166094757617 ], [ 4565474.145837472751737, 8303773.041272438131273 ], [ 4565470.150458478368819, 8303772.434352623298764 ], [ 4565401.30565788038075, 8303736.718772199936211 ], [ 4564854.761702883057296, 8303214.538458181545138 ], [ 4563946.941615275107324, 8302347.073625400662422 ], [ 4563879.1629922920838, 8302282.296621507965028 ], [ 4563837.329203659668565, 8302237.362666899338365 ], [ 4563819.90312504209578, 8302218.632842383347452 ], [ 4563607.232426320202649, 8301990.123730276711285 ], [ 4563590.472270258702338, 8301971.417202040553093 ], [ 4563298.473561434075236, 8301645.516368127427995 ], [ 4563120.631051811389625, 8301487.163448570296168 ], [ 4562933.452991290017962, 8301305.004582308232784 ], [ 4562778.817364262416959, 8301164.311242331750691 ], [ 4562587.898824097588658, 8300990.619740535505116 ], [ 4562521.708349449560046, 8300930.38148383423686 ], [ 4562026.398687808774412, 8300479.70486028958112 ], [ 4562003.653274688869715, 8300459.009096686728299 ], [ 4561886.278921653516591, 8300332.49772890470922 ], [ 4561860.005090842954814, 8300291.567471507005394 ], [ 4561825.268924829550087, 8300237.465198972262442 ], [ 4561796.817073474638164, 8300163.901289312168956 ], [ 4561791.378199432045221, 8300149.865495825186372 ], [ 4561772.677177189849317, 8299999.352505603805184 ], [ 4561725.157277683727443, 8299576.961847190745175 ], [ 4561702.792540091089904, 8299378.156188861466944 ], [ 4561692.782681720331311, 8299289.219886912032962 ], [ 4561678.912653246894479, 8299159.486700657755136 ], [ 4561675.141347238793969, 8299124.227154431864619 ], [ 4561614.667730757966638, 8298558.762206609360874 ], [ 4561595.628459177911282, 8298342.157952724024653 ], [ 4561586.141418001614511, 8298234.139264763332903 ], [ 4561569.534097736701369, 8298045.258906702511013 ], [ 4561541.187127475626767, 8297722.691080128774047 ], [ 4561507.890211441554129, 8297343.840870579704642 ], [ 4561463.669139788486063, 8296840.680749071761966 ], [ 4561450.346970892511308, 8296689.102487714961171 ], [ 4561450.176292463205755, 8296687.335394626483321 ], [ 4561444.992575229145586, 8296635.974333501420915 ], [ 4561402.568114361725748, 8296215.471540574915707 ], [ 4561384.459158485755324, 8296036.002082331106067 ], [ 4561384.088578724302351, 8296032.312025741674006 ], [ 4561363.159062011167407, 8295824.833412392064929 ], [ 4561313.878730159252882, 8295336.218410158529878 ], [ 4561305.965295542962849, 8295257.781570869497955 ], [ 4561301.200397884473205, 8295210.477298185229301 ], [ 4561296.650408209301531, 8295165.440166594460607 ], [ 4561293.676005350425839, 8295135.897243083454669 ], [ 4561280.726074583828449, 8295007.510631078854203 ], [ 4561274.604144968092442, 8294946.801810687407851 ], [ 4561266.773495204746723, 8294869.131877033039927 ], [ 4561265.489112420007586, 8294856.416544886305928 ], [ 4561258.063416928052902, 8294797.091903641819954 ], [ 4561256.178001482971013, 8294782.091015438549221 ], [ 4561255.936449742875993, 8294780.100697471760213 ], [ 4561241.896319795399904, 8294667.967537658289075 ], [ 4561240.730934353545308, 8294658.615796877071261 ], [ 4561238.165164393372834, 8294638.143990179523826 ], [ 4561238.053133595734835, 8294637.254384915344417 ], [ 4561211.598290208727121, 8294425.887167551554739 ], [ 4561209.031791917979717, 8294405.459699396975338 ], [ 4561170.582158027216792, 8294098.282894455827773 ], [ 4561169.164432803168893, 8294086.951694295741618 ], [ 4561164.417295156046748, 8294048.988329151645303 ], [ 4561160.042255096137524, 8294014.060550838708878 ], [ 4561130.681221956387162, 8293895.723991272039711 ], [ 4561128.675925092771649, 8293887.643165906891227 ], [ 4561128.456575708463788, 8293886.75152503978461 ], [ 4561122.151462318375707, 8293861.338741019368172 ], [ 4561122.081154514104128, 8293861.082257005386055 ], [ 4561115.436937531456351, 8293834.298533217981458 ], [ 4561114.598493190482259, 8293830.943483837880194 ], [ 4561109.880005740560591, 8293811.906269510276616 ], [ 4561101.639157108031213, 8293778.713478339836001 ], [ 4561092.663198271766305, 8293769.047361156903207 ], [ 4561085.434155024588108, 8293761.255862347781658 ], [ 4561085.307872572913766, 8293761.120347387157381 ], [ 4561084.181854173541069, 8293759.912005568854511 ], [ 4561083.929289313964546, 8293759.64097561314702 ], [ 4561007.133457202464342, 8293676.981114841997623 ], [ 4560965.210645349696279, 8293631.856792759150267 ], [ 4560922.835789802484214, 8293611.750986181199551 ], [ 4560881.865421418100595, 8293592.326222851872444 ], [ 4560797.69064761325717, 8293552.391276516020298 ], [ 4560468.256442300044, 8293201.020130884833634 ], [ 4560450.777881509624422, 8293060.508701998740435 ], [ 4560378.842014388181269, 8292962.473099832423031 ], [ 4560368.982823006808758, 8292949.029003295116127 ], [ 4560248.578542212024331, 8292784.941545909270644 ], [ 4560030.295879193581641, 8292548.11567007843405 ], [ 4559959.105306478217244, 8292356.194423755630851 ], [ 4559665.34167090896517, 8292235.211914942599833 ], [ 4559594.87391837593168, 8292206.026125525124371 ], [ 4559449.377905838191509, 8292111.412203032523394 ], [ 4559444.076326627284288, 8292075.156534027308226 ], [ 4559452.319289690814912, 8292029.56246190238744 ], [ 4559461.198591100051999, 8292017.128853548318148 ], [ 4559472.989523183554411, 8292000.63484420068562 ], [ 4559473.224185981787741, 8292000.151181605644524 ], [ 4559492.250195072963834, 8291960.009697585366666 ], [ 4559537.862802627496421, 8291863.795660326257348 ], [ 4559534.221376212313771, 8291862.195420973934233 ], [ 4559469.002480607479811, 8291841.617736392654479 ], [ 4559350.26162167172879, 8291804.167877952568233 ], [ 4559328.992941486649215, 8291751.111574369482696 ], [ 4559333.14012491889298, 8291737.411977695301175 ], [ 4559401.786695633083582, 8291720.003547359257936 ], [ 4559425.589483378455043, 8291699.666811278089881 ], [ 4559435.143892753869295, 8291676.008037947118282 ], [ 4559427.89233161136508, 8291652.539668002165854 ], [ 4559406.235880848020315, 8291631.160052955150604 ], [ 4559335.704169536940753, 8291585.708083111792803 ], [ 4559332.560723965056241, 8291558.501585830934346 ], [ 4559346.875096899457276, 8291501.918187218718231 ], [ 4559335.563658687286079, 8291484.185614693909883 ], [ 4559259.085168437100947, 8291447.173369991593063 ], [ 4559185.734782538376749, 8291451.711460452526808 ], [ 4559163.305407075211406, 8291445.01615934073925 ], [ 4559149.467111423611641, 8291435.955096732825041 ], [ 4559121.815568223595619, 8291370.273967844434083 ], [ 4559026.63574549369514, 8291354.104862270876765 ], [ 4559015.149792242795229, 8291339.352976999245584 ], [ 4559013.114218013361096, 8291308.118162226863205 ], [ 4559045.047970626503229, 8291270.674698266200721 ], [ 4559046.256907648406923, 8291255.110825031995773 ], [ 4559030.459601664915681, 8291233.919973792508245 ], [ 4559022.723404145799577, 8291223.532874207943678 ], [ 4558967.667219244875014, 8291202.181685468181968 ], [ 4558947.582403309643269, 8291210.507549527101219 ], [ 4558932.259043643251061, 8291216.860699824988842 ], [ 4558921.123481096699834, 8291221.485367836430669 ], [ 4558879.622720482759178, 8291238.688526332378387 ], [ 4558808.299621136859059, 8291298.012410300783813 ], [ 4558734.532128768973053, 8291320.513190928846598 ], [ 4558686.13500924129039, 8291319.867566212080419 ], [ 4558642.402792299166322, 8291294.715554701164365 ], [ 4558610.86999430321157, 8291290.808080022223294 ], [ 4558494.840936854481697, 8291357.432494231499732 ], [ 4558463.03276538848877, 8291363.459772671572864 ], [ 4558426.156560678966343, 8291342.48743262887001 ], [ 4558414.060816123150289, 8291288.228980525396764 ], [ 4558381.285931585356593, 8291274.579158411361277 ], [ 4558346.256398837082088, 8291285.703474069014192 ], [ 4558294.375636105425656, 8291320.790811405517161 ], [ 4558256.780937597155571, 8291330.179770813323557 ], [ 4558113.887903682887554, 8291252.799890101887286 ], [ 4558053.083948490209877, 8291219.876451132819057 ], [ 4557997.364071222022176, 8291209.715019634924829 ], [ 4557838.304020994342864, 8291180.693729475140572 ], [ 4557782.856872659176588, 8291194.489005982875824 ], [ 4557666.904903834685683, 8291269.332008135505021 ], [ 4557642.311929136514664, 8291278.136510640382767 ], [ 4557625.469683554023504, 8291284.171430153772235 ], [ 4557573.818900480866432, 8291302.665119204670191 ], [ 4557516.790885853581131, 8291289.604159999638796 ], [ 4557470.276248780079186, 8291238.203235083259642 ], [ 4557389.518184185959399, 8291270.817328719422221 ], [ 4557335.691712155006826, 8291259.337010819464922 ], [ 4557298.957318742759526, 8291289.975101253017783 ], [ 4557259.463688560761511, 8291350.936063433997333 ], [ 4557219.285763692110777, 8291363.446975908242166 ], [ 4557184.257073717191815, 8291353.712792176753283 ], [ 4557146.936571987345815, 8291325.152320018969476 ], [ 4557135.322838870808482, 8291300.301073489710689 ], [ 4557140.701732532121241, 8291273.911224745213985 ], [ 4557154.381753937341273, 8291255.83443876542151 ], [ 4557192.46108689904213, 8291234.596814363263547 ], [ 4557296.480253539979458, 8291196.592921289615333 ], [ 4557303.321227079257369, 8291158.859595408663154 ], [ 4557295.067774375900626, 8291145.244515802711248 ], [ 4557280.007302992977202, 8291120.416157880797982 ], [ 4557202.253633914515376, 8291112.138628384098411 ], [ 4557151.761384128592908, 8291029.075641604140401 ], [ 4557131.399487024173141, 8291012.566096030175686 ], [ 4557097.295697355642915, 8291010.637417852878571 ], [ 4557085.396336133591831, 8291048.44034393504262 ], [ 4557125.528742268681526, 8291153.360375096090138 ], [ 4557124.460646964609623, 8291185.06916587613523 ], [ 4557119.544866894371808, 8291193.417713747359812 ], [ 4557112.842231817543507, 8291204.816230216994882 ], [ 4557064.520352229475975, 8291233.923107823356986 ], [ 4557033.03647290635854, 8291231.401114607229829 ], [ 4557030.201562428846955, 8291228.062974568456411 ], [ 4556998.829946026206017, 8291191.0513562457636 ], [ 4557037.152888988144696, 8291125.6528275674209 ], [ 4557033.145129606127739, 8291097.197260855697095 ], [ 4557018.598308466374874, 8291085.380830037407577 ], [ 4556980.747918196953833, 8291082.869943141937256 ], [ 4556909.188365333713591, 8291119.51932040695101 ], [ 4556862.326226253993809, 8291118.344478357583284 ], [ 4556802.190142902545631, 8291101.117165267467499 ], [ 4556762.640076631680131, 8291116.168746571056545 ], [ 4556753.512603325769305, 8291130.283202714286745 ], [ 4556750.100149338133633, 8291163.289601308293641 ], [ 4556762.863976819440722, 8291236.844487897120416 ], [ 4556745.483225823380053, 8291258.100830513052642 ], [ 4556713.704827480018139, 8291257.503154050558805 ], [ 4556659.510891095735133, 8291238.314766321331263 ], [ 4556599.091449517756701, 8291242.604306695982814 ], [ 4556531.966886942274868, 8291214.114918104372919 ], [ 4556493.848522759974003, 8291265.948731349781156 ], [ 4556485.70710651949048, 8291321.064088887535036 ], [ 4556476.911924177780747, 8291380.60460883192718 ], [ 4556448.573914806358516, 8291422.352640651166439 ], [ 4556404.355363376438618, 8291454.088816399686038 ], [ 4556311.796848243102431, 8291492.253696663305163 ], [ 4556246.277610070072114, 8291563.753553716465831 ], [ 4556243.391244898550212, 8291565.905966022983193 ], [ 4556229.188404235988855, 8291576.483812727034092 ], [ 4556203.34220078215003, 8291595.73598100990057 ], [ 4556169.429744035936892, 8291610.673103309236467 ], [ 4556096.434454360976815, 8291622.375510234385729 ], [ 4556067.834003623574972, 8291644.159711673855782 ], [ 4556060.684806225821376, 8291713.561474638991058 ], [ 4556072.769540909677744, 8291735.083160359412432 ], [ 4556115.501692697405815, 8291811.221646244637668 ], [ 4556113.465806545689702, 8291853.595969516783953 ], [ 4556103.643245622515678, 8291869.216932943090796 ], [ 4556031.484699652530253, 8291899.962087678723037 ], [ 4555996.874897714704275, 8291897.478812005370855 ], [ 4555971.505650602281094, 8291881.73756243288517 ], [ 4555934.587328, 8291835.576078788377345 ], [ 4555925.014309819787741, 8291823.610294092446566 ], [ 4555911.492592270486057, 8291721.915792807936668 ], [ 4555892.406069442629814, 8291679.768475973978639 ], [ 4555854.98515497893095, 8291646.410996907390654 ], [ 4555811.747062750160694, 8291654.390104293823242 ], [ 4555792.572163349017501, 8291667.812322979792953 ], [ 4555783.095187756232917, 8291700.11456820461899 ], [ 4555841.169867979362607, 8291794.110547970980406 ], [ 4555853.580988355912268, 8291829.961388676427305 ], [ 4555853.314500691369176, 8291839.941142000257969 ], [ 4555852.540770686231554, 8291868.538485649973154 ], [ 4555840.542290273122489, 8291885.082842202857137 ], [ 4555819.699847154319286, 8291891.3949681436643 ], [ 4555792.211560655385256, 8291872.506422788836062 ], [ 4555766.890336751006544, 8291827.953910656273365 ], [ 4555749.368593296036124, 8291797.152661361731589 ], [ 4555724.060006217099726, 8291787.780366200953722 ], [ 4555718.796060292050242, 8291789.620835795998573 ], [ 4555682.824980653822422, 8291802.143714739009738 ], [ 4555681.697450661100447, 8291826.78474222868681 ], [ 4555720.246712755411863, 8291888.088523663580418 ], [ 4555690.449720153585076, 8291905.611449746415019 ], [ 4555626.42672005854547, 8291907.35579583235085 ], [ 4555593.129471092484891, 8291934.396931685507298 ], [ 4555591.003929049707949, 8291972.442958059720695 ], [ 4555620.226775640621781, 8292040.279923819005489 ], [ 4555616.486789421178401, 8292082.455321529880166 ], [ 4555603.240430531091988, 8292092.39674090128392 ], [ 4555563.479504981078207, 8292080.816509219817817 ], [ 4555499.709858315996826, 8292043.025279403664172 ], [ 4555484.190077270381153, 8292018.685849057510495 ], [ 4555472.860359417274594, 8292000.917048576287925 ], [ 4555469.837915051728487, 8291996.166103625670075 ], [ 4555439.322948454879224, 8291910.087075706571341 ], [ 4555413.007549490779638, 8291879.327384866774082 ], [ 4555360.929707756265998, 8291848.305778751149774 ], [ 4555315.033523411490023, 8291840.357018604874611 ], [ 4555257.456839730963111, 8291861.450700402259827 ], [ 4555195.269119673408568, 8291934.810051888227463 ], [ 4555120.538476208224893, 8291961.320771478116512 ], [ 4555077.246646317653358, 8291955.840212227776647 ], [ 4555038.744788436219096, 8291924.568398473784328 ], [ 4555032.030749557539821, 8291863.830620238557458 ], [ 4555030.027750032953918, 8291845.697145097889006 ], [ 4555016.744547574780881, 8291839.661614447832108 ], [ 4554979.926372782327235, 8291845.954382481984794 ], [ 4554941.815957380458713, 8291871.448873830027878 ], [ 4554940.94558347016573, 8291873.162868412211537 ], [ 4554916.489855372346938, 8291921.119794147089124 ], [ 4554900.681850798428059, 8291934.173531314358115 ], [ 4554872.618659419938922, 8291941.888182668946683 ], [ 4554825.730791110545397, 8291935.816546529531479 ], [ 4554784.643195643089712, 8291955.872813071124256 ], [ 4554771.340625397861004, 8291983.807934417389333 ], [ 4554770.657676442526281, 8291993.646658798679709 ], [ 4554768.273617370985448, 8292028.315298021771014 ], [ 4554737.584015943109989, 8292054.806582822464406 ], [ 4554587.686411363072693, 8292085.73902831133455 ], [ 4554529.582207355648279, 8292140.348587468266487 ], [ 4554481.085866926237941, 8292156.489814634434879 ], [ 4554452.746865522116423, 8292157.309095512144268 ], [ 4554436.997732870280743, 8292146.621582230553031 ], [ 4554429.294640875421464, 8292130.685892747715116 ], [ 4554436.671474474482238, 8292076.487106345593929 ], [ 4554375.223185683600605, 8292042.575674648396671 ], [ 4554348.296801318414509, 8291992.287474392913282 ], [ 4554345.902475409209728, 8291987.825774744153023 ], [ 4554324.641941578127444, 8291986.262659025378525 ], [ 4554314.617426714859903, 8291985.526039050891995 ], [ 4554285.645550890825689, 8291998.603394268080592 ], [ 4554259.194652807898819, 8292031.322153069078922 ], [ 4554191.797664390876889, 8292068.88847653195262 ], [ 4553879.804650078527629, 8292144.068472385406494 ], [ 4553848.057222106494009, 8292128.412498754449189 ], [ 4553838.909923099912703, 8292101.631478605791926 ], [ 4553846.733062604442239, 8292087.891853741370142 ], [ 4553936.610334381461143, 8292027.605191636830568 ], [ 4553945.654938406310976, 8291988.338355861604214 ], [ 4553934.193438780494034, 8291959.071994295343757 ], [ 4553928.012250715866685, 8291943.298484791070223 ], [ 4553896.325696459971368, 8291938.993405796587467 ], [ 4553878.760247840546072, 8291946.265767253004014 ], [ 4553848.47070134151727, 8292001.554220290854573 ], [ 4553826.172126744873822, 8292013.195355601608753 ], [ 4553811.979195773601532, 8292009.249515885487199 ], [ 4553791.399788204580545, 8292003.538577050901949 ], [ 4553715.461414089426398, 8291954.412504306063056 ], [ 4553683.696521118283272, 8291954.732059748843312 ], [ 4553662.113235842436552, 8291967.696000454947352 ], [ 4553641.49379400536418, 8292010.323239501565695 ], [ 4553642.667483440600336, 8292123.84345134254545 ], [ 4553594.254881233908236, 8292156.78182072378695 ], [ 4553512.443943360820413, 8292181.176740732043982 ], [ 4553486.412305619567633, 8292218.81796888448298 ], [ 4553493.558358058333397, 8292278.678011662326753 ], [ 4553528.345712259411812, 8292323.239036819897592 ], [ 4553567.355765142478049, 8292373.21788121201098 ], [ 4553565.83312342967838, 8292412.13053335249424 ], [ 4553526.993852980434895, 8292436.322360603138804 ], [ 4553472.852662229910493, 8292442.223647601902485 ], [ 4553458.052435213699937, 8292438.021858759224415 ], [ 4553326.356047761626542, 8292400.644815232604742 ], [ 4553285.25006393250078, 8292401.493867214769125 ], [ 4553270.117121606133878, 8292412.884571056813002 ], [ 4553261.028227670118213, 8292451.606996205635369 ], [ 4553271.921660918742418, 8292493.055875058285892 ], [ 4553310.284490604884923, 8292554.882877232506871 ], [ 4553299.301837830804288, 8292597.163439073599875 ], [ 4553252.523424101062119, 8292611.538414151407778 ], [ 4553223.798755712807178, 8292599.468063298612833 ], [ 4553215.511777176521719, 8292570.406673868186772 ], [ 4553225.260948462411761, 8292486.852471137419343 ], [ 4553207.379688528366387, 8292467.591130163520575 ], [ 4553187.081255380064249, 8292462.883671642281115 ], [ 4553141.622822030447423, 8292487.324492930434644 ], [ 4553131.070105385966599, 8292516.19992489926517 ], [ 4553134.153105814941227, 8292577.934542392380536 ], [ 4553125.340444864705205, 8292596.192699087783694 ], [ 4552980.008193529210985, 8292652.877515305764973 ], [ 4552966.050791858695447, 8292703.510434400290251 ], [ 4552979.089730430394411, 8292757.848579902201891 ], [ 4552998.558340635150671, 8292792.795278808102012 ], [ 4553043.216701013036072, 8292837.170325783081353 ], [ 4553045.643962460570037, 8292844.373214160092175 ], [ 4553052.111809592694044, 8292863.647387296892703 ], [ 4553044.348498808220029, 8292873.138839049264789 ], [ 4553029.45955803617835, 8292891.346324369311333 ], [ 4552959.259807462804019, 8292927.602516015991569 ], [ 4552939.25333091430366, 8292955.618743514642119 ], [ 4552942.728854433633387, 8293114.483739590272307 ], [ 4552942.96708448883146, 8293125.516431460157037 ], [ 4552889.851413457654417, 8293183.381878484040499 ], [ 4552859.354931053705513, 8293195.230434136465192 ], [ 4552837.263875801116228, 8293190.466043712571263 ], [ 4552819.085030116140842, 8293176.036016433499753 ], [ 4552784.081359512172639, 8293148.233843825757504 ], [ 4552767.421956155449152, 8293078.415133465081453 ], [ 4552742.31863677315414, 8293039.454103188589215 ], [ 4552680.118459553457797, 8293005.523756479844451 ], [ 4552616.440907306969166, 8293007.544795154593885 ], [ 4552579.72030078433454, 8293029.235808707773685 ], [ 4552560.329903243109584, 8293062.578126044012606 ], [ 4552553.620720274746418, 8293139.279434121213853 ], [ 4552551.608081516809762, 8293162.339755810797215 ], [ 4552535.427989956922829, 8293178.991071135737002 ], [ 4552479.97629972640425, 8293189.824631502851844 ], [ 4552400.215517180971801, 8293230.144217840395868 ], [ 4552379.553596205078065, 8293252.023259006440639 ], [ 4552372.285060131922364, 8293268.125522308982909 ], [ 4552365.10666471067816, 8293284.007632683962584 ], [ 4552355.38177949283272, 8293305.543238915503025 ], [ 4552327.842434558086097, 8293328.820462337695062 ], [ 4552296.388131727464497, 8293324.074358618818223 ], [ 4552253.174743065610528, 8293277.162810876965523 ], [ 4552274.905658194795251, 8293205.489077087491751 ], [ 4552261.962186035700142, 8293164.055221445858479 ], [ 4552244.114660511724651, 8293153.059325400739908 ], [ 4552227.060099348425865, 8293151.598038383759558 ], [ 4552199.400103692896664, 8293169.44743013754487 ], [ 4552170.689620272256434, 8293261.700164576992393 ], [ 4552111.545911157503724, 8293281.32631095405668 ], [ 4552057.85219213552773, 8293272.277850599959493 ], [ 4551986.483015800826252, 8293190.538366952911019 ], [ 4551928.789750317111611, 8293174.555611923336983 ], [ 4551893.269305441528559, 8293189.101765025407076 ], [ 4551871.24181348644197, 8293216.057676854543388 ], [ 4551877.136381643824279, 8293257.178077241405845 ], [ 4551901.231695149093866, 8293312.130659298039973 ], [ 4551868.081076760776341, 8293373.498349079862237 ], [ 4551836.005215424112976, 8293393.691813269630075 ], [ 4551791.130336378701031, 8293406.115392756648362 ], [ 4551769.000711037777364, 8293404.455791916698217 ], [ 4551743.92353499867022, 8293386.418671171180904 ], [ 4551730.834514290094376, 8293358.106651873327792 ], [ 4551759.546502239070833, 8293281.420008406043053 ], [ 4551739.538635400123894, 8293239.43844189029187 ], [ 4551685.225239344872534, 8293242.459336651489139 ], [ 4551582.666526380926371, 8293275.068302990868688 ], [ 4551551.110383795574307, 8293265.049113657325506 ], [ 4551500.498701232485473, 8293214.353413705714047 ], [ 4551421.376600608229637, 8293206.575199482031167 ], [ 4551344.440419860184193, 8293226.775921497493982 ], [ 4551293.877676387317479, 8293251.814214060083032 ], [ 4551152.313877951353788, 8293377.972651923075318 ], [ 4551150.390911808237433, 8293379.688394920900464 ], [ 4551125.140750779770315, 8293392.24685122538358 ], [ 4551089.189505221322179, 8293410.145421870984137 ], [ 4551078.246740298345685, 8293411.331375820562243 ], [ 4551003.939762244932353, 8293419.355586316436529 ], [ 4550990.984930774196982, 8293420.757696629501879 ], [ 4550933.372455764561892, 8293398.38335040025413 ], [ 4550832.589135118760169, 8293388.574684725143015 ], [ 4550796.494157318025827, 8293385.056842274032533 ], [ 4550755.012365345843136, 8293395.780267579481006 ], [ 4550711.934238070622087, 8293420.729691764339805 ], [ 4550704.004203093238175, 8293448.746016895398498 ], [ 4550755.375416627153754, 8293526.696583213284612 ], [ 4550765.327465727925301, 8293562.249105631373823 ], [ 4550753.09057155624032, 8293625.253070431761444 ], [ 4550722.638917663134634, 8293643.568522083573043 ], [ 4550693.996673514135182, 8293647.18493021465838 ], [ 4550668.987517209723592, 8293634.528877111151814 ], [ 4550653.434140338562429, 8293604.892236943356693 ], [ 4550649.221756619401276, 8293547.42742795497179 ], [ 4550640.708219425752759, 8293530.187196081504226 ], [ 4550621.628877377137542, 8293521.274089279584587 ], [ 4550598.147231769748032, 8293529.539355371147394 ], [ 4550580.047592733055353, 8293560.942137164063752 ], [ 4550534.423632116988301, 8293580.383267031051219 ], [ 4550501.207692712545395, 8293569.021255139261484 ], [ 4550489.305588587187231, 8293557.651026098057628 ], [ 4550463.192315561696887, 8293532.724414224736392 ], [ 4550421.427902342751622, 8293533.633908636868 ], [ 4550396.147149824537337, 8293559.92673993576318 ], [ 4550405.939007579348981, 8293623.657731672748923 ], [ 4550405.695564338937402, 8293624.030238458886743 ], [ 4550399.79345325101167, 8293633.268812081776559 ], [ 4550354.010084718465805, 8293647.625068513676524 ], [ 4550304.920532654039562, 8293663.037692192941904 ], [ 4550255.960106824524701, 8293704.459440199658275 ], [ 4550118.408782849088311, 8293777.235908268019557 ], [ 4550062.94560301117599, 8293821.737648785114288 ], [ 4550015.380409053526819, 8293900.243616166524589 ], [ 4550002.380167420953512, 8293988.108039862476289 ], [ 4550001.284502709284425, 8293998.094495533034205 ], [ 4549996.666693396866322, 8294040.199287152849138 ], [ 4550010.922991593368351, 8294077.455803516320884 ], [ 4550075.416152918711305, 8294109.407601170241833 ], [ 4550154.526527949608862, 8294127.907191036269069 ], [ 4550181.637354431673884, 8294143.500297208316624 ], [ 4550224.587850366719067, 8294186.150751927867532 ], [ 4550271.679598315618932, 8294259.459243375808001 ], [ 4550281.343013819307089, 8294312.669702809303999 ], [ 4550252.66387792583555, 8294346.951688914559782 ], [ 4550212.10596920363605, 8294363.095877050422132 ], [ 4550119.797304253093898, 8294347.957599442452192 ], [ 4550109.136157357133925, 8294355.084536486305296 ], [ 4550104.794011695310473, 8294386.310431758873165 ], [ 4550117.311274522915483, 8294419.139391260221601 ], [ 4550144.072677534073591, 8294445.021844192408025 ], [ 4550226.178534183651209, 8294466.374912620522082 ], [ 4550262.730649314820766, 8294490.161526408046484 ], [ 4550280.55405009444803, 8294527.353713419288397 ], [ 4550280.241131364367902, 8294581.180569423362613 ], [ 4550262.864074850454926, 8294614.594530876725912 ], [ 4550202.892128077335656, 8294640.136990838684142 ], [ 4550192.201169109903276, 8294703.64824173040688 ], [ 4550192.079429160803556, 8294704.389245826750994 ], [ 4550172.712141311727464, 8294737.986493618227541 ], [ 4550151.813939872197807, 8294746.412747470661998 ], [ 4550149.90697986446321, 8294745.632390439510345 ], [ 4550093.669217559508979, 8294722.539994895458221 ], [ 4550077.399340009316802, 8294727.072865860536695 ], [ 4550069.793092607520521, 8294802.049688941799104 ], [ 4550046.986586547456682, 8294838.00998869817704 ], [ 4549999.397146630100906, 8294865.09049656894058 ], [ 4549927.533094327896833, 8294883.101224962621927 ], [ 4549884.618018365465105, 8294911.659151847474277 ], [ 4549821.587491089478135, 8295061.084427712485194 ], [ 4549821.761227706447244, 8295065.414869816973805 ], [ 4549823.365793651901186, 8295106.708507127128541 ], [ 4549860.16571060847491, 8295139.908976323902607 ], [ 4549864.602143039926887, 8295164.748113727197051 ], [ 4549859.316531566902995, 8295195.889192005619407 ], [ 4549823.394802355207503, 8295224.826975444331765 ], [ 4549782.049160146154463, 8295244.406186578795314 ], [ 4549705.415423149242997, 8295259.683403966017067 ], [ 4549657.876678664237261, 8295284.64538153167814 ], [ 4549608.873670604079962, 8295310.355517785996199 ], [ 4549558.645800279453397, 8295321.152196638286114 ], [ 4549527.874838695861399, 8295307.628933039493859 ], [ 4549484.988773596473038, 8295230.040270796045661 ], [ 4549449.313959040679038, 8295200.300440093502402 ], [ 4549415.588079596869648, 8295217.319868626073003 ], [ 4549384.476812481880188, 8295270.582291410304606 ], [ 4549346.245750446803868, 8295310.580886956304312 ], [ 4549299.154551000334322, 8295331.823005778715014 ], [ 4549266.898475806228817, 8295311.835338499397039 ], [ 4549249.181689939461648, 8295249.824404626153409 ], [ 4549214.647248467430472, 8295235.473055982030928 ], [ 4549182.553060830570757, 8295254.165997478179634 ], [ 4549125.583693177439272, 8295353.325603942386806 ], [ 4549102.717366758733988, 8295370.156329799443483 ], [ 4549069.276157721877098, 8295369.728261265903711 ], [ 4549048.132929753512144, 8295345.385051444172859 ], [ 4549048.089149102568626, 8295322.206430022604764 ], [ 4549112.633262860588729, 8295162.570301470346749 ], [ 4549104.780580718070269, 8295133.980804809369147 ], [ 4549069.706674309447408, 8295129.726364163681865 ], [ 4548979.317969641648233, 8295168.732674401253462 ], [ 4548917.210981098935008, 8295178.009966912679374 ], [ 4548874.829942007549107, 8295159.100659285672009 ], [ 4548858.195298120379448, 8295134.301182391121984 ], [ 4548863.333169213496149, 8295082.098438024520874 ], [ 4548976.906712094321847, 8294991.618079988285899 ], [ 4548978.176323506049812, 8294950.590659745037556 ], [ 4548953.147864867933095, 8294905.179609543643892 ], [ 4548913.34250551648438, 8294874.215492291375995 ], [ 4548862.44542935397476, 8294862.563040847890079 ], [ 4548833.860404720529914, 8294871.981561234220862 ], [ 4548789.876002451404929, 8294910.180960146710277 ], [ 4548717.969440508633852, 8294897.176367507316172 ], [ 4548636.756090359762311, 8294902.242032548412681 ], [ 4548606.950793060474098, 8294893.7843669783324 ], [ 4548587.038647841662169, 8294877.41970566380769 ], [ 4548574.771405561827123, 8294840.655476880259812 ], [ 4548595.354809582233429, 8294721.460765572264791 ], [ 4548574.294792391359806, 8294679.654551851563156 ], [ 4548524.024490837007761, 8294648.507987433113158 ], [ 4548490.213370083831251, 8294658.86726077273488 ], [ 4548463.845728809013963, 8294701.680756096728146 ], [ 4548479.573815849609673, 8294743.782735412940383 ], [ 4548475.879418183118105, 8294768.098129360936582 ], [ 4548472.370624847710133, 8294791.152281248010695 ], [ 4548445.166881718672812, 8294814.566143780015409 ], [ 4548413.426987279206514, 8294824.422041866928339 ], [ 4548356.727220592088997, 8294821.83117282576859 ], [ 4548265.122082583606243, 8294841.11696548294276 ], [ 4548251.612051237374544, 8294843.960489511489868 ], [ 4548229.444043111056089, 8294848.621409854851663 ], [ 4548091.430617321282625, 8294803.84819332882762 ], [ 4548047.523995959199965, 8294801.59459476172924 ], [ 4547989.360230013728142, 8294815.184509765356779 ], [ 4547896.049141674302518, 8294855.882922100834548 ], [ 4547843.186657231301069, 8294862.463777138851583 ], [ 4547833.857346069999039, 8294859.05315707065165 ], [ 4547813.70657074637711, 8294851.659140294417739 ], [ 4547737.573193423449993, 8294797.150055398233235 ], [ 4547681.23525608330965, 8294788.11817691475153 ], [ 4547621.016348018310964, 8294805.217656889930367 ], [ 4547593.634726511314511, 8294842.119249489158392 ], [ 4547602.434115535579622, 8294892.55282115470618 ], [ 4547659.287566093727946, 8294957.249105305410922 ], [ 4547648.932882922701538, 8295026.847949646413326 ], [ 4547622.553238173946738, 8295049.245363526977599 ], [ 4547513.335636593401432, 8295091.141430905088782 ], [ 4547475.551683085039258, 8295131.179803540930152 ], [ 4547483.423757448792458, 8295161.978758540935814 ], [ 4547499.50609577447176, 8295167.662632154300809 ], [ 4547570.33640475012362, 8295142.237826708704233 ], [ 4547611.212108208797872, 8295143.012838765978813 ], [ 4547645.70216506626457, 8295161.793039100244641 ], [ 4547655.009667853824794, 8295187.271908177062869 ], [ 4547628.120469505898654, 8295234.712716875597835 ], [ 4547613.019842623732984, 8295242.018553489819169 ], [ 4547535.998235376551747, 8295279.316878881305456 ], [ 4547531.653479850850999, 8295303.897108308039606 ], [ 4547550.294430313631892, 8295394.854197499342263 ], [ 4547546.741451277397573, 8295429.502255760133266 ], [ 4547471.1390500664711, 8295480.45333993062377 ], [ 4547405.735458340495825, 8295597.088065847754478 ], [ 4547364.73929020576179, 8295733.582491597160697 ], [ 4547356.981035663746297, 8295857.821354682557285 ], [ 4547379.802767065353692, 8295940.904755954630673 ], [ 4547487.14320906624198, 8296089.822691359557211 ], [ 4547518.630225097760558, 8296117.309472063556314 ], [ 4547589.824118363671005, 8296136.205690817907453 ], [ 4547645.287326687015593, 8296126.912538165226579 ], [ 4547728.827176998369396, 8296112.896094642579556 ], [ 4547789.938482034951448, 8296145.542000873945653 ], [ 4547799.177699717693031, 8296171.263399425894022 ], [ 4547802.273240027949214, 8296247.803651424124837 ], [ 4547865.17032805737108, 8296322.801479129120708 ], [ 4547917.4439104385674, 8296448.197749784216285 ], [ 4547929.489574451930821, 8296664.734903508797288 ], [ 4547907.496326093561947, 8296709.453399149700999 ], [ 4547831.306866777129471, 8296744.639764715917408 ], [ 4547803.427709095180035, 8296738.072093522176147 ], [ 4547768.116600944660604, 8296708.913836410269141 ], [ 4547730.26896539144218, 8296677.664555471390486 ], [ 4547644.711226926185191, 8296661.740355841815472 ], [ 4547600.033302890136838, 8296675.20503615681082 ], [ 4547482.727778760716319, 8296750.475569176487625 ], [ 4547439.316901635378599, 8296821.838041921146214 ], [ 4547403.797565816901624, 8296951.726952734403312 ], [ 4547302.342358748428524, 8297026.928779574111104 ], [ 4547219.471230499446392, 8297119.457483645528555 ], [ 4547162.645009513013065, 8297242.695494696497917 ], [ 4547129.338290682993829, 8297289.245876391418278 ], [ 4546995.327683945186436, 8297377.825767857953906 ], [ 4546856.192399060353637, 8297434.505738960579038 ], [ 4546818.813233735971153, 8297468.46084251254797 ], [ 4546771.893915796652436, 8297567.060376172885299 ], [ 4546770.604865228757262, 8297590.768347570672631 ], [ 4546769.302705964073539, 8297614.598113018088043 ], [ 4546787.291987311094999, 8297646.504440069198608 ], [ 4546791.756672265008092, 8297650.508218969218433 ], [ 4546792.548194326460361, 8297651.222671054303646 ], [ 4546869.24777637142688, 8297720.134467642754316 ], [ 4546873.472274083644152, 8297757.408679125830531 ], [ 4546863.836649340577424, 8297774.618366579525173 ], [ 4546855.057888471521437, 8297790.291407070122659 ], [ 4546839.385984042659402, 8297805.885486273095012 ], [ 4546836.341272972524166, 8297808.921725239604712 ], [ 4546799.377366213127971, 8297820.993794102221727 ], [ 4546738.369502930901945, 8297813.701278934255242 ], [ 4546684.797262671403587, 8297807.308153857477009 ], [ 4546637.448274459689856, 8297810.567312633618712 ], [ 4546550.006046518683434, 8297896.603832261636853 ], [ 4546470.087616892531514, 8297897.485119422897696 ], [ 4546432.68270327616483, 8297916.183185103349388 ], [ 4546413.016972169280052, 8297946.012281403876841 ], [ 4546411.668767950497568, 8297995.316428102552891 ], [ 4546378.657417858019471, 8298012.846432385966182 ], [ 4546309.292969313450158, 8298013.855634471401572 ], [ 4546263.172933494672179, 8298049.880954251624644 ], [ 4546187.590506385080516, 8298169.76765008084476 ], [ 4546182.216184282675385, 8298207.431784316897392 ], [ 4546198.232072982005775, 8298238.645472516305745 ], [ 4546201.738647582009435, 8298290.663049862720072 ], [ 4546183.45687887724489, 8298339.259429261088371 ], [ 4546184.197378204204142, 8298373.969505805522203 ], [ 4546222.438708208501339, 8298453.383149554952979 ], [ 4546277.277920786291361, 8298567.250328442081809 ], [ 4546290.336617086082697, 8298635.032297262921929 ], [ 4546288.767739333212376, 8298681.891173297539353 ], [ 4546250.883599723689258, 8298731.159127783961594 ], [ 4546224.726176890544593, 8298738.626243804581463 ], [ 4546212.684469450265169, 8298742.052716901525855 ], [ 4546149.801165403798223, 8298723.971159891225398 ], [ 4546142.263664094731212, 8298733.787770366296172 ], [ 4546052.941950297914445, 8298755.743869248777628 ], [ 4546019.711581461131573, 8298744.254686726257205 ], [ 4545992.968105645850301, 8298725.058691762387753 ], [ 4545978.098514865152538, 8298693.978237882256508 ], [ 4545986.790820030495524, 8298568.846286486834288 ], [ 4545941.213825646787882, 8298540.106321601197124 ], [ 4545896.757467418909073, 8298538.694234842434525 ], [ 4545797.352924738079309, 8298583.686328518204391 ], [ 4545762.224182028323412, 8298615.543185488320887 ], [ 4545740.828672904521227, 8298661.848486196249723 ], [ 4545726.646235315129161, 8298684.705586741678417 ], [ 4545723.59110810700804, 8298744.373255636543036 ], [ 4545716.986346188001335, 8298754.263484789058566 ], [ 4545682.986161100678146, 8298763.507432108744979 ], [ 4545625.682134354487062, 8298744.068786011077464 ], [ 4545586.112109693698585, 8298747.600478447973728 ], [ 4545559.415674021467566, 8298771.65536399744451 ], [ 4545548.360962520353496, 8298836.170873340219259 ], [ 4545499.393216622062027, 8298860.056698430329561 ], [ 4545466.585580566897988, 8298855.520801073871553 ], [ 4545417.573967226780951, 8298809.625445672310889 ], [ 4545385.364275029860437, 8298799.775214259512722 ], [ 4545334.835681994445622, 8298806.798170497640967 ], [ 4545303.539283126592636, 8298840.34950702264905 ], [ 4545278.033280338160694, 8298872.71588458865881 ], [ 4545206.389218455180526, 8298874.277140101417899 ], [ 4545140.009241480380297, 8298901.583163512870669 ], [ 4545117.336169888265431, 8298938.454214716330171 ], [ 4545098.727720096707344, 8299021.773437652736902 ], [ 4545083.990225458517671, 8299037.274210454896092 ], [ 4545053.785376233048737, 8299053.415499094873667 ], [ 4544929.45716982614249, 8299083.193409115076065 ], [ 4544865.920571872033179, 8299125.422743139788508 ], [ 4544806.732380884699523, 8299253.928254529833794 ], [ 4544795.949535420164466, 8299358.815397578291595 ], [ 4544775.83215569332242, 8299401.162182379513979 ], [ 4544749.077301686629653, 8299413.85346017871052 ], [ 4544682.567271671257913, 8299410.920471312478185 ], [ 4544605.21359349321574, 8299455.553040825761855 ], [ 4544554.139098859392107, 8299518.941349214874208 ], [ 4544543.987689845263958, 8299549.233567152172327 ], [ 4544522.748698762618005, 8299612.651274299249053 ], [ 4544452.373553027398884, 8299644.748941110447049 ], [ 4544430.190966816619039, 8299695.998366398736835 ], [ 4544427.765872589312494, 8299743.640259692445397 ], [ 4544449.178483499214053, 8299865.690768732689321 ], [ 4544462.117016107775271, 8299939.442087325267494 ], [ 4544459.929805896244943, 8299990.306373501196504 ], [ 4544441.397966966964304, 8300020.190441420301795 ], [ 4544382.267674640752375, 8300075.8538110377267 ], [ 4544371.795961600728333, 8300085.723673762753606 ], [ 4544351.44529939070344, 8300137.197666775435209 ], [ 4544365.352128239348531, 8300188.909734142944217 ], [ 4544377.614718047901988, 8300202.242783896625042 ], [ 4544423.909572692587972, 8300252.591665480285883 ], [ 4544426.797367352992296, 8300318.556712782010436 ], [ 4544405.936724566854537, 8300349.98192598298192 ], [ 4544337.910312831401825, 8300452.428355373442173 ], [ 4544324.445005729794502, 8300500.020564964041114 ], [ 4544342.705399014987051, 8300580.122989702038467 ], [ 4544408.120413744822145, 8300693.592207841575146 ], [ 4544411.803727981634438, 8300706.812711451202631 ], [ 4544428.936976716853678, 8300768.240985342301428 ], [ 4544424.991794119589031, 8300845.312200726009905 ], [ 4544424.940932847559452, 8300846.265435827895999 ], [ 4544437.587602615356445, 8300943.256341946311295 ], [ 4544432.692963902838528, 8301016.159174767322838 ], [ 4544405.893426271155477, 8301108.50579135492444 ], [ 4544379.70223739463836, 8301163.13893467374146 ], [ 4544291.016675560735166, 8301278.363308170810342 ], [ 4544168.686795821413398, 8301278.942589005455375 ], [ 4544140.256197490729392, 8301294.275116847828031 ], [ 4544104.668455581180751, 8301338.893402063287795 ], [ 4544084.424846148118377, 8301350.258557192981243 ], [ 4543995.211527696810663, 8301357.85435460973531 ], [ 4543918.654197202064097, 8301381.209584295749664 ], [ 4543771.280280813574791, 8301436.420303844846785 ], [ 4543771.128877745009959, 8301436.472816659137607 ], [ 4543639.099224776960909, 8301504.510652343742549 ], [ 4543594.910938255488873, 8301499.539266301319003 ], [ 4543541.385197212919593, 8301457.446815877221525 ], [ 4543524.703440927900374, 8301444.326365375891328 ], [ 4543480.554360811598599, 8301424.198600059375167 ], [ 4543423.655710788443685, 8301427.099817678332329 ], [ 4543375.36582054477185, 8301454.957800935953856 ], [ 4543360.518020201474428, 8301525.868661711923778 ], [ 4543368.726225095801055, 8301589.919425457715988 ], [ 4543386.174335746094584, 8301634.655937343835831 ], [ 4543406.721208330243826, 8301665.416937128640711 ], [ 4543461.85058322828263, 8301747.952033978886902 ], [ 4543495.701275123283267, 8301815.711893412284553 ], [ 4543507.953008250333369, 8301852.124353947117925 ], [ 4543525.960954451933503, 8301905.603993693366647 ], [ 4543534.384643381461501, 8301998.197152087464929 ], [ 4543519.651427345350385, 8302060.544314024969935 ], [ 4543468.423770884983242, 8302112.767137689515948 ], [ 4543446.244118859991431, 8302151.101297586224973 ], [ 4543449.44566176366061, 8302262.443992735818028 ], [ 4543422.832508106715977, 8302354.949863035231829 ], [ 4543256.699777225032449, 8302535.086036978289485 ], [ 4543235.798080025240779, 8302582.732459718361497 ], [ 4543230.816981120035052, 8302636.882405218668282 ], [ 4543222.349747594445944, 8302722.598275808617473 ], [ 4543174.654502831399441, 8302774.26888258382678 ], [ 4543153.976890656165779, 8302854.341794971376657 ], [ 4543116.002296672202647, 8302884.088872654363513 ], [ 4543020.29233517870307, 8302899.488908877596259 ], [ 4542980.091910321265459, 8302941.952451227232814 ], [ 4542965.248611571267247, 8303010.400363242253661 ], [ 4542985.438640313223004, 8303095.635227918624878 ], [ 4542969.71837439853698, 8303127.693696863949299 ], [ 4542940.053416560404003, 8303148.871122484095395 ], [ 4542834.873023419640958, 8303154.143150434829295 ], [ 4542774.045124493539333, 8303175.896554543636739 ], [ 4542707.385225509293377, 8303215.688342084176838 ], [ 4542657.159223132766783, 8303275.264611445367336 ], [ 4542638.761621691286564, 8303319.4870983986184 ], [ 4542639.460429651662707, 8303351.246215168386698 ], [ 4542742.304929863661528, 8303471.268260988406837 ], [ 4542756.120649642311037, 8303504.63824225962162 ], [ 4542756.848707273602486, 8303506.405670324340463 ], [ 4542753.506486857309937, 8303541.569602506235242 ], [ 4542741.34511542506516, 8303561.92511581722647 ], [ 4542717.331248291768134, 8303574.258884489536285 ], [ 4542714.768571610562503, 8303574.020000245422125 ], [ 4542607.989709038287401, 8303563.737037530168891 ], [ 4542574.286775734275579, 8303580.984755367040634 ], [ 4542551.870894130319357, 8303609.338955327868462 ], [ 4542525.43703946005553, 8303672.788409977219999 ], [ 4542488.964302350766957, 8303924.516368517652154 ], [ 4542428.971931499429047, 8304089.878393352031708 ], [ 4542333.758986788801849, 8304238.582483341917396 ], [ 4542282.674209971912205, 8304270.058084988035262 ], [ 4542229.199109958484769, 8304264.548267988488078 ], [ 4542202.010411092080176, 8304249.190541642718017 ], [ 4542160.059813465923071, 8304179.694333942607045 ], [ 4542106.597480143420398, 8304154.921808598563075 ], [ 4542072.016802071593702, 8304156.617542452178895 ], [ 4542007.749329801648855, 8304181.05417150631547 ], [ 4541946.42129079811275, 8304223.756909464485943 ], [ 4541902.302116893231869, 8304260.450560227036476 ], [ 4541851.399955028668046, 8304327.480601198971272 ], [ 4541809.987121920101345, 8304365.292535203509033 ], [ 4541749.069577139802277, 8304379.375318275764585 ], [ 4541628.609723384492099, 8304377.419559116475284 ], [ 4541451.05518885795027, 8304311.382045524194837 ], [ 4541292.695794511586428, 8304196.808798070065677 ], [ 4541242.119608012959361, 8304202.327664867974818 ], [ 4541158.436694431118667, 8304256.428693970665336 ], [ 4541148.230799932032824, 8304263.018776613287628 ], [ 4541116.517868272960186, 8304266.911126830615103 ], [ 4541078.182865605689585, 8304240.436265517026186 ], [ 4541064.008373427204788, 8304218.841787518933415 ], [ 4540993.18812168110162, 8304110.970043424516916 ], [ 4540933.874987556599081, 8304078.423001334071159 ], [ 4540877.469593351706862, 8304069.001874029636383 ], [ 4540825.066824840381742, 8304094.756509320810437 ], [ 4540802.346024721860886, 8304159.243935091421008 ], [ 4540811.209006194025278, 8304214.93243345990777 ], [ 4540869.675881403498352, 8304299.270956434309483 ], [ 4540885.091557336039841, 8304344.058748107403517 ], [ 4540883.268509387969971, 8304367.391339625231922 ], [ 4540881.108852807432413, 8304395.277820276096463 ], [ 4540858.8370988573879, 8304422.180431841872633 ], [ 4540851.541360091418028, 8304431.002541312947869 ], [ 4540846.504006530158222, 8304449.533832920715213 ], [ 4540835.17188738565892, 8304710.647160334512591 ], [ 4540803.651458499953151, 8304800.338449648581445 ], [ 4540773.931108389981091, 8304837.258613707497716 ], [ 4540653.112526914104819, 8304936.455179103650153 ], [ 4540619.115880033932626, 8304999.067492309957743 ], [ 4540615.31926993560046, 8305036.986041182652116 ], [ 4540629.898663393221796, 8305086.628722337074578 ], [ 4540621.68998708948493, 8305133.126542104408145 ], [ 4540659.980480664409697, 8305211.653055823408067 ], [ 4540651.272760027088225, 8305299.385477356612682 ], [ 4540625.949805898591876, 8305340.464500951580703 ], [ 4540535.523485913872719, 8305403.997028482146561 ], [ 4540512.546950995922089, 8305444.28998059220612 ], [ 4540504.020007997751236, 8305489.48332784883678 ], [ 4540518.971128581091762, 8305515.320968188345432 ], [ 4540550.566178565844893, 8305536.637094231322408 ], [ 4540638.897065117955208, 8305536.544273655861616 ], [ 4540728.444190879352391, 8305554.37312940414995 ], [ 4540736.708518465049565, 8305560.782821495085955 ], [ 4540769.585497494786978, 8305586.307039390318096 ], [ 4540803.600142324343324, 8305633.213622912764549 ], [ 4540850.417547451332211, 8305760.663445115089417 ], [ 4540851.345545824617147, 8305763.189416764304042 ], [ 4540865.563172542490065, 8305871.789329847320914 ], [ 4540889.064980703406036, 8305955.139396450482309 ], [ 4540853.61898542009294, 8306060.909840056672692 ], [ 4540852.358553782105446, 8306094.450831157155335 ], [ 4540871.987421415746212, 8306188.487946554087102 ], [ 4540909.287927229888737, 8306269.468213967978954 ], [ 4540916.053743989206851, 8306407.470366074703634 ], [ 4540926.044773694127798, 8306428.826989114284515 ], [ 4540961.669899594970047, 8306463.30359030328691 ], [ 4540997.751966170966625, 8306474.509470807388425 ], [ 4541079.843701061792672, 8306475.545265293680131 ], [ 4541196.15561478305608, 8306477.008750368840992 ], [ 4541203.02159356418997, 8306515.835590708069503 ], [ 4541186.789691174402833, 8306549.160101767629385 ], [ 4541119.865804835222661, 8306576.129597123712301 ], [ 4540975.329000260680914, 8306634.385351391509175 ], [ 4540944.530344429425895, 8306656.671492027118802 ], [ 4540907.70035039074719, 8306708.720916067250073 ], [ 4540897.446335259824991, 8306743.982596916146576 ], [ 4540914.870507548563182, 8306832.738727666437626 ], [ 4540913.757958826608956, 8306872.995730897411704 ], [ 4540860.517660413868725, 8306975.076934753917158 ], [ 4540841.909813188947737, 8307061.538409196771681 ], [ 4540845.638268020935357, 8307099.282962752506137 ], [ 4540859.79478607699275, 8307124.64939269144088 ], [ 4540935.559633023105562, 8307182.128654703497887 ], [ 4540998.685224030166864, 8307230.005347143858671 ], [ 4541032.508729713968933, 8307297.80088409408927 ], [ 4541010.176709216088057, 8307346.86199430655688 ], [ 4540949.561761976219714, 8307368.673834531567991 ], [ 4540923.690844663418829, 8307391.656176554970443 ], [ 4540920.178270420990884, 8307420.093064974993467 ], [ 4540943.767909545451403, 8307469.024087771773338 ], [ 4540943.579127640463412, 8307487.406608052551746 ], [ 4540917.13388691470027, 8307508.990688513033092 ], [ 4540877.444682907313108, 8307541.3552635172382 ], [ 4540866.761824982240796, 8307571.093831580132246 ], [ 4540874.684109523892403, 8307608.121772127225995 ], [ 4540923.106151733547449, 8307669.502034764736891 ], [ 4540960.212787030264735, 8307682.802522932179272 ], [ 4540988.156199342571199, 8307668.648857890628278 ], [ 4541002.198246497660875, 8307661.545657323673368 ], [ 4541035.603289742954075, 8307588.046384479850531 ], [ 4541068.265045582316816, 8307557.363381054252386 ], [ 4541105.334825474768877, 8307542.956056633964181 ], [ 4541139.745606959797442, 8307567.70999286044389 ], [ 4541158.986666875891387, 8307602.840531855821609 ], [ 4541185.825678508728743, 8307705.817210916429758 ], [ 4541198.115495351143181, 8307799.587055061012506 ], [ 4541196.774781269952655, 8307895.918892133049667 ], [ 4541186.156927283853292, 8307933.869881272315979 ], [ 4541181.697726669721305, 8307949.782894996926188 ], [ 4541133.916868969798088, 8308011.249536294490099 ], [ 4541007.018399064429104, 8308125.179058656096458 ], [ 4540855.923016984947026, 8308299.351043657399714 ], [ 4540838.447654302231967, 8308310.570098948664963 ], [ 4540789.112149541266263, 8308342.224020640365779 ], [ 4540584.129690471105278, 8308437.630908997729421 ], [ 4540355.571068623103201, 8308597.685491356998682 ], [ 4540252.280470767058432, 8308686.011802149936557 ], [ 4540136.421905328519642, 8308785.08715720102191 ], [ 4539956.642581025138497, 8309005.063608180731535 ], [ 4539918.601440782658756, 8309034.863511396571994 ], [ 4539821.065267452970147, 8309066.400607958436012 ], [ 4540008.447346824221313, 8309199.011759677901864 ], [ 4542601.006086623296142, 8311033.341818145476282 ], [ 4540150.500917262397707, 8316124.641732172109187 ], [ 4540262.47046690993011, 8316109.866402116604149 ], [ 4540379.861477225087583, 8316108.600666707381606 ], [ 4540427.389559471048415, 8316199.308376178145409 ], [ 4542371.000189013779163, 8319907.406547436490655 ], [ 4542372.670509268529713, 8319906.085313552990556 ], [ 4542414.645953556522727, 8319872.925519947893918 ], [ 4542471.435739859007299, 8319828.047834452241659 ], [ 4542512.494117203168571, 8319795.602450891397893 ], [ 4542614.07494640070945, 8319715.344697807915509 ], [ 4542643.964361656457186, 8319686.776624080725014 ], [ 4542675.896373065188527, 8319633.260628825053573 ], [ 4542665.659334745258093, 8319572.501395042985678 ], [ 4542661.968459610827267, 8319567.159255271777511 ], [ 4542651.408592904917896, 8319551.852913285605609 ], [ 4542585.11920494120568, 8319505.228363507427275 ], [ 4542568.607317772693932, 8319472.042080589570105 ], [ 4542562.741693565621972, 8319424.782353888265789 ], [ 4542576.28108664508909, 8319365.760818835347891 ], [ 4542703.41914579551667, 8319161.006372744217515 ], [ 4542817.668791932985187, 8319094.132040152326226 ], [ 4542872.432950900867581, 8319146.912431186065078 ], [ 4542903.420055056922138, 8319202.47100024856627 ], [ 4542944.058555123396218, 8319275.293089645914733 ], [ 4542945.471067673526704, 8319302.22755335457623 ], [ 4542915.787372658029199, 8319378.977264379151165 ], [ 4543056.066816658712924, 8319459.846505779772997 ], [ 4543131.550485136918724, 8319437.555193483829498 ], [ 4543175.008363898843527, 8319400.47329103667289 ], [ 4543191.8727010153234, 8319345.078052591532469 ], [ 4543178.241928006522357, 8319294.650158748961985 ], [ 4543151.456376316025853, 8319290.690848544239998 ], [ 4543116.234342026524246, 8319248.942410561256111 ], [ 4543117.311483379453421, 8319170.095307762734592 ], [ 4543117.457533189095557, 8319159.235483013093472 ], [ 4543192.24745240714401, 8319067.32773463241756 ], [ 4543253.507066900841892, 8319013.515082227066159 ], [ 4543350.255921766161919, 8318927.181504621170461 ], [ 4543480.797519812360406, 8318846.473923278972507 ], [ 4543554.336646908894181, 8318784.066863183863461 ], [ 4543593.406673630699515, 8318750.90513435844332 ], [ 4543602.558834134601057, 8318694.617035888135433 ], [ 4543600.014620061963797, 8318678.357021010480821 ], [ 4543587.383480561897159, 8318597.413726917468011 ], [ 4543615.158848403021693, 8318514.73524630907923 ], [ 4543682.222623448818922, 8318430.310976434499025 ], [ 4543686.232778811827302, 8318425.273658001795411 ], [ 4543687.411237012594938, 8318413.268876815214753 ], [ 4543703.266119141131639, 8318251.236577750183642 ], [ 4543718.748968658968806, 8318214.377634409815073 ], [ 4543747.041160956025124, 8318183.226095696911216 ], [ 4543765.420329205691814, 8318060.665471355430782 ], [ 4543809.545462008565664, 8317977.893572678789496 ], [ 4543829.732851156964898, 8317906.796119175851345 ], [ 4543812.384661954827607, 8317828.568706130608916 ], [ 4543821.482245791703463, 8317765.100815697573125 ], [ 4543860.575556569732726, 8317721.221316831186414 ], [ 4543940.901538103818893, 8317658.945875224657357 ], [ 4544089.516803884878755, 8317488.19233568944037 ], [ 4544145.957567356526852, 8317448.177265699021518 ], [ 4544202.192081706598401, 8317427.13149521779269 ], [ 4544165.40235533285886, 8317539.71513563208282 ], [ 4544167.479407652281225, 8317554.013163946568966 ], [ 4544175.105983016081154, 8317606.443164496682584 ], [ 4544187.301625818945467, 8317661.602424838580191 ], [ 4544229.927330637350678, 8317713.933824680745602 ], [ 4544293.913153087720275, 8317760.021558693610132 ], [ 4544303.563229375518858, 8317761.795152102597058 ], [ 4544383.646430285647511, 8317776.439010336995125 ], [ 4544413.330983504652977, 8317773.252525875344872 ], [ 4544421.38760085683316, 8317772.387763480655849 ], [ 4544445.320212122052908, 8317769.833248792216182 ], [ 4544532.178273060359061, 8317745.973254029639065 ], [ 4544646.627167905680835, 8317693.787737786769867 ], [ 4544740.506862961687148, 8317680.870023370720446 ], [ 4544767.669152402319014, 8317684.713235355913639 ], [ 4544798.459747413173318, 8317702.140894992277026 ], [ 4544803.648142659105361, 8317705.08173119649291 ], [ 4544835.136328131891787, 8317758.150330234318972 ], [ 4544730.842408278957009, 8317923.873438159935176 ], [ 4544727.159760459326208, 8317943.674155753105879 ], [ 4544717.863437795080245, 8317993.64577469881624 ], [ 4544735.949455268681049, 8318118.386989999562502 ], [ 4544797.045009376481175, 8318226.817672643810511 ], [ 4544859.722407169640064, 8318312.943491084501147 ], [ 4545031.025067889131606, 8318481.000802075490355 ], [ 4545148.90941328369081, 8318595.010102280415595 ], [ 4545240.88427353091538, 8318662.549728817306459 ], [ 4545331.01708694268018, 8318711.945609912276268 ], [ 4545448.494504815898836, 8318744.127611631527543 ], [ 4545470.19410474319011, 8318749.828026762232184 ], [ 4546816.522080911323428, 8319103.360730551183224 ], [ 4546943.560415300540626, 8319114.238014903850853 ], [ 4547321.984403401613235, 8319037.427191108465195 ], [ 4547563.441756574437022, 8319032.848687506280839 ], [ 4547774.45206630975008, 8318965.839119301177561 ], [ 4547938.145891135558486, 8318925.634792390279472 ], [ 4548014.833350547589362, 8318925.409782322123647 ], [ 4548089.22460750862956, 8318937.300574286840856 ], [ 4548305.63577754702419, 8319016.24522855412215 ], [ 4548402.600910026580095, 8319022.499074932187796 ], [ 4548474.86716740205884, 8319004.51341952290386 ], [ 4548613.593289520591497, 8318922.619209174066782 ], [ 4548875.756967664696276, 8318807.154019240289927 ], [ 4548965.476993166841567, 8318691.555931065231562 ], [ 4549084.504330301657319, 8318429.057190852239728 ], [ 4549109.147824628278613, 8318324.238962161354721 ], [ 4549130.747018578462303, 8318293.653727287426591 ], [ 4549154.145980960689485, 8318284.715786410495639 ], [ 4549196.017010127194226, 8318268.731442875228822 ], [ 4549264.819845099002123, 8318281.610309448093176 ], [ 4549347.222847911529243, 8318282.53399158641696 ], [ 4549510.066719553433359, 8318268.9544040504843 ], [ 4549609.497957807965577, 8318258.509246299043298 ], [ 4549733.435690970160067, 8318232.900083163753152 ], [ 4549832.954887406900525, 8318166.67116151470691 ], [ 4549883.316501448862255, 8318118.640092196874321 ], [ 4550026.643805680796504, 8317951.84255033172667 ], [ 4550121.310045559890568, 8317858.238147797062993 ], [ 4550192.749902420677245, 8317760.051111108623445 ], [ 4550280.593692892231047, 8317611.663335364311934 ], [ 4550331.526797836646438, 8317559.504471195861697 ], [ 4550357.937914430163801, 8317556.558935756795108 ], [ 4550403.060032955370843, 8317568.33870883192867 ], [ 4550472.810826028697193, 8317620.984936056658626 ], [ 4550551.08721069432795, 8317622.869114781729877 ], [ 4550650.206009010784328, 8317612.292478585615754 ], [ 4550660.696255545131862, 8317611.172617733478546 ], [ 4550862.086274418048561, 8317557.726274847984314 ], [ 4550942.666149321943521, 8317508.151850277557969 ], [ 4551044.210454409942031, 8317410.382953739725053 ], [ 4551102.46362463477999, 8317312.442099009640515 ], [ 4551165.202407846227288, 8317206.964840613305569 ], [ 4551238.394041010178626, 8317146.819946371950209 ], [ 4551324.308182492852211, 8317109.939000359736383 ], [ 4551418.155577199533582, 8317040.280428681522608 ], [ 4551484.956730785779655, 8316955.028164350427687 ], [ 4551550.632308330386877, 8316902.871673573739827 ], [ 4551675.96124112047255, 8316847.204120734706521 ], [ 4551837.244483068585396, 8316826.925235588103533 ], [ 4551911.552019899711013, 8316828.252916092053056 ], [ 4551985.282800192013383, 8316846.887912575155497 ], [ 4552064.764029993675649, 8316902.210801702924073 ], [ 4552104.814289834350348, 8316985.605681867338717 ], [ 4552132.975343080237508, 8317017.728169728070498 ], [ 4552234.209983304142952, 8317057.887919160537422 ], [ 4552348.229839716106653, 8317148.049238257110119 ], [ 4552440.561515958048403, 8317185.053944896906614 ], [ 4552510.027238719165325, 8317177.666887112893164 ], [ 4552639.093686171807349, 8317103.992798640392721 ], [ 4552737.772199036553502, 8317086.998464850708842 ], [ 4553071.742988546378911, 8316950.231540322303772 ], [ 4553279.745060568675399, 8316887.019498047418892 ], [ 4553333.686466474086046, 8316890.551731719635427 ], [ 4553447.974077237769961, 8316959.965541752055287 ], [ 4553553.593142546713352, 8316991.759619200602174 ], [ 4553619.780084436759353, 8316966.789407523348927 ], [ 4553751.340872037224472, 8316954.032249881885946 ], [ 4553824.286040425300598, 8316963.17159837577492 ], [ 4553861.364320233464241, 8316967.824789164587855 ], [ 4554074.720004515722394, 8317035.442476782947779 ], [ 4554188.653609045781195, 8317086.817079610191286 ], [ 4554234.595877543091774, 8317107.535696397535503 ], [ 4554239.534357821568847, 8317106.697408203966916 ], [ 4554373.962759873829782, 8317083.850945209152997 ], [ 4554515.333243767730892, 8317017.335489772260189 ], [ 4554576.146207408979535, 8317000.825753992423415 ], [ 4554642.71684071328491, 8317008.332884418778121 ], [ 4554779.410378000698984, 8317063.39713239390403 ], [ 4554831.4727239953354, 8317044.701922511681914 ], [ 4554855.357294762507081, 8317011.616558942943811 ], [ 4554867.648134974762797, 8316973.807463338598609 ], [ 4554882.775348933413625, 8316834.929007868282497 ], [ 4554842.485117237083614, 8316720.562066212296486 ], [ 4554838.321060501039028, 8316619.13818640075624 ], [ 4554796.638697289861739, 8316515.339528660289943 ], [ 4554807.318529691547155, 8316429.772931018844247 ], [ 4554816.894932077266276, 8316375.249066590331495 ], [ 4554811.569276252761483, 8316296.046872046776116 ], [ 4554790.717901982367039, 8316170.620709294453263 ], [ 4554749.164790231734514, 8316011.830317188054323 ], [ 4554750.763824297115207, 8315930.218656396493316 ], [ 4554778.484072173014283, 8315822.243045508861542 ], [ 4554953.486636210232973, 8315532.58471851889044 ], [ 4555029.560045773163438, 8315474.461532793007791 ], [ 4555155.194791717454791, 8315342.757727700285614 ], [ 4555333.618042389862239, 8315270.718795038759708 ], [ 4555409.140025223605335, 8315252.456581089645624 ], [ 4555481.967578131705523, 8315233.455326308496296 ], [ 4555512.278035805560648, 8315223.611683672294021 ], [ 4555555.756442476995289, 8315189.75448739156127 ], [ 4555611.3178291907534, 8315011.925266922451556 ], [ 4555602.687582712620497, 8315003.419200992211699 ], [ 4555582.164544075727463, 8314920.246846978552639 ], [ 4555612.780367846600711, 8314866.387725678272545 ], [ 4555666.547329848632216, 8314837.983849944546819 ], [ 4555748.868827302008867, 8314872.67953653819859 ], [ 4555845.506946664303541, 8314850.444847593083978 ], [ 4555889.99977511446923, 8314804.369824217632413 ], [ 4555948.05137106962502, 8314732.901832837611437 ], [ 4555892.609372429549694, 8314637.875600982457399 ], [ 4555848.672786865383387, 8314413.510610465891659 ], [ 4555775.996061807498336, 8314305.332892995327711 ], [ 4555662.977880461141467, 8314164.162766510620713 ], [ 4555599.554584258235991, 8313992.445953615009785 ], [ 4555593.140490333549678, 8313896.382896866649389 ], [ 4555623.457102777436376, 8313802.646305769681931 ], [ 4555654.496248761191964, 8313684.350045554339886 ], [ 4555693.829321233555675, 8313595.698928969912231 ], [ 4555731.324542556889355, 8313538.852983204647899 ], [ 4555774.607796773314476, 8313500.3996387636289 ], [ 4555775.341034600511193, 8313288.428210291080177 ], [ 4555789.985646148212254, 8313243.131150491535664 ], [ 4555822.672612413764, 8313183.664750679396093 ], [ 4555976.755191173404455, 8312996.030996007844806 ], [ 4556147.955624086782336, 8312863.436597407795489 ], [ 4556193.312124509364367, 8312816.413281238637865 ], [ 4556236.622251729480922, 8312716.776694636791945 ], [ 4556215.015636839903891, 8312537.033062199130654 ], [ 4556228.646636669524014, 8312486.192054831422865 ], [ 4556225.232315660454333, 8312426.951962347142398 ], [ 4556258.112945530563593, 8312344.091928950510919 ], [ 4556266.974500547163188, 8312280.657713735476136 ], [ 4556280.801550332456827, 8312157.520792726427317 ], [ 4556303.049996920861304, 8312061.257681922055781 ], [ 4556345.969912960194051, 8311952.661083128303289 ], [ 4556376.670770968310535, 8311814.578324331901968 ], [ 4556405.794542653486133, 8311760.43621879722923 ], [ 4556473.064814757555723, 8311647.208456518128514 ], [ 4556557.231928904540837, 8311517.781524016521871 ], [ 4556619.254386015236378, 8311412.098131010308862 ], [ 4556703.791829691268504, 8311263.58539716899395 ], [ 4556745.787496842443943, 8311192.957123965956271 ], [ 4556815.830627088434994, 8311133.565167254768312 ], [ 4556835.451569417491555, 8311121.056303024291992 ], [ 4556939.143217689357698, 8311040.334693747572601 ], [ 4557042.511028568260372, 8310976.147734860889614 ], [ 4557126.486398448236287, 8310924.307418360374868 ], [ 4557212.644181587733328, 8310892.865473664365709 ], [ 4557325.782839668914676, 8310851.749069896526635 ], [ 4557400.062862366437912, 8310840.428249740973115 ], [ 4557498.404462309554219, 8310839.746017570607364 ], [ 4557535.659107857383788, 8310827.725216327235103 ], [ 4557574.688650513999164, 8310783.721027633175254 ], [ 4557574.490725824609399, 8310731.021469686180353 ], [ 4557565.456334670074284, 8310625.603353213518858 ], [ 4557460.613949792459607, 8310500.014329452067614 ], [ 4557496.811870504170656, 8310290.724732398055494 ], [ 4557497.82449103705585, 8310284.897400861606002 ], [ 4557558.486857424490154, 8310281.084911673329771 ], [ 4557668.732875459827483, 8310269.511544038541615 ], [ 4557780.022663661278784, 8310260.69758512545377 ], [ 4557887.798227843828499, 8310252.48239135555923 ], [ 4558005.072536085732281, 8310242.537924559786916 ], [ 4558047.203200534917414, 8310249.36831587087363 ], [ 4558075.827978688292205, 8310260.73620941862464 ], [ 4558077.859045158140361, 8310255.593744919635355 ], [ 4558096.429806722328067, 8310208.684716009534895 ], [ 4558119.340544834733009, 8310157.264780017547309 ], [ 4558139.140265563502908, 8310118.111326912418008 ], [ 4558184.932724120095372, 8310027.618300976231694 ], [ 4558218.118073996156454, 8309984.590595895424485 ], [ 4558254.169095871970057, 8309932.608810286037624 ], [ 4558281.334614049643278, 8309902.824376014992595 ], [ 4558302.597829151898623, 8309803.703405678272247 ], [ 4558326.702204872854054, 8309774.992766914889216 ], [ 4558397.264560108073056, 8309749.222197928465903 ], [ 4558439.878057782538235, 8309718.996976310387254 ], [ 4558535.78624047152698, 8309724.600343288853765 ], [ 4558629.444857502356172, 8309754.933186456561089 ], [ 4558641.423192866146564, 8309756.74548083357513 ], [ 4558746.699518093839288, 8309772.686442119069397 ], [ 4558785.107709602452815, 8309794.566240401938558 ], [ 4558801.57427472434938, 8309829.056368664838374 ], [ 4558889.481516677886248, 8309917.787708573043346 ], [ 4559034.172911477275193, 8309963.26908646710217 ], [ 4559100.489016152918339, 8309970.131711638532579 ], [ 4559165.650963466614485, 8309987.511379953473806 ], [ 4559218.904847356490791, 8310007.905955696478486 ], [ 4559278.449078131467104, 8310006.353561459109187 ], [ 4559328.978650790639222, 8310003.078202842734754 ], [ 4559409.374618407338858, 8310011.436360290274024 ], [ 4559483.94966546446085, 8310012.795548127964139 ], [ 4559538.329276370815933, 8310012.764973267912865 ], [ 4559549.636010643094778, 8310010.304168399423361 ], [ 4559613.832977761514485, 8309978.442014296539128 ], [ 4559630.931267194449902, 8309955.966350447386503 ], [ 4559622.593113586306572, 8309901.683800211176276 ], [ 4559607.523437877185643, 8309863.693108041770756 ], [ 4559585.009793805889785, 8309746.165372165851295 ], [ 4559523.894218081608415, 8309476.527497809380293 ], [ 4559528.033971658907831, 8309432.375167083926499 ], [ 4559592.108274246565998, 8309352.120837617665529 ], [ 4559640.258025261573493, 8309331.339080250822008 ], [ 4559692.411309701390564, 8309339.342821601778269 ], [ 4559866.456841240637004, 8309396.676391915418208 ], [ 4559955.055164500139654, 8309415.559981120750308 ], [ 4559986.843519815243781, 8309403.788457039743662 ], [ 4560032.228065802715719, 8309330.015527456998825 ], [ 4560042.854296648874879, 8309271.685750805772841 ], [ 4560058.675602988339961, 8309044.37682185228914 ], [ 4560048.411290053278208, 8308980.528963558375835 ], [ 4560053.649309747852385, 8308830.442906460724771 ], [ 4560040.118728102184832, 8308714.593515275046229 ], [ 4560023.669272864237428, 8308570.566969332285225 ], [ 4560052.460640325210989, 8308465.542278086766601 ], [ 4560072.556270186789334, 8308423.587307504378259 ], [ 4560121.820928825996816, 8308327.944671635515988 ], [ 4560221.056085621006787, 8308310.57504460029304 ] ] ] } },
{ "type": "Feature", "properties": { "lv_id": "LOC_076686", "id": 451673.0, "CD_SETOR": "510720605000001", "SITUACAO": "Urbana", "CD_SIT": "1", "CD_TIPO": "0", "AREA_KM2": 0.33326858729127901, "CD_REGIAO": "5", "NM_REGIAO": "Centro-Oeste", "CD_UF": "51", "NM_UF": "Mato Grosso", "CD_MUN": "5107206", "NM_MUN": "Rio Branco", "CD_DIST": "510720605", "NM_DIST": "Rio Branco", "CD_SUBDIST": "51072060500", "NM_SUBDIST": null, "CD_BAIRRO": null, "NM_BAIRRO": null, "CD_NU": null, "NM_NU": null, "CD_FCU": null, "NM_FCU": null, "CD_AGLOM": "510720600001", "NM_AGLOM": "Panorama", "CD_RGINT": "5102", "NM_RGINT": "Cáceres", "CD_RGI": "510004", "NM_RGI": "Cáceres", "CD_CONCURB": null, "NM_CONCURB": null, "mun_code_x": "5107206", "index_right": 41017, "dist_m": 427.73341725239885, "local_id": 795433, "ano": 2022, "cod_localidade_ibge": 5107206, "NR_ZONA": "52", "nr_cep": 78275000.0, "nm_localidade": "RIO BRANCO", "nm_locvot": "ESCOLA MUNICIPAL DE I GRAU MANOEL TAVARES DE MENEZES", "ds_endereco": "ESPIRITO SANTO                         FIDERLANDIA        S/N", "ds_bairro": "CENTRO", "pred_long": -58.10846, "pred_lat": -15.236884, "pred_dist": 0.0, "tse_long": -58.10850296, "tse_lat": -15.23623242, "long": -58.10850296, "lat": -15.23623242, "ID_UNICO": "LOC_076686", "SG_UF": "MT", "CD_MUNICIPIO": "89958", "NR_LOCAL_VOTACAO": "1074", "QT_SECOES_AGREGADAS": 0, "QT_ELEITORES_TRANSFERIDOS": 0, "CIRO GOMES (PDT) (NÃO ELEITO) 1T": 6.0, "CONSTITUINTE EYMAEL (DC) (NÃO ELEITO) 1T": 0.0, "FELIPE D AVILA (NOVO) (NÃO ELEITO) 1T": 1.0, "JAIR BOLSONARO (PL) (2º TURNO) 1T": 446.0, "LULA (PT) (2º TURNO) 1T": 441.0, "LÉO PÉRICLES (UP) (NÃO ELEITO) 1T": 0.0, "PADRE KELMON (PTB) (NÃO ELEITO) 1T": 1.0, "SIMONE TEBET (MDB) (NÃO ELEITO) 1T": 31.0, "SOFIA MANZANO (PCB) (NÃO ELEITO) 1T": 0.0, "SORAYA THRONICKE (UNIÃO) (NÃO ELEITO) 1T": 17.0, "VERA (PSTU) (NÃO ELEITO) 1T": 0.0, "Total_Votos_Validos 1T": 943.0, "Votos_Brancos 1T": 12.0, "Votos_Nulos 1T": 32.0, "Abstenções 1T": 327.0, "Eleitores_Aptos 1T": 1314.0, "JAIR BOLSONARO (PL) (NÃO ELEITO) 2T": 491.0, "LULA (PT) (ELEITO) 2T": 447.0, "Total_Votos_Validos 2T": 938.0, "Votos_Brancos 2T": 7.0, "Votos_Nulos 2T": 16.0, "Abstenções 2T": 353.0, "Eleitores_Aptos 2T": 1314.0, "mun_code_y": "5107206", "mun_code": "5107206" }, "geometry": { "type": "Polygon", "coordinates": [ [ [ 4558535.78624047152698, 8309724.600343288853765 ], [ 4558439.878057782538235, 8309718.996976310387254 ], [ 4558397.264560108073056, 8309749.222197928465903 ], [ 4558326.702204872854054, 8309774.992766914889216 ], [ 4558302.597829151898623, 8309803.703405678272247 ], [ 4558281.334614049643278, 8309902.824376014992595 ], [ 4558254.169095871970057, 8309932.608810286037624 ], [ 4558218.118073996156454, 8309984.590595895424485 ], [ 4558184.932724120095372, 8310027.618300976231694 ], [ 4558139.140265563502908, 8310118.111326912418008 ], [ 4558119.340544834733009, 8310157.264780017547309 ], [ 4558096.429806722328067, 8310208.684716009534895 ], [ 4558077.859045158140361, 8310255.593744919635355 ], [ 4558075.827978688292205, 8310260.73620941862464 ], [ 4558047.203200534917414, 8310249.36831587087363 ], [ 4558005.072536085732281, 8310242.537924559786916 ], [ 4557887.798227843828499, 8310252.48239135555923 ], [ 4557780.022663661278784, 8310260.69758512545377 ], [ 4557668.732875459827483, 8310269.511544038541615 ], [ 4557558.486857424490154, 8310281.084911673329771 ], [ 4557497.82449103705585, 8310284.897400861606002 ], [ 4557496.811870504170656, 8310290.724732398055494 ], [ 4557460.613949792459607, 8310500.014329452067614 ], [ 4557565.456334670074284, 8310625.603353213518858 ], [ 4557574.490725824609399, 8310731.021469686180353 ], [ 4557574.688650513999164, 8310783.721027633175254 ], [ 4557535.659107857383788, 8310827.725216327235103 ], [ 4557498.404462309554219, 8310839.746017570607364 ], [ 4557400.062862366437912, 8310840.428249740973115 ], [ 4557325.782839668914676, 8310851.749069896526635 ], [ 4557212.644181587733328, 8310892.865473664365709 ], [ 4557126.486398448236287, 8310924.307418360374868 ], [ 4557042.511028568260372, 8310976.147734860889614 ], [ 4556939.143217689357698, 8311040.334693747572601 ], [ 4556835.451569417491555, 8311121.056303024291992 ], [ 4556815.830627088434994, 8311133.565167254768312 ], [ 4556745.787496842443943, 8311192.957123965956271 ], [ 4556703.791829691268504, 8311263.58539716899395 ], [ 4556619.254386015236378, 8311412.098131010308862 ], [ 4556557.231928904540837, 8311517.781524016521871 ], [ 4556473.064814757555723, 8311647.208456518128514 ], [ 4556405.794542653486133, 8311760.43621879722923 ], [ 4556376.670770968310535, 8311814.578324331901968 ], [ 4556345.969912960194051, 8311952.661083128303289 ], [ 4556303.049996920861304, 8312061.257681922055781 ], [ 4556280.801550332456827, 8312157.520792726427317 ], [ 4556266.974500547163188, 8312280.657713735476136 ], [ 4556258.112945530563593, 8312344.091928950510919 ], [ 4556225.232315660454333, 8312426.951962347142398 ], [ 4556228.646636669524014, 8312486.192054831422865 ], [ 4556215.015636839903891, 8312537.033062199130654 ], [ 4556236.622251729480922, 8312716.776694636791945 ], [ 4556193.312124509364367, 8312816.413281238637865 ], [ 4556147.955624086782336, 8312863.436597407795489 ], [ 4555976.755191173404455, 8312996.030996007844806 ], [ 4555822.672612413764, 8313183.664750679396093 ], [ 4555789.985646148212254, 8313243.131150491535664 ], [ 4555775.341034600511193, 8313288.428210291080177 ], [ 4555774.607796773314476, 8313500.3996387636289 ], [ 4555731.324542556889355, 8313538.852983204647899 ], [ 4555693.829321233555675, 8313595.698928969912231 ], [ 4555654.496248761191964, 8313684.350045554339886 ], [ 4555623.457102777436376, 8313802.646305769681931 ], [ 4555593.140490333549678, 8313896.382896866649389 ], [ 4555599.554584258235991, 8313992.445953615009785 ], [ 4555662.977880461141467, 8314164.162766510620713 ], [ 4555775.996061807498336, 8314305.332892995327711 ], [ 4555848.672786865383387, 8314413.510610465891659 ], [ 4555892.609372429549694, 8314637.875600982457399 ], [ 4555948.05137106962502, 8314732.901832837611437 ], [ 4555889.99977511446923, 8314804.369824217632413 ], [ 4555845.506946664303541, 8314850.444847593083978 ], [ 4555748.868827302008867, 8314872.67953653819859 ], [ 4555666.547329848632216, 8314837.983849944546819 ], [ 4555612.780367846600711, 8314866.387725678272545 ], [ 4555582.164544075727463, 8314920.246846978552639 ], [ 4555602.687582712620497, 8315003.419200992211699 ], [ 4555611.3178291907534, 8315011.925266922451556 ], [ 4555614.189693410880864, 8315002.704979699105024 ], [ 4555734.492339649237692, 8315011.227346982806921 ], [ 4555888.98922217823565, 8315022.181963626295328 ], [ 4557561.116931784898043, 8315140.63426792435348 ], [ 4562217.80572749953717, 8315469.862333416007459 ], [ 4563713.332448043860495, 8315575.39740006159991 ], [ 4566042.983084917068481, 8315739.587889678776264 ], [ 4566032.084776676259935, 8315629.014043176546693 ], [ 4566019.004581697285175, 8315496.347512286156416 ], [ 4566012.027535249479115, 8315471.437453745864332 ], [ 4565962.038640570826828, 8315293.007857132703066 ], [ 4565958.725641402415931, 8315141.297931580804288 ], [ 4565973.668803503736854, 8314981.029093146324158 ], [ 4565966.202030030079186, 8314844.772158856503665 ], [ 4566018.960221079178154, 8314689.905788765288889 ], [ 4566099.33599223010242, 8314542.072535751387477 ], [ 4566133.343627696856856, 8314500.482301704585552 ], [ 4566143.758959653787315, 8314385.765405543148518 ], [ 4566198.678049643523991, 8314188.309825006872416 ], [ 4566244.410172218456864, 8314112.360380841419101 ], [ 4566380.288819149136543, 8313952.885131105780602 ], [ 4566626.086507460102439, 8313824.458662013523281 ], [ 4566991.548326831310987, 8313706.725228922441602 ], [ 4567138.495804270729423, 8313630.213747184723616 ], [ 4567287.177238039672375, 8313593.090058075264096 ], [ 4567299.361727042123675, 8313586.770194374024868 ], [ 4567350.291483793407679, 8313560.344214888289571 ], [ 4567371.321719392202795, 8313539.356710575520992 ], [ 4567398.875768384896219, 8313474.585142364725471 ], [ 4567396.363486657850444, 8313361.339173343032598 ], [ 4567425.921822226606309, 8313260.110071327537298 ], [ 4567437.800647315569222, 8313181.738357077352703 ], [ 4567435.327943480573595, 8313138.65360102802515 ], [ 4567433.439255576580763, 8313105.862420612946153 ], [ 4567448.802685384638608, 8313015.674859600141644 ], [ 4567467.407220249995589, 8312991.592213205993176 ], [ 4567545.738868335261941, 8312933.037342950701714 ], [ 4567655.446331581100821, 8312883.912719443440437 ], [ 4567832.719616930931807, 8312753.893078491091728 ], [ 4568044.326010396704078, 8312631.926120800897479 ], [ 4568175.987969177775085, 8312570.947059076279402 ], [ 4568377.70430766325444, 8312439.677829369902611 ], [ 4568453.432487457990646, 8312433.651266392320395 ], [ 4568518.374613838270307, 8312443.254834616556764 ], [ 4568546.28353516664356, 8312453.640808327123523 ], [ 4568594.876393045298755, 8312471.706229318864644 ], [ 4568635.426167851313949, 8312465.519697340205312 ], [ 4568726.332619657739997, 8312420.038557063788176 ], [ 4568828.984227910637856, 8312368.683487727306783 ], [ 4568883.28216362465173, 8312358.14614615868777 ], [ 4568997.435410670004785, 8312376.728727526031435 ], [ 4569160.350460250861943, 8312428.774178793653846 ], [ 4569187.752261835150421, 8312437.530520767904818 ], [ 4569280.149512585252523, 8312467.048082390800118 ], [ 4569311.47215913515538, 8312477.052087634801865 ], [ 4569538.02638242021203, 8312543.641009169630706 ], [ 4569614.204809314571321, 8312544.69587451312691 ], [ 4569702.380254624411464, 8312527.912472728639841 ], [ 4569871.573919894173741, 8312465.639785524457693 ], [ 4570042.578422595746815, 8312352.59686906915158 ], [ 4570137.681187126785517, 8312311.325527146458626 ], [ 4570144.14892940223217, 8312310.212907020002604 ], [ 4570219.025403266772628, 8312297.243759891949594 ], [ 4570294.801339739002287, 8312263.326607348397374 ], [ 4570378.805968168191612, 8312142.12027636449784 ], [ 4570381.742888167500496, 8312139.001744919456542 ], [ 4570399.735914776101708, 8312119.953504640609026 ], [ 4570429.82296943385154, 8312108.8249292075634 ], [ 4570465.248978927731514, 8312118.314734727144241 ], [ 4570497.559380006045103, 8312141.856643763370812 ], [ 4570611.248547242954373, 8312279.697012349963188 ], [ 4570672.328359192237258, 8312321.26905257999897 ], [ 4570683.939443812705576, 8312329.168600568547845 ], [ 4570715.669497980736196, 8312336.305231190286577 ], [ 4570747.260534101165831, 8312343.405991660431027 ], [ 4570776.365281308069825, 8312332.525167375802994 ], [ 4570777.903879950754344, 8312329.480817411094904 ], [ 4570808.747536743059754, 8312268.783696570433676 ], [ 4570827.455158586613834, 8312227.109216483309865 ], [ 4570852.908587374724448, 8312200.244258211925626 ], [ 4570865.923979460261762, 8312198.929678190499544 ], [ 4570939.126933547668159, 8312202.211058225482702 ], [ 4571124.511341351084411, 8312264.359090057201684 ], [ 4571279.733985620550811, 8312406.46009236946702 ], [ 4571373.692055278457701, 8312506.520765421912074 ], [ 4571426.548142983578146, 8312574.261435374617577 ], [ 4571568.248979369178414, 8312762.110994939692318 ], [ 4571644.975968318991363, 8312863.818270129151642 ], [ 4571778.051476703956723, 8313001.050438501872122 ], [ 4571885.623439732007682, 8313067.292884624563158 ], [ 4572055.482018866576254, 8313129.269645633175969 ], [ 4572093.780823302455246, 8313136.324241951107979 ], [ 4572339.32846948876977, 8313181.555408708751202 ], [ 4572373.174203932285309, 8313191.800420736894011 ], [ 4572406.204229661263525, 8313220.276738031767309 ], [ 4572440.087957237847149, 8313227.261296252720058 ], [ 4572688.441197592765093, 8313278.429356185719371 ], [ 4572992.707422568462789, 8313258.692975839599967 ], [ 4573170.638084793463349, 8313222.711319644935429 ], [ 4573319.438374131917953, 8313159.999577349983156 ], [ 4573368.786650258116424, 8313129.097193326801062 ], [ 4573546.886779114603996, 8313031.667657003737986 ], [ 4573844.65559484437108, 8312907.352096286602318 ], [ 4573921.335354272276163, 8312867.828222861513495 ], [ 4574052.218705139122903, 8312800.361751878634095 ], [ 4574080.718025579117239, 8312788.434594075195491 ], [ 4574097.685301784425974, 8312781.344651527702808 ], [ 4574301.552878817543387, 8312696.09185822121799 ], [ 4574349.274567873217165, 8312684.835151770152152 ], [ 4574461.800851030275226, 8312658.316922129131854 ], [ 4574480.664988277480006, 8312653.867737459018826 ], [ 4574492.765161372721195, 8312633.101911704055965 ], [ 4574551.28507041092962, 8312545.463934818282723 ], [ 4574578.888857918791473, 8312481.566676827147603 ], [ 4574578.046469801105559, 8312441.510449536144733 ], [ 4574548.641269165091217, 8312367.749477189965546 ], [ 4574320.729265962727368, 8311895.275007127784193 ], [ 4574308.933997684158385, 8311870.836418670602143 ], [ 4574132.468508346937597, 8311504.9743328448385 ], [ 4574032.00721827801317, 8311278.173766739666462 ], [ 4573985.2578314114362, 8311201.18968091905117 ], [ 4573949.114954017102718, 8311169.674954771995544 ], [ 4573119.778617573902011, 8310716.866354838013649 ], [ 4572906.191457363776863, 8310600.244394114241004 ], [ 4572833.559993058443069, 8310560.585707282647491 ], [ 4572684.355353443883359, 8310478.866212273947895 ], [ 4572682.546752928756177, 8310477.879294430837035 ], [ 4572638.344108753837645, 8310453.668448117561638 ], [ 4572630.971707655116916, 8310449.629502663388848 ], [ 4572628.764658129774034, 8310448.102892642840743 ], [ 4572578.585071548819542, 8310413.456189556978643 ], [ 4572565.448615938425064, 8310404.387152725830674 ], [ 4572486.119370299391448, 8310334.390287724323571 ], [ 4572464.293817391619086, 8310315.135351473465562 ], [ 4572379.759933955036104, 8310246.584685912355781 ], [ 4572328.874493297189474, 8310209.450827257707715 ], [ 4572279.663959810510278, 8310192.401731194928288 ], [ 4572176.239837064407766, 8310158.100809348747134 ], [ 4572128.784369888715446, 8310142.037331650033593 ], [ 4572078.808886856772006, 8310125.117952644824982 ], [ 4572016.232885332778096, 8310103.930553769692779 ], [ 4571766.589830790646374, 8309966.636945598758757 ], [ 4571701.381768953055143, 8309930.781024914234877 ], [ 4571479.870339551009238, 8309806.465747298672795 ], [ 4571167.11246913857758, 8309630.938273916020989 ], [ 4571152.885496834293008, 8309612.830292671918869 ], [ 4571131.367320254445076, 8309529.377986272796988 ], [ 4571113.185657240450382, 8309486.095954394899309 ], [ 4571086.813905837014318, 8309459.989675867371261 ], [ 4571047.558277931064367, 8309443.352771691977978 ], [ 4570995.330071463249624, 8309438.679292010143399 ], [ 4570850.910704305395484, 8309430.196256806142628 ], [ 4570801.173170394264162, 8309425.634567668661475 ], [ 4570778.105150047689676, 8309416.847875874489546 ], [ 4570756.9363783756271, 8309408.783717449754477 ], [ 4570574.291322963312268, 8309309.384627185761929 ], [ 4570519.963075908832252, 8309279.813784956932068 ], [ 4570471.124011099338531, 8309253.238636450842023 ], [ 4569975.730714439414442, 8308983.601999443024397 ], [ 4569223.901385057717562, 8308572.138909608125687 ], [ 4568619.132234339602292, 8308286.862207762897015 ], [ 4568573.326304189860821, 8308255.679103635251522 ], [ 4568366.983434362336993, 8308115.22206406109035 ], [ 4568255.89247911889106, 8308039.594043159857392 ], [ 4568256.037123463116586, 8308037.577876436524093 ], [ 4568261.324196851812303, 8307896.634164018556476 ], [ 4568227.103682296350598, 8307768.116380017250776 ], [ 4568225.312915381975472, 8307765.021762242540717 ], [ 4568206.08266441244632, 8307731.810445243492723 ], [ 4568184.540907259099185, 8307694.618542045354843 ], [ 4568090.23829781357199, 8307626.331876385957003 ], [ 4567944.583378116600215, 8307558.581762648187578 ], [ 4567741.290620784275234, 8307512.348974114283919 ], [ 4567704.386129350401461, 8307488.560460802167654 ], [ 4567678.429519425146282, 8307456.621681514196098 ], [ 4567669.386256624013186, 8307426.83714154176414 ], [ 4567672.893017454072833, 8307392.89211302716285 ], [ 4567767.78309906180948, 8307285.119279785081744 ], [ 4567794.32435845118016, 8307202.881734171882272 ], [ 4567779.360074002295732, 8307158.068181888200343 ], [ 4567717.90106294490397, 8307101.523645100183785 ], [ 4567709.189787894487381, 8307079.942658520303667 ], [ 4567705.864585428498685, 8306980.302877168171108 ], [ 4567656.999752809293568, 8306940.474662767723203 ], [ 4567641.302303179167211, 8306903.966782639734447 ], [ 4567658.007464871741831, 8306872.040842335671186 ], [ 4567711.364757142029703, 8306842.623482507653534 ], [ 4567725.209471463225782, 8306814.327336811460555 ], [ 4567720.889426590874791, 8306763.85371457785368 ], [ 4567685.381711399182677, 8306716.896045818924904 ], [ 4567673.361198815517128, 8306683.151708660647273 ], [ 4567718.414591030217707, 8306610.119934248737991 ], [ 4567719.714676887728274, 8306576.99930320866406 ], [ 4567644.547208374366164, 8306514.199257629923522 ], [ 4567635.890673190355301, 8306490.844349754974246 ], [ 4567647.984295467846096, 8306456.159785429947078 ], [ 4567698.990102919749916, 8306400.498422661796212 ], [ 4567704.226390420459211, 8306367.15114610735327 ], [ 4567687.13064325787127, 8306344.704919641837478 ], [ 4567600.496797473169863, 8306310.610674109309912 ], [ 4567518.727244893088937, 8306309.739817267283797 ], [ 4567455.193479441106319, 8306267.964028917253017 ], [ 4567434.312982672825456, 8306222.496750935912132 ], [ 4567449.671055598184466, 8306168.748997719027102 ], [ 4567436.799937130883336, 8306107.878178739920259 ], [ 4567426.260537022724748, 8306058.01006380841136 ], [ 4567353.900389087386429, 8305944.700092973187566 ], [ 4567269.7808200083673, 8305850.9499536966905 ], [ 4567195.713537521660328, 8305768.411818518303335 ], [ 4567183.932672219350934, 8305723.556458350270987 ], [ 4567086.925151543691754, 8305533.503554088994861 ], [ 4566993.68729108851403, 8305498.329548334702849 ], [ 4566942.506061075255275, 8305510.702341411262751 ], [ 4566931.571967138908803, 8305519.295992529951036 ], [ 4566655.650425634346902, 8305736.418081547133625 ], [ 4566529.852263813838363, 8305751.564697595313191 ], [ 4566450.864139095880091, 8305734.634543539024889 ], [ 4566385.088893536478281, 8305743.207790123298764 ], [ 4566295.668026343919337, 8305719.427613854408264 ], [ 4566244.800637170672417, 8305680.134691457264125 ], [ 4566206.430475605651736, 8305626.775233829393983 ], [ 4566135.233097963966429, 8305582.567189472727478 ], [ 4566096.436146095395088, 8305529.654309840872884 ], [ 4566080.637340430170298, 8305475.105618312954903 ], [ 4566056.068661303259432, 8305441.015404081903398 ], [ 4566018.354607837274671, 8305394.023797632195055 ], [ 4565962.375528371892869, 8305284.761091221123934 ], [ 4565954.954394506290555, 8305246.508069993928075 ], [ 4565807.001623534597456, 8305269.469093065708876 ], [ 4565741.236677461303771, 8305271.761887216940522 ], [ 4565649.843283521942794, 8305312.014356206171215 ], [ 4565636.510288792662323, 8305479.623668479733169 ], [ 4565568.002275057137012, 8305525.404677079059184 ], [ 4565432.937832962721586, 8305511.442565414123237 ], [ 4565339.683621029369533, 8305514.797811675816774 ], [ 4565251.696495569311082, 8305578.008399283513427 ], [ 4565080.750829810276628, 8305777.015056449919939 ], [ 4565110.701223408803344, 8305843.975367233157158 ], [ 4565166.930953903123736, 8305947.75441035721451 ], [ 4565187.238804536871612, 8306023.165205527096987 ], [ 4565114.610510565340519, 8306015.45630494132638 ], [ 4565004.833495606668293, 8305946.010567313060164 ], [ 4564935.768230214715004, 8305952.355645088478923 ], [ 4564858.48860907740891, 8305989.064205279573798 ], [ 4564822.867330133914948, 8305982.044025422073901 ], [ 4564761.753212545998394, 8306041.938459873199463 ], [ 4564736.769449014216661, 8306149.573890889063478 ], [ 4564841.800872379913926, 8306199.852472925558686 ], [ 4564834.345794459804893, 8306256.942190686240792 ], [ 4564713.833163154311478, 8306352.613923720084131 ], [ 4564495.75386177841574, 8306476.994122337549925 ], [ 4564466.258989977650344, 8306621.418745260685682 ], [ 4564404.869992340914905, 8306763.984081118367612 ], [ 4564518.376934419386089, 8306975.935724758543074 ], [ 4564527.169684193097055, 8307052.397298105061054 ], [ 4564517.642707138322294, 8307164.758243130519986 ], [ 4564674.169315588660538, 8307275.765086643397808 ], [ 4564784.713262800127268, 8307277.214156296104193 ], [ 4564818.120984419248998, 8307287.254289276897907 ], [ 4564851.215692949481308, 8307312.962888575159013 ], [ 4564869.977576659992337, 8307340.467823350802064 ], [ 4564860.252602830529213, 8307375.806380273774266 ], [ 4564855.491939539089799, 8307416.295768151059747 ], [ 4564821.634872068651021, 8307422.886817198246717 ], [ 4564791.541240410879254, 8307429.880699696950614 ], [ 4564746.599316323176026, 8307438.650201094336808 ], [ 4564684.984849091619253, 8307456.582464753650129 ], [ 4564410.975056496448815, 8307567.210126470774412 ], [ 4563763.634870660491288, 8307842.558113976381719 ], [ 4563277.212850730866194, 8308045.864787572994828 ], [ 4563165.222334587015212, 8308094.64571744389832 ], [ 4563095.472539998590946, 8308137.859253927133977 ], [ 4563035.87815825175494, 8308183.80279129743576 ], [ 4562802.066336046904325, 8308534.270305341109633 ], [ 4562556.186286362819374, 8308915.05125695373863 ], [ 4562489.641305825673044, 8308786.622646434232593 ], [ 4562363.714474101550877, 8308692.691897185519338 ], [ 4562224.114851426333189, 8308646.837677271105349 ], [ 4561963.418709115125239, 8308522.392629838548601 ], [ 4561777.947624731808901, 8308335.777872147038579 ], [ 4561751.005215721204877, 8308274.215155953541398 ], [ 4561582.854904790408909, 8307981.082260695286095 ], [ 4561435.805131970904768, 8307924.909420510753989 ], [ 4561185.686897894367576, 8307917.675348941236734 ], [ 4561023.895979641936719, 8307830.693692049011588 ], [ 4560982.738826770335436, 8307710.366654421202838 ], [ 4560824.317973042838275, 8307580.203963994979858 ], [ 4560602.134022070094943, 8307581.119870152324438 ], [ 4560452.628858426585793, 8307519.801470775157213 ], [ 4560173.271624885499477, 8307501.100520985201001 ], [ 4560139.433736382983625, 8307530.005848934873939 ], [ 4560163.82629849947989, 8307631.460657198913395 ], [ 4560230.925209711305797, 8307783.784065019339323 ], [ 4560312.943556660786271, 8307868.905662287957966 ], [ 4560415.622701696120203, 8307913.435844715684652 ], [ 4560512.895124569535255, 8307911.226720811799169 ], [ 4560554.677751180715859, 8307932.379865790717304 ], [ 4560584.63365560490638, 8307987.744838936254382 ], [ 4560583.950135365128517, 8308050.454630273394287 ], [ 4560540.133885742165148, 8308128.982877403497696 ], [ 4560446.981042830273509, 8308238.422059427946806 ], [ 4560412.246227938681841, 8308280.734249988570809 ], [ 4560370.568845119327307, 8308303.701913463883102 ], [ 4560221.056085621006787, 8308310.57504460029304 ], [ 4560121.820928825996816, 8308327.944671635515988 ], [ 4560072.556270186789334, 8308423.587307504378259 ], [ 4560052.460640325210989, 8308465.542278086766601 ], [ 4560023.669272864237428, 8308570.566969332285225 ], [ 4560040.118728102184832, 8308714.593515275046229 ], [ 4560053.649309747852385, 8308830.442906460724771 ], [ 4560048.411290053278208, 8308980.528963558375835 ], [ 4560058.675602988339961, 8309044.37682185228914 ], [ 4560042.854296648874879, 8309271.685750805772841 ], [ 4560032.228065802715719, 8309330.015527456998825 ], [ 4559986.843519815243781, 8309403.788457039743662 ], [ 4559955.055164500139654, 8309415.559981120750308 ], [ 4559866.456841240637004, 8309396.676391915418208 ], [ 4559692.411309701390564, 8309339.342821601778269 ], [ 4559640.258025261573493, 8309331.339080250822008 ], [ 4559592.108274246565998, 8309352.120837617665529 ], [ 4559528.033971658907831, 8309432.375167083926499 ], [ 4559523.894218081608415, 8309476.527497809380293 ], [ 4559585.009793805889785, 8309746.165372165851295 ], [ 4559607.523437877185643, 8309863.693108041770756 ], [ 4559622.593113586306572, 8309901.683800211176276 ], [ 4559630.931267194449902, 8309955.966350447386503 ], [ 4559613.832977761514485, 8309978.442014296539128 ], [ 4559549.636010643094778, 8310010.304168399423361 ], [ 4559538.329276370815933, 8310012.764973267912865 ], [ 4559483.94966546446085, 8310012.795548127964139 ], [ 4559409.374618407338858, 8310011.436360290274024 ], [ 4559328.978650790639222, 8310003.078202842734754 ], [ 4559278.449078131467104, 8310006.353561459109187 ], [ 4559218.904847356490791, 8310007.905955696478486 ], [ 4559165.650963466614485, 8309987.511379953473806 ], [ 4559100.489016152918339, 8309970.131711638532579 ], [ 4559034.172911477275193, 8309963.26908646710217 ], [ 4558889.481516677886248, 8309917.787708573043346 ], [ 4558801.57427472434938, 8309829.056368664838374 ], [ 4558785.107709602452815, 8309794.566240401938558 ], [ 4558746.699518093839288, 8309772.686442119069397 ], [ 4558641.423192866146564, 8309756.74548083357513 ], [ 4558629.444857502356172, 8309754.933186456561089 ], [ 4558535.78624047152698, 8309724.600343288853765 ] ] ] } }
]
}
