{
"type": "FeatureCollection",
"name": "5212055",
"crs": { "type": "name", "properties": { "name": "urn:ogc:def:crs:EPSG::5880" } },
"features": [
{ "type": "Feature", "properties": { "lv_id": "LOC_079449", "id": 462535.0, "CD_SETOR": "521205505000002", "SITUACAO": "Urbana", "CD_SIT": "1", "CD_TIPO": "0", "AREA_KM2": 0.29701821290067298, "CD_REGIAO": "5", "NM_REGIAO": "Centro-Oeste", "CD_UF": "52", "NM_UF": "Goiás", "CD_MUN": "5212055", "NM_MUN": "Jesúpolis", "CD_DIST": "521205505", "NM_DIST": "Jesúpolis", "CD_SUBDIST": "52120550500", "NM_SUBDIST": null, "CD_BAIRRO": null, "NM_BAIRRO": null, "CD_NU": null, "NM_NU": null, "CD_FCU": null, "NM_FCU": null, "CD_AGLOM": null, "NM_AGLOM": null, "CD_RGINT": "5201", "NM_RGINT": "Goiânia", "CD_RGI": "520002", "NM_RGI": "Anápolis", "CD_CONCURB": null, "NM_CONCURB": null, "mun_code_x": "5212055", "index_right": 22278, "dist_m": 17.31654405456813, "local_id": 820922, "ano": 2022, "cod_localidade_ibge": 5212055, "NR_ZONA": "17", "nr_cep": 75495000.0, "nm_localidade": "JESÚPOLIS", "nm_locvot": "ESCOLA MUNICIPAL MENINO JESUS", "ds_endereco": "AV. MANOEL MIGUEL DA SILVA, S/N", "ds_bairro": "VISTA BELA", "pred_long": -49.373653, "pred_lat": -15.955422, "pred_dist": 0.0, "tse_long": -49.37349997, "tse_lat": -15.95540444, "long": -49.37349997, "lat": -15.95540444, "ID_UNICO": "LOC_079449", "SG_UF": "GO", "CD_MUNICIPIO": "92983", "NR_LOCAL_VOTACAO": "1031", "QT_SECOES_AGREGADAS": 0, "QT_ELEITORES_TRANSFERIDOS": 4, "CIRO GOMES (PDT) (NÃO ELEITO) 1T": 23.0, "CONSTITUINTE EYMAEL (DC) (NÃO ELEITO) 1T": 0.0, "FELIPE D AVILA (NOVO) (NÃO ELEITO) 1T": 3.0, "JAIR BOLSONARO (PL) (2º TURNO) 1T": 1065.0, "LULA (PT) (2º TURNO) 1T": 694.0, "LÉO PÉRICLES (UP) (NÃO ELEITO) 1T": 0.0, "PADRE KELMON (PTB) (NÃO ELEITO) 1T": 1.0, "SIMONE TEBET (MDB) (NÃO ELEITO) 1T": 68.0, "SOFIA MANZANO (PCB) (NÃO ELEITO) 1T": 0.0, "SORAYA THRONICKE (UNIÃO) (NÃO ELEITO) 1T": 12.0, "VERA (PSTU) (NÃO ELEITO) 1T": 1.0, "Total_Votos_Validos 1T": 1867.0, "Votos_Brancos 1T": 21.0, "Votos_Nulos 1T": 35.0, "Abstenções 1T": 559.0, "Eleitores_Aptos 1T": 2482.0, "JAIR BOLSONARO (PL) (NÃO ELEITO) 2T": 1153.0, "LULA (PT) (ELEITO) 2T": 719.0, "Total_Votos_Validos 2T": 1872.0, "Votos_Brancos 2T": 15.0, "Votos_Nulos 2T": 40.0, "Abstenções 2T": 555.0, "Eleitores_Aptos 2T": 2482.0, "mun_code_y": "5212055", "mun_code": "5212055" }, "geometry": { "type": "Polygon", "coordinates": [ [ [ 5485446.020954522304237, 8224542.900591783225536 ], [ 5485428.575791858136654, 8224545.10195055603981 ], [ 5485409.922499275766313, 8224553.268569204956293 ], [ 5485393.061614317819476, 8224554.280463467352092 ], [ 5485376.712409087456763, 8224548.809440743178129 ], [ 5485357.745591001585126, 8224542.107856525108218 ], [ 5485340.912777712568641, 8224544.406786783598363 ], [ 5485328.102249693125486, 8224552.456904486753047 ], [ 5485318.064403566531837, 8224568.849757554009557 ], [ 5485312.616655386984348, 8224587.085055380128324 ], [ 5485309.81149129383266, 8224607.205306430347264 ], [ 5485308.685431936755776, 8224645.41641260869801 ], [ 5485305.664610414765775, 8224685.600392745807767 ], [ 5485290.869886063039303, 8224751.928201561793685 ], [ 5485254.582341572269797, 8224866.113922290503979 ], [ 5485221.173304539173841, 8224991.559401361271739 ], [ 5485218.378031563945115, 8225050.9537174673751 ], [ 5485220.843718480318785, 8225134.621541626751423 ], [ 5485247.099392737261951, 8225197.711439957842231 ], [ 5485267.525304483249784, 8225237.938918834552169 ], [ 5485272.049941638484597, 8225281.477159710600972 ], [ 5485260.493077857419848, 8225320.060040004551411 ], [ 5485245.504407159984112, 8225331.35448404867202 ], [ 5485218.863469428382814, 8225330.181637622416019 ], [ 5485191.494831453077495, 8225349.660851312801242 ], [ 5485182.315501281991601, 8225388.780125226825476 ], [ 5485170.4567432962358, 8225414.992190165445209 ], [ 5485124.346401094458997, 8225442.56165343336761 ], [ 5485055.394081372767687, 8225454.14446259662509 ], [ 5485021.531989661976695, 8225447.822647586464882 ], [ 5484988.014552213251591, 8225456.834413389675319 ], [ 5484948.006695762276649, 8225494.24990619532764 ], [ 5484940.654648591764271, 8225535.693551188334823 ], [ 5484957.077770182862878, 8225581.90292395465076 ], [ 5484958.496350626461208, 8225619.025959549471736 ], [ 5484941.185426685959101, 8225664.804988380521536 ], [ 5484905.875759857706726, 8225699.209504238329828 ], [ 5484889.015046436339617, 8225712.564696268178523 ], [ 5484861.069411839358509, 8225759.185862599872053 ], [ 5484846.905019171535969, 8225787.223922094330192 ], [ 5484857.603309424594045, 8225815.874734410084784 ], [ 5484866.574548603966832, 8225846.339282982051373 ], [ 5484858.335075496695936, 8225884.416442636400461 ], [ 5484838.056974607519805, 8225956.224329676479101 ], [ 5484839.204957541078329, 8226007.495432008057833 ], [ 5484851.126843542791903, 8226047.10925879701972 ], [ 5484889.079023237340152, 8226077.508598192594945 ], [ 5484939.171512491069734, 8226174.2695795847103 ], [ 5484971.992714138701558, 8226266.023041290231049 ], [ 5484993.351552868261933, 8226321.571659747511148 ], [ 5485009.129539106972516, 8226428.149555438198149 ], [ 5485049.380032554268837, 8226508.030002947896719 ], [ 5485078.604985860176384, 8226587.517942054197192 ], [ 5485063.004944250918925, 8226656.859630195423961 ], [ 5485032.808467886410654, 8226708.846981693990529 ], [ 5485004.999830203130841, 8226761.836799714714289 ], [ 5484948.465811464935541, 8226826.197611443698406 ], [ 5484883.767109708860517, 8226877.99243002384901 ], [ 5484825.061927490867674, 8226951.846657230518758 ], [ 5484815.743402667343616, 8226977.281283200718462 ], [ 5484792.15313471481204, 8227041.634593833237886 ], [ 5484793.756182780489326, 8227086.790368680842221 ], [ 5484809.629145490005612, 8227134.788087449036539 ], [ 5484858.370102156884968, 8227250.117205313406885 ], [ 5484903.097607353702188, 8227292.158463241532445 ], [ 5484948.249431270174682, 8227327.119326100684702 ], [ 5484956.390726427547634, 8227346.989845024421811 ], [ 5484950.739528045989573, 8227358.901776880025864 ], [ 5484926.692319341935217, 8227368.294742392376065 ], [ 5484903.721555799245834, 8227389.275515472516418 ], [ 5484889.056457636877894, 8227421.442505739629269 ], [ 5484864.497265712358057, 8227434.376525176689029 ], [ 5484845.128842042759061, 8227441.303088961169124 ], [ 5484829.595280430279672, 8227461.1117028798908 ], [ 5484836.356264826841652, 8227472.16508424654603 ], [ 5484858.845208683051169, 8227472.841152901761234 ], [ 5484900.800002614967525, 8227496.671228615567088 ], [ 5484935.239713905379176, 8227555.021351953968406 ], [ 5484940.41348260268569, 8227600.909802491776645 ], [ 5484948.019419966265559, 8227623.733670463785529 ], [ 5484980.426416478119791, 8227644.241534166969359 ], [ 5485017.133562903851271, 8227651.756785996258259 ], [ 5485029.770841704681516, 8227654.345620907843113 ], [ 5485064.23692892305553, 8227678.938014587387443 ], [ 5485130.301140446215868, 8227722.279601554386318 ], [ 5485174.821850377134979, 8227739.504105808213353 ], [ 5485196.514210304245353, 8227756.703978255391121 ], [ 5485213.107932260259986, 8227784.638234473764896 ], [ 5485207.544637078419328, 8227800.100536294281483 ], [ 5485197.600187366828322, 8227805.634330144152045 ], [ 5485183.25452599208802, 8227825.417327527888119 ], [ 5485182.884116215631366, 8227835.460406772792339 ], [ 5485175.43091712705791, 8227846.246057371608913 ], [ 5485165.764178433455527, 8227863.562698435038328 ], [ 5485153.644767332822084, 8227877.402722523547709 ], [ 5485137.882164585404098, 8227887.181511357426643 ], [ 5485134.63256202172488, 8227900.228950845077634 ], [ 5485139.030894636176527, 8227911.933196725323796 ], [ 5485133.513104184530675, 8227929.492489961907268 ], [ 5485143.240930968895555, 8227941.069596505723894 ], [ 5485161.473205927759409, 8227936.532061098143458 ], [ 5485178.999383469112217, 8227926.115424961782992 ], [ 5485194.889932343736291, 8227922.21718412078917 ], [ 5485220.176311507821083, 8227941.703268937766552 ], [ 5485238.930150486528873, 8227960.154927196912467 ], [ 5485256.303658431395888, 8227984.553305145353079 ], [ 5485271.764379062689841, 8228010.602936900220811 ], [ 5485295.886525388807058, 8228034.643419886007905 ], [ 5485307.637780110351741, 8228057.521332338452339 ], [ 5485302.835092881694436, 8228069.55917446129024 ], [ 5485283.591228591278195, 8228085.186218047514558 ], [ 5485264.61659053619951, 8228096.455905225127935 ], [ 5485255.082297020591795, 8228108.052831504493952 ], [ 5485245.858205066993833, 8228117.667074254713953 ], [ 5485246.848856030032039, 8228145.486016539856791 ], [ 5485260.427213096059859, 8228168.679389830678701 ], [ 5485270.717945363372564, 8228190.867586609907448 ], [ 5485265.709833665750921, 8228226.443330915644765 ], [ 5485260.414446800947189, 8228233.063638651743531 ], [ 5485244.813538664951921, 8228233.059217792004347 ], [ 5485231.35698323417455, 8228247.461181621998549 ], [ 5485234.653631902299821, 8228281.368584522046149 ], [ 5485249.333077806048095, 8228304.970934072509408 ], [ 5485268.371580759063363, 8228312.870807219296694 ], [ 5485287.021652943454683, 8228303.40655086375773 ], [ 5485294.109838685952127, 8228296.014555633068085 ], [ 5485304.004683766514063, 8228300.494680652394891 ], [ 5485313.617759482935071, 8228324.507053524255753 ], [ 5485328.484617039561272, 8228356.71943907532841 ], [ 5485329.68885188177228, 8228385.987942785024643 ], [ 5485328.907398319803178, 8228416.021230675280094 ], [ 5485340.528454725630581, 8228448.659528259187937 ], [ 5485335.938041401095688, 8228470.461339807137847 ], [ 5485319.639952447265387, 8228484.192556436173618 ], [ 5485290.13660479709506, 8228495.336195033974946 ], [ 5485242.215536535717547, 8228493.160316530615091 ], [ 5485220.711927050724626, 8228504.851234525442123 ], [ 5485213.100559162907302, 8228537.91932590585202 ], [ 5485195.338365482166409, 8228570.497924114577472 ], [ 5485177.792363375425339, 8228581.014759330078959 ], [ 5485157.474585336633027, 8228587.662269873544574 ], [ 5485149.666418156586587, 8228595.436172425746918 ], [ 5485153.376490333117545, 8228614.881490441039205 ], [ 5485165.554334506392479, 8228640.636396521702409 ], [ 5485167.856400956399739, 8228678.550568008795381 ], [ 5485173.668834971264005, 8228711.45964274648577 ], [ 5485166.640660530887544, 8228738.36520953848958 ], [ 5485131.784517947584391, 8228752.533388672396541 ], [ 5485059.091651206836104, 8228762.474021386355162 ], [ 5485018.397467073053122, 8228776.047480219975114 ], [ 5484983.522171452641487, 8228773.575946382246912 ], [ 5484979.318100901320577, 8228763.909947024658322 ], [ 5484984.778107885271311, 8228748.594388312660158 ], [ 5484985.177863631397486, 8228718.214344153180718 ], [ 5484985.185467071831226, 8228702.306963226757944 ], [ 5484973.031565262936056, 8228693.901787274517119 ], [ 5484961.791046584025025, 8228694.512653699144721 ], [ 5484938.905149946920574, 8228709.130539293400943 ], [ 5484910.825507236644626, 8228718.799485513009131 ], [ 5484872.85092047136277, 8228723.988053880631924 ], [ 5484845.941496665589511, 8228737.250253804959357 ], [ 5484786.416332889348269, 8228758.892248619347811 ], [ 5484754.896669115871191, 8228761.042957959696651 ], [ 5484719.254515124484897, 8228773.05178832449019 ], [ 5484668.207436071708798, 8228804.943621031008661 ], [ 5484653.736942744813859, 8228822.985860710032284 ], [ 5484636.111976196989417, 8228846.158527197316289 ], [ 5484622.573241468518972, 8228857.309213479980826 ], [ 5484617.809159152209759, 8228871.155299039557576 ], [ 5484591.161298647522926, 8228881.192244157195091 ], [ 5484573.093994559720159, 8228884.493308306671679 ], [ 5484569.12825620174408, 8228917.847934897989035 ], [ 5484582.897510009817779, 8228933.089465213939548 ], [ 5484607.001147385686636, 8228940.502464361488819 ], [ 5484639.843263473361731, 8228964.72048626281321 ], [ 5484661.300629843957722, 8228999.676024141721427 ], [ 5484664.36220027692616, 8229022.809702595695853 ], [ 5484675.791238672100008, 8229079.684893739409745 ], [ 5484681.560700207017362, 8229110.65223238337785 ], [ 5484709.433366353623569, 8229189.049257839098573 ], [ 5484743.102674178779125, 8229234.573527432978153 ], [ 5484771.168733823113143, 8229272.560181053355336 ], [ 5484771.872814220376313, 8229303.99287779442966 ], [ 5484753.640454418025911, 8229332.251726895570755 ], [ 5484734.316308373585343, 8229344.260806677863002 ], [ 5484731.637600309215486, 8229370.316625768318772 ], [ 5484731.985875976271927, 8229402.134459175169468 ], [ 5484767.48759579192847, 8229448.695717050693929 ], [ 5484763.87665609549731, 8229488.037022271193564 ], [ 5484725.269795028492808, 8229529.759641136974096 ], [ 5484682.094447804614902, 8229610.633288132026792 ], [ 5484675.916332080960274, 8229658.500052247196436 ], [ 5484670.664200061000884, 8229715.482461982406676 ], [ 5484686.676962898112833, 8229766.474708648398519 ], [ 5484697.359246592968702, 8229822.500348186120391 ], [ 5484690.500589312054217, 8229840.01069092284888 ], [ 5484683.979467675089836, 8229856.792156353592873 ], [ 5484688.762078068219125, 8229875.847843833267689 ], [ 5484681.790671613998711, 8229904.938531696796417 ], [ 5484673.706900150515139, 8229932.610303860157728 ], [ 5484668.523438449949026, 8229960.207953956909478 ], [ 5484679.279712289571762, 8230003.366425040178001 ], [ 5484683.292263857088983, 8230080.683586748316884 ], [ 5484679.768339552916586, 8230117.647364665754139 ], [ 5484674.57706586830318, 8230144.889951501972973 ], [ 5484679.697211920283735, 8230163.216780234128237 ], [ 5484695.862626905553043, 8230171.901470374315977 ], [ 5484726.69169233366847, 8230208.884882587939501 ], [ 5484744.074035209603608, 8230255.873436037451029 ], [ 5484756.893399124965072, 8230293.92525083757937 ], [ 5484760.595699949190021, 8230344.119373356923461 ], [ 5484770.048677613958716, 8230377.548784548416734 ], [ 5484770.792165381833911, 8230378.254170347936451 ], [ 5484783.525127131491899, 8230412.322763845324516 ], [ 5484826.164052709937096, 8230504.963290833868086 ], [ 5484846.036338627338409, 8230533.448590879328549 ], [ 5484907.376897593028843, 8230604.569437360391021 ], [ 5484932.88281240593642, 8230641.968199797905982 ], [ 5484965.667408131994307, 8230744.82450586464256 ], [ 5484980.471658635884523, 8230774.152554754167795 ], [ 5485017.881874618120492, 8230824.191552130505443 ], [ 5485058.114128957502544, 8230854.754216901957989 ], [ 5485078.950467453338206, 8230861.527903292328119 ], [ 5485101.281547180376947, 8230870.067389945499599 ], [ 5485110.449432415887713, 8230890.837227627635002 ], [ 5485108.245212683454156, 8230905.715574260801077 ], [ 5485099.67949238512665, 8230927.969783142209053 ], [ 5485101.938524538651109, 8230948.168233732692897 ], [ 5485117.306084278970957, 8230969.891204031184316 ], [ 5485139.803802324458957, 8230998.430405963212252 ], [ 5485163.650544149801135, 8231042.736485773697495 ], [ 5485174.038234013132751, 8231101.432896388694644 ], [ 5485165.344116993248463, 8231134.546333911828697 ], [ 5485158.389306327328086, 8231229.030661951750517 ], [ 5485162.775560005567968, 8231246.585348561406136 ], [ 5485167.560194714926183, 8231265.718769183382392 ], [ 5485185.461779178120196, 8231345.454123212955892 ], [ 5485234.659724597819149, 8231417.016440199688077 ], [ 5485296.771626582369208, 8231432.783715689554811 ], [ 5485383.366511288098991, 8231411.663963642902672 ], [ 5485475.493996028788388, 8231366.212960107252002 ], [ 5485527.862548260949552, 8231316.00918460637331 ], [ 5485551.616365031339228, 8231286.497606258839369 ], [ 5485566.086087828502059, 8231258.986219488084316 ], [ 5485574.846364981494844, 8231233.375103930942714 ], [ 5485584.579207006841898, 8231202.747512228786945 ], [ 5485588.96317538805306, 8231190.119472868740559 ], [ 5485601.526498751714826, 8231190.201425421983004 ], [ 5485626.260245396755636, 8231204.316335568204522 ], [ 5485654.645012848079205, 8231220.86056371498853 ], [ 5485668.47143594827503, 8231216.97425648290664 ], [ 5485704.822407387197018, 8231236.90846424549818 ], [ 5485747.217638885602355, 8231254.579788308590651 ], [ 5485804.437585492618382, 8231260.095103654079139 ], [ 5485834.036546191200614, 8231251.203174877911806 ], [ 5485869.104926154948771, 8231246.121830580756068 ], [ 5485902.088603554293513, 8231260.412186157889664 ], [ 5485950.5149593539536, 8231258.958548682741821 ], [ 5485981.260831132531166, 8231276.217014564201236 ], [ 5486032.22758465539664, 8231308.354307115077972 ], [ 5486042.07394561637193, 8231363.23301843367517 ], [ 5486043.850117990747094, 8231458.694168202579021 ], [ 5486032.807451859116554, 8231510.819469098933041 ], [ 5486025.75264632049948, 8231596.6264379164204 ], [ 5486036.122034492902458, 8231626.80570727866143 ], [ 5486082.111281488090754, 8231644.731483176350594 ], [ 5486133.090036326088011, 8231645.375682573765516 ], [ 5486213.786245952360332, 8231673.080292134545743 ], [ 5486251.712627367116511, 8231715.170131019316614 ], [ 5486274.448127299547195, 8231779.659083887934685 ], [ 5486315.813357627950609, 8231808.008945465087891 ], [ 5486337.777837244793773, 8231809.972822723910213 ], [ 5486363.867367132566869, 8231810.059618094936013 ], [ 5486388.669576585292816, 8231812.505587989464402 ], [ 5486407.367184147238731, 8231825.763461866416037 ], [ 5486415.505508570931852, 8231845.911788114346564 ], [ 5486419.09515776950866, 8231856.834505926817656 ], [ 5486440.583156702108681, 8231860.029766136780381 ], [ 5486483.666292995214462, 8231857.071010681800544 ], [ 5486509.394835633225739, 8231855.822318241000175 ], [ 5486533.38705693371594, 8231857.952768202871084 ], [ 5486551.160404797643423, 8231860.229775509797037 ], [ 5486566.083357499912381, 8231854.554071512073278 ], [ 5486579.508891901001334, 8231841.584432161413133 ], [ 5486591.794344397261739, 8231822.97819591127336 ], [ 5486603.93254073150456, 8231812.36775482352823 ], [ 5486648.560335163027048, 8231789.360183157026768 ], [ 5486684.108737947419286, 8231779.238625442609191 ], [ 5486700.996150554157794, 8231779.192529194056988 ], [ 5486707.57906437292695, 8231789.372855604626238 ], [ 5486708.160994105041027, 8231800.361113931052387 ], [ 5486693.304773014970124, 8231823.363898809999228 ], [ 5486675.250529089011252, 8231853.440984422340989 ], [ 5486658.672123212367296, 8231874.571908024139702 ], [ 5486636.141449767164886, 8231898.752022162079811 ], [ 5486627.349919606000185, 8231909.611477605998516 ], [ 5486613.902623614296317, 8231921.58253975585103 ], [ 5486596.51200776360929, 8231921.639502783305943 ], [ 5486585.581110632047057, 8231926.218070020899177 ], [ 5486583.55211463663727, 8231940.260418150573969 ], [ 5486584.559974984265864, 8231955.568705210462213 ], [ 5486588.586635546758771, 8231986.074865816161036 ], [ 5486596.068960876204073, 8232006.581604300066829 ], [ 5486606.258213151246309, 8232013.686173684895039 ], [ 5486619.761674822308123, 8232019.053411509841681 ], [ 5486653.935509060509503, 8232036.292221955955029 ], [ 5486678.6148232659325, 8232033.079203772358596 ], [ 5486699.473953986540437, 8232023.610815538093448 ], [ 5486712.439018920063972, 8232019.986951699480414 ], [ 5486731.017315601930022, 8232028.240777833387256 ], [ 5486749.801990654319525, 8232045.481784544885159 ], [ 5486754.896753500215709, 8232064.042392717674375 ], [ 5486756.206003304570913, 8232092.698462054133415 ], [ 5486748.641960282810032, 8232113.211149817332625 ], [ 5486726.812780796550214, 8232124.365828350186348 ], [ 5486685.455123398452997, 8232144.626825111918151 ], [ 5486664.348712391220033, 8232158.485382820479572 ], [ 5486652.762939418666065, 8232178.741497969254851 ], [ 5486657.086698390543461, 8232207.642684682272375 ], [ 5486674.700492753647268, 8232232.591065179556608 ], [ 5486701.9107920890674, 8232252.656913112848997 ], [ 5486717.535298329778016, 8232270.344268413260579 ], [ 5486740.782251298427582, 8232292.827620407566428 ], [ 5486765.657728399150074, 8232298.613101955503225 ], [ 5486793.90864428691566, 8232304.979958634823561 ], [ 5486842.690876389853656, 8232332.557147161103785 ], [ 5486856.368735194206238, 8232345.924235451966524 ], [ 5486881.682834907434881, 8232371.359689799137414 ], [ 5486898.249037145636976, 8232409.662974038161337 ], [ 5486911.578625379130244, 8232437.035837443545461 ], [ 5486943.488681081682444, 8232457.987076587975025 ], [ 5486980.054896708577871, 8232477.837721774354577 ], [ 5487067.858659802004695, 8232511.102472755126655 ], [ 5487096.374946859665215, 8232530.129388835281134 ], [ 5487119.967161856591702, 8232567.946447039023042 ], [ 5487118.423439994454384, 8232588.52786329574883 ], [ 5487116.782758648507297, 8232619.901463508605957 ], [ 5487128.57539554592222, 8232638.649111828766763 ], [ 5487154.578668267466128, 8232634.729730689898133 ], [ 5487193.056856316514313, 8232632.203455644659698 ], [ 5487219.950667251832783, 8232652.941902287304401 ], [ 5487234.961812525987625, 8232669.976411271840334 ], [ 5487252.518450946547091, 8232692.261647870764136 ], [ 5487273.993745896033943, 8232698.764730933122337 ], [ 5487290.592763905413449, 8232695.771839302964509 ], [ 5487301.051267056725919, 8232678.836876831948757 ], [ 5487310.818674148991704, 8232657.709726284258068 ], [ 5487330.528638727031648, 8232636.276914555579424 ], [ 5487349.46699227206409, 8232619.245771214365959 ], [ 5487361.246757041662931, 8232603.480838519521058 ], [ 5487369.000527486205101, 8232575.95901489816606 ], [ 5487376.956321462988853, 8232560.166463639587164 ], [ 5487394.472376580350101, 8232542.744441362097859 ], [ 5487406.283393695950508, 8232525.469053481705487 ], [ 5487409.545574439689517, 8232507.092439684085548 ], [ 5487418.746336326003075, 8232484.545527078211308 ], [ 5487435.205189377069473, 8232459.897592389956117 ], [ 5487455.156778742559254, 8232448.583374766632915 ], [ 5487471.16377254575491, 8232441.040715253911912 ], [ 5487478.604954678565264, 8232436.038342719897628 ], [ 5487481.008883097209036, 8232429.880367880687118 ], [ 5487479.173143334686756, 8232419.851859543472528 ], [ 5487473.741916680708528, 8232411.922175314277411 ], [ 5487467.879559507593513, 8232402.392259954474866 ], [ 5487468.515507216565311, 8232394.718728700652719 ], [ 5487476.367268649861217, 8232384.478845780715346 ], [ 5487492.48383476305753, 8232381.47405446972698 ], [ 5487610.054780599661171, 8232440.996027454733849 ], [ 5489880.696788283996284, 8233590.43009951710701 ], [ 5493323.90867576841265, 8235332.891737209632993 ], [ 5493324.900156372226775, 8235361.867685357108712 ], [ 5493331.071532130241394, 8235393.08303941693157 ], [ 5493340.238890457898378, 8235419.292078291997313 ], [ 5493342.721366608515382, 8235447.879911810159683 ], [ 5493335.951314353384078, 8235479.957792188972235 ], [ 5493321.590986457653344, 8235506.862997747026384 ], [ 5493294.671543377451599, 8235544.702637921087444 ], [ 5493271.942365543916821, 8235579.24147773720324 ], [ 5493260.853535124100745, 8235609.28291786275804 ], [ 5493260.204283236525953, 8235628.44774064142257 ], [ 5493274.547476732172072, 8235649.413749488070607 ], [ 5493293.057878468185663, 8235666.024858471006155 ], [ 5493304.189315039664507, 8235687.061634701676667 ], [ 5493302.656827152706683, 8235714.760974815115333 ], [ 5493288.634958221577108, 8235756.56829066760838 ], [ 5493273.601797268725932, 8235801.584063853137195 ], [ 5493258.415379225276411, 8235839.153912073932588 ], [ 5493247.654027573764324, 8235884.086619355715811 ], [ 5493236.985889228060842, 8235933.258118445053697 ], [ 5493228.201767053455114, 8235970.697962583042681 ], [ 5493216.182063392363489, 8236007.132196198217571 ], [ 5493212.5891143232584, 8236038.074167810380459 ], [ 5493204.871811049059033, 8236091.388160871341825 ], [ 5493198.086692597717047, 8236139.363875925540924 ], [ 5493192.27602497767657, 8236187.329218319617212 ], [ 5493185.233470774255693, 8236223.609353717416525 ], [ 5493178.853607354685664, 8236245.220602251589298 ], [ 5493161.907320430502295, 8236276.834055842831731 ], [ 5493143.2482023332268, 8236311.904529299587011 ], [ 5493133.049493414349854, 8236340.571714712306857 ], [ 5493128.631520788185298, 8236363.238792998716235 ], [ 5493117.232003361918032, 8236382.118478055112064 ], [ 5493105.6601497894153, 8236393.164133744314313 ], [ 5493084.410927418619394, 8236411.294802864082158 ], [ 5493068.140313126146793, 8236432.246688368730247 ], [ 5493062.704816044308245, 8236453.948075430467725 ], [ 5493068.970574979670346, 8236470.484904892742634 ], [ 5493086.017544103786349, 8236484.830484451726079 ], [ 5493102.208647255785763, 8236505.067707203328609 ], [ 5493109.653691652230918, 8236530.415540233254433 ], [ 5493106.295785518363118, 8236556.967057108879089 ], [ 5493094.148554794490337, 8236586.665119376033545 ], [ 5493068.448253621347249, 8236626.464318808168173 ], [ 5493037.704251126386225, 8236660.49057419039309 ], [ 5492994.015115718357265, 8236687.940817260183394 ], [ 5492960.487356004305184, 8236707.418346635997295 ], [ 5492932.830271589569747, 8236729.852892418392003 ], [ 5492915.288507583551109, 8236750.499472332186997 ], [ 5492904.911603349260986, 8236776.450405474752188 ], [ 5492900.890212816186249, 8236806.946396592073143 ], [ 5492894.530185330659151, 8236838.259854007512331 ], [ 5492884.17050096578896, 8236864.998596424236894 ], [ 5492867.54718841984868, 8236891.864026943221688 ], [ 5492843.118719525635242, 8236918.901138670742512 ], [ 5492813.750282404012978, 8236935.133932873606682 ], [ 5492777.210527753457427, 8236945.28528012521565 ], [ 5492750.009237513877451, 8236952.899819909594953 ], [ 5492721.30256324633956, 8236963.666994108818471 ], [ 5492650.992854167707264, 8237007.177407141774893 ], [ 5493310.979207779280841, 8237253.090786529704928 ], [ 5493408.67025338485837, 8236687.747917395085096 ], [ 5493623.565770332701504, 8235458.562977474182844 ], [ 5493663.59205218218267, 8235210.109864911995828 ], [ 5493680.746909869834781, 8235143.819981476292014 ], [ 5493707.551059082150459, 8235105.182744760066271 ], [ 5494012.117285154759884, 8234732.732801028527319 ], [ 5494270.499107219278812, 8234422.911767541430891 ], [ 5494769.035937418229878, 8234442.310440295375884 ], [ 5495266.436601024121046, 8234759.958032708615065 ], [ 5495513.057161320000887, 8234889.909922153688967 ], [ 5495615.243618909269571, 8234928.369369110092521 ], [ 5495845.570606544613838, 8235150.483136502094567 ], [ 5496368.504075801, 8235371.471351427957416 ], [ 5496478.49016843456775, 8235435.478856269270182 ], [ 5496490.09860011190176, 8235529.634681582450867 ], [ 5496694.23671342805028, 8235489.234785357490182 ], [ 5496782.365714368410408, 8233821.737944087013602 ], [ 5496817.110919694416225, 8233791.367356135509908 ], [ 5496868.707193408161402, 8233749.586587854661047 ], [ 5496902.87615221273154, 8233718.840021485462785 ], [ 5496927.801087263040245, 8233686.122752722352743 ], [ 5496963.859593718312681, 8233665.237312184646726 ], [ 5496990.333259061910212, 8233641.50059068761766 ], [ 5497009.53317695017904, 8233615.771648404188454 ], [ 5497031.376772871240973, 8233597.200422079302371 ], [ 5497076.907978741452098, 8233546.161167073994875 ], [ 5497119.784327605739236, 8233494.225983053445816 ], [ 5497168.913152044638991, 8233453.287276078015566 ], [ 5497206.517761604860425, 8233434.531844253651798 ], [ 5497244.233262817375362, 8233388.473163391463459 ], [ 5497279.224351455457509, 8233364.413243942894042 ], [ 5497300.953088948503137, 8233342.624481484293938 ], [ 5497351.169198415242136, 8233292.812395395711064 ], [ 5497387.288130545057356, 8233233.255025807768106 ], [ 5497406.45827984623611, 8233187.919345809146762 ], [ 5497431.769805446267128, 8233161.098979096859694 ], [ 5497467.529746646992862, 8233129.73831719532609 ], [ 5497486.00704682059586, 8233105.279316280037165 ], [ 5497500.646465949714184, 8233072.467880616895854 ], [ 5497532.460826848633587, 8233013.472150282002985 ], [ 5497558.919566546566784, 8232972.759086098521948 ], [ 5497582.785302209667861, 8232945.482095963321626 ], [ 5497584.329716429114342, 8232927.761567373760045 ], [ 5497598.635813446715474, 8232902.129567028954625 ], [ 5497602.634844939224422, 8232864.758615056052804 ], [ 5497601.435567317530513, 8232832.987988658249378 ], [ 5497612.698944149538875, 8232821.756922430358827 ], [ 5497638.381408635526896, 8232811.648110181093216 ], [ 5497659.034170228987932, 8232791.126157936640084 ], [ 5497679.775771108455956, 8232751.972317291423678 ], [ 5497686.044753342866898, 8232708.810788334347308 ], [ 5497690.008222054690123, 8232692.479663138277829 ], [ 5497707.267802220769227, 8232670.123565129935741 ], [ 5497718.318282756023109, 8232648.849439146928489 ], [ 5497730.773992888629436, 8232627.677232198417187 ], [ 5497736.313347744755447, 8232595.534414610825479 ], [ 5497750.629397700540721, 8232569.890869970433414 ], [ 5497763.67043677251786, 8232551.925292396917939 ], [ 5497766.231238284148276, 8232537.057586369104683 ], [ 5497761.180381126701832, 8232525.212761307135224 ], [ 5497722.648403041064739, 8232494.973104635253549 ], [ 5497700.720361676998436, 8232456.236606699414551 ], [ 5497698.786537832580507, 8232433.342042968608439 ], [ 5497708.359972680918872, 8232410.191164032556117 ], [ 5497711.660689157433808, 8232385.259277824312449 ], [ 5497712.875246934592724, 8232352.246871415525675 ], [ 5497721.220816736109555, 8232316.755200718529522 ], [ 5497741.455007893033326, 8232298.629354207776487 ], [ 5497771.053868168033659, 8232292.252185028977692 ], [ 5497780.967380465939641, 8232284.870239479467273 ], [ 5497795.934858217835426, 8232267.339066177606583 ], [ 5497812.560228216461837, 8232259.818659422919154 ], [ 5497819.144406002014875, 8232253.943087117746472 ], [ 5497830.29004465136677, 8232236.963335748761892 ], [ 5497841.124328791163862, 8232228.1286158291623 ], [ 5497859.311499724164605, 8232226.302231268957257 ], [ 5497882.680302938446403, 8232220.063705495558679 ], [ 5497891.632401346229017, 8232209.427887037396431 ], [ 5497907.818409685976803, 8232204.30421029124409 ], [ 5497947.737826126627624, 8232187.193805911578238 ], [ 5497978.132762460969388, 8232151.166035013273358 ], [ 5497997.388050868175924, 8232087.175095309503376 ], [ 5498000.007440694607794, 8232030.227560865692794 ], [ 5497999.220070007257164, 8231993.429264651611447 ], [ 5497998.666891028173268, 8231967.62831240426749 ], [ 5498011.618219683878124, 8231935.08684696815908 ], [ 5498032.503644473850727, 8231925.07306669652462 ], [ 5498072.001758864149451, 8231932.830151068046689 ], [ 5498100.21626593451947, 8231951.352851796895266 ], [ 5498129.407511258497834, 8231948.337091196328402 ], [ 5498145.915077957324684, 8231935.545267999172211 ], [ 5498198.54935450758785, 8231929.641774310730398 ], [ 5498233.682984337210655, 8231912.626283012330532 ], [ 5498265.841188449412584, 8231891.36931049451232 ], [ 5498310.789625696837902, 8231884.671035939827561 ], [ 5498359.003915471024811, 8231870.261252366006374 ], [ 5498400.34611926227808, 8231852.163201136514544 ], [ 5498423.983583190478384, 8231829.175309726968408 ], [ 5498429.004749642685056, 8231824.30027125030756 ], [ 5498431.6310373255983, 8231790.301160404458642 ], [ 5498424.642307170666754, 8231777.533740576356649 ], [ 5498422.7049944633618, 8231776.622151657007635 ], [ 5498408.714813571423292, 8231772.61544178519398 ], [ 5498389.114977213554084, 8231775.428731842897832 ], [ 5498368.360070359893143, 8231769.663303464651108 ], [ 5498353.666909134946764, 8231732.675491120666265 ], [ 5498325.143795918673277, 8231699.82662857323885 ], [ 5498293.062623040750623, 8231702.418709252029657 ], [ 5498281.213280534371734, 8231708.933790025301278 ], [ 5498249.294581931084394, 8231696.711405944079161 ], [ 5498236.720300852321088, 8231669.735207297839224 ], [ 5498226.242840122431517, 8231650.82818076107651 ], [ 5498193.062800277024508, 8231624.289430828765035 ], [ 5498183.860301724635065, 8231597.71542698610574 ], [ 5498182.25785104278475, 8231568.096341425552964 ], [ 5498167.09422529488802, 8231531.607535597868264 ], [ 5498124.376699894666672, 8231508.1459527220577 ], [ 5498096.149405763484538, 8231511.14037876855582 ], [ 5498066.948040823452175, 8231514.156491438858211 ], [ 5498040.442867798730731, 8231518.500248543918133 ], [ 5498013.288045607507229, 8231504.739185400307178 ], [ 5497975.858497687615454, 8231481.159459754824638 ], [ 5497933.966196604073048, 8231451.461810690350831 ], [ 5497913.954236526973546, 8231412.682944086380303 ], [ 5497888.920858272351325, 8231385.496001764200628 ], [ 5497868.176799840293825, 8231380.196319537237287 ], [ 5497835.476305207237601, 8231376.117992546409369 ], [ 5497805.182920387946069, 8231382.988505929708481 ], [ 5497789.769302669912577, 8231379.968061146326363 ], [ 5497760.911705737933517, 8231376.292473310604692 ], [ 5497744.832665234804153, 8231387.153803762979805 ], [ 5497742.871023983694613, 8231407.27077130228281 ], [ 5497766.898458324372768, 8231432.09322277829051 ], [ 5497789.86416382342577, 8231474.15925164334476 ], [ 5497811.33159323502332, 8231513.383140116930008 ], [ 5497816.669483901932836, 8231538.599981761537492 ], [ 5497808.326151568442583, 8231574.635820553638041 ], [ 5497796.93329940456897, 8231602.135209277272224 ], [ 5497765.837005206383765, 8231606.147933411411941 ], [ 5497728.309015905484557, 8231600.267331941053271 ], [ 5497705.326702981255949, 8231602.189518377184868 ], [ 5497686.959214277565479, 8231595.89295425824821 ], [ 5497668.43533506244421, 8231559.478931627236307 ], [ 5497640.146576073020697, 8231541.434996139258146 ], [ 5497599.299905645661056, 8231537.526688635349274 ], [ 5497560.174991197884083, 8231546.980583366006613 ], [ 5497539.941445131786168, 8231565.583830896764994 ], [ 5497532.766181143000722, 8231588.681290669366717 ], [ 5497537.848721891641617, 8231601.957587732002139 ], [ 5497525.279610707424581, 8231619.446349870413542 ], [ 5497507.989140103571117, 8231640.370997678488493 ], [ 5497493.502786925062537, 8231658.812833931297064 ], [ 5497457.929792828857899, 8231676.780622961930931 ], [ 5497416.452610291540623, 8231666.202317105606198 ], [ 5497370.063116471283138, 8231649.993401227518916 ], [ 5497289.631247159093618, 8231572.757638027891517 ], [ 5497261.683555576950312, 8231566.662988756783307 ], [ 5497224.230070642195642, 8231564.121766835451126 ], [ 5497187.966451965272427, 8231550.074141200631857 ], [ 5497179.384949862025678, 8231530.180994879454374 ], [ 5497189.160025296732783, 8231516.585012322291732 ], [ 5497216.26470981258899, 8231505.967211571522057 ], [ 5497219.767326564528048, 8231490.590148105286062 ], [ 5497227.498821144923568, 8231470.822303266264498 ], [ 5497229.152834214270115, 8231435.890691139735281 ], [ 5497218.825275192037225, 8231424.163379963487387 ], [ 5497205.384552284143865, 8231401.025523779913783 ], [ 5497211.830178909003735, 8231388.447342586703598 ], [ 5497212.860776660963893, 8231369.783499512821436 ], [ 5497207.062852537259459, 8231345.520669587887824 ], [ 5497215.201643493026495, 8231322.401928456500173 ], [ 5497206.191535150632262, 8231304.905361430719495 ], [ 5497191.783401387743652, 8231281.122917892411351 ], [ 5497189.753795060329139, 8231253.91177237033844 ], [ 5497204.210715203545988, 8231212.488846460357308 ], [ 5497235.277754932641983, 8231185.040276309475303 ], [ 5497258.231103737838566, 8231159.693055645562708 ], [ 5497264.120688850060105, 8231143.307988211512566 ], [ 5497259.222333125770092, 8231116.160714693367481 ], [ 5497253.50951553042978, 8231095.726323164068162 ], [ 5497211.429485836066306, 8231050.29992410633713 ], [ 5497165.280874434858561, 8231046.786753793247044 ], [ 5497124.868784715421498, 8231057.55663866456598 ], [ 5497110.119455870240927, 8231043.463072313927114 ], [ 5497098.707864280790091, 8231016.693997660651803 ], [ 5497062.413774652406573, 8230967.052951625548303 ], [ 5497040.799518119543791, 8230927.898755328729749 ], [ 5497016.677441252395511, 8230897.804404673166573 ], [ 5497015.24877002555877, 8230873.533152758143842 ], [ 5497018.5772724468261, 8230855.628660017624497 ], [ 5497031.063149384222925, 8230838.741535331122577 ], [ 5497042.744318956509233, 8230828.045228607021272 ], [ 5497045.285848692059517, 8230813.278009129688144 ], [ 5497039.197151303291321, 8230774.011298718862236 ], [ 5497023.019601142965257, 8230752.510962890461087 ], [ 5497014.579558943398297, 8230736.078656260855496 ], [ 5497019.59222205914557, 8230726.008228026330471 ], [ 5497042.768132315017283, 8230718.386664366349578 ], [ 5497049.214813533239067, 8230708.273190091364086 ], [ 5497042.95419900957495, 8230660.317159870639443 ], [ 5497050.852783841080964, 8230628.821499597281218 ], [ 5497054.332402117550373, 8230591.240219136700034 ], [ 5497050.560639474540949, 8230570.440663712099195 ], [ 5497036.780825182795525, 8230549.852881334722042 ], [ 5497031.961415087804198, 8230524.802249235101044 ], [ 5497024.533610167913139, 8230488.884980701841414 ], [ 5497016.42763342615217, 8230465.806046703830361 ], [ 5496998.401173955760896, 8230450.242286106571555 ], [ 5496979.327667023986578, 8230448.74631620105356 ], [ 5496948.007382506504655, 8230454.173338737338781 ], [ 5496940.115637064911425, 8230463.830467739142478 ], [ 5496940.579748039133847, 8230485.65845856629312 ], [ 5496948.468186257407069, 8230520.144357264041901 ], [ 5496944.327431114390492, 8230549.191485285758972 ], [ 5496931.191240383312106, 8230558.49906833563 ], [ 5496911.646602753549814, 8230557.490905876271427 ], [ 5496893.743617347441614, 8230544.588876558467746 ], [ 5496873.067055731080472, 8230535.057082656770945 ], [ 5496855.072517462074757, 8230540.187269253656268 ], [ 5496830.265925371088088, 8230560.190772361122072 ], [ 5496809.100722748786211, 8230572.508085719309747 ], [ 5496790.058866830542684, 8230572.920825108885765 ], [ 5496774.992663795128465, 8230558.523377276957035 ], [ 5496767.431579482741654, 8230539.229291509836912 ], [ 5496751.581462803296745, 8230532.92067523766309 ], [ 5496734.645111138001084, 8230542.778999463655055 ], [ 5496725.519535899162292, 8230561.489660950377584 ], [ 5496726.869792160578072, 8230584.652354121208191 ], [ 5496731.44995107408613, 8230620.632958478294313 ], [ 5496737.24294092785567, 8230646.139291550964117 ], [ 5496735.569756722077727, 8230657.101209444925189 ], [ 5496724.809355089440942, 8230666.344652968458831 ], [ 5496698.178133295848966, 8230667.869878735393286 ], [ 5496654.554189895279706, 8230654.563017747364938 ], [ 5496635.969545303843915, 8230631.706104787997901 ], [ 5496622.977264276705682, 8230625.333802320063114 ], [ 5496610.740725792944431, 8230632.245236182585359 ], [ 5496607.717652865685523, 8230646.556748270057142 ], [ 5496603.51299649477005, 8230672.751802769489586 ], [ 5496591.181568089872599, 8230674.913544088602066 ], [ 5496541.005249198526144, 8230666.970331223681569 ], [ 5496508.855150259099901, 8230655.794960537925363 ], [ 5496496.689261762425303, 8230643.719840199686587 ], [ 5496499.083382271230221, 8230622.305790037848055 ], [ 5496512.19883172865957, 8230612.055290026590228 ], [ 5496522.006422035396099, 8230602.822059037163854 ], [ 5496532.45021482091397, 8230579.330430254340172 ], [ 5496535.22062763851136, 8230553.167313160374761 ], [ 5496550.322222953662276, 8230524.353962358087301 ], [ 5496579.474146479740739, 8230506.641140791587532 ], [ 5496609.986193409189582, 8230486.044711697846651 ], [ 5496621.948582762852311, 8230466.804693590849638 ], [ 5496640.755599339492619, 8230455.350499983876944 ], [ 5496665.471079363487661, 8230452.924204468727112 ], [ 5496682.88869484513998, 8230443.521506652235985 ], [ 5496694.840473894961178, 8230423.326860768720508 ], [ 5496695.35031617525965, 8230402.909457104280591 ], [ 5496694.447048807516694, 8230382.512400947511196 ], [ 5496693.177988795563579, 8230367.818974271416664 ], [ 5496682.678189831785858, 8230366.62046093121171 ], [ 5496667.689606782980263, 8230378.34501355048269 ], [ 5496666.037173941731453, 8230390.239057833328843 ], [ 5496646.967398816719651, 8230411.546888763085008 ], [ 5496630.210109112784266, 8230429.938838353380561 ], [ 5496615.126572710461915, 8230436.913661515340209 ], [ 5496599.578891918994486, 8230422.526868866756558 ], [ 5496587.683795643039048, 8230400.953325051814318 ], [ 5496561.488602858036757, 8230378.720966253429651 ], [ 5496521.475753766484559, 8230355.852329089306295 ], [ 5496503.080962287262082, 8230342.006247078999877 ], [ 5496492.233289617113769, 8230324.672665871679783 ], [ 5496485.730381213128567, 8230310.095709997229278 ], [ 5496466.566572709009051, 8230288.628353045322001 ], [ 5496448.474219952709973, 8230266.704164735972881 ], [ 5496436.536986788734794, 8230242.74455235991627 ], [ 5496436.597021731548011, 8230223.280919495970011 ], [ 5496442.478106948547065, 8230208.916958224959671 ], [ 5496455.069453749805689, 8230196.779592121951282 ], [ 5496473.137423605658114, 8230195.445015513338149 ], [ 5496496.063252611085773, 8230198.754117242060602 ], [ 5496516.581218539737165, 8230200.207180254161358 ], [ 5496517.878228171728551, 8230194.482844659127295 ], [ 5496509.459606525488198, 8230178.993729239329696 ], [ 5496490.161941980943084, 8230145.239159949123859 ], [ 5496484.643121413886547, 8230132.538811512291431 ], [ 5496477.961012357845902, 8230109.417093886993825 ], [ 5496458.326098675839603, 8230060.004705721512437 ], [ 5496449.988376026973128, 8230026.472580309957266 ], [ 5496443.682625185698271, 8229998.601820263080299 ], [ 5496450.662377524189651, 8229969.114280343055725 ], [ 5496473.918741455301642, 8229942.983812572434545 ], [ 5496504.616297411732376, 8229909.093739929609001 ], [ 5496521.362553711980581, 8229890.22463464550674 ], [ 5496523.433086385019124, 8229875.945409471169114 ], [ 5496512.125176073983312, 8229859.099532432854176 ], [ 5496497.583224976435304, 8229847.066306678578258 ], [ 5496482.320751124992967, 8229845.973765789531171 ], [ 5496457.535427096299827, 8229867.386521747335792 ], [ 5496432.300224895589054, 8229890.241440908052027 ], [ 5496408.559261350892484, 8229893.123374319635332 ], [ 5496384.273260351270437, 8229893.164122316986322 ], [ 5496353.477487788535655, 8229900.477330394089222 ], [ 5496311.114138791337609, 8229894.19219166226685 ], [ 5496273.646696027368307, 8229879.327051243744791 ], [ 5496257.95215567573905, 8229857.826912929303944 ], [ 5496253.049189921468496, 8229828.98128339741379 ], [ 5496243.351502683945, 8229798.810118097811937 ], [ 5496242.898475498892367, 8229777.459451927803457 ], [ 5496253.633905513212085, 8229745.423778056167066 ], [ 5496276.021843165159225, 8229723.587196458131075 ], [ 5496302.827860861085355, 8229707.814045280218124 ], [ 5496312.789868890307844, 8229683.866862354800105 ], [ 5496312.178646476007998, 8229655.403141011483967 ], [ 5496315.011999111622572, 8229632.080846756696701 ], [ 5496325.264411167241633, 8229626.50144062936306 ], [ 5496337.134676342830062, 8229624.816235176287591 ], [ 5496350.553348097018898, 8229614.747658391483128 ], [ 5496362.19709249958396, 8229599.500494977459311 ], [ 5496373.128237983211875, 8229598.924185974523425 ], [ 5496378.562527542933822, 8229613.12520041782409 ], [ 5496390.639242407865822, 8229618.318783915601671 ], [ 5496403.919441333040595, 8229615.991539935581386 ], [ 5496413.256446368992329, 8229604.881313744932413 ], [ 5496414.756777457892895, 8229595.299960209056735 ], [ 5496408.565034286119044, 8229577.3743353523314 ], [ 5496390.809967674314976, 8229562.414997066371143 ], [ 5496387.976423116400838, 8229542.371821389533579 ], [ 5496387.62933346349746, 8229541.691203964874148 ], [ 5496386.858173214830458, 8229521.93520138040185 ], [ 5496394.885832819156349, 8229513.585272437892854 ], [ 5496406.745989828370512, 8229508.558448133990169 ], [ 5496416.108437984250486, 8229514.489649046212435 ], [ 5496421.348680992610753, 8229535.855950061231852 ], [ 5496438.07166638597846, 8229550.149892557412386 ], [ 5496459.047200847417116, 8229555.833723906427622 ], [ 5496469.069386508315802, 8229544.719310690648854 ], [ 5496469.595757101662457, 8229500.487158176489174 ], [ 5496474.747147984802723, 8229469.696856672875583 ], [ 5496490.794696747325361, 8229452.652901884168386 ], [ 5496512.749354844912887, 8229440.251422092318535 ], [ 5496528.087309655733407, 8229453.898886486887932 ], [ 5496544.007064778357744, 8229478.780029440298676 ], [ 5496565.0188930016011, 8229501.504986396059394 ], [ 5496578.686910346150398, 8229501.211804907768965 ], [ 5496598.31221897341311, 8229491.926338837482035 ], [ 5496597.969722123816609, 8229491.93396410625428 ], [ 5496599.686912536621094, 8229476.219266200438142 ], [ 5496587.370902181603014, 8229459.784487498924136 ], [ 5496585.640176168642938, 8229443.114040412940085 ], [ 5496561.193067338317633, 8229404.111890445463359 ], [ 5496543.457649293355644, 8229390.517825936898589 ], [ 5496534.349936125800014, 8229380.151191550306976 ], [ 5496531.994958130642772, 8229366.225816896185279 ], [ 5496540.893842007033527, 8229350.351247118785977 ], [ 5496562.886364088393748, 8229339.658592033199966 ], [ 5496578.716770641505718, 8229328.747835884802043 ], [ 5496582.272186966612935, 8229319.131787184625864 ], [ 5496584.872917465865612, 8229296.924765290692449 ], [ 5496584.172946022823453, 8229279.898299116641283 ], [ 5496590.686292229220271, 8229265.098216693848372 ], [ 5496596.052154947072268, 8229253.110361796803772 ], [ 5496581.064401053823531, 8229239.799342933110893 ], [ 5496574.270414860919118, 8229241.982342372648418 ], [ 5496567.746442168951035, 8229240.417848225682974 ], [ 5496568.14362473692745, 8229227.463708810508251 ], [ 5496564.912756830453873, 8229204.009848149493337 ], [ 5496549.431001370772719, 8229183.893004059791565 ], [ 5496550.881418326869607, 8229171.592656715773046 ], [ 5496558.186101518571377, 8229161.560055318288505 ], [ 5496571.556837084703147, 8229163.316261710599065 ], [ 5496589.034426096826792, 8229165.325182854197919 ], [ 5496606.618167459964752, 8229172.105724493041635 ], [ 5496625.443022890947759, 8229173.063205401413143 ], [ 5496643.182969565503299, 8229170.980590642429888 ], [ 5496651.210121243260801, 8229162.619410781189799 ], [ 5496653.304637766443193, 8229148.950211357325315 ], [ 5496651.257331281900406, 8229132.975150785408914 ], [ 5496657.815407494083047, 8229120.672048091888428 ], [ 5496663.940705873072147, 8229103.837727901525795 ], [ 5496665.31524290330708, 8229088.130627212114632 ], [ 5496654.338899485766888, 8229070.300503031350672 ], [ 5496639.640606332570314, 8229054.596099553629756 ], [ 5496625.566822935827076, 8229036.15771478228271 ], [ 5496624.954571376554668, 8229023.559111383743584 ], [ 5496629.826753787696362, 8229011.526705926284194 ], [ 5496639.007134039886296, 8229009.279415007680655 ], [ 5496654.908705597743392, 8229017.46293977741152 ], [ 5496664.956037184223533, 8229023.378745447844267 ], [ 5496676.249049467965961, 8229024.159730667248368 ], [ 5496688.126819500699639, 8229042.558189078234136 ], [ 5496698.833384339697659, 8229047.782059544697404 ], [ 5496711.816142918542027, 8229047.503978407010436 ], [ 5496727.208257033489645, 8229031.828789592720568 ], [ 5496723.083226324059069, 8229014.878588848747313 ], [ 5496727.165923439897597, 8228996.724139432422817 ], [ 5496730.536022966727614, 8228962.909058203920722 ], [ 5496741.974550975486636, 8228938.473344031721354 ], [ 5496755.09038966614753, 8228928.300066535361111 ], [ 5496775.368483446538448, 8228932.977581377141178 ], [ 5496793.64030703343451, 8228955.763301301747561 ], [ 5496795.474174419417977, 8228977.538558738306165 ], [ 5496803.809084931388497, 8228983.492460055276752 ], [ 5496814.359639825299382, 8228981.22566445171833 ], [ 5496824.149140504188836, 8228975.55629538372159 ], [ 5496832.777871154248714, 8228963.440111361443996 ], [ 5496831.047129591926932, 8228946.780733734369278 ], [ 5496824.504919233731925, 8228928.518800248391926 ], [ 5496827.866047821938992, 8228909.703135900199413 ], [ 5496829.111475832760334, 8228888.203431917354465 ], [ 5496822.553954381495714, 8228869.253497421741486 ], [ 5496801.800117666833103, 8228858.113968250341713 ], [ 5496756.109884252771735, 8228832.175463831983507 ], [ 5496740.094775389879942, 8228818.887488572858274 ], [ 5496739.124627405777574, 8228805.608496271073818 ], [ 5496744.240604533813894, 8228789.140764368698001 ], [ 5496755.692642823792994, 8228780.714288727380335 ], [ 5496770.692370304837823, 8228778.692529859952629 ], [ 5496786.145157574675977, 8228782.111919041723013 ], [ 5496804.31486517097801, 8228784.438241171650589 ], [ 5496819.672145762480795, 8228783.085725721903145 ], [ 5496821.328567747958004, 8228775.721261338330805 ], [ 5496821.413161101751029, 8228764.128517681732774 ], [ 5496811.270365007221699, 8228753.440917238593102 ], [ 5496793.591580412350595, 8228741.899819801561534 ], [ 5496792.538145230151713, 8228724.881183694116771 ], [ 5496802.392677897587419, 8228706.264998259022832 ], [ 5496813.567293510772288, 8228701.253078272566199 ], [ 5496833.339018316939473, 8228698.103504329919815 ], [ 5496843.128367710858583, 8228692.434090525843203 ], [ 5496846.919736484996974, 8228678.038656700402498 ], [ 5496844.560130563564599, 8228663.436127129942179 ], [ 5496835.41903271432966, 8228652.048978950828314 ], [ 5496818.908483115956187, 8228647.2876295465976 ], [ 5496799.045660924166441, 8228629.988698828965425 ], [ 5496768.13397362921387, 8228607.473607985302806 ], [ 5496740.871868710033596, 8228595.45770766120404 ], [ 5496718.040416612289846, 8228583.331961030140519 ], [ 5496719.000496274791658, 8228568.255793014541268 ], [ 5496730.4720838079229, 8228561.194450195878744 ], [ 5496753.840964225120842, 8228550.803745641373098 ], [ 5496778.919189870357513, 8228524.365327408537269 ], [ 5496808.511706914752722, 8228501.578853077255189 ], [ 5496825.973463850095868, 8228486.545677298679948 ], [ 5496832.063552420586348, 8228467.669161126948893 ], [ 5496837.057989664375782, 8228445.752808287739754 ], [ 5496846.272791782394052, 8228429.193643929436803 ], [ 5496859.23237322177738, 8228411.540686554275453 ], [ 5496878.31218271329999, 8228392.71877118293196 ], [ 5496885.662531908601522, 8228381.8744454998523 ], [ 5496885.719919460825622, 8228368.58363008312881 ], [ 5496876.178646139800549, 8228354.130088607780635 ], [ 5496877.313558893278241, 8228343.546437533572316 ], [ 5496889.062275921925902, 8228333.070358131080866 ], [ 5496899.068323314189911, 8228337.621320161037147 ], [ 5496899.36108972504735, 8228351.248506233096123 ], [ 5496908.091460281051695, 8228359.580506905913353 ], [ 5496924.331794688478112, 8228351.735461078584194 ], [ 5496947.133524063043296, 8228330.798744091764092 ], [ 5496956.333094712346792, 8228313.562588920816779 ], [ 5496950.997103698551655, 8228303.789335591718554 ], [ 5496930.175422206521034, 8228289.587310167960823 ], [ 5496914.905998806469142, 8228279.002992128953338 ], [ 5496892.329538165591657, 8228262.453056287020445 ], [ 5496890.319751596078277, 8228248.175801352597773 ], [ 5496902.724127497524023, 8228220.987110128626227 ], [ 5496921.240334458649158, 8228207.640030074864626 ], [ 5496937.548754645511508, 8228202.85767806135118 ], [ 5496955.63473230227828, 8228201.444109571166337 ], [ 5496975.684605908580124, 8228195.901058003306389 ], [ 5496991.463971174322069, 8228182.270752714946866 ], [ 5496998.238956506364048, 8228163.3899493413046 ], [ 5496995.883575602434576, 8228149.464565427042544 ], [ 5496987.186673221178353, 8228142.153284642845392 ], [ 5496976.971616903319955, 8228144.079732727259398 ], [ 5496966.21242952439934, 8228152.824070126749575 ], [ 5496950.858887161128223, 8228153.843662035651505 ], [ 5496934.280425678938627, 8228146.019753379747272 ], [ 5496916.819786142557859, 8228129.355808036401868 ], [ 5496900.503329247236252, 8228117.429265269078314 ], [ 5496890.19732584990561, 8228115.27202960010618 ], [ 5496855.200120496563613, 8228100.16477644443512 ], [ 5496845.704795540310442, 8228104.117957606911659 ], [ 5496834.697337907738984, 8228116.620357350446284 ], [ 5496818.811678582802415, 8228125.478893024846911 ], [ 5496794.529470227658749, 8228124.643478945828974 ], [ 5496770.472449793480337, 8228102.664134561084211 ], [ 5496761.381274087354541, 8228077.642223693430424 ], [ 5496767.59679170511663, 8228048.537633622996509 ], [ 5496780.899556396529078, 8228015.533557645045221 ], [ 5496788.812677890993655, 8228002.078738892450929 ], [ 5496801.824975271709263, 8228003.154255498200655 ], [ 5496815.800169895403087, 8228017.175859766080976 ], [ 5496831.582668662071228, 8228019.555196950212121 ], [ 5496841.341515272855759, 8228012.531883073039353 ], [ 5496841.413934217765927, 8227999.917979051358998 ], [ 5496835.370587521232665, 8227989.150186665356159 ], [ 5496834.468721512705088, 8227978.945013264194131 ], [ 5496843.203165788203478, 8227971.600357786752284 ], [ 5496855.062300150282681, 8227966.573040569201112 ], [ 5496871.309738182462752, 8227959.060863304883242 ], [ 5496878.948521912097931, 8227948.676362005062401 ], [ 5496884.983154311776161, 8227927.325170459225774 ], [ 5496883.521835722960532, 8227906.907179420813918 ], [ 5496878.391945931129158, 8227891.000836350955069 ], [ 5496878.456659098155797, 8227878.042922390624881 ], [ 5496884.386080267839134, 8227867.352350411005318 ], [ 5496898.483251332305372, 8227855.125155316665769 ], [ 5496917.756637908518314, 8227845.502601708285511 ], [ 5496936.50780513137579, 8227842.719638435170054 ], [ 5496946.654485314153135, 8227837.730434915982187 ], [ 5496956.652400361374021, 8227825.583503784611821 ], [ 5496958.076484839431942, 8227812.606360830366611 ], [ 5496955.784953583963215, 8227801.066574741154909 ], [ 5496952.170319798402488, 8227776.277842620387673 ], [ 5496953.795515915378928, 8227756.468245697207749 ], [ 5496954.217958982102573, 8227744.190686155110598 ], [ 5496950.25653113052249, 8227735.075158008374274 ], [ 5496934.295036501251161, 8227724.173319268971682 ], [ 5496934.816130694933236, 8227716.32341405749321 ], [ 5496942.157789398916066, 8227707.98832091409713 ], [ 5496954.077319321222603, 8227705.679640274494886 ], [ 5496973.30890441685915, 8227710.046937011182308 ], [ 5496997.578632422722876, 8227709.860886080190539 ], [ 5497020.040633535012603, 8227704.952203968539834 ], [ 5497037.881764193996787, 8227691.608829483389854 ], [ 5497057.196050301194191, 8227683.350778828375041 ], [ 5497074.022029521875083, 8227671.062533888965845 ], [ 5497092.514436245895922, 8227641.783714357763529 ], [ 5497100.049646998755634, 8227626.28317170124501 ], [ 5497100.471984630450606, 8227614.005585487931967 ], [ 5497093.667443529702723, 8227599.835292504169047 ], [ 5497080.734984831884503, 8227586.478964626789093 ], [ 5497076.629321404732764, 8227570.893964476883411 ], [ 5497080.644183250144124, 8227550.697929041460156 ], [ 5497090.101113042794168, 8227545.035650313831866 ], [ 5497111.497426968999207, 8227538.440826781094074 ], [ 5497127.706580601632595, 8227529.23052844684571 ], [ 5497129.415389341302216, 8227513.182715363800526 ], [ 5497124.730874421074986, 8227502.373569273389876 ], [ 5497115.280910279601812, 8227492.01493177562952 ], [ 5497090.493442551232874, 8227499.706858576275408 ], [ 5497075.061147457920015, 8227497.65306013636291 ], [ 5497073.763476774096489, 8227485.069677418097854 ], [ 5497081.207343110814691, 8227465.474375489167869 ], [ 5497082.311556459404528, 8227453.525750020518899 ], [ 5497077.759463737718761, 8227448.176034571602941 ], [ 5497063.955930189229548, 8227442.333284243009984 ], [ 5497055.526441777125001, 8227447.972640089690685 ], [ 5497050.418733200989664, 8227464.773513664491475 ], [ 5497046.78443815279752, 8227486.670821844600141 ], [ 5497038.194485384970903, 8227500.485113175585866 ], [ 5497018.739227464422584, 8227501.929465334862471 ], [ 5496999.869980399496853, 8227498.919768401421607 ], [ 5496990.439791495911777, 8227489.926249659620225 ], [ 5496993.830597370862961, 8227472.475357573479414 ], [ 5496998.402561611495912, 8227446.526983800344169 ], [ 5496995.93638814240694, 8227427.152805462479591 ], [ 5496997.926886335015297, 8227408.367552023380995 ], [ 5496989.908387054689229, 8227385.364631968550384 ], [ 5496984.793508416973054, 8227370.135228032246232 ], [ 5496982.00787022896111, 8227351.800702388398349 ], [ 5496972.748383585363626, 8227334.609819354489446 ], [ 5496959.279983948916197, 8227328.42648475151509 ], [ 5496934.785951064899564, 8227318.048145516775548 ], [ 5496920.560010638087988, 8227308.140187976881862 ], [ 5496913.108524784445763, 8227295.682993656955659 ], [ 5496915.038212263025343, 8227274.167931063100696 ], [ 5496934.52766602858901, 8227258.411867150105536 ], [ 5496947.0334382513538, 8227251.671288096345961 ], [ 5496953.807186693884432, 8227232.757126351818442 ], [ 5496954.039588311687112, 8227211.957157842814922 ], [ 5496947.854880522936583, 8227194.364614851772785 ], [ 5496934.325968719087541, 8227185.462555515579879 ], [ 5496909.721769768744707, 8227185.989239791408181 ], [ 5496885.923911168240011, 8227191.949180454015732 ], [ 5496856.810161328874528, 8227189.512142011895776 ], [ 5496835.274017333053052, 8227173.960680115036666 ], [ 5496836.990345047786832, 8227158.245840413495898 ], [ 5496845.9985954137519, 8227147.830718057230115 ], [ 5496846.725359634496272, 8227133.836611604318023 ], [ 5496842.147332088090479, 8227127.799113637767732 ], [ 5496823.712113224901259, 8227128.876463798806071 ], [ 5496809.851873685605824, 8227136.335542562417686 ], [ 5496785.905523653142154, 8227135.148771371692419 ], [ 5496756.806345945224166, 8227122.308386765420437 ], [ 5496739.00697548687458, 8227105.307941334322095 ], [ 5496720.477220091037452, 8227086.280943419784307 ], [ 5496706.943828060291708, 8227076.690546375699341 ], [ 5496706.251245143823326, 8227076.361818240955472 ], [ 5496691.363105933181942, 8227067.478870877064764 ], [ 5496686.00923774112016, 8227057.372991288080812 ], [ 5496690.203120773658156, 8227045.688606617972255 ], [ 5496698.549202168360353, 8227036.309732264839113 ], [ 5496707.090954774059355, 8227019.854285542853177 ], [ 5496706.463022781535983, 8227006.567661819979548 ], [ 5496705.455052169039845, 8226991.601954826153815 ], [ 5496697.303740064613521, 8226978.483114887960255 ], [ 5496697.257700229994953, 8226960.076429851353168 ], [ 5496703.853620355948806, 8226949.037912892177701 ], [ 5496711.172027391381562, 8226939.670837583951652 ], [ 5496713.923407953232527, 8226924.277112174779177 ], [ 5496715.423312734812498, 8226914.706730343401432 ], [ 5496719.000456228852272, 8226906.100333577021956 ], [ 5496725.770900470204651, 8226902.896178422495723 ], [ 5496754.017121030017734, 8226897.170176824554801 ], [ 5496776.626462341286242, 8226883.054354075342417 ], [ 5496783.93297491595149, 8226857.300401294603944 ], [ 5496775.678591038100421, 8226839.076796458102763 ], [ 5496762.335916424170136, 8226822.665357273072004 ], [ 5496749.088884578086436, 8226811.025800924748182 ], [ 5496726.791295965202153, 8226807.415284538641572 ], [ 5496711.568503006361425, 8226798.884036119095981 ], [ 5496692.117895281873643, 8226784.651644857600331 ], [ 5496676.929338370449841, 8226761.797574798576534 ], [ 5496673.151195594109595, 8226747.926175411790609 ], [ 5496670.266829334199429, 8226725.152955517172813 ], [ 5496672.051626585423946, 8226712.51197078358382 ], [ 5496672.672079235315323, 8226693.746247807517648 ], [ 5496669.324093675240874, 8226665.543213466182351 ], [ 5496663.851305667310953, 8226633.279700291343033 ], [ 5496667.208572563715279, 8226614.808208403177559 ], [ 5496661.016689829528332, 8226596.882779757492244 ], [ 5496645.866664572618902, 8226592.091405834071338 ], [ 5496631.712836251594126, 8226601.255668954923749 ], [ 5496621.350308428518474, 8226612.389298023656011 ], [ 5496603.307838466949761, 8226616.177907453849912 ], [ 5496566.385340755805373, 8226615.957704838365316 ], [ 5496548.680934175848961, 8226619.06148515176028 ], [ 5496545.221896743401885, 8226633.449538008309901 ], [ 5496553.418542264029384, 8226648.610194524750113 ], [ 5496562.681717186234891, 8226666.467142039909959 ], [ 5496563.339777132496238, 8226681.107560834847391 ], [ 5496550.099499579519033, 8226685.144296607933939 ], [ 5496531.802179669030011, 8226677.01459873188287 ], [ 5496515.038253141567111, 8226660.335207130759954 ], [ 5496503.614349913783371, 8226654.106165739707649 ], [ 5496486.54933125898242, 8226655.152799993753433 ], [ 5496430.492138532921672, 8226671.701602666638792 ], [ 5496378.730414461344481, 8226680.649325139820576 ], [ 5496350.244792424142361, 8226675.133604706265032 ], [ 5496338.801240012049675, 8226667.539345048367977 ], [ 5496327.077248594723642, 8226647.350211884826422 ], [ 5496315.793961526826024, 8226615.216274708509445 ], [ 5496307.383906777948141, 8226589.502045379020274 ], [ 5496295.484046160243452, 8226576.799788321368396 ], [ 5496278.640465919859707, 8226572.401215890422463 ], [ 5496268.806369572877884, 8226576.017701914533973 ], [ 5496262.557399057783186, 8226571.382986856624484 ], [ 5496260.948012348264456, 8226560.172225654125214 ], [ 5496262.314447593875229, 8226544.121151146478951 ], [ 5496258.988432596437633, 8226532.271409817971289 ], [ 5496262.958172298967838, 8226526.387531436979771 ], [ 5496273.804526394233108, 8226522.071239329874516 ], [ 5496288.955396506004035, 8226511.519421564415097 ], [ 5496307.595916938968003, 8226504.298212386667728 ], [ 5496343.810427161864936, 8226487.159445459954441 ], [ 5496357.45805936306715, 8226470.16842510830611 ], [ 5496368.163324637338519, 8226459.038396319374442 ], [ 5496389.669343649409711, 8226457.892798776738346 ], [ 5496408.82672727201134, 8226458.498199702240527 ], [ 5496424.330634544603527, 8226447.938387487083673 ], [ 5496450.089390872046351, 8226415.644690944813192 ], [ 5496461.110998070798814, 8226403.819197626784444 ], [ 5496478.125711959786713, 8226400.042473514564335 ], [ 5496507.14001714810729, 8226398.063173779286444 ], [ 5496532.321932606399059, 8226392.749783349223435 ], [ 5496543.830069654621184, 8226387.386049143970013 ], [ 5496547.985961580649018, 8226374.003855433315039 ], [ 5496551.270349584519863, 8226351.781424791552126 ], [ 5496560.03110415674746, 8226329.792122394777834 ], [ 5496574.073802639730275, 8226315.167982145212591 ], [ 5496601.447034211829305, 8226315.945206162519753 ], [ 5496622.686375006102026, 8226318.213713982142508 ], [ 5496645.313344724476337, 8226314.045186406001449 ], [ 5496651.637593367137015, 8226305.721664469689131 ], [ 5496649.297588970512152, 8226292.484340213239193 ], [ 5496637.682776146568358, 8226276.722740985453129 ], [ 5496622.076749853789806, 8226266.834503235295415 ], [ 5496595.517157530412078, 8226255.480834480375051 ], [ 5496570.35913825687021, 8226246.482884682714939 ], [ 5496548.270865081809461, 8226236.383925105445087 ], [ 5496518.625288283452392, 8226240.775526588782668 ], [ 5496505.22582077421248, 8226237.654853664338589 ], [ 5496486.94359412882477, 8226223.940415793098509 ], [ 5496476.813450558111072, 8226197.920413267798722 ], [ 5496471.592876269482076, 8226177.930511217564344 ], [ 5496474.127486473880708, 8226168.670147175900638 ], [ 5496471.105722477659583, 8226155.103870127350092 ], [ 5496460.709058469161391, 8226132.498233987018466 ], [ 5496458.232103828340769, 8226096.770649561658502 ], [ 5496454.708345216698945, 8226059.711927551776171 ], [ 5496454.039201771840453, 8226028.718028995208442 ], [ 5496451.507891965098679, 8226008.812486473470926 ], [ 5496445.899394718930125, 8225986.788416424766183 ], [ 5496440.960105882957578, 8225947.707338710315526 ], [ 5496443.004321316257119, 8225899.621940961107612 ], [ 5496450.669046992436051, 8225874.581748213618994 ], [ 5496456.385181717574596, 8225854.347914796322584 ], [ 5496459.684750800952315, 8225832.813495174050331 ], [ 5496467.863397206179798, 8225815.944243406876922 ], [ 5496493.025828406214714, 8225793.933211650699377 ], [ 5496517.245745626278222, 8225766.625138901174068 ], [ 5496530.515388742089272, 8225747.599431464448571 ], [ 5496538.605947143398225, 8225726.302254400216043 ], [ 5496540.535377930849791, 8225704.787257965654135 ], [ 5496536.178117699921131, 8225676.939854592084885 ], [ 5496529.716821730136871, 8225662.773084498941898 ], [ 5496511.57599922735244, 8225645.780444379895926 ], [ 5496487.38397379219532, 8225634.940271646715701 ], [ 5496470.552807454951108, 8225631.552072643302381 ], [ 5496456.605569761246443, 8225634.5832933280617 ], [ 5496442.483737238682806, 8225629.780147979035974 ], [ 5496431.664614992216229, 8225619.440970523282886 ], [ 5496425.226141824387014, 8225606.295099863782525 ], [ 5496424.87233352381736, 8225589.93814836256206 ], [ 5496434.446638192981482, 8225573.726096287369728 ], [ 5496445.406858705915511, 8225559.17067302018404 ], [ 5496457.447329788468778, 8225530.635495859198272 ], [ 5496470.416610510088503, 8225513.992395209148526 ], [ 5496485.440726998262107, 8225497.314536775462329 ], [ 5496515.069672576151788, 8225475.892050182446837 ], [ 5496554.498351553454995, 8225449.820985023863614 ], [ 5496575.736322158947587, 8225435.735548081807792 ], [ 5496601.868736954405904, 8225418.84297548700124 ], [ 5496612.174553857184947, 8225405.6787123773247 ], [ 5496614.708916738629341, 8225396.418286893516779 ], [ 5496610.378152655437589, 8225385.612419906072319 ], [ 5496590.822168979793787, 8225366.608636471442878 ], [ 5496556.184919557534158, 8225329.533704408444464 ], [ 5496527.803940982557833, 8225297.42621945310384 ], [ 5496505.131378751248121, 8225276.449121130630374 ], [ 5496484.300139169208705, 8225261.226349884644151 ], [ 5496457.060648926533759, 8225234.211538450792432 ], [ 5496423.436865140683949, 8225200.799885462038219 ], [ 5496414.208601401187479, 8225184.974012793041766 ], [ 5496409.642715513706207, 8225163.615066544152796 ], [ 5496406.194898657500744, 8225146.305732809007168 ], [ 5496397.241066461429, 8225127.420596037991345 ], [ 5496388.625880947336555, 8225092.507230768911541 ], [ 5496379.30309200566262, 8225056.588242368772626 ], [ 5496370.2836200799793, 8225015.544312842190266 ], [ 5496351.648728378117085, 8224975.403279130347073 ], [ 5496342.165609455667436, 8224947.659196849912405 ], [ 5496330.978286570869386, 8224920.308416174724698 ], [ 5496308.792807337827981, 8224905.793068170547485 ], [ 5496292.593861630186439, 8224900.003797698765993 ], [ 5496266.1693345149979, 8224895.119892886839807 ], [ 5496257.991518532857299, 8224880.303101260215044 ], [ 5496255.152965704910457, 8224859.582883672788739 ], [ 5496257.881193676032126, 8224843.168297871015966 ], [ 5496262.493115753866732, 8224834.894095651805401 ], [ 5496261.701979986391962, 8224822.454940655268729 ], [ 5496256.522651090286672, 8224803.829774824902415 ], [ 5496257.531069559976459, 8224787.109384010545909 ], [ 5496252.949960151687264, 8224765.062460338696837 ], [ 5496251.2677704943344, 8224750.111857321113348 ], [ 5496244.098889558576047, 8224734.928394238464534 ], [ 5496242.443842589855194, 8224721.675841964781284 ], [ 5496247.040643535554409, 8224712.724731812253594 ], [ 5496255.37805691268295, 8224703.001815817318857 ], [ 5496265.797389418818057, 8224694.942199816927314 ], [ 5496266.622887318022549, 8224685.386883995495737 ], [ 5496261.607229148037732, 8224674.585211236029863 ], [ 5496243.646435353904963, 8224666.115199688822031 ], [ 5496223.825362700037658, 8224654.877795957960188 ], [ 5496208.155202416703105, 8224641.58266172464937 ], [ 5496178.492951213382185, 8224629.276922793127596 ], [ 5496156.258368594571948, 8224628.396265751682222 ], [ 5496129.263086549006402, 8224628.632095599547029 ], [ 5496114.654382787644863, 8224632.699446523562074 ], [ 5496095.901565712876618, 8224634.805298217572272 ], [ 5496084.884924768470228, 8224630.954280534759164 ], [ 5496078.134502429515123, 8224619.169878831133246 ], [ 5496082.815607445314527, 8224598.6261339597404 ], [ 5496098.170472824946046, 8224565.587352560833097 ], [ 5496124.979487653821707, 8224524.810072155669332 ], [ 5496142.857208218425512, 8224497.854518931359053 ], [ 5496146.977821293286979, 8224482.430299832485616 ], [ 5496156.623126041144133, 8224438.205548863857985 ], [ 5496157.962977807968855, 8224405.135174493305385 ], [ 5496155.116770898923278, 8224384.070977479219437 ], [ 5496142.635755894705653, 8224360.146408596076071 ], [ 5496125.422984916716814, 8224306.451097831130028 ], [ 5496122.356792621314526, 8224292.808157447725534 ], [ 5496120.381194723770022, 8224278.141677076928318 ], [ 5496119.963391114026308, 8224257.955899719148874 ], [ 5496121.533447967842221, 8224229.931947940960526 ], [ 5496120.651487564668059, 8224210.056288266554475 ], [ 5496120.01799775287509, 8224209.493102841079235 ], [ 5496107.085707128979266, 8224197.979896122589707 ], [ 5496087.057506076060236, 8224190.399788634851575 ], [ 5495944.07542176079005, 8224291.500454884022474 ], [ 5495906.601262382231653, 8224281.722447779029608 ], [ 5495880.268467636778951, 8224254.010007627308369 ], [ 5495875.754949539899826, 8224170.110862841829658 ], [ 5495920.76072249468416, 8224119.60203027818352 ], [ 5495925.419949535280466, 8224089.433127705939114 ], [ 5495903.399061219766736, 8224056.317698935046792 ], [ 5495852.821483292616904, 8224055.66939536575228 ], [ 5495809.712311714887619, 8224071.652158726006746 ], [ 5495786.749119848944247, 8224116.373439636081457 ], [ 5495784.141576243564487, 8224158.875527707859874 ], [ 5495736.825143966823816, 8224225.345015840604901 ], [ 5495638.691737242043018, 8224320.358495770022273 ], [ 5495522.148962711915374, 8224388.214703250676394 ], [ 5495480.698913837783039, 8224417.693199144676328 ], [ 5495448.336301816627383, 8224457.194260014221072 ], [ 5495424.401752280071378, 8224538.185156343504786 ], [ 5495396.880916970781982, 8224658.169055719859898 ], [ 5495342.672404211945832, 8224853.84236872009933 ], [ 5495327.812708041630685, 8224943.856722191907465 ], [ 5495313.304840191267431, 8225106.016257314942777 ], [ 5495224.85813467297703, 8225344.705667832866311 ], [ 5495173.692522793076932, 8225476.172623421065509 ], [ 5495179.04041258059442, 8225556.843996470794082 ], [ 5495156.933979852125049, 8225644.609915489330888 ], [ 5495125.311159171164036, 8225666.951593095436692 ], [ 5495100.030323065817356, 8225676.939761047251523 ], [ 5495045.20431609544903, 8225691.959380067884922 ], [ 5495009.325178490951657, 8225690.437128137797117 ], [ 5494986.199555085971951, 8225684.190308876335621 ], [ 5494952.315411522053182, 8225645.242759869433939 ], [ 5494928.767962940037251, 8225619.043675425462425 ], [ 5494915.434436776675284, 8225611.635347669944167 ], [ 5494884.007382839918137, 8225618.218381606973708 ], [ 5494836.569518947973847, 8225644.352929882705212 ], [ 5494828.624650517478585, 8225646.250416712835431 ], [ 5494820.741991611197591, 8225644.682661592029035 ], [ 5494790.655163107439876, 8225629.664369187317789 ], [ 5494748.124709118157625, 8225604.397922304458916 ], [ 5494694.989274346269667, 8225532.594101444818079 ], [ 5494667.485235537402332, 8225480.559467232786119 ], [ 5494615.406308500096202, 8225457.758880783803761 ], [ 5494593.917476912029088, 8225463.010427716188133 ], [ 5494572.558573978021741, 8225483.75754854362458 ], [ 5494564.250094308517873, 8225498.208368352614343 ], [ 5494568.984906843863428, 8225516.166194031015038 ], [ 5494595.062571384012699, 8225537.724108813330531 ], [ 5494601.740271799266338, 8225546.745994857512414 ], [ 5494598.964858993887901, 8225560.618658031336963 ], [ 5494568.524499705061316, 8225574.029289478436112 ], [ 5494550.977521380409598, 8225591.42762354388833 ], [ 5494527.279915805906057, 8225640.425853215157986 ], [ 5494506.693856636062264, 8225675.743765193969011 ], [ 5494487.272676886990666, 8225689.264631677418947 ], [ 5494463.503269797191024, 8225691.147221442312002 ], [ 5494433.109638320282102, 8225667.120461865328252 ], [ 5494406.553478391841054, 8225662.592422815039754 ], [ 5494327.835224401205778, 8225653.228004176169634 ], [ 5494299.059907362796366, 8225624.924198825843632 ], [ 5494279.65084754768759, 8225595.568584116175771 ], [ 5494256.987108942121267, 8225573.934548664838076 ], [ 5494200.452926846221089, 8225564.088150892406702 ], [ 5494150.425603350624442, 8225539.642322173342109 ], [ 5494121.193265634588897, 8225509.061532185412943 ], [ 5494106.658367236144841, 8225485.126420868560672 ], [ 5494101.72146132029593, 8225466.729016283527017 ], [ 5494089.911967990919948, 8225454.645829470828176 ], [ 5494070.930695306509733, 8225434.906083228066564 ], [ 5494053.796425153501332, 8225424.584216413088143 ], [ 5494036.888493743725121, 8225424.94853126257658 ], [ 5494014.139379653148353, 8225402.827775610610843 ], [ 5494003.290327416732907, 8225377.56739005446434 ], [ 5493983.700604832731187, 8225349.21487925760448 ], [ 5493974.437745919451118, 8225318.235064601525664 ], [ 5493970.468822984024882, 8225287.4818783570081 ], [ 5493966.547270590439439, 8225258.3818369936198 ], [ 5493960.16105773858726, 8225230.146962990052998 ], [ 5493964.805736574344337, 8225216.066445400938392 ], [ 5493962.822189066559076, 8225200.489998135715723 ], [ 5493966.380359932780266, 8225193.416747776791453 ], [ 5493977.166711996309459, 8225196.063770222477615 ], [ 5493984.63736361078918, 8225198.373636411502957 ], [ 5493990.406773362308741, 8225197.834759013727307 ], [ 5493994.309659410268068, 8225187.478761556558311 ], [ 5493993.910034700296819, 8225168.980624346993864 ], [ 5493993.484922679141164, 8225148.851060904562473 ], [ 5493993.420185137540102, 8225145.932675997726619 ], [ 5493993.268788941204548, 8225138.142443319782615 ], [ 5493997.904684615321457, 8225133.321158053353429 ], [ 5493998.041369459591806, 8225126.934480281546712 ], [ 5493989.899027979932725, 8225123.784686965867877 ], [ 5493974.794690987095237, 8225120.500828140415251 ], [ 5493963.970178208313882, 8225122.406475218944252 ], [ 5493949.904901949688792, 8225115.76893568970263 ], [ 5493944.575049323961139, 8225100.888501385226846 ], [ 5493930.837210185825825, 8225083.430358755402267 ], [ 5493904.505279103294015, 8225075.943855175748467 ], [ 5493895.386536840349436, 8225066.420978386886418 ], [ 5493889.283827242441475, 8225054.344298157840967 ], [ 5493883.900492699816823, 8225037.533308957703412 ], [ 5493880.567467846907675, 8225024.828937857411802 ], [ 5493883.548740030266345, 8225004.779199479147792 ], [ 5493878.893871953710914, 8224982.678602891974151 ], [ 5493870.634427182376385, 8224961.213134787976742 ], [ 5493850.770780511200428, 8224944.14633313473314 ], [ 5493825.928578012622893, 8224928.033798085525632 ], [ 5493819.152335211634636, 8224910.687537100166082 ], [ 5493830.02276954613626, 8224885.755436543375254 ], [ 5493839.950717957690358, 8224868.049424726516008 ], [ 5493867.362443577498198, 8224834.934246631339192 ], [ 5493880.803120587952435, 8224825.48778722435236 ], [ 5493895.845719397999346, 8224825.997524372301996 ], [ 5493906.410326970741153, 8224824.930288502946496 ], [ 5493916.172579294070601, 8224812.789987125433981 ], [ 5493932.123023306019604, 8224790.520475812256336 ], [ 5493937.879386529326439, 8224773.473222395405173 ], [ 5493941.258053644560277, 8224762.17408555932343 ], [ 5493941.704022963531315, 8224753.804387944750488 ], [ 5493939.017070373520255, 8224748.990288428962231 ], [ 5493930.840262593701482, 8224743.798516031354666 ], [ 5493884.565975429490209, 8224728.706033332273364 ], [ 5493873.544762179255486, 8224723.666223393753171 ], [ 5493868.097517351619899, 8224717.969745610840619 ], [ 5493868.336413320153952, 8224711.847253555431962 ], [ 5493875.044119840487838, 8224700.041234120726585 ], [ 5493884.478861644864082, 8224685.687811110168695 ], [ 5493882.735378016717732, 8224669.351112464442849 ], [ 5493876.503479642793536, 8224651.448788981884718 ], [ 5493869.447361245751381, 8224639.826282786205411 ], [ 5493854.786205851472914, 8224624.653491076081991 ], [ 5493840.782768163830042, 8224620.790100767277181 ], [ 5493826.632738968357444, 8224618.040154997259378 ], [ 5493815.797772931866348, 8224610.775807108730078 ], [ 5493801.974360280670226, 8224602.478715749457479 ], [ 5493774.195197097957134, 8224605.016133791767061 ], [ 5493711.272117958404124, 8224599.99615222774446 ], [ 5493681.688524102792144, 8224609.512228656560183 ], [ 5493669.756807374767959, 8224613.618359943851829 ], [ 5493659.083811023272574, 8224614.621305335313082 ], [ 5493648.400571616366506, 8224609.851462576538324 ], [ 5493635.626978478394449, 8224598.200402705930173 ], [ 5493612.393217111006379, 8224592.321375140920281 ], [ 5493602.881673231720924, 8224591.144741828553379 ], [ 5493594.64857264328748, 8224595.479596059769392 ], [ 5493579.755267672240734, 8224615.21631708741188 ], [ 5493554.68053778540343, 8224636.400181488133967 ], [ 5493531.81710868421942, 8224647.709729450754821 ], [ 5493498.671883199363947, 8224659.802491007372737 ], [ 5493480.993707726709545, 8224663.54752841219306 ], [ 5493473.253153185360134, 8224668.370980589650571 ], [ 5493471.20781749393791, 8224677.042551142163575 ], [ 5493471.134192542172968, 8224699.803112150169909 ], [ 5493471.467828901484609, 8224715.338391478173435 ], [ 5493458.643275843933225, 8224753.069683915004134 ], [ 5493452.176656018942595, 8224763.204873828217387 ], [ 5493429.849491489119828, 8224782.295905848965049 ], [ 5493390.793823106214404, 8224782.773737543262541 ], [ 5493372.570256913080812, 8224775.439955326728523 ], [ 5493358.607503414154053, 8224761.816791431047022 ], [ 5493339.162894083186984, 8224737.546378085389733 ], [ 5493313.462226638570428, 8224723.250998269766569 ], [ 5493254.702027902938426, 8224708.978286344558001 ], [ 5493195.131831069476902, 8224695.833592362701893 ], [ 5493154.994225372560322, 8224680.326154076494277 ], [ 5493127.900861984118819, 8224662.597714573144913 ], [ 5493080.522741798311472, 8224625.668700782582164 ], [ 5493057.896898942068219, 8224598.8930654367432 ], [ 5493043.281472412869334, 8224583.341437511146069 ], [ 5493009.702794726938009, 8224578.768061820417643 ], [ 5492956.225238445214927, 8224578.699004115536809 ], [ 5492923.133074704557657, 8224596.096360163763165 ], [ 5492890.217170710675418, 8224606.950766639783978 ], [ 5492852.14292957726866, 8224620.79480251763016 ], [ 5492816.079536661505699, 8224614.24456341098994 ], [ 5492768.565649592317641, 8224587.598361543379724 ], [ 5492716.491477724164724, 8224576.928712550550699 ], [ 5492665.308110827580094, 8224588.609349932521582 ], [ 5492630.599758869037032, 8224588.134813606739044 ], [ 5492616.838252298533916, 8224578.259301964193583 ], [ 5492602.149342833086848, 8224559.855948842130601 ], [ 5492596.190116789191961, 8224555.680453300476074 ], [ 5492588.588728590868413, 8224555.671196226030588 ], [ 5492555.722988987341523, 8224564.925316073000431 ], [ 5492491.04766430798918, 8224576.493593487888575 ], [ 5492458.115421476773918, 8224567.741952282376587 ], [ 5492426.688327055424452, 8224545.723638173192739 ], [ 5492385.630512339994311, 8224515.681030636653304 ], [ 5492343.164289857260883, 8224465.519877838902175 ], [ 5492325.681033426895738, 8224411.763708128593862 ], [ 5492311.093304906971753, 8224390.66029847227037 ], [ 5492287.725491785444319, 8224374.336292004212737 ], [ 5492257.513681467622519, 8224355.454957280308008 ], [ 5492251.027370206080377, 8224338.091101117432117 ], [ 5492258.220482463948429, 8224311.898272080346942 ], [ 5492263.805639551021159, 8224290.936650185845792 ], [ 5492263.229156859219074, 8224260.031053029932082 ], [ 5492265.069598751142621, 8224231.913992187008262 ], [ 5492278.554117208346725, 8224213.308662258088589 ], [ 5492278.007187623530626, 8224188.097599936649203 ], [ 5492281.601577083580196, 8224165.226126180961728 ], [ 5492299.603975736536086, 8224148.563455269671977 ], [ 5492301.235541100613773, 8224129.399009387940168 ], [ 5492297.324151725508273, 8224118.095220321789384 ], [ 5492293.411728389561176, 8224089.80577452108264 ], [ 5492302.656127416528761, 8224034.88053263258189 ], [ 5492300.056300265714526, 8223978.818738006055355 ], [ 5492276.607411252334714, 8223922.519230612553656 ], [ 5492247.298786354251206, 8223852.494505682960153 ], [ 5492225.982521275058389, 8223798.223815431818366 ], [ 5492227.173890366218984, 8223748.517120633274317 ], [ 5492232.243280092254281, 8223725.546364036388695 ], [ 5492224.355232510715723, 8223682.080077288672328 ], [ 5492195.57203044462949, 8223636.278875954449177 ], [ 5492179.702296948060393, 8223577.047251638025045 ], [ 5492188.128355393186212, 8223516.600397144444287 ], [ 5492177.577683757990599, 8223446.171455688774586 ], [ 5492179.714394669979811, 8223351.137615715153515 ], [ 5492181.149938927032053, 8223288.769523835740983 ], [ 5492169.929229944944382, 8223251.927114652469754 ], [ 5492126.511872602626681, 8223195.459402719512582 ], [ 5490927.949247575365007, 8223392.114352121949196 ], [ 5490386.460820885375142, 8223404.080845274031162 ], [ 5490161.98548246268183, 8223491.228248586878181 ], [ 5490046.690123923122883, 8223557.370940208435059 ], [ 5489939.013981419615448, 8223595.213894950225949 ], [ 5489767.91706938482821, 8223591.646886124275625 ], [ 5489654.825805984437466, 8223543.993816085159779 ], [ 5489507.767435712739825, 8223453.060528244823217 ], [ 5489379.586046470329165, 8223416.740246987901628 ], [ 5489278.610558872111142, 8223383.49490868486464 ], [ 5489148.129846483469009, 8223349.67754464969039 ], [ 5488957.423830124549568, 8223258.481245974078774 ], [ 5488627.306605968624353, 8223263.30060064047575 ], [ 5488522.826711002737284, 8223338.976868156343699 ], [ 5488454.139403346925974, 8223433.437167722731829 ], [ 5488350.240861434489489, 8223428.382702888920903 ], [ 5488204.8110565925017, 8223358.199351379647851 ], [ 5488150.851202862337232, 8223371.607138427905738 ], [ 5488092.758566113188863, 8223430.364945442415774 ], [ 5488081.625866941176355, 8223441.621797392144799 ], [ 5488000.420563602820039, 8223503.329098626039922 ], [ 5487870.678421354852617, 8223556.32141750305891 ], [ 5487768.356234387494624, 8223515.761509705334902 ], [ 5487596.249258412979543, 8223358.106348159722984 ], [ 5487462.987070476636291, 8223250.963004590012133 ], [ 5487289.433638697490096, 8223296.343088554218411 ], [ 5487187.35687846224755, 8223374.412419209256768 ], [ 5487051.414138160645962, 8223521.705402317456901 ], [ 5486933.857312077656388, 8223528.943861776031554 ], [ 5486899.140835175290704, 8223556.857481598854065 ], [ 5486862.986411933787167, 8223589.020891787484288 ], [ 5486845.087862788699567, 8223613.513184310868382 ], [ 5486826.028336071409285, 8223636.809774667024612 ], [ 5486798.644030265510082, 8223659.311789157800376 ], [ 5486757.766250125132501, 8223686.982593007385731 ], [ 5486744.270266721956432, 8223701.820407859049737 ], [ 5486723.381788063794374, 8223730.585274340584874 ], [ 5486713.314244949258864, 8223762.188117284327745 ], [ 5486692.88634112291038, 8223794.395234216935933 ], [ 5486669.623829014599323, 8223813.98710277210921 ], [ 5486646.336517154239118, 8223837.831137164495885 ], [ 5486627.139851062558591, 8223855.857496195472777 ], [ 5486626.260137320496142, 8223868.498517949134111 ], [ 5486618.906125611625612, 8223883.701277846470475 ], [ 5486606.889451841823757, 8223913.814745586365461 ], [ 5486593.932297100313008, 8223954.283748337998986 ], [ 5486583.512642428278923, 8223987.42607850022614 ], [ 5486574.600315294228494, 8224019.003473580814898 ], [ 5486562.477971771731973, 8224061.918551782146096 ], [ 5486559.998848188668489, 8224071.919238691218197 ], [ 5486557.025572117418051, 8224086.248998436145484 ], [ 5486554.695931194350123, 8224088.398059936240315 ], [ 5486552.298768322914839, 8224088.927864376455545 ], [ 5486546.868447013199329, 8224086.360289858654141 ], [ 5486540.805649237707257, 8224087.181236119940877 ], [ 5486537.766867653466761, 8224089.212604343891144 ], [ 5486535.857183342799544, 8224091.963022843003273 ], [ 5486537.294940900057554, 8224105.330365959554911 ], [ 5486539.283862290903926, 8224116.976105462759733 ], [ 5486539.478722264058888, 8224129.316062673926353 ], [ 5486535.066406364552677, 8224144.421067237854004 ], [ 5486534.873561450280249, 8224153.228315460495651 ], [ 5486534.820440001785755, 8224159.612505712546408 ], [ 5486530.922942184843123, 8224165.947616344317794 ], [ 5486511.851228794082999, 8224189.710199965164065 ], [ 5486504.452576798386872, 8224202.882373665459454 ], [ 5486499.764961156994104, 8224217.149713895283639 ], [ 5486497.067916798405349, 8224234.814776452258229 ], [ 5486488.424106569029391, 8224243.429507597349584 ], [ 5486481.617492748424411, 8224266.546224587596953 ], [ 5486475.701205712743104, 8224277.010621451772749 ], [ 5486462.695977010764182, 8224297.187998991459608 ], [ 5486438.945415045134723, 8224318.000084539875388 ], [ 5486411.872558425180614, 8224357.756338715553284 ], [ 5486393.409250358119607, 8224392.228887463919818 ], [ 5486372.326700268313289, 8224429.811441021040082 ], [ 5486358.232398689724505, 8224461.890474585816264 ], [ 5486351.782912247814238, 8224500.873546013608575 ], [ 5486351.57014265935868, 8224546.991283684037626 ], [ 5486344.882722517475486, 8224579.00818684976548 ], [ 5486321.370035568252206, 8224613.180282259359956 ], [ 5486288.905792192555964, 8224632.095657697878778 ], [ 5486251.228260225616395, 8224635.350623649545014 ], [ 5486213.05804174952209, 8224615.559797397814691 ], [ 5486174.53281485568732, 8224580.002364047802985 ], [ 5486146.685086301527917, 8224561.773024551570415 ], [ 5486112.011524671688676, 8224544.725260275416076 ], [ 5486085.400303269736469, 8224538.502160420641303 ], [ 5486052.902983943000436, 8224535.804551106877625 ], [ 5486028.673469793982804, 8224540.596870024688542 ], [ 5486010.907857490703464, 8224548.222910015843809 ], [ 5485995.030700677074492, 8224563.889067958109081 ], [ 5485976.846235705539584, 8224571.946057832799852 ], [ 5485958.561028003692627, 8224574.898849041201174 ], [ 5485942.236611418426037, 8224570.571036340668797 ], [ 5485931.940373205579817, 8224568.242843883112073 ], [ 5485917.932674922049046, 8224571.956891482695937 ], [ 5485909.552730282768607, 8224578.944808807224035 ], [ 5485898.939881840720773, 8224581.729897141456604 ], [ 5485878.040238441899419, 8224582.619487963616848 ], [ 5485867.036436534486711, 8224584.169810319319367 ], [ 5485855.556648941710591, 8224588.927561125718057 ], [ 5485847.512075361795723, 8224595.586196819320321 ], [ 5485840.416984881274402, 8224606.997433567419648 ], [ 5485844.259260782040656, 8224614.795065842568874 ], [ 5485848.582701517269015, 8224618.641397044062614 ], [ 5485847.557454221881926, 8224623.170726616866887 ], [ 5485839.162432747893035, 8224627.017405038699508 ], [ 5485829.095104904845357, 8224631.744275668635964 ], [ 5485817.285991378128529, 8224646.921750480309129 ], [ 5485804.825407389551401, 8224658.738800575956702 ], [ 5485795.681670552119613, 8224666.542598396539688 ], [ 5485787.225118348374963, 8224667.570989882573485 ], [ 5485774.598937660455704, 8224658.555426740087569 ], [ 5485757.803087839856744, 8224652.739163336344063 ], [ 5485749.561610631644726, 8224650.37710012216121 ], [ 5485733.739933736622334, 8224650.44516720995307 ], [ 5485718.051706374622881, 8224656.138411082327366 ], [ 5485707.288161728531122, 8224654.96369977388531 ], [ 5485698.956338324584067, 8224648.951432193629444 ], [ 5485693.929288520477712, 8224638.371164483018219 ], [ 5485691.167542492970824, 8224628.573980575427413 ], [ 5485687.276173984631896, 8224618.523948833346367 ], [ 5485680.176928579807281, 8224616.991679599508643 ], [ 5485667.170907041057944, 8224620.494959725067019 ], [ 5485659.822485953569412, 8224627.660041852854192 ], [ 5485651.266271813772619, 8224642.766356507316232 ], [ 5485643.67174647655338, 8224659.261462329886854 ], [ 5485626.541016544215381, 8224668.027749331668019 ], [ 5485611.283672424964607, 8224676.297979363240302 ], [ 5485593.079632914625108, 8224678.560414168983698 ], [ 5485569.004121672362089, 8224668.828991046175361 ], [ 5485544.162239858880639, 8224646.048675402067602 ], [ 5485516.451401154510677, 8224605.114627609029412 ], [ 5485499.754056261852384, 8224579.758707564324141 ], [ 5485495.15305408462882, 8224574.963722970336676 ], [ 5485471.95013274718076, 8224550.748898071236908 ], [ 5485460.067969703115523, 8224544.91398822888732 ], [ 5485446.020954522304237, 8224542.900591783225536 ] ] ] } }
]
}
