{
"type": "FeatureCollection",
"name": "5212253",
"crs": { "type": "name", "properties": { "name": "urn:ogc:def:crs:EPSG::5880" } },
"features": [
{ "type": "Feature", "properties": { "lv_id": "LOC_079789", "id": 462606.0, "CD_SETOR": "521225305000001", "SITUACAO": "Urbana", "CD_SIT": "1", "CD_TIPO": "0", "AREA_KM2": 0.95491060310765197, "CD_REGIAO": "5", "NM_REGIAO": "Centro-Oeste", "CD_UF": "52", "NM_UF": "Goiás", "CD_MUN": "5212253", "NM_MUN": "Lagoa Santa", "CD_DIST": "521225305", "NM_DIST": "Lagoa Santa", "CD_SUBDIST": "52122530500", "NM_SUBDIST": null, "CD_BAIRRO": null, "NM_BAIRRO": null, "CD_NU": null, "NM_NU": null, "CD_FCU": null, "NM_FCU": null, "CD_AGLOM": null, "NM_AGLOM": null, "CD_RGINT": "5203", "NM_RGINT": "Rio Verde", "CD_RGI": "520010", "NM_RGI": "Rio Verde", "CD_CONCURB": null, "NM_CONCURB": null, "mun_code_x": "5212253", "index_right": 22597, "dist_m": 0.0, "local_id": 824362, "ano": 2022, "cod_localidade_ibge": 5212253, "NR_ZONA": "96", "nr_cep": 75819000.0, "nm_localidade": "LAGOA SANTA", "nm_locvot": "ESCOLA MUNICIPAL PROFESSOR GUILHERME QUEIROZ FIGUEIRA", "ds_endereco": "RUA WALDOMIRO TEODORO RIOS, S/N", "ds_bairro": "POUSADA DAS NASCENTES", "pred_long": -51.399825, "pred_lat": -19.182605, "pred_dist": 0.0, "tse_long": -51.39977817, "tse_lat": -19.18262025, "long": -51.39977817, "lat": -19.18262025, "ID_UNICO": "LOC_079789", "SG_UF": "GO", "CD_MUNICIPIO": "93602", "NR_LOCAL_VOTACAO": "1015", "QT_SECOES_AGREGADAS": 0, "QT_ELEITORES_TRANSFERIDOS": 4, "CIRO GOMES (PDT) (NÃO ELEITO) 1T": 11.0, "CONSTITUINTE EYMAEL (DC) (NÃO ELEITO) 1T": 0.0, "FELIPE D AVILA (NOVO) (NÃO ELEITO) 1T": 0.0, "JAIR BOLSONARO (PL) (2º TURNO) 1T": 610.0, "LULA (PT) (2º TURNO) 1T": 437.0, "LÉO PÉRICLES (UP) (NÃO ELEITO) 1T": 0.0, "PADRE KELMON (PTB) (NÃO ELEITO) 1T": 1.0, "SIMONE TEBET (MDB) (NÃO ELEITO) 1T": 40.0, "SOFIA MANZANO (PCB) (NÃO ELEITO) 1T": 0.0, "SORAYA THRONICKE (UNIÃO) (NÃO ELEITO) 1T": 14.0, "VERA (PSTU) (NÃO ELEITO) 1T": 0.0, "Total_Votos_Validos 1T": 1113.0, "Votos_Brancos 1T": 12.0, "Votos_Nulos 1T": 19.0, "Abstenções 1T": 454.0, "Eleitores_Aptos 1T": 1598.0, "JAIR BOLSONARO (PL) (NÃO ELEITO) 2T": 665.0, "LULA (PT) (ELEITO) 2T": 438.0, "Total_Votos_Validos 2T": 1103.0, "Votos_Brancos 2T": 12.0, "Votos_Nulos 2T": 27.0, "Abstenções 2T": 456.0, "Eleitores_Aptos 2T": 1598.0, "mun_code_y": "5212253", "mun_code": "5212253" }, "geometry": { "type": "Polygon", "coordinates": [ [ [ 5305382.323113385587931, 7862442.807814255356789 ], [ 5305406.738202368840575, 7862366.717724311165512 ], [ 5305601.648219021037221, 7862056.14744782820344 ], [ 5305625.156286312267184, 7861981.856542523950338 ], [ 5305611.548681174404919, 7861908.188466176390648 ], [ 5305602.319965308532119, 7861869.350140227004886 ], [ 5305588.744140990078449, 7861826.395045177079737 ], [ 5305567.837845238856971, 7861786.322848969139159 ], [ 5305607.627459885552526, 7861715.172531986609101 ], [ 5305520.732558947987854, 7861745.315820060670376 ], [ 5305458.339768910780549, 7861784.280549300834537 ], [ 5305366.693515481427312, 7861852.06601157784462 ], [ 5305365.509685270488262, 7861852.92823819257319 ], [ 5305277.913103563711047, 7861882.660784395411611 ], [ 5305163.384857710450888, 7861904.775121564045548 ], [ 5305002.981389310210943, 7861931.691597646102309 ], [ 5304892.007377178408206, 7861937.595451734960079 ], [ 5304788.423611737787724, 7861927.214710248634219 ], [ 5304665.69359674025327, 7861917.142636101692915 ], [ 5304577.228761318139732, 7861894.393186558037996 ], [ 5304507.494904001243412, 7861847.100940898992121 ], [ 5304449.044337804429233, 7861787.49416265450418 ], [ 5304375.418606431223452, 7861736.22100445907563 ], [ 5304352.110481765121222, 7861716.426999295130372 ], [ 5304294.210859131999314, 7861689.11990035418421 ], [ 5304217.154975220561028, 7861662.132701366208494 ], [ 5304163.417997451499104, 7861654.961425300687551 ], [ 5304075.561566846445203, 7861668.543355020694435 ], [ 5303987.694502548314631, 7861682.125020148232579 ], [ 5303922.943540552631021, 7861703.40048950817436 ], [ 5303823.859986633993685, 7861733.317548609338701 ], [ 5303732.234871026128531, 7861751.006175940856338 ], [ 5303675.076463287696242, 7861768.108478366397321 ], [ 5303606.354689162224531, 7861781.368905646726489 ], [ 5303534.211590353399515, 7861818.926179952919483 ], [ 5303466.027583707123995, 7861864.486088945530355 ], [ 5303405.63832617085427, 7861917.995846341364086 ], [ 5303349.554718673229218, 7861999.697059698402882 ], [ 5303273.776016662828624, 7862049.417031516321003 ], [ 5303209.022887653671205, 7862070.68967492133379 ], [ 5303159.110245345160365, 7862063.451659155078232 ], [ 5303086.091679407283664, 7862048.506972930394113 ], [ 5303047.608076896518469, 7862037.032924098894 ], [ 5303001.990575059317052, 7862057.98637910746038 ], [ 5302968.13765383977443, 7862094.892896395176649 ], [ 5302946.24032683763653, 7862159.874882450327277 ], [ 5302928.302201453596354, 7862232.870950913056731 ], [ 5302906.203151960857213, 7862285.741753423586488 ], [ 5302872.003456535749137, 7862302.459345305338502 ], [ 5302833.777295459061861, 7862307.12938154488802 ], [ 5302760.959495538845658, 7862304.305458253249526 ], [ 5302703.262005529366434, 7862289.115559504367411 ], [ 5302618.757133166305721, 7862274.359819989651442 ], [ 5302538.077692843973637, 7862259.551253804937005 ], [ 5302453.439013811759651, 7862236.717060930095613 ], [ 5302373.027799006551504, 7862238.052170779556036 ], [ 5302258.226219973526895, 7862244.003178515471518 ], [ 5302170.020296345464885, 7862237.386806271970272 ], [ 5302051.393389386124909, 7862243.388885866850615 ], [ 5301986.504486445337534, 7862256.590289967134595 ], [ 5301941.152746430598199, 7862293.685172840952873 ], [ 5301922.742033918388188, 7862338.41327908448875 ], [ 5301905.077520358376205, 7862427.551889518275857 ], [ 5301891.361230929382145, 7862524.704928677529097 ], [ 5301881.547211329452693, 7862625.827673762105405 ], [ 5301860.835853383876383, 7862698.601886863820255 ], [ 5301856.210558299906552, 7862715.093264077790082 ], [ 5301830.081819084472954, 7862755.914623539894819 ], [ 5301742.742642526514828, 7862801.784211598336697 ], [ 5301670.591255573555827, 7862839.321949394419789 ], [ 5301568.073443424887955, 7862893.521778566762805 ], [ 5301450.644085367210209, 7862972.196207517758012 ], [ 5301367.005264199338853, 7863009.933679643087089 ], [ 5301279.530125635676086, 7863047.723064608871937 ], [ 5301188.029226295650005, 7863073.464269586838782 ], [ 5301081.749921536073089, 7863131.757501336745918 ], [ 5301017.057097568176687, 7863157.065859565511346 ], [ 5300964.106353020295501, 7863198.317551618441939 ], [ 5300919.42692837677896, 7863275.786208912730217 ], [ 5300864.116250310093164, 7863405.932519935071468 ], [ 5300815.677114021033049, 7863487.508288037031889 ], [ 5300757.005481098778546, 7863645.972273135557771 ], [ 5300713.511808728799224, 7863796.116758856922388 ], [ 5300683.742336940020323, 7863849.110058266669512 ], [ 5300604.255727596580982, 7863906.957576499320567 ], [ 5300524.313282645307481, 7863936.538398133590817 ], [ 5300395.441240663640201, 7864019.438339093700051 ], [ 5300262.409917225129902, 7864082.200678339228034 ], [ 5300167.076741668395698, 7864107.99886557739228 ], [ 5300040.775809923186898, 7864114.123392535373569 ], [ 5299967.818606292828918, 7864103.20986145362258 ], [ 5299856.763659478165209, 7864105.036828201264143 ], [ 5299730.329743046313524, 7864103.070552519522607 ], [ 5299649.976733499206603, 7864108.436880197376013 ], [ 5299535.427836298942566, 7864130.513126200065017 ], [ 5299447.744443515315652, 7864156.181687504053116 ], [ 5299390.242920638993382, 7864153.080661732703447 ], [ 5299336.302132266573608, 7864133.783707849681377 ], [ 5299274.501033992506564, 7864102.490522689186037 ], [ 5299193.220475528389215, 7864051.323112851008773 ], [ 5299119.800455093383789, 7864012.140458721667528 ], [ 5299038.520701107569039, 7863960.972470123320818 ], [ 5298961.540749688632786, 7863938.007088927552104 ], [ 5298907.921256648376584, 7863938.886388809420168 ], [ 5298847.058290882967412, 7863964.112286362797022 ], [ 5298816.952294321730733, 7863996.913506025448442 ], [ 5298760.763836588710546, 7864074.563797508366406 ], [ 5298722.92990824021399, 7864103.457149720750749 ], [ 5298662.121650157496333, 7864132.715709681622684 ], [ 5298585.670315616764128, 7864142.04767893627286 ], [ 5298524.399216416291893, 7864143.051079796627164 ], [ 5298390.303999917581677, 7864141.212069652043283 ], [ 5298302.431455544196069, 7864154.764048533514142 ], [ 5298142.05414842069149, 7864185.660736653022468 ], [ 5298046.321766333654523, 7864187.226040383800864 ], [ 5297946.687283556908369, 7864184.809254304505885 ], [ 5297831.542689190246165, 7864170.542503152042627 ], [ 5297739.174440150149167, 7864143.778122062794864 ], [ 5297658.425300993956625, 7864124.903222166933119 ], [ 5297589.503261329606175, 7864126.028415469452739 ], [ 5297536.091306738555431, 7864139.014086803421378 ], [ 5297494.495613842271268, 7864172.000241331756115 ], [ 5297441.53393073566258, 7864213.251316608861089 ], [ 5297407.665205807425082, 7864250.14541313610971 ], [ 5297339.258744798600674, 7864283.568467847071588 ], [ 5297285.977804761379957, 7864304.630763687193394 ], [ 5297194.596626108512282, 7864338.42780807800591 ], [ 5297114.647078610956669, 7864368.003815051168203 ], [ 5297034.883802570402622, 7864409.679130710661411 ], [ 5296978.094756790436804, 7864450.990945780649781 ], [ 5296913.982904048636556, 7864512.61515230871737 ], [ 5296857.06177827809006, 7864545.84909113496542 ], [ 5296800.413620025850832, 7864595.226402526721358 ], [ 5296735.895898886956275, 7864632.617768822237849 ], [ 5296655.747327704913914, 7864650.080923523753881 ], [ 5296587.46924187336117, 7864691.578175514005125 ], [ 5296549.302150141447783, 7864700.26734652929008 ], [ 5296514.708929776214063, 7864692.76141956821084 ], [ 5296491.012409346178174, 7864648.72590983659029 ], [ 5296452.320473110303283, 7864625.116380907595158 ], [ 5296417.530459905043244, 7864605.488662421703339 ], [ 5296383.058021414093673, 7864606.049000735394657 ], [ 5296314.921230921521783, 7864655.622395522892475 ], [ 5296205.436233569867909, 7864754.322065868414938 ], [ 5296145.67034803237766, 7864848.168291518464684 ], [ 5296078.438634446822107, 7864954.260220400989056 ], [ 5296060.347975792363286, 7865019.167743377387524 ], [ 5296049.766979527659714, 7865075.873832708224654 ], [ 5296052.108752358704805, 7865123.658923789858818 ], [ 5296055.502928391098976, 7865192.894682481884956 ], [ 5296037.466733268462121, 7865261.835441258735955 ], [ 5296007.746142220683396, 7865318.852065308950841 ], [ 5295977.894506267271936, 7865367.802326645702124 ], [ 5295929.350994918495417, 7865445.317332508042455 ], [ 5295888.730855369009078, 7865538.851519891992211 ], [ 5295874.660744715481997, 7865615.807105870917439 ], [ 5295842.018873998895288, 7865729.415931362658739 ], [ 5295806.019019793719053, 7865871.340607492253184 ], [ 5295776.68887654133141, 7865952.57757124863565 ], [ 5295739.369218159466982, 7866013.761875655502081 ], [ 5295686.734953462146223, 7866075.183137763291597 ], [ 5295626.830360434949398, 7866160.960357699543238 ], [ 5295566.402234448119998, 7866214.439021781086922 ], [ 5295486.626775131560862, 7866256.105975752696395 ], [ 5295406.65516559407115, 7866285.67315617762506 ], [ 5295334.672111478634179, 7866335.292655024677515 ], [ 5295247.439643905498087, 7866389.203765921294689 ], [ 5295159.67399494163692, 7866410.81637173332274 ], [ 5295113.805354096926749, 7866413.575189001858234 ], [ 5295067.83159186784178, 7866416.335588943213224 ], [ 5294990.901906866580248, 7866397.397225875407457 ], [ 5294925.797247282229364, 7866398.449390793219209 ], [ 5294864.84441576525569, 7866419.616146652027965 ], [ 5294796.424675811082125, 7866453.027933424338698 ], [ 5294720.548171372152865, 7866498.673392936587334 ], [ 5294595.076200041919947, 7866557.243648656643927 ], [ 5294491.994244723580778, 7866579.088932000100613 ], [ 5294411.759302563965321, 7866592.507887415587902 ], [ 5294362.163758904673159, 7866605.421300141140819 ], [ 5294305.426160997711122, 7866650.756125757470727 ], [ 5294248.958914335817099, 7866712.234023766592145 ], [ 5294196.642724609933794, 7866793.84873466193676 ], [ 5294144.586031519807875, 7866891.606671443209052 ], [ 5294115.571272258646786, 7866993.027306718751788 ], [ 5294086.777488920837641, 7867068.366477339528501 ], [ 5294017.677420939318836, 7867099.602412351407111 ], [ 5293972.111742199398577, 7867124.563095647841692 ], [ 5293922.189526714384556, 7867117.287498420104384 ], [ 5293863.955133890733123, 7867069.771038667298853 ], [ 5293813.058799802325666, 7867001.932464255020022 ], [ 5293766.324315126985312, 7866954.230702127330005 ], [ 5293742.177810077555478, 7866881.927422082051635 ], [ 5293753.297688582912087, 7866790.836603913456202 ], [ 5293741.825436195358634, 7866744.983424115926027 ], [ 5293706.132607160136104, 7866696.062153041362762 ], [ 5293658.305259064771235, 7866669.257751249708235 ], [ 5293619.353644421324134, 7866629.49881178420037 ], [ 5293606.059074839577079, 7866578.83175596781075 ], [ 5293578.648997183889151, 7866521.243373669683933 ], [ 5293533.214796701446176, 7866513.772880943492055 ], [ 5293490.956911509856582, 7866506.373116286471486 ], [ 5293441.296183842234313, 7866515.250909449532628 ], [ 5293399.427719659171999, 7866532.082615207880735 ], [ 5293353.797788763418794, 7866552.997699436731637 ], [ 5293268.619622721336782, 7866602.34359372779727 ], [ 5293202.155652571469545, 7866652.352620037272573 ], [ 5293149.18687422759831, 7866693.588773552328348 ], [ 5293081.152796130627394, 7866745.384623156860471 ], [ 5293013.440063619054854, 7866829.026666986756027 ], [ 5292930.283537761308253, 7866899.018491538241506 ], [ 5292839.255932097323239, 7866976.50607849471271 ], [ 5292788.35536034591496, 7867031.439170640893281 ], [ 5292750.446074591949582, 7867090.075946137309074 ], [ 5292740.857578971423209, 7867157.002758936025202 ], [ 5292734.533709459938109, 7867217.704166139476001 ], [ 5292712.591165008954704, 7867289.239895915612578 ], [ 5292683.979503570124507, 7867306.788011035881937 ], [ 5292607.760072624310851, 7867332.236282339319587 ], [ 5292554.011736042797565, 7867325.018272770568728 ], [ 5292496.243348063901067, 7867305.751181812956929 ], [ 5292412.112894981168211, 7867315.177928077988327 ], [ 5292332.196162078529596, 7867348.763437375426292 ], [ 5292248.388245002366602, 7867378.365676635876298 ], [ 5292183.205059946514666, 7867375.374747761525214 ], [ 5292136.92597390897572, 7867355.922709102742374 ], [ 5292105.768521935679018, 7867324.115375000983477 ], [ 5292017.413909011520445, 7867309.381282221525908 ], [ 5291950.787574611604214, 7867308.174781560897827 ], [ 5291898.62246079929173, 7867307.235578185878694 ], [ 5291783.850851063616574, 7867317.1492122663185 ], [ 5291726.6532515687868, 7867334.221539941616356 ], [ 5291665.371420288458467, 7867335.200529119931161 ], [ 5291626.56249852757901, 7867303.514727583155036 ], [ 5291583.594761705026031, 7867251.702850888483226 ], [ 5291563.798454143106937, 7867211.634133470244706 ], [ 5291551.342932623811066, 7867151.266843936406076 ], [ 5291535.501826722174883, 7867119.214141875505447 ], [ 5291500.584022968076169, 7867091.500081794336438 ], [ 5291462.602923722937703, 7867112.298877181485295 ], [ 5291393.852289599366486, 7867125.509521747007966 ], [ 5291343.748539260588586, 7867106.116736397147179 ], [ 5291324.081708294339478, 7867074.12496011890471 ], [ 5291311.884501871652901, 7867029.900767725892365 ], [ 5291314.680225230753422, 7866965.244945771060884 ], [ 5291328.964647317305207, 7866900.405775456689298 ], [ 5291354.554938999004662, 7866823.272906936705112 ], [ 5291349.956002208404243, 7866774.893416734412313 ], [ 5291341.649207296781242, 7866734.641200521960855 ], [ 5291317.899083223193884, 7866686.567368981428444 ], [ 5291271.354374702088535, 7866650.959418335929513 ], [ 5291213.525094006210566, 7866627.655713953077793 ], [ 5291178.920023919083178, 7866620.128622082062066 ], [ 5291102.004320736043155, 7866601.17419233545661 ], [ 5291006.130516608245671, 7866594.623842015862465 ], [ 5290929.075720089487731, 7866567.580712667666376 ], [ 5290871.311388937756419, 7866548.309026738628745 ], [ 5290817.823376838117838, 7866557.240501496940851 ], [ 5290768.418405746109784, 7866582.253965482115746 ], [ 5290707.139101347886026, 7866583.230076087638736 ], [ 5290645.410048083402216, 7866555.952802874147892 ], [ 5290556.353462812490761, 7866496.793897508643568 ], [ 5290459.838299444876611, 7866449.877567406743765 ], [ 5290387.263580383732915, 7866463.145565491169691 ], [ 5290299.18172412365675, 7866464.546794805675745 ], [ 5290260.687249680049717, 7866453.045920012518764 ], [ 5290210.896854100748897, 7866453.837710401043296 ], [ 5290164.62211842648685, 7866434.38125654309988 ], [ 5290137.423796929419041, 7866410.587435135617852 ], [ 5290121.467774571850896, 7866370.456670098006725 ], [ 5290105.308857983909547, 7866318.21601670794189 ], [ 5290081.434028402902186, 7866262.064001694321632 ], [ 5290053.979367073625326, 7866222.115985764190555 ], [ 5290015.111268027685583, 7866186.394425832666457 ], [ 5289965.257539386861026, 7866183.152655936777592 ], [ 5289907.997829157859087, 7866196.175505185499787 ], [ 5289847.168414819985628, 7866225.40194736700505 ], [ 5289828.615635798312724, 7866301.777407931163907 ], [ 5289810.426047713495791, 7866362.631672919727862 ], [ 5289792.749128790572286, 7866455.794071044772863 ], [ 5289763.070671042427421, 7866516.830652358010411 ], [ 5289717.949427824467421, 7866570.044294869527221 ], [ 5289641.921411104500294, 7866607.590125167742372 ], [ 5289565.519482434727252, 7866620.915421373210847 ], [ 5289446.841221665032208, 7866587.112543035298586 ], [ 5289405.240926576778293, 7866563.379894493147731 ], [ 5289343.193856384605169, 7866515.900410402566195 ], [ 5289323.53120244666934, 7866483.918089926242828 ], [ 5289296.103087075054646, 7866415.697600468993187 ], [ 5289291.115228353999555, 7866343.098493114113808 ], [ 5289273.835755209438503, 7866219.327449446544051 ], [ 5289237.520070651546121, 7866190.656717416830361 ], [ 5289165.903643759898841, 7866097.813283244147897 ], [ 5289114.963366142474115, 7866025.942359045147896 ], [ 5289094.789793778210878, 7865961.651856869459152 ], [ 5289089.68497069645673, 7865880.964525919407606 ], [ 5289061.721598245203495, 7865808.729485862888396 ], [ 5289024.071794693358243, 7865774.084070328623056 ], [ 5288970.063239369541407, 7865750.702481385320425 ], [ 5288927.873107137158513, 7865747.33670418895781 ], [ 5288842.364907123148441, 7865794.881840150803328 ], [ 5288785.616740538738668, 7865840.198143755085766 ], [ 5288751.982801457867026, 7865893.227455953136086 ], [ 5288741.649267521686852, 7865995.636520210653543 ], [ 5288696.293930367566645, 7866072.689205841161311 ], [ 5288652.51919664721936, 7866173.266632662154734 ], [ 5288589.747282478027046, 7866273.257718298584223 ], [ 5288545.569064895622432, 7866406.256826028227806 ], [ 5288475.383002375252545, 7866445.001838566735387 ], [ 5288388.257840040139854, 7866506.954537531360984 ], [ 5288304.766673773527145, 7866556.725316999480128 ], [ 5288205.899866173043847, 7866598.903274456039071 ], [ 5288186.798988349735737, 7866607.051119087263942 ], [ 5288095.845939828082919, 7866622.417369661852717 ], [ 5288041.581528376787901, 7866629.535278614610434 ], [ 5287834.499650946818292, 7866666.591819826513529 ], [ 5287692.44336939137429, 7866702.25540504977107 ], [ 5287540.129953553900123, 7866773.608951192349195 ], [ 5287406.018790923058987, 7866822.510082403197885 ], [ 5287214.38897858094424, 7866911.712356135249138 ], [ 5287067.932163424789906, 7867040.840357600711286 ], [ 5286843.534261212684214, 7867092.38647186383605 ], [ 5286679.843698139302433, 7867070.322055660188198 ], [ 5286595.876245074905455, 7867081.492421470582485 ], [ 5286474.432350750081241, 7867148.661050633527339 ], [ 5286356.147120251320302, 7867181.302788499742746 ], [ 5286290.427752092480659, 7867251.275153731927276 ], [ 5286229.685971128754318, 7867481.249906384386122 ], [ 5286176.762132444418967, 7867815.760802498087287 ], [ 5286129.8178103081882, 7867979.037084063515067 ], [ 5286107.29350614361465, 7868199.801159382797778 ], [ 5286076.083413871005177, 7868340.655368190258741 ], [ 5286026.704239780083299, 7868506.429308995604515 ], [ 5285985.165294202975929, 7868540.325750280171633 ], [ 5285890.941484527662396, 7868529.488292712718248 ], [ 5285782.843385607004166, 7868422.819416934624314 ], [ 5285599.693830114789307, 7868264.384790576063097 ], [ 5285412.865021111443639, 7868187.259520225226879 ], [ 5285267.731060096994042, 7868164.902482128702104 ], [ 5285125.662805431522429, 7868259.477868337184191 ], [ 5285055.240701620467007, 7868425.576412903144956 ], [ 5284951.709192811511457, 7868531.84962647035718 ], [ 5284871.451506640762091, 7868622.986959222704172 ], [ 5284870.113268814980984, 7868695.661100148223341 ], [ 5284913.83364824950695, 7868800.878542639315128 ], [ 5284938.663347961381078, 7868885.456709606572986 ], [ 5284922.240799777209759, 7868943.582748424261808 ], [ 5284847.482267549261451, 7868990.317212942056358 ], [ 5284755.206917542032897, 7869025.001164238899946 ], [ 5284555.623342419043183, 7869003.474980121478438 ], [ 5284395.602428763173521, 7868978.88191160839051 ], [ 5284254.978473013266921, 7869008.154083404690027 ], [ 5284158.688322473317385, 7869103.238171944394708 ], [ 5284124.952122180722654, 7869241.67671830765903 ], [ 5284115.23510670568794, 7869332.95406486839056 ], [ 5284117.435203542001545, 7869474.535169959999621 ], [ 5284138.627064451575279, 7869564.090855984017253 ], [ 5284147.349948641844094, 7869647.689923625439405 ], [ 5284091.428385599516332, 7869712.601240736432374 ], [ 5283918.316347408108413, 7869801.485400829464197 ], [ 5283837.053615813143551, 7869828.612319995649159 ], [ 5283694.322201299481094, 7869802.502648020163178 ], [ 5283475.069591267034411, 7869709.846609445288777 ], [ 5283321.420078346505761, 7869661.71777705848217 ], [ 5283249.013251689262688, 7869636.033011932857335 ], [ 5283247.015821817331016, 7869636.063962927088141 ], [ 5283233.307145138271153, 7869636.276378596201539 ], [ 5283192.359831557609141, 7869636.910795162431896 ], [ 5283153.016332828439772, 7869669.136624058708549 ], [ 5283100.317363807931542, 7869730.51480851508677 ], [ 5283047.753707190044224, 7869799.980390777811408 ], [ 5283014.406396886333823, 7869873.170969747938216 ], [ 5282999.063556848093867, 7869949.905966527760029 ], [ 5282996.894107481464744, 7870036.000593409873545 ], [ 5283024.882239867001772, 7870168.238349407911301 ], [ 5283055.327083388343453, 7870275.060809978283942 ], [ 5283076.106242791749537, 7870379.716796476393938 ], [ 5283100.150339670479298, 7870447.996177555993199 ], [ 5283154.778067563660443, 7870511.746102532371879 ], [ 5283194.808116087689996, 7870537.323590634390712 ], [ 5283299.667228135280311, 7870593.380226613022387 ], [ 5283345.963329587131739, 7870648.038738008588552 ], [ 5283392.641217972151935, 7870700.851674754172564 ], [ 5283413.228489900939167, 7870771.943780349567533 ], [ 5283451.895101990550756, 7870893.410625770688057 ], [ 5283465.670777814462781, 7870964.663682523183525 ], [ 5283476.982350144535303, 7870993.611360896378756 ], [ 5283485.199514956213534, 7871033.245522374287248 ], [ 5283510.389626783318818, 7871102.736979130655527 ], [ 5283553.7794168908149, 7871182.828670363873243 ], [ 5283570.598973601125181, 7871279.467281406745315 ], [ 5283579.327001902274787, 7871347.983787229284644 ], [ 5283565.311274799518287, 7871432.987914154306054 ], [ 5283531.899704166688025, 7871502.157473405823112 ], [ 5283410.88446625135839, 7871624.203278855420649 ], [ 5283347.010900108143687, 7871705.945434441789985 ], [ 5283275.347169102169573, 7871779.740340555086732 ], [ 5283211.409962131641805, 7871857.449067838490009 ], [ 5283189.322544727474451, 7871937.502021269872785 ], [ 5283158.454799408093095, 7872001.323001245036721 ], [ 5283101.115042788907886, 7872024.938754295930266 ], [ 5283036.78288103081286, 7872034.355904964730144 ], [ 5282983.150105214677751, 7872035.18526195269078 ], [ 5282915.022614321671426, 7872019.505104869604111 ], [ 5282876.33479664567858, 7871995.878444094210863 ], [ 5282802.921870594844222, 7871956.642266305163503 ], [ 5282733.710255153477192, 7871941.554502360522747 ], [ 5282595.778809680603445, 7871942.532426673918962 ], [ 5282587.007984760217369, 7871942.534880963154137 ], [ 5282526.791592243127525, 7871944.694669564254582 ], [ 5282403.289909151382744, 7871953.914789179340005 ], [ 5282283.920073593966663, 7871956.244010334834456 ], [ 5282174.629195023328066, 7871966.34044976811856 ], [ 5282029.423650466836989, 7871992.80325904302299 ], [ 5281910.60410790797323, 7871990.58913548104465 ], [ 5281845.293071690015495, 7871979.482829255983233 ], [ 5281661.276706786826253, 7871974.248426781967282 ], [ 5281557.528192009776831, 7871955.654159991070628 ], [ 5281457.731205855496228, 7871945.07706193625927 ], [ 5281346.00805861223489, 7871906.413613009266555 ], [ 5281257.217696906998754, 7871863.363400662317872 ], [ 5281153.098264385014772, 7871820.548339341767132 ], [ 5281022.219955030828714, 7871782.177411997690797 ], [ 5280864.77934202272445, 7871760.370274862274528 ], [ 5280734.284029206261039, 7871746.215843889862299 ], [ 5280649.993264308199286, 7871747.508818751201034 ], [ 5280557.811400002799928, 7871732.776589280925691 ], [ 5280388.683856130577624, 7871699.02150503359735 ], [ 5280269.186825072392821, 7871652.403809810057282 ], [ 5280168.959705612622201, 7871613.557708662934601 ], [ 5280092.159413226880133, 7871602.621428165584803 ], [ 5280003.733438048511744, 7871583.78434238024056 ], [ 5279950.225516812875867, 7871592.681511907838285 ], [ 5279893.199158733710647, 7871621.822806396521628 ], [ 5279817.561043231748044, 7871687.584693990647793 ], [ 5279734.638265235349536, 7871777.681645227596164 ], [ 5279643.926468337886035, 7871859.818741220980883 ], [ 5279579.78878934495151, 7871925.403626477345824 ], [ 5279519.785974009893835, 7872011.115463731810451 ], [ 5279486.850695946253836, 7872112.559353528544307 ], [ 5279480.664800413884223, 7872209.561038799583912 ], [ 5279455.506477247923613, 7872318.964390369132161 ], [ 5279418.126887005753815, 7872380.106175890192389 ], [ 5279357.50558063481003, 7872425.44583520386368 ], [ 5279308.43773312587291, 7872474.642604963853955 ], [ 5279259.061931570991874, 7872503.664635736495256 ], [ 5279194.243266539648175, 7872524.843695978634059 ], [ 5279121.328613180667162, 7872517.877280110493302 ], [ 5279020.976510892622173, 7872470.948194299824536 ], [ 5278936.078098311088979, 7872431.872564239427447 ], [ 5278805.077532289549708, 7872385.409447012469172 ], [ 5278682.111360525712371, 7872363.058125831186771 ], [ 5278601.543117258697748, 7872356.206290217116475 ], [ 5278524.546102310530841, 7872333.154227459803224 ], [ 5278458.683631103485823, 7872285.708638248965144 ], [ 5278408.324764945544302, 7872250.127873228862882 ], [ 5278318.926271509379148, 7872166.693055293522775 ], [ 5278214.321576341055334, 7872091.567370275966823 ], [ 5278129.610537696629763, 7872064.597533137537539 ], [ 5278056.564973988570273, 7872049.55090949870646 ], [ 5277952.391080349683762, 7872002.685858539305627 ], [ 5277824.55976190418005, 7871911.754507265053689 ], [ 5277727.929431742988527, 7871856.69557536393404 ], [ 5277627.523204997181892, 7871805.727090856060386 ], [ 5277523.657779060304165, 7871779.045360155403614 ], [ 5277450.624365163035691, 7871763.996368599124253 ], [ 5277365.610065432265401, 7871716.83789749443531 ], [ 5277269.104265338741243, 7871669.84214898571372 ], [ 5277210.962448101490736, 7871626.309424450621009 ], [ 5277172.293434714898467, 7871602.671618808060884 ], [ 5277129.97029182035476, 7871591.200899042189121 ], [ 5277049.640074074268341, 7871600.495659220963717 ], [ 5276973.258898834697902, 7871617.79741794615984 ], [ 5276885.518538417294621, 7871643.348952831700444 ], [ 5276823.298744458705187, 7871664.569034427404404 ], [ 5276786.397795954719186, 7871677.150397827848792 ], [ 5276668.069768290035427, 7871707.208124161697924 ], [ 5276630.122837169095874, 7871732.005369447171688 ], [ 5276604.105202443897724, 7871784.890346860513091 ], [ 5276597.660371913574636, 7871865.736487013287842 ], [ 5276606.484246155247092, 7871942.329352274537086 ], [ 5276634.576138311065733, 7872026.687005274929106 ], [ 5276654.831061821430922, 7872099.062438286840916 ], [ 5276690.039179619401693, 7872146.977213269099593 ], [ 5276751.58133353292942, 7872162.203115016222 ], [ 5276832.21941133402288, 7872173.095352409407496 ], [ 5276920.583477150648832, 7872187.903919559903443 ], [ 5276994.045640819706023, 7872231.216918198391795 ], [ 5277033.143081940710545, 7872283.105897495523095 ], [ 5277060.881441618315876, 7872343.256067974492908 ], [ 5277085.08749823179096, 7872423.638620620593429 ], [ 5277089.6478774221614, 7872472.027833297848701 ], [ 5277075.672145752236247, 7872561.066557781770825 ], [ 5277050.987285707145929, 7872702.75910559669137 ], [ 5277035.636540250852704, 7872903.949467833153903 ], [ 5277007.326840222813189, 7872965.291288871318102 ], [ 5276973.479290209710598, 7872999.833767950534821 ], [ 5276936.803481034934521, 7873007.314287367276847 ], [ 5276871.736213644966483, 7873012.331872778013349 ], [ 5276776.252038091421127, 7873033.965427681803703 ], [ 5276685.174886944703758, 7873057.027822341769934 ], [ 5276590.547006854787469, 7873098.482732200063765 ], [ 5276509.449220700189471, 7873144.475529326125979 ], [ 5276486.313279141671956, 7873178.046248832717538 ], [ 5276480.043075687251985, 7873212.060400478541851 ], [ 5276484.418791742064059, 7873248.329507546499372 ], [ 5276496.459866867400706, 7873284.482878112234175 ], [ 5276573.024059980176389, 7873374.236702527850866 ], [ 5276601.530937292613089, 7873419.837395736947656 ], [ 5276620.361302411183715, 7873470.271561812609434 ], [ 5276613.337371340021491, 7873512.87398868240416 ], [ 5276606.136833659373224, 7873556.321243366226554 ], [ 5276570.736422903835773, 7873614.234194306656718 ], [ 5276525.823626176454127, 7873692.070552231743932 ], [ 5276494.920100759714842, 7873755.987868066877127 ], [ 5276481.08928657323122, 7873789.429065648466349 ], [ 5276487.91860613040626, 7873857.962739611044526 ], [ 5276492.712366088293493, 7873935.879642806947231 ], [ 5276516.730522208847106, 7873989.271857554093003 ], [ 5276542.149105489253998, 7874026.730356324464083 ], [ 5276570.81609411444515, 7874054.321873312816024 ], [ 5276588.237359933555126, 7874098.483282515779138 ], [ 5276563.196459170430899, 7874151.574454865418375 ], [ 5276521.294349078088999, 7874168.352215360850096 ], [ 5276479.270486595109105, 7874177.064619725570083 ], [ 5276402.522953995503485, 7874170.144498321227729 ], [ 5276303.143614419735968, 7874187.799874301999807 ], [ 5276248.869035958312452, 7874202.968411687761545 ], [ 5276211.551382987760007, 7874213.404357600957155 ], [ 5276170.196386923082173, 7874266.519131797365844 ], [ 5276144.587833553552628, 7874347.653346620500088 ], [ 5276126.594593897461891, 7874424.639194593764842 ], [ 5276116.489308457821608, 7874517.662422572262585 ], [ 5276105.907754668965936, 7874578.380231343209743 ], [ 5276083.650267656892538, 7874627.173345443792641 ], [ 5276042.172168040648103, 7874672.211343290284276 ], [ 5275973.928980839438736, 7874721.685828665271401 ], [ 5275909.584515053778887, 7874775.14591446146369 ], [ 5275845.421853895299137, 7874840.714627697132528 ], [ 5275784.843642169609666, 7874890.083954107947648 ], [ 5275747.07041587587446, 7874926.987222416326404 ], [ 5275682.178078944794834, 7874944.108586535789073 ], [ 5275628.476146785542369, 7874940.88276756182313 ], [ 5275578.602000489830971, 7874937.599239503964782 ], [ 5275520.758311578072608, 7874914.234590294770896 ], [ 5275443.523125060833991, 7874875.027194018475711 ], [ 5275365.924323935061693, 7874811.590699505060911 ], [ 5275261.257864644750953, 7874732.404357735067606 ], [ 5275172.459081006236374, 7874689.325108340010047 ], [ 5275137.857064320705831, 7874681.77765872515738 ], [ 5275084.337557925842702, 7874690.648127447813749 ], [ 5275000.214881251566112, 7874704.022282563149929 ], [ 5274935.020133664831519, 7874700.967016892507672 ], [ 5274819.951919127255678, 7874694.61495765671134 ], [ 5274723.862080563791096, 7874675.877222003415227 ], [ 5274600.946787083521485, 7874657.529931979253888 ], [ 5274462.408190853893757, 7874619.226301921531558 ], [ 5274308.598898063413799, 7874585.194868401624262 ], [ 5274201.17153756506741, 7874553.781429559923708 ], [ 5274066.658646127209067, 7874552.469513970427215 ], [ 5274001.645647490397096, 7874561.51979692466557 ], [ 5273898.675521895289421, 7874595.360182132571936 ], [ 5273772.838405123911798, 7874637.619586769491434 ], [ 5273681.481485202908516, 7874679.352043448016047 ], [ 5273605.576759591698647, 7874728.942354050464928 ], [ 5273568.341871988028288, 7874802.177943618968129 ], [ 5273538.772497169673443, 7874875.287919169291854 ], [ 5273509.564302151091397, 7874972.626356018707156 ], [ 5273489.182967852801085, 7875019.359480085782707 ], [ 5273468.801677010953426, 7875066.103645051829517 ], [ 5273424.812601875513792, 7875199.996604959480464 ], [ 5273411.590820061042905, 7875230.311695323325694 ], [ 5273384.038183430209756, 7875293.462648201733828 ], [ 5273339.325714599341154, 7875378.920370020903647 ], [ 5273309.315521895885468, 7875416.954176999628544 ], [ 5273294.191585603170097, 7875436.116878199391067 ], [ 5273218.512363370507956, 7875501.846443134360015 ], [ 5273093.208165190182626, 7875580.426284184679389 ], [ 5272972.151410894468427, 7875687.209127888083458 ], [ 5272926.901422007009387, 7875721.91206019744277 ], [ 5272907.734372272156179, 7875736.613547118380666 ], [ 5272812.722031434066594, 7875790.517453534528613 ], [ 5272709.982732814736664, 7875840.502294008620083 ], [ 5272645.13379090745002, 7875861.644863678142428 ], [ 5272587.781865954399109, 7875870.575482053682208 ], [ 5272528.05860332865268, 7875904.683519095182419 ], [ 5272459.533249722793698, 7876009.761702054180205 ], [ 5272403.439483516849577, 7876103.452163183130324 ], [ 5272392.384874740615487, 7876116.248479004949331 ], [ 5272290.390385866165161, 7876234.333086835220456 ], [ 5272249.631507199257612, 7876313.844459272921085 ], [ 5272231.545063433237374, 7876400.742477536201477 ], [ 5272251.83402687124908, 7876477.153567769564688 ], [ 5272279.26127396337688, 7876517.124805433675647 ], [ 5272360.154910531826317, 7876544.190884729847312 ], [ 5272467.566652095876634, 7876550.66245342604816 ], [ 5272643.718261959962547, 7876539.978111205622554 ], [ 5272758.976828399114311, 7876558.442690255120397 ], [ 5272828.496619230136275, 7876593.753885000944138 ], [ 5272897.756123679690063, 7876639.130121414549649 ], [ 5272905.457432224415243, 7876644.168132141232491 ], [ 5272933.126399166882038, 7876700.279800049960613 ], [ 5272937.975359785370529, 7876768.853424616158009 ], [ 5272927.320896998047829, 7876825.535274932160974 ], [ 5272897.324384559877217, 7876870.393492369912565 ], [ 5272855.832658692263067, 7876915.42261029779911 ], [ 5272715.637937188148499, 7876995.139369790442288 ], [ 5272590.440419893711805, 7877081.790272239595652 ], [ 5272472.72888845205307, 7877156.217680626548827 ], [ 5272358.604927636682987, 7877214.435168759897351 ], [ 5272274.59892869181931, 7877235.871104581281543 ], [ 5272194.181448372080922, 7877241.097638735547662 ], [ 5272086.695366885513067, 7877230.580562135204673 ], [ 5271986.468137620948255, 7877191.688282826915383 ], [ 5271882.103735757991672, 7877132.678789960220456 ], [ 5271765.886059637181461, 7877049.610811149701476 ], [ 5271688.819590296596289, 7877022.496355948969722 ], [ 5271650.625414073467255, 7877031.128689100965858 ], [ 5271597.445388899184763, 7877064.216321790590882 ], [ 5271571.343751246109605, 7877113.058670833706856 ], [ 5271564.751779899001122, 7877185.823573717847466 ], [ 5271592.895032778382301, 7877274.230038249865174 ], [ 5271632.403955359011889, 7877354.401482159271836 ], [ 5271660.428147274069488, 7877434.731825191527605 ], [ 5271661.264464741572738, 7877491.242195583879948 ], [ 5271624.074255546554923, 7877568.50450505875051 ], [ 5271563.653896102681756, 7877629.965851940214634 ], [ 5271518.328609194606543, 7877675.047956493683159 ], [ 5271473.171618666499853, 7877732.238633396103978 ], [ 5271443.348798252642155, 7877789.202377829700708 ], [ 5271421.193192575126886, 7877846.063744926825166 ], [ 5271398.798500726930797, 7877886.76186753064394 ], [ 5271364.90817457344383, 7877927.640986353158951 ], [ 5271319.153597559779882, 7877944.47301709651947 ], [ 5271254.186698798090219, 7877957.544403926469386 ], [ 5271139.397942818701267, 7877971.351569063961506 ], [ 5271062.636623403988779, 7877992.164561187848449 ], [ 5271013.411229531280696, 7878005.512295018881559 ], [ 5270898.860149495303631, 7878035.458892278373241 ], [ 5270799.275896882638335, 7878040.972732622176409 ], [ 5270703.64942505210638, 7878054.494360856711864 ], [ 5270607.774257223121822, 7878051.863588138483465 ], [ 5270515.153985538519919, 7878008.817661891691387 ], [ 5270456.535064466297626, 7877932.970373332500458 ], [ 5270432.473583253100514, 7877860.658242018893361 ], [ 5270415.23644423764199, 7877731.712266511283815 ], [ 5270390.521115063689649, 7877614.987582547590137 ], [ 5270353.25952470023185, 7877484.209150211885571 ], [ 5270307.367307283915579, 7877434.523841995745897 ], [ 5270237.800882286392152, 7877395.181820483878255 ], [ 5270172.349434924311936, 7877375.956756270490587 ], [ 5270057.266694600693882, 7877369.573072301223874 ], [ 5269995.998355765827, 7877395.849210815504193 ], [ 5269946.962159846909344, 7877427.718159809708595 ], [ 5269866.969322252087295, 7877461.194617117755115 ], [ 5269790.26007497869432, 7877458.289239866659045 ], [ 5269690.274037129245698, 7877435.536879372783005 ], [ 5269574.835481664165854, 7877404.933305956423283 ], [ 5269486.45324123557657, 7877390.076072739437222 ], [ 5269405.916096221655607, 7877387.225360158830881 ], [ 5269325.85264805238694, 7877416.65600264724344 ], [ 5269280.404246640391648, 7877453.667116956785321 ], [ 5269208.777025603689253, 7877535.46179024875164 ], [ 5269125.476109999231994, 7877605.316291244700551 ], [ 5269053.315290675498545, 7877650.796112313866615 ], [ 5268958.340254057198763, 7877708.709857649169862 ], [ 5268920.783451997675002, 7877761.74849564768374 ], [ 5268898.501685177907348, 7877810.518858719617128 ], [ 5268898.856377544812858, 7877834.735606748610735 ], [ 5268911.416266266256571, 7877907.228506702929735 ], [ 5268931.466012308374047, 7877967.489615671336651 ], [ 5268943.907749397680163, 7878031.906568099744618 ], [ 5268948.800463016144931, 7878104.511802090331912 ], [ 5268923.458318649791181, 7878205.815224723890424 ], [ 5268890.142449922859669, 7878287.057799873873591 ], [ 5268819.455100070685148, 7878433.435599822551012 ], [ 5268767.457545940764248, 7878547.239814763888717 ], [ 5268700.478477471508086, 7878685.495992503128946 ], [ 5268678.549036549404263, 7878758.493613539263606 ], [ 5268644.414603415876627, 7878783.214910913258791 ], [ 5268598.419197554700077, 7878783.887764536775649 ], [ 5268528.85169530287385, 7878744.528086184524 ], [ 5268462.453529581427574, 7878660.71144000813365 ], [ 5268400.305262804962695, 7878614.993528038263321 ], [ 5268362.139027076773345, 7878687.064514415338635 ], [ 5268304.633689993061125, 7878805.778467150405049 ], [ 5268275.625469814054668, 7878846.57935687713325 ], [ 5268227.3670235266909, 7878890.409314431250095 ], [ 5268173.796279104426503, 7878923.48004487156868 ], [ 5267943.791831994429231, 7879008.023490646854043 ], [ 5267879.163674669340253, 7879046.89448631554842 ], [ 5267835.224023444578052, 7879087.590946331620216 ], [ 5267805.620304550044239, 7879141.05336178932339 ], [ 5267785.035412094555795, 7879214.927231658250093 ], [ 5267765.323438400402665, 7879275.802123220637441 ], [ 5267723.775741741992533, 7879330.535401362925768 ], [ 5267670.158300108276308, 7879377.887629311531782 ], [ 5267518.613826089538634, 7879487.342151284217834 ], [ 5267461.045533650554717, 7879548.114065960049629 ], [ 5267416.953116308897734, 7879615.337786408141255 ], [ 5267388.033132501877844, 7879690.639699138700962 ], [ 5267374.811800351366401, 7879807.286491261795163 ], [ 5267370.271898252889514, 7879914.665626393631101 ], [ 5267379.158081200905144, 7880060.475418942049146 ], [ 5267402.540826937183738, 7880179.426048475317657 ], [ 5267443.653292445465922, 7880295.581255987286568 ], [ 5267475.410589681938291, 7880400.736847816035151 ], [ 5267489.533979104831815, 7880493.56181706674397 ], [ 5267483.530136886052787, 7880585.660327471792698 ], [ 5267457.70571003574878, 7880669.925362095236778 ], [ 5267412.443586035631597, 7880785.719648165628314 ], [ 5267376.914790702052414, 7880923.333362793549895 ], [ 5267370.167049557901919, 7881030.190427400171757 ], [ 5267375.675829330459237, 7881113.822146337479353 ], [ 5267393.584456691518426, 7881182.625335164368153 ], [ 5267436.251659816130996, 7881355.688826944679022 ], [ 5267445.057526713237166, 7881421.477593498304486 ], [ 5267438.346389030106366, 7881489.619473815895617 ], [ 5267411.413646633736789, 7881560.759020125493407 ], [ 5267378.68018002435565, 7881630.974528555758297 ], [ 5267352.239461938850582, 7881707.768804514780641 ], [ 5267348.605077622458339, 7881770.458648919127882 ], [ 5267358.793319691903889, 7881832.925382712855935 ], [ 5267412.401662198826671, 7882055.070838423445821 ], [ 5267414.170273969881237, 7882092.05337374098599 ], [ 5267401.443569309078157, 7882122.088760176673532 ], [ 5267375.462573397904634, 7882148.76002184394747 ], [ 5267240.269846292212605, 7882249.937690814957023 ], [ 5267217.771659209392965, 7882269.389121504500508 ], [ 5267200.542365105822682, 7882295.899694290943444 ], [ 5267147.29020303953439, 7882384.395780676975846 ], [ 5267125.179662466049194, 7882447.242911749519408 ], [ 5267122.179922878742218, 7882490.676866374909878 ], [ 5267129.146956616081297, 7882553.101755177602172 ], [ 5267130.072839799337089, 7882616.888590708374977 ], [ 5267124.772278620861471, 7882669.275569098070264 ], [ 5267076.595095647498965, 7882773.331813025288284 ], [ 5269875.053350456058979, 7889061.120147069916129 ], [ 5270198.646292706020176, 7889392.578456664457917 ], [ 5270863.904851674102247, 7889449.446288136765361 ], [ 5272523.691537500359118, 7888975.933682764880359 ], [ 5272921.729496284388006, 7888869.207408895716071 ], [ 5274394.750793693587184, 7888202.519974407739937 ], [ 5275082.557231550104916, 7888018.220299249514937 ], [ 5276303.35811461135745, 7887973.31727772206068 ], [ 5276398.671725735999644, 7887967.944773709401488 ], [ 5280335.702458436600864, 7888098.255073174834251 ], [ 5280783.069178305566311, 7887999.244677048176527 ], [ 5281157.692921121604741, 7887797.598523760214448 ], [ 5281304.080651145428419, 7887345.860579723492265 ], [ 5281386.040075643919408, 7886618.477765724994242 ], [ 5281673.877350085414946, 7886112.71314984280616 ], [ 5281856.32040139939636, 7885873.645023211836815 ], [ 5281833.387544546276331, 7885447.536004872061312 ], [ 5281914.41825539059937, 7885019.836287440732121 ], [ 5282642.777122631669044, 7884691.710195442661643 ], [ 5283002.753664331510663, 7884611.271382916718721 ], [ 5283446.753856411203742, 7884656.306100545451045 ], [ 5283821.907618350349367, 7884494.931553131900728 ], [ 5284375.074699703603983, 7883812.120600651018322 ], [ 5285100.366877515800297, 7883645.293399488553405 ], [ 5286394.171209283173084, 7883086.365443449467421 ], [ 5287034.651922029443085, 7882747.885284304618835 ], [ 5287208.368548222817481, 7882307.170390682294965 ], [ 5287102.204036962240934, 7881816.067045200616121 ], [ 5287153.214188355021179, 7881227.426382478326559 ], [ 5287333.701504582539201, 7880992.571682998910546 ], [ 5287638.675134970806539, 7880490.551553336903453 ], [ 5287751.628764414228499, 7880304.5997817479074 ], [ 5288565.466123837046325, 7879962.700614465400577 ], [ 5289514.998566279187799, 7879490.723301574587822 ], [ 5289874.813618214800954, 7879421.681231310591102 ], [ 5291391.841589822433889, 7879578.225107875652611 ], [ 5292290.682740573771298, 7879157.387010870501399 ], [ 5292798.645134122110903, 7878430.007936653681099 ], [ 5293572.17046648170799, 7876701.802955271676183 ], [ 5294132.072304521687329, 7875741.697366040199995 ], [ 5294610.074025651440024, 7875468.404250172898173 ], [ 5295594.875294966623187, 7875669.699559606611729 ], [ 5296790.471956254914403, 7875462.099599357694387 ], [ 5297933.072299351915717, 7874880.993960921652615 ], [ 5298645.563936086371541, 7873431.298856609500945 ], [ 5298993.774499932304025, 7873171.481343188323081 ], [ 5299894.74332844093442, 7872855.186285747215152 ], [ 5301177.480014510452747, 7872440.995402310043573 ], [ 5302589.877933394163847, 7872167.495889520272613 ], [ 5304663.606101092882454, 7871981.718526979908347 ], [ 5304602.083394057117403, 7871824.422993049025536 ], [ 5304582.310875094495714, 7871675.188711808994412 ], [ 5304570.022302595898509, 7871488.411327935755253 ], [ 5304587.937087688595057, 7871326.257931187748909 ], [ 5304649.621967663988471, 7871137.606071150861681 ], [ 5304765.193027541041374, 7871000.825748873874545 ], [ 5304911.393122456967831, 7870933.904548680409789 ], [ 5305142.190199323929846, 7870859.652398889884353 ], [ 5305221.926049269735813, 7870814.275344394147396 ], [ 5305232.284698942676187, 7870801.03475053422153 ], [ 5305279.063213175162673, 7870741.244178371503949 ], [ 5305307.911184733733535, 7870660.660298466682434 ], [ 5305274.005996432155371, 7870134.968627285212278 ], [ 5305235.694115301594138, 7870016.35782615095377 ], [ 5305138.414087230339646, 7869790.852858513593674 ], [ 5305116.828017534688115, 7869701.512172752991319 ], [ 5305117.752136444672942, 7869601.842594090849161 ], [ 5305138.337243131361902, 7869522.782087662257254 ], [ 5305203.129026387818158, 7869430.447773029096425 ], [ 5305198.465149328112602, 7869440.201776728034019 ], [ 5305306.93089066632092, 7869336.741167808882892 ], [ 5305345.926369149237871, 7869252.584522038698196 ], [ 5305413.616880521178246, 7868999.64073811005801 ], [ 5305429.511551679112017, 7868970.413137089461088 ], [ 5305454.404399883933365, 7868949.824585258960724 ], [ 5305489.544394218362868, 7868935.216223327443004 ], [ 5305530.991062051616609, 7868912.909939145669341 ], [ 5305556.737955490127206, 7868889.32539248932153 ], [ 5305573.115435002371669, 7868856.919568456709385 ], [ 5305634.253193216398358, 7868343.846464090049267 ], [ 5305630.088021922856569, 7868187.201825233176351 ], [ 5305604.388838708400726, 7868009.835978959687054 ], [ 5305543.628018420189619, 7867646.626625983044505 ], [ 5305554.016399066895247, 7867597.584209740161896 ], [ 5305578.486644596792758, 7867556.264359394088387 ], [ 5305681.593514628708363, 7867468.993761369027197 ], [ 5305731.445074590854347, 7867421.385405797511339 ], [ 5305774.943994650617242, 7867334.103276977315545 ], [ 5305788.319550638087094, 7867263.197530564852059 ], [ 5305779.005847490392625, 7867165.959615956991911 ], [ 5305753.45013801753521, 7867070.75602406449616 ], [ 5305762.354779162444174, 7866992.188593734055758 ], [ 5305812.043641731142998, 7866917.382676339708269 ], [ 5305916.083037881180644, 7866784.406603923067451 ], [ 5305951.43196705263108, 7866716.656990952789783 ], [ 5305965.675031965598464, 7866635.494841540232301 ], [ 5305950.861830295063555, 7866421.569213660433888 ], [ 5305947.645420526154339, 7865973.01382240280509 ], [ 5305919.773054654709995, 7865826.165117744356394 ], [ 5305859.474592443555593, 7865642.130456537939608 ], [ 5305777.79787412006408, 7865499.808032494038343 ], [ 5305671.722422066144645, 7865383.309570768848062 ], [ 5305572.506808767095208, 7865282.74521760828793 ], [ 5305530.947766522876918, 7865211.773070383816957 ], [ 5305516.044753128662705, 7865133.560025613754988 ], [ 5305531.720275119878352, 7865063.890317816287279 ], [ 5305591.781408700160682, 7864989.176434596069157 ], [ 5305705.545448225922883, 7864934.089574707672 ], [ 5305834.367968373931944, 7864894.954050099477172 ], [ 5305888.1318130036816, 7864853.585119254887104 ], [ 5305921.638794184662402, 7864794.145425123162568 ], [ 5305926.961685684509575, 7864716.601812653243542 ], [ 5305894.446020958013833, 7864643.9158900603652 ], [ 5305652.681409412063658, 7864414.886657442897558 ], [ 5305541.519137920811772, 7864272.382226807065308 ], [ 5305490.728086431510746, 7864125.873234739527106 ], [ 5305482.22780654206872, 7863978.644505992531776 ], [ 5305519.155677353963256, 7863836.684072219766676 ], [ 5305673.946884143166244, 7863391.232062797062099 ], [ 5305699.508523977361619, 7863217.972040792927146 ], [ 5305681.111390313133597, 7863041.126644164323807 ], [ 5305630.305468442849815, 7862901.845143498852849 ], [ 5305524.876909889280796, 7862739.749064314179122 ], [ 5305469.651418950408697, 7862639.601126093417406 ], [ 5305399.356975199654698, 7862512.106864901259542 ], [ 5305382.323113385587931, 7862442.807814255356789 ] ] ] } }
]
}
